<?xml version='1.0' encoding='utf-8'?>
<gpx xmlns="http://www.topografix.com/GPX/1/1" xmlns:ns2="http://www.topografix.com/GPX/gpx_style/0/2" xmlns:xsi="http://www.w3.org/2001/XMLSchema-instance" version="1.1" creator="GaiaGPS for Android" xsi:schemaLocation="http://www.topografix.com/GPX/1/1 http://www.topografix.com/GPX/1/1/gpx.xsd http://www.topografix.com/GPX/Private/TopoGrafix/0/1 http://www.topografix.com/GPX/Private/TopoGrafix/0/1/topografix.xsd">
<trk>
<name>Axsarsay | Ахсарсай</name>
<desc />
<number>90</number>
<extensions>
<ns2:line>
<ns2:color>FF0000</ns2:color>
</ns2:line>
</extensions>
<trkseg>
<trkpt lat="41.690865" lon="70.189532">
<ele>1519.4</ele>
</trkpt>
<trkpt lat="41.690939" lon="70.189357">
<ele>1506.4</ele>
</trkpt>
<trkpt lat="41.690933" lon="70.189159">
<ele>1502</ele>
</trkpt>
<trkpt lat="41.691006" lon="70.188977">
<ele>1497.8</ele>
</trkpt>
<trkpt lat="41.691143" lon="70.188886">
<ele>1492.7</ele>
</trkpt>
<trkpt lat="41.691196" lon="70.188498">
<ele>1488.9</ele>
</trkpt>
<trkpt lat="41.691294" lon="70.188128">
<ele>1484.4</ele>
</trkpt>
<trkpt lat="41.691412" lon="70.188013">
<ele>1481.8</ele>
</trkpt>
<trkpt lat="41.6914" lon="70.18781">
<ele>1483.2</ele>
</trkpt>
<trkpt lat="41.691533" lon="70.187436">
<ele>1477.7</ele>
</trkpt>
<trkpt lat="41.691538" lon="70.187227">
<ele>1474.3</ele>
</trkpt>
<trkpt lat="41.691616" lon="70.186808">
<ele>1469.6</ele>
</trkpt>
<trkpt lat="41.691626" lon="70.186581">
<ele>1467.5</ele>
</trkpt>
<trkpt lat="41.691689" lon="70.186371">
<ele>1465.3</ele>
</trkpt>
<trkpt lat="41.691826" lon="70.185739">
<ele>1458</ele>
</trkpt>
<trkpt lat="41.691896" lon="70.185532">
<ele>1456.2</ele>
</trkpt>
<trkpt lat="41.691989" lon="70.185121">
<ele>1450.9</ele>
</trkpt>
<trkpt lat="41.692069" lon="70.1845">
<ele>1444.6</ele>
</trkpt>
<trkpt lat="41.692237" lon="70.183933">
<ele>1436.7</ele>
</trkpt>
<trkpt lat="41.692334" lon="70.183337">
<ele>1430.1</ele>
</trkpt>
<trkpt lat="41.692412" lon="70.183168">
<ele>1427.5</ele>
</trkpt>
<trkpt lat="41.692484" lon="70.182791">
<ele>1424.8</ele>
</trkpt>
<trkpt lat="41.692579" lon="70.182622">
<ele>1422.7</ele>
</trkpt>
<trkpt lat="41.69261" lon="70.182433">
<ele>1422.3</ele>
</trkpt>
<trkpt lat="41.692753" lon="70.182336">
<ele>1420.6</ele>
</trkpt>
<trkpt lat="41.692952" lon="70.182041">
<ele>1417.3</ele>
</trkpt>
<trkpt lat="41.693436" lon="70.181551">
<ele>1408</ele>
</trkpt>
<trkpt lat="41.693799" lon="70.181152">
<ele>1402.7</ele>
</trkpt>
<trkpt lat="41.694222" lon="70.180864">
<ele>1396.2</ele>
</trkpt>
<trkpt lat="41.69437" lon="70.180784">
<ele>1394.2</ele>
</trkpt>
<trkpt lat="41.694668" lon="70.180271">
<ele>1391.2</ele>
</trkpt>
<trkpt lat="41.694999" lon="70.179316">
<ele>1382.3</ele>
</trkpt>
<trkpt lat="41.695231" lon="70.178997">
<ele>1377.7</ele>
</trkpt>
<trkpt lat="41.695357" lon="70.178622">
<ele>1372.9</ele>
</trkpt>
<trkpt lat="41.695568" lon="70.178301">
<ele>1370.2</ele>
</trkpt>
<trkpt lat="41.695656" lon="70.178122">
<ele>1365</ele>
</trkpt>
<trkpt lat="41.695714" lon="70.177904">
<ele>1365.1</ele>
</trkpt>
<trkpt lat="41.695744" lon="70.177703">
<ele>1361</ele>
</trkpt>
<trkpt lat="41.695729" lon="70.177452">
<ele>1357.8</ele>
</trkpt>
<trkpt lat="41.695671" lon="70.177262">
<ele>1359.3</ele>
</trkpt>
<trkpt lat="41.695663" lon="70.177052">
<ele>1353</ele>
</trkpt>
<trkpt lat="41.695697" lon="70.176832">
<ele>1355.3</ele>
</trkpt>
<trkpt lat="41.695866" lon="70.176445">
<ele>1352.6</ele>
</trkpt>
<trkpt lat="41.695931" lon="70.176182">
<ele>1348.2</ele>
</trkpt>
<trkpt lat="41.696008" lon="70.175947">
<ele>1348.5</ele>
</trkpt>
<trkpt lat="41.696276" lon="70.175651">
<ele>1351.1</ele>
</trkpt>
<trkpt lat="41.696367" lon="70.175481">
<ele>1349.4</ele>
</trkpt>
<trkpt lat="41.696434" lon="70.175296">
<ele>1348.9</ele>
</trkpt>
<trkpt lat="41.696781" lon="70.174801">
<ele>1344.5</ele>
</trkpt>
<trkpt lat="41.696858" lon="70.174606">
<ele>1343.3</ele>
</trkpt>
<trkpt lat="41.696875" lon="70.174408">
<ele>1343.1</ele>
</trkpt>
<trkpt lat="41.696941" lon="70.174208">
<ele>1341.5</ele>
</trkpt>
<trkpt lat="41.697057" lon="70.174047">
<ele>1341.9</ele>
</trkpt>
<trkpt lat="41.697077" lon="70.173843">
<ele>1338.4</ele>
</trkpt>
<trkpt lat="41.697119" lon="70.173617">
<ele>1334.8</ele>
</trkpt>
<trkpt lat="41.697181" lon="70.173433">
<ele>1332.6</ele>
</trkpt>
<trkpt lat="41.697219" lon="70.1732">
<ele>1329.1</ele>
</trkpt>
<trkpt lat="41.697454" lon="70.172642">
<ele>1323.9</ele>
</trkpt>
<trkpt lat="41.697806" lon="70.171929">
<ele>1314.4</ele>
</trkpt>
<trkpt lat="41.697926" lon="70.171805">
<ele>1310.2</ele>
</trkpt>
<trkpt lat="41.698026" lon="70.171648">
<ele>1308.4</ele>
</trkpt>
<trkpt lat="41.698201" lon="70.171247">
<ele>1301.7</ele>
</trkpt>
<trkpt lat="41.698311" lon="70.17109">
<ele>1296.7</ele>
</trkpt>
<trkpt lat="41.698563" lon="70.170571">
<ele>1286.1</ele>
</trkpt>
<trkpt lat="41.698826" lon="70.169844">
<ele>1274.6</ele>
</trkpt>
<trkpt lat="41.698911" lon="70.169662">
<ele>1272.1</ele>
</trkpt>
<trkpt lat="41.699107" lon="70.169288">
<ele>1266.2</ele>
</trkpt>
<trkpt lat="41.699331" lon="70.168937">
<ele>1261.1</ele>
</trkpt>
<trkpt lat="41.699521" lon="70.168585">
<ele>1256.5</ele>
</trkpt>
<trkpt lat="41.699786" lon="70.168355">
<ele>1252.3</ele>
</trkpt>
<trkpt lat="41.699864" lon="70.168185">
<ele>1250.1</ele>
</trkpt>
<trkpt lat="41.699931" lon="70.167983">
<ele>1248.6</ele>
</trkpt>
<trkpt lat="41.700067" lon="70.167859">
<ele>1247.7</ele>
</trkpt>
<trkpt lat="41.700121" lon="70.167658">
<ele>1248.8</ele>
</trkpt>
<trkpt lat="41.700132" lon="70.167443">
<ele>1246.9</ele>
</trkpt>
<trkpt lat="41.700261" lon="70.167022">
<ele>1242</ele>
</trkpt>
<trkpt lat="41.700371" lon="70.166559">
<ele>1244.1</ele>
</trkpt>
<trkpt lat="41.70045" lon="70.166379">
<ele>1246.1</ele>
</trkpt>
<trkpt lat="41.700478" lon="70.166159">
<ele>1246.2</ele>
</trkpt>
<trkpt lat="41.700488" lon="70.165731">
<ele>1241.2</ele>
</trkpt>
<trkpt lat="41.700457" lon="70.165522">
<ele>1239.1</ele>
</trkpt>
<trkpt lat="41.70045" lon="70.165321">
<ele>1237.9</ele>
</trkpt>
<trkpt lat="41.700646" lon="70.164947">
<ele>1233.9</ele>
</trkpt>
<trkpt lat="41.701131" lon="70.164122">
<ele>1224</ele>
</trkpt>
<trkpt lat="41.701181" lon="70.163911">
<ele>1219.1</ele>
</trkpt>
<trkpt lat="41.701165" lon="70.163705">
<ele>1216.4</ele>
</trkpt>
<trkpt lat="41.701118" lon="70.163521">
<ele>1213.2</ele>
</trkpt>
<trkpt lat="41.701133" lon="70.163303">
<ele>1211.1</ele>
</trkpt>
<trkpt lat="41.701345" lon="70.162969">
<ele>1207.9</ele>
</trkpt>
<trkpt lat="41.701621" lon="70.162428">
<ele>1201.9</ele>
</trkpt>
<trkpt lat="41.701658" lon="70.162224">
<ele>1199.8</ele>
</trkpt>
<trkpt lat="41.701784" lon="70.16184">
<ele>1197.5</ele>
</trkpt>
<trkpt lat="41.701948" lon="70.16098">
<ele>1189.9</ele>
</trkpt>
<trkpt lat="41.702004" lon="70.160777">
<ele>1188.1</ele>
</trkpt>
<trkpt lat="41.702028" lon="70.160579">
<ele>1188.7</ele>
</trkpt>
<trkpt lat="41.702002" lon="70.160359">
<ele>1188.3</ele>
</trkpt>
<trkpt lat="41.702031" lon="70.16017">
<ele>1185.9</ele>
</trkpt>
<trkpt lat="41.702225" lon="70.159823">
<ele>1185.8</ele>
</trkpt>
<trkpt lat="41.702236" lon="70.159623">
<ele>1183.7</ele>
</trkpt>
<trkpt lat="41.702284" lon="70.159414">
<ele>1182</ele>
</trkpt>
<trkpt lat="41.702426" lon="70.159028">
<ele>1178.3</ele>
</trkpt>
<trkpt lat="41.702448" lon="70.158805">
<ele>1176.1</ele>
</trkpt>
<trkpt lat="41.702385" lon="70.158616">
<ele>1176.8</ele>
</trkpt>
<trkpt lat="41.702348" lon="70.158391">
<ele>1177.1</ele>
</trkpt>
<trkpt lat="41.702401" lon="70.157964">
<ele>1174.3</ele>
</trkpt>
<trkpt lat="41.702533" lon="70.157594">
<ele>1169.9</ele>
</trkpt>
<trkpt lat="41.702899" lon="70.156943">
<ele>1162.7</ele>
</trkpt>
<trkpt lat="41.703009" lon="70.156562">
<ele>1162.4</ele>
</trkpt>
<trkpt lat="41.703094" lon="70.156402">
<ele>1161.8</ele>
</trkpt>
<trkpt lat="41.703163" lon="70.156191">
<ele>1162.1</ele>
</trkpt>
<trkpt lat="41.703145" lon="70.155997">
<ele>1161.1</ele>
</trkpt>
<trkpt lat="41.70303" lon="70.155593">
<ele>1154.7</ele>
</trkpt>
<trkpt lat="41.703013" lon="70.15514">
<ele>1154</ele>
</trkpt>
<trkpt lat="41.702945" lon="70.154931">
<ele>1155.1</ele>
</trkpt>
<trkpt lat="41.702847" lon="70.15475">
<ele>1155.2</ele>
</trkpt>
<trkpt lat="41.702731" lon="70.154373">
<ele>1148.6</ele>
</trkpt>
<trkpt lat="41.702432" lon="70.15379">
<ele>1149.3</ele>
</trkpt>
<trkpt lat="41.702379" lon="70.153578">
<ele>1149.2</ele>
</trkpt>
<trkpt lat="41.702337" lon="70.153363">
<ele>1149.1</ele>
</trkpt>
<trkpt lat="41.702312" lon="70.152934">
<ele>1143.9</ele>
</trkpt>
<trkpt lat="41.702225" lon="70.152263">
<ele>1139</ele>
</trkpt>
<trkpt lat="41.702226" lon="70.151835">
<ele>1137.9</ele>
</trkpt>
<trkpt lat="41.702193" lon="70.151602">
<ele>1134.8</ele>
</trkpt>
<trkpt lat="41.702144" lon="70.151386">
<ele>1133.2</ele>
</trkpt>
<trkpt lat="41.702241" lon="70.150723">
<ele>1131</ele>
</trkpt>
<trkpt lat="41.702175" lon="70.150524">
<ele>1125.6</ele>
</trkpt>
<trkpt lat="41.702159" lon="70.150281">
<ele>1125</ele>
</trkpt>
<trkpt lat="41.701848" lon="70.14952">
<ele>1124.5</ele>
</trkpt>
<trkpt lat="41.701855" lon="70.149309">
<ele>1120.9</ele>
</trkpt>
<trkpt lat="41.701842" lon="70.149115">
<ele>1119.7</ele>
</trkpt>
<trkpt lat="41.701878" lon="70.148897">
<ele>1117.5</ele>
</trkpt>
<trkpt lat="41.701876" lon="70.148503">
<ele>1116.3</ele>
</trkpt>
<trkpt lat="41.701784" lon="70.147855">
<ele>1113.8</ele>
</trkpt>
<trkpt lat="41.701786" lon="70.147606">
<ele>1112.9</ele>
</trkpt>
<trkpt lat="41.701816" lon="70.147361">
<ele>1111.6</ele>
</trkpt>
<trkpt lat="41.70181" lon="70.147122">
<ele>1111.1</ele>
</trkpt>
<trkpt lat="41.701732" lon="70.146689">
<ele>1108</ele>
</trkpt>
<trkpt lat="41.701684" lon="70.146234">
<ele>1105.2</ele>
</trkpt>
<trkpt lat="41.7017" lon="70.145985">
<ele>1102.7</ele>
</trkpt>
<trkpt lat="41.701888" lon="70.145576">
<ele>1101.3</ele>
</trkpt>
<trkpt lat="41.701872" lon="70.145349">
<ele>1101.2</ele>
</trkpt>
<trkpt lat="41.70171" lon="70.144986">
<ele>1096.2</ele>
</trkpt>
<trkpt lat="41.70157" lon="70.144349">
<ele>1096.1</ele>
</trkpt>
<trkpt lat="41.701469" lon="70.143962">
<ele>1094</ele>
</trkpt>
<trkpt lat="41.701443" lon="70.143731">
<ele>1091.5</ele>
</trkpt>
<trkpt lat="41.701414" lon="70.14309">
<ele>1089.2</ele>
</trkpt>
<trkpt lat="41.701425" lon="70.142865">
<ele>1087.6</ele>
</trkpt>
<trkpt lat="41.701402" lon="70.142457">
<ele>1087.4</ele>
</trkpt>
<trkpt lat="41.701441" lon="70.142236">
<ele>1087.5</ele>
</trkpt>
<trkpt lat="41.70144" lon="70.142005">
<ele>1083.6</ele>
</trkpt>
<trkpt lat="41.701604" lon="70.141578">
<ele>1084.4</ele>
</trkpt>
<trkpt lat="41.701717" lon="70.14065">
<ele>1081.7</ele>
</trkpt>
<trkpt lat="41.701702" lon="70.140457">
<ele>1082.8</ele>
</trkpt>
<trkpt lat="41.701552" lon="70.139657">
<ele>1082.2</ele>
</trkpt>
<trkpt lat="41.701457" lon="70.139281">
<ele>1078.4</ele>
</trkpt>
<trkpt lat="41.701372" lon="70.138858">
<ele>1076.6</ele>
</trkpt>
<trkpt lat="41.701307" lon="70.138635">
<ele>1077.7</ele>
</trkpt>
<trkpt lat="41.701093" lon="70.138301">
<ele>1073.7</ele>
</trkpt>
<trkpt lat="41.701037" lon="70.138112">
<ele>1070.1</ele>
</trkpt>
<trkpt lat="41.70101" lon="70.137889">
<ele>1071.6</ele>
</trkpt>
<trkpt lat="41.700931" lon="70.137687">
<ele>1069.5</ele>
</trkpt>
<trkpt lat="41.700888" lon="70.137455">
<ele>1069.3</ele>
</trkpt>
<trkpt lat="41.700988" lon="70.136827">
<ele>1064.6</ele>
</trkpt>
<trkpt lat="41.700962" lon="70.136417">
<ele>1062.4</ele>
</trkpt>
<trkpt lat="41.701029" lon="70.136214">
<ele>1061</ele>
</trkpt>
<trkpt lat="41.701078" lon="70.136">
<ele>1059.5</ele>
</trkpt>
<trkpt lat="41.701086" lon="70.135784">
<ele>1057.4</ele>
</trkpt>
<trkpt lat="41.701145" lon="70.135568">
<ele>1055.7</ele>
</trkpt>
<trkpt lat="41.701275" lon="70.135411">
<ele>1054.3</ele>
</trkpt>
<trkpt lat="41.701368" lon="70.135243">
<ele>1052.3</ele>
</trkpt>
<trkpt lat="41.701436" lon="70.135071">
<ele>1051.5</ele>
</trkpt>
<trkpt lat="41.701638" lon="70.1347">
<ele>1049.7</ele>
</trkpt>
<trkpt lat="41.701892" lon="70.134127">
<ele>1042.4</ele>
</trkpt>
<trkpt lat="41.702166" lon="70.133577">
<ele>1037.8</ele>
</trkpt>
<trkpt lat="41.702224" lon="70.133356">
<ele>1034.9</ele>
</trkpt>
<trkpt lat="41.702307" lon="70.133184">
<ele>1033.2</ele>
</trkpt>
<trkpt lat="41.702568" lon="70.132912">
<ele>1030.9</ele>
</trkpt>
<trkpt lat="41.702635" lon="70.132735">
<ele>1029.7</ele>
</trkpt>
<trkpt lat="41.702733" lon="70.132338">
<ele>1028</ele>
</trkpt>
<trkpt lat="41.702803" lon="70.132157">
<ele>1026.4</ele>
</trkpt>
<trkpt lat="41.7029" lon="70.131991">
<ele>1025.8</ele>
</trkpt>
<trkpt lat="41.703017" lon="70.131869">
<ele>1024.6</ele>
</trkpt>
<trkpt lat="41.703114" lon="70.131682">
<ele>1023.3</ele>
</trkpt>
<trkpt lat="41.703245" lon="70.131276">
<ele>1020.8</ele>
</trkpt>
<trkpt lat="41.703344" lon="70.131096">
<ele>1018.7</ele>
</trkpt>
<trkpt lat="41.70347" lon="70.130966">
<ele>1018.2</ele>
</trkpt>
<trkpt lat="41.703565" lon="70.130778">
<ele>1016.6</ele>
</trkpt>
<trkpt lat="41.703676" lon="70.13062">
<ele>1016.1</ele>
</trkpt>
<trkpt lat="41.703794" lon="70.130488">
<ele>1015.2</ele>
</trkpt>
<trkpt lat="41.703931" lon="70.130392">
<ele>1015.5</ele>
</trkpt>
<trkpt lat="41.704048" lon="70.130235">
<ele>1015</ele>
</trkpt>
<trkpt lat="41.704234" lon="70.129872">
<ele>1012.2</ele>
</trkpt>
<trkpt lat="41.70431" lon="70.129489">
<ele>1011.6</ele>
</trkpt>
<trkpt lat="41.70437" lon="70.129286">
<ele>1010.4</ele>
</trkpt>
<trkpt lat="41.70446" lon="70.129098">
<ele>1007.6</ele>
</trkpt>
<trkpt lat="41.704589" lon="70.128934">
<ele>1006.1</ele>
</trkpt>
<trkpt lat="41.704658" lon="70.128719">
<ele>1006.5</ele>
</trkpt>
<trkpt lat="41.704841" lon="70.127795">
<ele>1002.4</ele>
</trkpt>
<trkpt lat="41.704981" lon="70.127171">
<ele>1000.4</ele>
</trkpt>
<trkpt lat="41.705143" lon="70.12677">
<ele>996</ele>
</trkpt>
<trkpt lat="41.705277" lon="70.126655">
<ele>995.4</ele>
</trkpt>
<trkpt lat="41.70544" lon="70.126601">
<ele>993.5</ele>
</trkpt>
<trkpt lat="41.705579" lon="70.126507">
<ele>991.8</ele>
</trkpt>
<trkpt lat="41.705745" lon="70.126482">
<ele>990.9</ele>
</trkpt>
<trkpt lat="41.705912" lon="70.126432">
<ele>989.7</ele>
</trkpt>
<trkpt lat="41.706058" lon="70.12629">
<ele>988.3</ele>
</trkpt>
<trkpt lat="41.706152" lon="70.126132">
<ele>988.4</ele>
</trkpt>
<trkpt lat="41.706377" lon="70.125866">
<ele>989</ele>
</trkpt>
<trkpt lat="41.706465" lon="70.125661">
<ele>987.5</ele>
</trkpt>
<trkpt lat="41.706576" lon="70.125519">
<ele>986.6</ele>
</trkpt>
<trkpt lat="41.706705" lon="70.12542">
<ele>983.8</ele>
</trkpt>
<trkpt lat="41.706848" lon="70.125367">
<ele>981.9</ele>
</trkpt>
<trkpt lat="41.706954" lon="70.125211">
<ele>981.8</ele>
</trkpt>
<trkpt lat="41.70701" lon="70.12503">
<ele>980.9</ele>
</trkpt>
<trkpt lat="41.707104" lon="70.124855">
<ele>979.8</ele>
</trkpt>
<trkpt lat="41.707296" lon="70.124733">
<ele>979.5</ele>
</trkpt>
<trkpt lat="41.707387" lon="70.124524">
<ele>978.5</ele>
</trkpt>
<trkpt lat="41.707396" lon="70.124292">
<ele>977.1</ele>
</trkpt>
<trkpt lat="41.707452" lon="70.124111">
<ele>976.3</ele>
</trkpt>
<trkpt lat="41.707605" lon="70.123679">
<ele>977.1</ele>
</trkpt>
<trkpt lat="41.707704" lon="70.123468">
<ele>976.1</ele>
</trkpt>
<trkpt lat="41.707826" lon="70.123307">
<ele>976.3</ele>
</trkpt>
<trkpt lat="41.708331" lon="70.122754">
<ele>974.2</ele>
</trkpt>
<trkpt lat="41.708408" lon="70.122581">
<ele>973.7</ele>
</trkpt>
<trkpt lat="41.708503" lon="70.122424">
<ele>973.6</ele>
</trkpt>
<trkpt lat="41.708622" lon="70.122302">
<ele>975</ele>
</trkpt>
<trkpt lat="41.708801" lon="70.121941">
<ele>971.6</ele>
</trkpt>
<trkpt lat="41.708894" lon="70.121511">
<ele>968.4</ele>
</trkpt>
<trkpt lat="41.709" lon="70.121335">
<ele>967.1</ele>
</trkpt>
<trkpt lat="41.709296" lon="70.121186">
<ele>966.3</ele>
</trkpt>
<trkpt lat="41.70941" lon="70.121058">
<ele>964.3</ele>
</trkpt>
<trkpt lat="41.709696" lon="70.120518">
<ele>959.5</ele>
</trkpt>
<trkpt lat="41.70993" lon="70.120262">
<ele>957.2</ele>
</trkpt>
<trkpt lat="41.71006" lon="70.120179">
<ele>957.1</ele>
</trkpt>
<trkpt lat="41.710522" lon="70.119997">
<ele>958</ele>
</trkpt>
<trkpt lat="41.711989" lon="70.117811">
<ele>930.9</ele>
</trkpt>
<trkpt lat="41.712248" lon="70.117624">
<ele>930.2</ele>
</trkpt>
<trkpt lat="41.712539" lon="70.117464">
<ele>929.7</ele>
</trkpt>
<trkpt lat="41.712642" lon="70.117325">
<ele>929.4</ele>
</trkpt>
<trkpt lat="41.712812" lon="70.116976">
<ele>919.6</ele>
</trkpt>
<trkpt lat="41.712908" lon="70.116827">
<ele>922</ele>
</trkpt>
<trkpt lat="41.713154" lon="70.116325">
<ele>911.9</ele>
</trkpt>
<trkpt lat="41.713092" lon="70.116134">
<ele>908.1</ele>
</trkpt>
<trkpt lat="41.713119" lon="70.115924">
<ele>910.6</ele>
</trkpt>
<trkpt lat="41.713224" lon="70.11577">
<ele>915.7</ele>
</trkpt>
<trkpt lat="41.713377" lon="70.115404">
<ele>911</ele>
</trkpt>
<trkpt lat="41.713572" lon="70.115064">
<ele>917.3</ele>
</trkpt>
<trkpt lat="41.713635" lon="70.114882">
<ele>918.4</ele>
</trkpt>
<trkpt lat="41.713789" lon="70.114716">
<ele>919.1</ele>
</trkpt>
<trkpt lat="41.713941" lon="70.114598">
<ele>919</ele>
</trkpt>
<trkpt lat="41.714069" lon="70.114462">
<ele>919.5</ele>
</trkpt>
<trkpt lat="41.71467" lon="70.114058">
<ele>927</ele>
</trkpt>
<trkpt lat="41.714977" lon="70.113882">
<ele>927.6</ele>
</trkpt>
<trkpt lat="41.715412" lon="70.113682">
<ele>932.9</ele>
</trkpt>
<trkpt lat="41.715708" lon="70.113581">
<ele>935.9</ele>
</trkpt>
<trkpt lat="41.715849" lon="70.113483">
<ele>933.8</ele>
</trkpt>
<trkpt lat="41.715842" lon="70.113284">
<ele>938.8</ele>
</trkpt>
<trkpt lat="41.715709" lon="70.113202">
<ele>938.6</ele>
</trkpt>
</trkseg>
</trk>
</gpx>