<?xml version='1.0' encoding='utf-8'?>
<gpx xmlns="http://www.topografix.com/GPX/1/1" xmlns:ns2="https://gurumaps.app/gpx/v3" xmlns:xsi="http://www.w3.org/2001/XMLSchema-instance" version="1.1" creator="com.bodunov.galileo/v5.7.1" xsi:schemaLocation="http://www.topografix.com/GPX/1/1 http://www.topografix.com/GPX/1/1/gpx.xsd https://gurumaps.app/gpx/v3 https://gurumaps.app/gpx/v3/schema.xsd">
 <trk>
  <name>Boritog | Буритау</name>
  <type>TrackStyle_E53935C8</type>
  <extensions>
   <ns2:time>2025-03-29T04:15:57.703Z</ns2:time>
  </extensions>
  <trkseg>
   <trkpt lat="41.5471890968" lon="69.7796278562"><ele>838.007</ele></trkpt>
   <trkpt lat="41.5471425772" lon="69.7798195504"><ele>840.661</ele></trkpt>
   <trkpt lat="41.5470160943" lon="69.7801732667"><ele>843.495</ele></trkpt>
   <trkpt lat="41.5468673993" lon="69.7805080399"><ele>849.277</ele></trkpt>
   <trkpt lat="41.5467764976" lon="69.780665452"><ele>853.977</ele></trkpt>
   <trkpt lat="41.5466670718" lon="69.7808140632"><ele>855.177</ele></trkpt>
   <trkpt lat="41.5465408823" lon="69.7809249557"><ele>856.107</ele></trkpt>
   <trkpt lat="41.5460170972" lon="69.7813014708"><ele>856.981</ele></trkpt>
   <trkpt lat="41.5459009659" lon="69.7814247686"><ele>855.631</ele></trkpt>
   <trkpt lat="41.5458019756" lon="69.7815756429"><ele>858.54</ele></trkpt>
   <trkpt lat="41.5457198749" lon="69.7817477234"><ele>864.83</ele></trkpt>
   <trkpt lat="41.5456616625" lon="69.7819269285"><ele>865.615</ele></trkpt>
   <trkpt lat="41.5455857644" lon="69.7823102329"><ele>869.602</ele></trkpt>
   <trkpt lat="41.5455251633" lon="69.7827058587"><ele>869.368</ele></trkpt>
   <trkpt lat="41.5454772607" lon="69.7828914341"><ele>871.788</ele></trkpt>
   <trkpt lat="41.5453433598" lon="69.7836549416"><ele>877.932</ele></trkpt>
   <trkpt lat="41.5453202676" lon="69.7838471387"><ele>881.104</ele></trkpt>
   <trkpt lat="41.5453090778" lon="69.7842506435"><ele>883.697</ele></trkpt>
   <trkpt lat="41.5453640631" lon="69.7848388854"><ele>887.712</ele></trkpt>
   <trkpt lat="41.5454579823" lon="69.7854302287"><ele>895.093</ele></trkpt>
   <trkpt lat="41.5455059687" lon="69.7856134571"><ele>897.341</ele></trkpt>
   <trkpt lat="41.5456093595" lon="69.7859831829"><ele>901.203</ele></trkpt>
   <trkpt lat="41.5457299751" lon="69.7863378212"><ele>903.264</ele></trkpt>
   <trkpt lat="41.5457759917" lon="69.7865318622"><ele>906.438</ele></trkpt>
   <trkpt lat="41.5458664744" lon="69.7866814792"><ele>905.716</ele></trkpt>
   <trkpt lat="41.5459374691" lon="69.7868583374"><ele>910.578</ele></trkpt>
   <trkpt lat="41.5463419797" lon="69.7881251782"><ele>923.308</ele></trkpt>
   <trkpt lat="41.5464261759" lon="69.7882889606"><ele>924.874</ele></trkpt>
   <trkpt lat="41.5464833824" lon="69.7884728596"><ele>927.195</ele></trkpt>
   <trkpt lat="41.5466629647" lon="69.7887828223"><ele>931.046</ele></trkpt>
   <trkpt lat="41.54709128" lon="69.7893210243"><ele>940.848</ele></trkpt>
   <trkpt lat="41.547435399" lon="69.7897004731"><ele>947.862</ele></trkpt>
   <trkpt lat="41.5474912644" lon="69.7898844559"><ele>949.396</ele></trkpt>
   <trkpt lat="41.547503963" lon="69.7900790837"><ele>951.46</ele></trkpt>
   <trkpt lat="41.547473369" lon="69.7904766373"><ele>957.124</ele></trkpt>
   <trkpt lat="41.5473911845" lon="69.790846866"><ele>960.756</ele></trkpt>
   <trkpt lat="41.5472902663" lon="69.7912130713"><ele>964.424</ele></trkpt>
   <trkpt lat="41.5472197745" lon="69.7915963758"><ele>965.332</ele></trkpt>
   <trkpt lat="41.5471556949" lon="69.7917738207"><ele>965.491</ele></trkpt>
   <trkpt lat="41.5472910626" lon="69.7916965395"><ele>965.956</ele></trkpt>
   <trkpt lat="41.547393699" lon="69.7915595792"><ele>963.747</ele></trkpt>
   <trkpt lat="41.5474650709" lon="69.7913916897"><ele>964.739</ele></trkpt>
   <trkpt lat="41.5473117659" lon="69.7914061904"><ele>964.797</ele></trkpt>
   <trkpt lat="41.5474528753" lon="69.7913682204"><ele>963.035</ele></trkpt>
   <trkpt lat="41.5473125622" lon="69.7914403886"><ele>964.406</ele></trkpt>
   <trkpt lat="41.5471656693" lon="69.7918230224"><ele>964.429</ele></trkpt>
   <trkpt lat="41.5470123643" lon="69.7918678656"><ele>964.662</ele></trkpt>
   <trkpt lat="41.5467064668" lon="69.7916061826"><ele>965.761</ele></trkpt>
   <trkpt lat="41.5464329653" lon="69.7913253888"><ele>966.388</ele></trkpt>
   <trkpt lat="41.546284899" lon="69.7913094632"><ele>966.771</ele></trkpt>
   <trkpt lat="41.5461916922" lon="69.7914904285"><ele>968.013</ele></trkpt>
   <trkpt lat="41.5462305842" lon="69.7916836314"><ele>968.949</ele></trkpt>
   <trkpt lat="41.5463430694" lon="69.7920645889"><ele>972.933</ele></trkpt>
   <trkpt lat="41.5464980927" lon="69.7927802358"><ele>981.312</ele></trkpt>
   <trkpt lat="41.5466006872" lon="69.7937234513"><ele>990.349</ele></trkpt>
   <trkpt lat="41.5465966638" lon="69.7939985454"><ele>993.76</ele></trkpt>
   <trkpt lat="41.5466601987" lon="69.7942169778"><ele>996.739</ele></trkpt>
   <trkpt lat="41.5468826963" lon="69.7945963427"><ele>1002.403</ele></trkpt>
   <trkpt lat="41.5469386874" lon="69.7948201396"><ele>1003.29</ele></trkpt>
   <trkpt lat="41.5469646713" lon="69.7950105764"><ele>1003.7</ele></trkpt>
   <trkpt lat="41.5468723866" lon="69.7946294513"><ele>1004.202</ele></trkpt>
   <trkpt lat="41.5467194587" lon="69.7946452931"><ele>1002.428</ele></trkpt>
   <trkpt lat="41.5468694948" lon="69.7946426947"><ele>1003.34</ele></trkpt>
   <trkpt lat="41.5469112786" lon="69.7948343888"><ele>1002.63</ele></trkpt>
   <trkpt lat="41.5470046949" lon="69.7949949861"><ele>1004.066</ele></trkpt>
   <trkpt lat="41.5468869711" lon="69.795107555"><ele>1003.754</ele></trkpt>
   <trkpt lat="41.5469942594" lon="69.7952564176"><ele>1002.676</ele></trkpt>
   <trkpt lat="41.5470486999" lon="69.7954404842"><ele>1002.548</ele></trkpt>
   <trkpt lat="41.5470890588" lon="69.7956255566"><ele>999.797</ele></trkpt>
   <trkpt lat="41.547108882" lon="69.7958176698"><ele>1000.473</ele></trkpt>
   <trkpt lat="41.5471978978" lon="69.7961931791"><ele>997.105</ele></trkpt>
   <trkpt lat="41.5473889632" lon="69.7965033933"><ele>988.774</ele></trkpt>
   <trkpt lat="41.5475934817" lon="69.7967826784"><ele>979.889</ele></trkpt>
   <trkpt lat="41.5477103673" lon="69.7968971752"><ele>977.516</ele></trkpt>
   <trkpt lat="41.5477978744" lon="69.7970561799"><ele>973.053</ele></trkpt>
   <trkpt lat="41.5478439749" lon="69.797249718"><ele>970.794</ele></trkpt>
   <trkpt lat="41.54791476" lon="69.7974271629"><ele>968.729</ele></trkpt>
   <trkpt lat="41.5479265785" lon="69.7976212878"><ele>967.281</ele></trkpt>
   <trkpt lat="41.5478940986" lon="69.7978094615"><ele>964.764</ele></trkpt>
   <trkpt lat="41.5478411669" lon="69.7980044246"><ele>960.958</ele></trkpt>
   <trkpt lat="41.5478166918" lon="69.7982024889"><ele>957.735</ele></trkpt>
   <trkpt lat="41.547664183" lon="69.7989550162"><ele>955.8</ele></trkpt>
   <trkpt lat="41.5475875724" lon="69.7991219837"><ele>956.746</ele></trkpt>
   <trkpt lat="41.5473185972" lon="69.7992915496"><ele>955.02</ele></trkpt>
   <trkpt lat="41.5472206965" lon="69.7994456928"><ele>954.451</ele></trkpt>
   <trkpt lat="41.5470745581" lon="69.7997902729"><ele>952.791</ele></trkpt>
   <trkpt lat="41.5469843688" lon="69.7999432426"><ele>952.364</ele></trkpt>
   <trkpt lat="41.5468797626" lon="69.8000840586"><ele>952.443</ele></trkpt>
   <trkpt lat="41.5464082806" lon="69.8005440574"><ele>950.622</ele></trkpt>
   <trkpt lat="41.5461267744" lon="69.8006644215"><ele>948.94</ele></trkpt>
   <trkpt lat="41.5459804682" lon="69.8006497532"><ele>947.837</ele></trkpt>
   <trkpt lat="41.5451912701" lon="69.8001171671"><ele>940.158</ele></trkpt>
   <trkpt lat="41.5450508733" lon="69.8000516206"><ele>938.875</ele></trkpt>
   <trkpt lat="41.5449043995" lon="69.800041227"><ele>937.135</ele></trkpt>
   <trkpt lat="41.5447569618" lon="69.8000813764"><ele>934.145</ele></trkpt>
   <trkpt lat="41.5446390704" lon="69.8002004832"><ele>931.08</ele></trkpt>
   <trkpt lat="41.5443511939" lon="69.8006564587"><ele>927.045</ele></trkpt>
   <trkpt lat="41.5442381639" lon="69.8007833607"><ele>925.536</ele></trkpt>
   <trkpt lat="41.5438770715" lon="69.8013996821"><ele>921.694</ele></trkpt>
   <trkpt lat="41.5437351659" lon="69.8013440262"><ele>919.351</ele></trkpt>
   <trkpt lat="41.5437169772" lon="69.801144034"><ele>917.563</ele></trkpt>
   <trkpt lat="41.5437366747" lon="69.8009524237"><ele>915.376</ele></trkpt>
   <trkpt lat="41.5438238884" lon="69.8007993702"><ele>913.339</ele></trkpt>
   <trkpt lat="41.5439673866" lon="69.8008107696"><ele>915.133</ele></trkpt>
   <trkpt lat="41.5438298814" lon="69.8009000368"><ele>912.544</ele></trkpt>
   <trkpt lat="41.5437015964" lon="69.8007942572"><ele>913.115</ele></trkpt>
   <trkpt lat="41.5437845772" lon="69.8006357554"><ele>910.418</ele></trkpt>
   <trkpt lat="41.5435190805" lon="69.8004731465"><ele>909.418</ele></trkpt>
   <trkpt lat="41.5436654704" lon="69.800463172"><ele>915.384</ele></trkpt>
   <trkpt lat="41.5434990896" lon="69.800446073"><ele>913.245</ele></trkpt>
   <trkpt lat="41.5436647998" lon="69.800487731"><ele>913.536</ele></trkpt>
   <trkpt lat="41.5434410869" lon="69.8004495934"><ele>915.607</ele></trkpt>
   <trkpt lat="41.5435744848" lon="69.8005236894"><ele>899.775</ele></trkpt>
   <trkpt lat="41.5436348765" lon="69.8003368568"><ele>909.647</ele></trkpt>
   <trkpt lat="41.543486894" lon="69.8003236972"><ele>908.365</ele></trkpt>
   <trkpt lat="41.5434897857" lon="69.8001225315"><ele>908.198</ele></trkpt>
   <trkpt lat="41.5434499717" lon="69.8003153991"><ele>908.751</ele></trkpt>
   <trkpt lat="41.5435949786" lon="69.8003400419"><ele>911.372</ele></trkpt>
   <trkpt lat="41.5434617902" lon="69.8002577316"><ele>909.306</ele></trkpt>
   <trkpt lat="41.5436068809" lon="69.800337192"><ele>909.607</ele></trkpt>
   <trkpt lat="41.5436116586" lon="69.8005299758"><ele>911.591</ele></trkpt>
   <trkpt lat="41.5437010935" lon="69.8006853763"><ele>918.714</ele></trkpt>
   <trkpt lat="41.5436345831" lon="69.8005074285"><ele>909.759</ele></trkpt>
   <trkpt lat="41.5435070943" lon="69.8004183289"><ele>911.841</ele></trkpt>
   <trkpt lat="41.5435265823" lon="69.8002245393"><ele>911.35</ele></trkpt>
   <trkpt lat="41.5436852936" lon="69.8007879708"><ele>914.519</ele></trkpt>
   <trkpt lat="41.5437183602" lon="69.8011802439"><ele>918.794</ele></trkpt>
   <trkpt lat="41.5437588867" lon="69.801371938"><ele>921.85</ele></trkpt>
   <trkpt lat="41.5438509619" lon="69.8015234828"><ele>924.761</ele></trkpt>
   <trkpt lat="41.5438424962" lon="69.8021266445"><ele>932.623</ele></trkpt>
   <trkpt lat="41.5439281592" lon="69.8027031518"><ele>942.197</ele></trkpt>
   <trkpt lat="41.5439219985" lon="69.8030906472"><ele>949.369</ele></trkpt>
   <trkpt lat="41.5439614773" lon="69.8034769692"><ele>955.772</ele></trkpt>
   <trkpt lat="41.5439969747" lon="69.8036653943"><ele>960.343</ele></trkpt>
   <trkpt lat="41.5440139899" lon="69.8038626205"><ele>962.067</ele></trkpt>
   <trkpt lat="41.5440572825" lon="69.804051381"><ele>965.105</ele></trkpt>
   <trkpt lat="41.5440473918" lon="69.804245422"><ele>966.344</ele></trkpt>
   <trkpt lat="41.5439857848" lon="69.8044200171"><ele>968.884</ele></trkpt>
   <trkpt lat="41.5436746905" lon="69.8048341669"><ele>975.067</ele></trkpt>
   <trkpt lat="41.5437590963" lon="69.8052076645"><ele>975.228</ele></trkpt>
   <trkpt lat="41.5439527601" lon="69.8055010311"><ele>976.867</ele></trkpt>
   <trkpt lat="41.5441677979" lon="69.8057694197"><ele>982.431</ele></trkpt>
   <trkpt lat="41.5442208972" lon="69.8059555817"><ele>985.235</ele></trkpt>
   <trkpt lat="41.5443253776" lon="69.8060903627"><ele>989.625</ele></trkpt>
   <trkpt lat="41.5443878647" lon="69.8062763572"><ele>993.768</ele></trkpt>
   <trkpt lat="41.5444800657" lon="69.8064268962"><ele>996.663</ele></trkpt>
   <trkpt lat="41.5444767967" lon="69.8068205941"><ele>1006.212</ele></trkpt>
   <trkpt lat="41.5445193768" lon="69.8070150543"><ele>1007.105</ele></trkpt>
   <trkpt lat="41.5447692832" lon="69.8075005341"><ele>1010.124</ele></trkpt>
   <trkpt lat="41.5448280823" lon="69.8076853551"><ele>1011.562</ele></trkpt>
   <trkpt lat="41.5448674772" lon="69.8080752812"><ele>1016.11</ele></trkpt>
   <trkpt lat="41.5449386815" lon="69.808455652"><ele>1018.313</ele></trkpt>
   <trkpt lat="41.545110259" lon="69.8087661177"><ele>1020.442</ele></trkpt>
   <trkpt lat="41.5451525877" lon="69.8089553811"><ele>1021.059</ele></trkpt>
   <trkpt lat="41.5451238796" lon="69.8091436386"><ele>1022.513</ele></trkpt>
   <trkpt lat="41.545021369" lon="69.8095032223"><ele>1028.887</ele></trkpt>
   <trkpt lat="41.5450225843" lon="69.8096961737"><ele>1032.666</ele></trkpt>
   <trkpt lat="41.5450024678" lon="69.8098920587"><ele>1037.103</ele></trkpt>
   <trkpt lat="41.5450200698" lon="69.8100882791"><ele>1040.262</ele></trkpt>
   <trkpt lat="41.545010682" lon="69.8102835774"><ele>1043.029</ele></trkpt>
   <trkpt lat="41.5449642882" lon="69.8104695719"><ele>1042.88</ele></trkpt>
   <trkpt lat="41.5449466862" lon="69.8106689773"><ele>1049.782</ele></trkpt>
   <trkpt lat="41.5449772802" lon="69.8108614258"><ele>1052.625</ele></trkpt>
   <trkpt lat="41.5449490751" lon="69.8110504378"><ele>1059.041</ele></trkpt>
   <trkpt lat="41.5449591752" lon="69.8112459876"><ele>1060.503</ele></trkpt>
   <trkpt lat="41.5449917808" lon="69.8116374224"><ele>1066.448</ele></trkpt>
   <trkpt lat="41.5450257695" lon="69.8118259314"><ele>1067.955</ele></trkpt>
   <trkpt lat="41.5450411922" lon="69.8122192942"><ele>1074.444</ele></trkpt>
   <trkpt lat="41.5450797908" lon="69.8126120701"><ele>1080.98</ele></trkpt>
   <trkpt lat="41.5451534678" lon="69.8131878231"><ele>1096.312</ele></trkpt>
   <trkpt lat="41.5451897614" lon="69.8133829538"><ele>1100.994</ele></trkpt>
   <trkpt lat="41.5452451658" lon="69.8135679424"><ele>1103.887</ele></trkpt>
   <trkpt lat="41.5453128916" lon="69.813742286"><ele>1108.562</ele></trkpt>
   <trkpt lat="41.5454619637" lon="69.8137059923"><ele>1106.694</ele></trkpt>
   <trkpt lat="41.5456082698" lon="69.8137054894"><ele>1108.263</ele></trkpt>
   <trkpt lat="41.5457474932" lon="69.8136517614"><ele>1108.529</ele></trkpt>
   <trkpt lat="41.5456071802" lon="69.8137306351"><ele>1106.296</ele></trkpt>
   <trkpt lat="41.5454527855" lon="69.8140682582"><ele>1108.748</ele></trkpt>
   <trkpt lat="41.5453555974" lon="69.8142173722"><ele>1108.814</ele></trkpt>
   <trkpt lat="41.5453825871" lon="69.814406468"><ele>1111.414</ele></trkpt>
   <trkpt lat="41.5455208885" lon="69.8147624474"><ele>1113.384</ele></trkpt>
   <trkpt lat="41.5456306914" lon="69.815136867"><ele>1118.777</ele></trkpt>
   <trkpt lat="41.5457450625" lon="69.8152548842"><ele>1118.575</ele></trkpt>
   <trkpt lat="41.5457984971" lon="69.8156317346"><ele>1122.914</ele></trkpt>
   <trkpt lat="41.5458546978" lon="69.8158124484"><ele>1125.503</ele></trkpt>
   <trkpt lat="41.5458556617" lon="69.8160153743"><ele>1126.069</ele></trkpt>
   <trkpt lat="41.5458273728" lon="69.8164072283"><ele>1131.243</ele></trkpt>
   <trkpt lat="41.5458560808" lon="69.8166001797"><ele>1133.069</ele></trkpt>
   <trkpt lat="41.5458025623" lon="69.8169854958"><ele>1134.856</ele></trkpt>
   <trkpt lat="41.5457512651" lon="69.8171717417"><ele>1137.91</ele></trkpt>
   <trkpt lat="41.5456167775" lon="69.8175138909"><ele>1143.89</ele></trkpt>
   <trkpt lat="41.5454859779" lon="69.8175970394"><ele>1145.862</ele></trkpt>
   <trkpt lat="41.5453331758" lon="69.8176166531"><ele>1146.996</ele></trkpt>
   <trkpt lat="41.5449285813" lon="69.8173911799"><ele>1153.991</ele></trkpt>
   <trkpt lat="41.5447837839" lon="69.8173454985"><ele>1156.682</ele></trkpt>
   <trkpt lat="41.5444827898" lon="69.8173098754"><ele>1161.104</ele></trkpt>
   <trkpt lat="41.5443359807" lon="69.8172689717"><ele>1162.3</ele></trkpt>
   <trkpt lat="41.5441877887" lon="69.8172597516"><ele>1163.815</ele></trkpt>
   <trkpt lat="41.5439274887" lon="69.8170555685"><ele>1163.068</ele></trkpt>
   <trkpt lat="41.5438770715" lon="69.8166659776"><ele>1162.647</ele></trkpt>
   <trkpt lat="41.5440063624" lon="69.8167509701"><ele>1162.364</ele></trkpt>
   <trkpt lat="41.5441273971" lon="69.816633372"><ele>1162.566</ele></trkpt>
   <trkpt lat="41.5442272675" lon="69.8167728469"><ele>1162.46</ele></trkpt>
   <trkpt lat="41.5439609744" lon="69.8169433348"><ele>1162.359</ele></trkpt>
   <trkpt lat="41.5438298814" lon="69.8168441769"><ele>1163.229</ele></trkpt>
   <trkpt lat="41.543896769" lon="69.8170274891"><ele>1162.737</ele></trkpt>
   <trkpt lat="41.5439157959" lon="69.8172275651"><ele>1163.07</ele></trkpt>
   <trkpt lat="41.5438813882" lon="69.8174236178"><ele>1164.88</ele></trkpt>
   <trkpt lat="41.5438223796" lon="69.8176069301"><ele>1165.906</ele></trkpt>
   <trkpt lat="41.543673978" lon="69.8176419664"><ele>1170.388</ele></trkpt>
   <trkpt lat="41.5435518956" lon="69.8177447286"><ele>1177.297</ele></trkpt>
   <trkpt lat="41.5434351776" lon="69.8178606503"><ele>1187.174</ele></trkpt>
   <trkpt lat="41.5433526997" lon="69.8180227563"><ele>1196.005</ele></trkpt>
   <trkpt lat="41.5434265862" lon="69.8181888856"><ele>1201.461</ele></trkpt>
   <trkpt lat="41.543532282" lon="69.8183198947"><ele>1204.173</ele></trkpt>
   <trkpt lat="41.5438151712" lon="69.8187794745"><ele>1209.915</ele></trkpt>
   <trkpt lat="41.5440577854" lon="69.8195077781"><ele>1220.64</ele></trkpt>
   <trkpt lat="41.5440823863" lon="69.8196999751"><ele>1221.986</ele></trkpt>
   <trkpt lat="41.5440164626" lon="69.8198797669"><ele>1224.155</ele></trkpt>
   <trkpt lat="41.5439311767" lon="69.8200380173"><ele>1226.485</ele></trkpt>
   <trkpt lat="41.54364527" lon="69.8207246628"><ele>1231.01</ele></trkpt>
   <trkpt lat="41.5435403705" lon="69.8208622936"><ele>1232.823</ele></trkpt>
   <trkpt lat="41.5433055934" lon="69.8210988309"><ele>1237.095</ele></trkpt>
   <trkpt lat="41.5430957943" lon="69.8213726677"><ele>1242.48</ele></trkpt>
   <trkpt lat="41.5430125621" lon="69.8215328459"><ele>1246.079</ele></trkpt>
   <trkpt lat="41.5429508712" lon="69.8217118833"><ele>1248.396</ele></trkpt>
   <trkpt lat="41.5428945868" lon="69.8220944334"><ele>1253.543</ele></trkpt>
   <trkpt lat="41.5429143681" lon="69.8222952638"><ele>1252.639</ele></trkpt>
   <trkpt lat="41.5430752587" lon="69.8228371538"><ele>1258.169</ele></trkpt>
   <trkpt lat="41.5430928607" lon="69.8230404988"><ele>1255.326</ele></trkpt>
   <trkpt lat="41.5431702676" lon="69.8232054546"><ele>1257.178</ele></trkpt>
   <trkpt lat="41.5432046753" lon="69.8233936284"><ele>1258.777</ele></trkpt>
   <trkpt lat="41.5433232792" lon="69.8237561457"><ele>1263.373</ele></trkpt>
   <trkpt lat="41.5433271768" lon="69.8239513602"><ele>1265.728</ele></trkpt>
   <trkpt lat="41.5432891649" lon="69.8241456527"><ele>1268.045</ele></trkpt>
   <trkpt lat="41.5430108857" lon="69.8240222711"><ele>1272.156</ele></trkpt>
   <trkpt lat="41.5431489775" lon="69.8240981273"><ele>1271.351</ele></trkpt>
   <trkpt lat="41.5430594588" lon="69.8242561262"><ele>1271.507</ele></trkpt>
   <trkpt lat="41.5430141965" lon="69.8240680363"><ele>1270.193</ele></trkpt>
   <trkpt lat="41.5429960916" lon="69.8242666874"><ele>1271.924</ele></trkpt>
   <trkpt lat="41.5428716623" lon="69.8243665997"><ele>1270.835</ele></trkpt>
   <trkpt lat="41.5427708699" lon="69.8245170549"><ele>1267.993</ele></trkpt>
   <trkpt lat="41.5423708855" lon="69.8247561906"><ele>1263.615</ele></trkpt>
   <trkpt lat="41.542254377" lon="69.8248744592"><ele>1260.754</ele></trkpt>
   <trkpt lat="41.5421517825" lon="69.825021394"><ele>1258.223</ele></trkpt>
   <trkpt lat="41.5420312926" lon="69.8251267545"><ele>1256.453</ele></trkpt>
   <trkpt lat="41.5417562824" lon="69.825256674"><ele>1252.65</ele></trkpt>
   <trkpt lat="41.5416404864" lon="69.8253758647"><ele>1250.35</ele></trkpt>
   <trkpt lat="41.541350263" lon="69.8254811414"><ele>1249.572</ele></trkpt>
   <trkpt lat="41.5412059686" lon="69.8254899424"><ele>1247.953</ele></trkpt>
   <trkpt lat="41.5409165833" lon="69.8255687322"><ele>1249.519</ele></trkpt>
   <trkpt lat="41.5407825986" lon="69.8256518807"><ele>1250.028</ele></trkpt>
   <trkpt lat="41.5405559939" lon="69.8259260528"><ele>1253.904</ele></trkpt>
   <trkpt lat="41.5404895673" lon="69.8261098679"><ele>1253.955</ele></trkpt>
   <trkpt lat="41.540392882" lon="69.8262563836"><ele>1254.518</ele></trkpt>
   <trkpt lat="41.5402428879" lon="69.8262556292"><ele>1254.462</ele></trkpt>
   <trkpt lat="41.5400984677" lon="69.8263086867"><ele>1254.764</ele></trkpt>
   <trkpt lat="41.5400384952" lon="69.8264846228"><ele>1255.475</ele></trkpt>
   <trkpt lat="41.5399446598" lon="69.8266403586"><ele>1254.442</ele></trkpt>
   <trkpt lat="41.5397114752" lon="69.826879159"><ele>1256.845</ele></trkpt>
   <trkpt lat="41.5393236865" lon="69.8271648981"><ele>1261.666</ele></trkpt>
   <trkpt lat="41.5389623845" lon="69.8275080532"><ele>1271.589</ele></trkpt>
   <trkpt lat="41.5386376696" lon="69.8279056907"><ele>1279.589</ele></trkpt>
   <trkpt lat="41.5385588797" lon="69.8280672938"><ele>1281.717</ele></trkpt>
   <trkpt lat="41.5384993682" lon="69.8282504384"><ele>1284.782</ele></trkpt>
   <trkpt lat="41.5384150882" lon="69.8284142207"><ele>1285.933</ele></trkpt>
   <trkpt lat="41.5382739788" lon="69.8284605727"><ele>1287.204</ele></trkpt>
   <trkpt lat="41.5381289719" lon="69.8284714691"><ele>1289.512</ele></trkpt>
   <trkpt lat="41.5379829591" lon="69.8284394503"><ele>1292.026</ele></trkpt>
   <trkpt lat="41.5378370721" lon="69.8284504306"><ele>1295.276</ele></trkpt>
   <trkpt lat="41.5377008662" lon="69.828518324"><ele>1298.362</ele></trkpt>
   <trkpt lat="41.5375718687" lon="69.8284234408"><ele>1300.162</ele></trkpt>
  </trkseg>
 </trk>
</gpx>