<?xml version='1.0' encoding='utf-8'?>
<gpx xmlns="http://www.topografix.com/GPX/1/1" xmlns:ns2="http://www.topografix.com/GPX/gpx_style/0/2" xmlns:xsi="http://www.w3.org/2001/XMLSchema-instance" version="1.1" creator="GaiaGPS for Android" xsi:schemaLocation="http://www.topografix.com/GPX/1/1 http://www.topografix.com/GPX/1/1/gpx.xsd http://www.topografix.com/GPX/Private/TopoGrafix/0/1 http://www.topografix.com/GPX/Private/TopoGrafix/0/1/topografix.xsd">
<trk>
<name>Kopirtosh | Капырташ</name>
<desc />
<number>161</number>
<extensions>
<ns2:line>
<ns2:color>FF0000</ns2:color>
</ns2:line>
</extensions>
<trkseg>
<trkpt lat="41.585794" lon="70.112147">
<ele>1044.5</ele>
</trkpt>
<trkpt lat="41.585772" lon="70.112342">
<ele>1041.1</ele>
</trkpt>
<trkpt lat="41.585715" lon="70.112521">
<ele>1041.7</ele>
</trkpt>
<trkpt lat="41.585656" lon="70.112903">
<ele>1045.9</ele>
</trkpt>
<trkpt lat="41.585655" lon="70.113102">
<ele>1048</ele>
</trkpt>
<trkpt lat="41.585713" lon="70.114069">
<ele>1058.8</ele>
</trkpt>
<trkpt lat="41.585671" lon="70.114463">
<ele>1063.3</ele>
</trkpt>
<trkpt lat="41.585595" lon="70.114628">
<ele>1066.9</ele>
</trkpt>
<trkpt lat="41.585539" lon="70.114809">
<ele>1069.2</ele>
</trkpt>
<trkpt lat="41.585536" lon="70.115008">
<ele>1071.5</ele>
</trkpt>
<trkpt lat="41.585716" lon="70.115755">
<ele>1082.7</ele>
</trkpt>
<trkpt lat="41.585771" lon="70.116138">
<ele>1087.6</ele>
</trkpt>
<trkpt lat="41.585892" lon="70.116499">
<ele>1091.9</ele>
</trkpt>
<trkpt lat="41.586078" lon="70.116798">
<ele>1093.5</ele>
</trkpt>
<trkpt lat="41.586119" lon="70.117187">
<ele>1099.3</ele>
</trkpt>
<trkpt lat="41.586187" lon="70.117358">
<ele>1102.9</ele>
</trkpt>
<trkpt lat="41.586295" lon="70.117486">
<ele>1107.5</ele>
</trkpt>
<trkpt lat="41.586362" lon="70.117666">
<ele>1108.2</ele>
</trkpt>
<trkpt lat="41.586525" lon="70.117996">
<ele>1112.7</ele>
</trkpt>
<trkpt lat="41.586791" lon="70.118456">
<ele>1131.1</ele>
</trkpt>
<trkpt lat="41.587047" lon="70.118631">
<ele>1141.1</ele>
</trkpt>
<trkpt lat="41.586989" lon="70.11881">
<ele>1146.9</ele>
</trkpt>
<trkpt lat="41.587049" lon="70.118984">
<ele>1154.6</ele>
</trkpt>
<trkpt lat="41.587091" lon="70.119174">
<ele>1159.7</ele>
</trkpt>
<trkpt lat="41.587172" lon="70.119334">
<ele>1167.4</ele>
</trkpt>
<trkpt lat="41.587234" lon="70.119508">
<ele>1171.2</ele>
</trkpt>
<trkpt lat="41.58751" lon="70.119961">
<ele>1190.1</ele>
</trkpt>
<trkpt lat="41.587773" lon="70.120133">
<ele>1199.3</ele>
</trkpt>
<trkpt lat="41.587915" lon="70.12009">
<ele>1202.7</ele>
</trkpt>
<trkpt lat="41.588031" lon="70.119975">
<ele>1206.4</ele>
</trkpt>
<trkpt lat="41.588288" lon="70.119787">
<ele>1214.3</ele>
</trkpt>
<trkpt lat="41.58839" lon="70.119652">
<ele>1218.8</ele>
</trkpt>
<trkpt lat="41.588669" lon="70.119785">
<ele>1232.4</ele>
</trkpt>
<trkpt lat="41.588813" lon="70.119763">
<ele>1238.7</ele>
</trkpt>
<trkpt lat="41.588907" lon="70.119616">
<ele>1241.4</ele>
</trkpt>
<trkpt lat="41.589039" lon="70.119533">
<ele>1247.4</ele>
</trkpt>
<trkpt lat="41.589096" lon="70.119716">
<ele>1250.6</ele>
</trkpt>
<trkpt lat="41.589181" lon="70.119871">
<ele>1257.9</ele>
</trkpt>
<trkpt lat="41.589274" lon="70.119712">
<ele>1261.5</ele>
</trkpt>
<trkpt lat="41.589414" lon="70.119772">
<ele>1269</ele>
</trkpt>
<trkpt lat="41.589537" lon="70.11988">
<ele>1274.1</ele>
</trkpt>
<trkpt lat="41.589644" lon="70.119747">
<ele>1276.6</ele>
</trkpt>
<trkpt lat="41.58994" lon="70.1197">
<ele>1282.1</ele>
</trkpt>
<trkpt lat="41.590048" lon="70.119836">
<ele>1286.9</ele>
</trkpt>
<trkpt lat="41.59033" lon="70.11993">
<ele>1301.4</ele>
</trkpt>
<trkpt lat="41.590476" lon="70.119912">
<ele>1305.2</ele>
</trkpt>
<trkpt lat="41.590618" lon="70.119959">
<ele>1309.8</ele>
</trkpt>
<trkpt lat="41.590694" lon="70.120127">
<ele>1315.3</ele>
</trkpt>
<trkpt lat="41.590692" lon="70.120322">
<ele>1319.4</ele>
</trkpt>
<trkpt lat="41.59084" lon="70.120333">
<ele>1322.3</ele>
</trkpt>
<trkpt lat="41.591122" lon="70.120229">
<ele>1328.1</ele>
</trkpt>
<trkpt lat="41.591264" lon="70.120268">
<ele>1333.2</ele>
</trkpt>
<trkpt lat="41.591353" lon="70.120426">
<ele>1337.6</ele>
</trkpt>
<trkpt lat="41.591567" lon="70.120697">
<ele>1343.8</ele>
</trkpt>
<trkpt lat="41.59171" lon="70.120726">
<ele>1347.3</ele>
</trkpt>
<trkpt lat="41.591854" lon="70.120719">
<ele>1353.2</ele>
</trkpt>
<trkpt lat="41.592111" lon="70.120915">
<ele>1362.1</ele>
</trkpt>
<trkpt lat="41.592069" lon="70.121105">
<ele>1364.8</ele>
</trkpt>
<trkpt lat="41.592194" lon="70.121209">
<ele>1369.7</ele>
</trkpt>
<trkpt lat="41.592342" lon="70.121206">
<ele>1371.2</ele>
</trkpt>
<trkpt lat="41.592481" lon="70.121278">
<ele>1376.6</ele>
</trkpt>
<trkpt lat="41.592912" lon="70.121423">
<ele>1386.7</ele>
</trkpt>
<trkpt lat="41.593039" lon="70.121518">
<ele>1389.6</ele>
</trkpt>
<trkpt lat="41.593092" lon="70.121699">
<ele>1396.9</ele>
</trkpt>
<trkpt lat="41.593202" lon="70.121831">
<ele>1401.1</ele>
</trkpt>
<trkpt lat="41.593287" lon="70.12199">
<ele>1406.6</ele>
</trkpt>
<trkpt lat="41.593388" lon="70.122135">
<ele>1411.2</ele>
</trkpt>
<trkpt lat="41.593645" lon="70.122318">
<ele>1416.7</ele>
</trkpt>
<trkpt lat="41.593794" lon="70.122293">
<ele>1423.8</ele>
</trkpt>
<trkpt lat="41.593899" lon="70.122434">
<ele>1426.3</ele>
</trkpt>
<trkpt lat="41.593914" lon="70.122633">
<ele>1431.8</ele>
</trkpt>
<trkpt lat="41.594059" lon="70.122627">
<ele>1436.6</ele>
</trkpt>
<trkpt lat="41.594338" lon="70.122502">
<ele>1442.8</ele>
</trkpt>
<trkpt lat="41.594452" lon="70.122371">
<ele>1448.3</ele>
</trkpt>
<trkpt lat="41.594543" lon="70.122221">
<ele>1451.8</ele>
</trkpt>
<trkpt lat="41.594658" lon="70.122095">
<ele>1456.6</ele>
</trkpt>
<trkpt lat="41.59493" lon="70.121961">
<ele>1462.8</ele>
</trkpt>
<trkpt lat="41.595074" lon="70.121935">
<ele>1465</ele>
</trkpt>
<trkpt lat="41.595204" lon="70.122021">
<ele>1472.8</ele>
</trkpt>
<trkpt lat="41.595357" lon="70.121968">
<ele>1473.7</ele>
</trkpt>
<trkpt lat="41.595497" lon="70.12201">
<ele>1481</ele>
</trkpt>
<trkpt lat="41.595624" lon="70.122111">
<ele>1487</ele>
</trkpt>
<trkpt lat="41.595753" lon="70.122022">
<ele>1490.5</ele>
</trkpt>
<trkpt lat="41.596192" lon="70.122008">
<ele>1505.1</ele>
</trkpt>
<trkpt lat="41.596472" lon="70.121902">
<ele>1513.9</ele>
</trkpt>
<trkpt lat="41.596603" lon="70.121985">
<ele>1518.4</ele>
</trkpt>
<trkpt lat="41.596684" lon="70.122152">
<ele>1525.2</ele>
</trkpt>
<trkpt lat="41.596829" lon="70.122188">
<ele>1530.5</ele>
</trkpt>
<trkpt lat="41.596932" lon="70.122333">
<ele>1534.6</ele>
</trkpt>
<trkpt lat="41.597015" lon="70.122493">
<ele>1536.3</ele>
</trkpt>
<trkpt lat="41.597009" lon="70.122688">
<ele>1542.4</ele>
</trkpt>
<trkpt lat="41.597073" lon="70.122868">
<ele>1551.9</ele>
</trkpt>
<trkpt lat="41.597216" lon="70.122891">
<ele>1556.9</ele>
</trkpt>
<trkpt lat="41.59739" lon="70.123207">
<ele>1562</ele>
</trkpt>
<trkpt lat="41.597522" lon="70.123294">
<ele>1557.5</ele>
</trkpt>
<trkpt lat="41.597471" lon="70.123478">
<ele>1562</ele>
</trkpt>
<trkpt lat="41.597488" lon="70.123672">
<ele>1559.4</ele>
</trkpt>
<trkpt lat="41.597451" lon="70.124277">
<ele>1555.6</ele>
</trkpt>
<trkpt lat="41.597404" lon="70.124684">
<ele>1554.3</ele>
</trkpt>
<trkpt lat="41.597414" lon="70.124883">
<ele>1557.3</ele>
</trkpt>
<trkpt lat="41.597367" lon="70.125073">
<ele>1554.5</ele>
</trkpt>
<trkpt lat="41.597402" lon="70.125272">
<ele>1556.8</ele>
</trkpt>
<trkpt lat="41.597414" lon="70.125472">
<ele>1554.1</ele>
</trkpt>
<trkpt lat="41.597522" lon="70.126042">
<ele>1556.7</ele>
</trkpt>
<trkpt lat="41.597525" lon="70.126243">
<ele>1562.8</ele>
</trkpt>
<trkpt lat="41.597458" lon="70.126421">
<ele>1559.9</ele>
</trkpt>
<trkpt lat="41.597454" lon="70.126618">
<ele>1561</ele>
</trkpt>
<trkpt lat="41.597478" lon="70.126816">
<ele>1559.7</ele>
</trkpt>
<trkpt lat="41.597434" lon="70.127005">
<ele>1557.2</ele>
</trkpt>
<trkpt lat="41.597484" lon="70.127418">
<ele>1556.1</ele>
</trkpt>
<trkpt lat="41.597436" lon="70.127606">
<ele>1558.3</ele>
</trkpt>
<trkpt lat="41.597339" lon="70.127761">
<ele>1555</ele>
</trkpt>
<trkpt lat="41.597187" lon="70.128103">
<ele>1552.7</ele>
</trkpt>
<trkpt lat="41.597189" lon="70.128297">
<ele>1553.3</ele>
</trkpt>
<trkpt lat="41.597235" lon="70.128486">
<ele>1552.8</ele>
</trkpt>
<trkpt lat="41.597439" lon="70.128773">
<ele>1556.3</ele>
</trkpt>
<trkpt lat="41.597547" lon="70.129148">
<ele>1552.6</ele>
</trkpt>
<trkpt lat="41.597624" lon="70.129538">
<ele>1550</ele>
</trkpt>
<trkpt lat="41.597762" lon="70.129895">
<ele>1552.2</ele>
</trkpt>
<trkpt lat="41.597645" lon="70.130028">
<ele>1557</ele>
</trkpt>
<trkpt lat="41.597521" lon="70.130134">
<ele>1554.1</ele>
</trkpt>
<trkpt lat="41.597377" lon="70.130151">
<ele>1553.8</ele>
</trkpt>
<trkpt lat="41.597228" lon="70.130195">
<ele>1554.2</ele>
</trkpt>
<trkpt lat="41.596938" lon="70.13032">
<ele>1557</ele>
</trkpt>
<trkpt lat="41.596805" lon="70.130397">
<ele>1553.1</ele>
</trkpt>
<trkpt lat="41.596571" lon="70.130646">
<ele>1553.7</ele>
</trkpt>
<trkpt lat="41.596458" lon="70.130788">
<ele>1552.9</ele>
</trkpt>
<trkpt lat="41.596356" lon="70.131167">
<ele>1557.6</ele>
</trkpt>
<trkpt lat="41.596283" lon="70.131342">
<ele>1556.8</ele>
</trkpt>
<trkpt lat="41.596062" lon="70.131615">
<ele>1552.1</ele>
</trkpt>
<trkpt lat="41.595936" lon="70.131725">
<ele>1555.3</ele>
</trkpt>
<trkpt lat="41.595829" lon="70.131862">
<ele>1556.5</ele>
</trkpt>
<trkpt lat="41.595762" lon="70.132256">
<ele>1553</ele>
</trkpt>
<trkpt lat="41.595694" lon="70.132441">
<ele>1557.9</ele>
</trkpt>
<trkpt lat="41.595607" lon="70.132607">
<ele>1554.4</ele>
</trkpt>
<trkpt lat="41.595472" lon="70.132674">
<ele>1557</ele>
</trkpt>
<trkpt lat="41.595218" lon="70.132889">
<ele>1559.6</ele>
</trkpt>
<trkpt lat="41.595199" lon="70.133082">
<ele>1554.1</ele>
</trkpt>
<trkpt lat="41.595209" lon="70.133282">
<ele>1555.3</ele>
</trkpt>
<trkpt lat="41.595192" lon="70.133492">
<ele>1553.9</ele>
</trkpt>
<trkpt lat="41.595224" lon="70.133682">
<ele>1551.5</ele>
</trkpt>
<trkpt lat="41.595221" lon="70.133892">
<ele>1555.3</ele>
</trkpt>
<trkpt lat="41.595171" lon="70.134292">
<ele>1553.6</ele>
</trkpt>
<trkpt lat="41.595165" lon="70.13449">
<ele>1552.5</ele>
</trkpt>
<trkpt lat="41.595108" lon="70.134672">
<ele>1549.3</ele>
</trkpt>
<trkpt lat="41.595112" lon="70.134872">
<ele>1555</ele>
</trkpt>
<trkpt lat="41.595083" lon="70.135064">
<ele>1556</ele>
</trkpt>
<trkpt lat="41.594969" lon="70.135202">
<ele>1553.9</ele>
</trkpt>
<trkpt lat="41.594845" lon="70.135311">
<ele>1553.1</ele>
</trkpt>
<trkpt lat="41.594589" lon="70.135497">
<ele>1556.7</ele>
</trkpt>
<trkpt lat="41.594418" lon="70.13581">
<ele>1551</ele>
</trkpt>
<trkpt lat="41.594497" lon="70.135973">
<ele>1554.7</ele>
</trkpt>
<trkpt lat="41.594537" lon="70.136162">
<ele>1550.1</ele>
</trkpt>
<trkpt lat="41.594498" lon="70.136361">
<ele>1551.1</ele>
</trkpt>
<trkpt lat="41.594405" lon="70.136511">
<ele>1554.1</ele>
</trkpt>
<trkpt lat="41.594369" lon="70.136704">
<ele>1551</ele>
</trkpt>
<trkpt lat="41.594315" lon="70.136887">
<ele>1551.3</ele>
</trkpt>
<trkpt lat="41.594208" lon="70.137016">
<ele>1549.2</ele>
</trkpt>
<trkpt lat="41.593963" lon="70.13726">
<ele>1550.6</ele>
</trkpt>
<trkpt lat="41.593834" lon="70.137354">
<ele>1551.3</ele>
</trkpt>
<trkpt lat="41.593717" lon="70.137478">
<ele>1552.2</ele>
</trkpt>
<trkpt lat="41.593655" lon="70.137659">
<ele>1553.1</ele>
</trkpt>
<trkpt lat="41.593746" lon="70.137811">
<ele>1556.4</ele>
</trkpt>
<trkpt lat="41.593719" lon="70.138008">
<ele>1560.5</ele>
</trkpt>
<trkpt lat="41.593631" lon="70.138165">
<ele>1560.7</ele>
</trkpt>
<trkpt lat="41.593519" lon="70.138287">
<ele>1557.5</ele>
</trkpt>
<trkpt lat="41.593388" lon="70.138378">
<ele>1555.4</ele>
</trkpt>
<trkpt lat="41.593265" lon="70.138508">
<ele>1556.1</ele>
</trkpt>
<trkpt lat="41.593011" lon="70.138709">
<ele>1553</ele>
</trkpt>
<trkpt lat="41.593047" lon="70.138905">
<ele>1554.3</ele>
</trkpt>
<trkpt lat="41.59324" lon="70.139218">
<ele>1557.9</ele>
</trkpt>
<trkpt lat="41.593282" lon="70.139413">
<ele>1556.8</ele>
</trkpt>
<trkpt lat="41.593195" lon="70.139585">
<ele>1555.7</ele>
</trkpt>
<trkpt lat="41.593148" lon="70.139771">
<ele>1555.2</ele>
</trkpt>
<trkpt lat="41.59331" lon="70.140106">
<ele>1554.3</ele>
</trkpt>
<trkpt lat="41.593295" lon="70.14031">
<ele>1554.6</ele>
</trkpt>
<trkpt lat="41.5931" lon="70.140616">
<ele>1550.3</ele>
</trkpt>
<trkpt lat="41.593151" lon="70.140796">
<ele>1548.6</ele>
</trkpt>
<trkpt lat="41.593397" lon="70.141052">
<ele>1552.4</ele>
</trkpt>
<trkpt lat="41.593495" lon="70.141207">
<ele>1554.4</ele>
</trkpt>
<trkpt lat="41.593513" lon="70.141403">
<ele>1551.5</ele>
</trkpt>
<trkpt lat="41.593532" lon="70.141802">
<ele>1548.7</ele>
</trkpt>
<trkpt lat="41.593457" lon="70.141984">
<ele>1547.3</ele>
</trkpt>
<trkpt lat="41.593346" lon="70.142124">
<ele>1545</ele>
</trkpt>
<trkpt lat="41.593289" lon="70.14231">
<ele>1543</ele>
</trkpt>
<trkpt lat="41.593257" lon="70.14251">
<ele>1538.8</ele>
</trkpt>
<trkpt lat="41.593293" lon="70.142696">
<ele>1534.1</ele>
</trkpt>
<trkpt lat="41.593604" lon="70.143113">
<ele>1540.3</ele>
</trkpt>
<trkpt lat="41.593649" lon="70.143301">
<ele>1546.8</ele>
</trkpt>
<trkpt lat="41.593624" lon="70.143506">
<ele>1545.6</ele>
</trkpt>
<trkpt lat="41.593714" lon="70.144084">
<ele>1544.1</ele>
</trkpt>
<trkpt lat="41.593699" lon="70.144281">
<ele>1540.6</ele>
</trkpt>
<trkpt lat="41.593605" lon="70.144431">
<ele>1538.4</ele>
</trkpt>
<trkpt lat="41.593532" lon="70.144604">
<ele>1534.2</ele>
</trkpt>
<trkpt lat="41.593612" lon="70.144769">
<ele>1536.1</ele>
</trkpt>
<trkpt lat="41.593727" lon="70.144887">
<ele>1538.3</ele>
</trkpt>
<trkpt lat="41.593776" lon="70.14508">
<ele>1535.2</ele>
</trkpt>
<trkpt lat="41.593715" lon="70.145468">
<ele>1528.9</ele>
</trkpt>
<trkpt lat="41.593627" lon="70.145627">
<ele>1528.1</ele>
</trkpt>
<trkpt lat="41.59358" lon="70.145814">
<ele>1525.2</ele>
</trkpt>
<trkpt lat="41.593682" lon="70.145954">
<ele>1522.4</ele>
</trkpt>
<trkpt lat="41.593735" lon="70.146141">
<ele>1518.9</ele>
</trkpt>
<trkpt lat="41.593683" lon="70.146328">
<ele>1517.4</ele>
</trkpt>
<trkpt lat="41.593675" lon="70.146526">
<ele>1516.4</ele>
</trkpt>
<trkpt lat="41.593774" lon="70.146669">
<ele>1513.2</ele>
</trkpt>
<trkpt lat="41.59379" lon="70.147065">
<ele>1506.5</ele>
</trkpt>
<trkpt lat="41.593816" lon="70.147258">
<ele>1505.5</ele>
</trkpt>
<trkpt lat="41.593939" lon="70.147371">
<ele>1501.2</ele>
</trkpt>
<trkpt lat="41.594152" lon="70.147641">
<ele>1494</ele>
</trkpt>
<trkpt lat="41.594211" lon="70.147823">
<ele>1492.7</ele>
</trkpt>
<trkpt lat="41.5942" lon="70.148227">
<ele>1487.9</ele>
</trkpt>
<trkpt lat="41.594212" lon="70.148617">
<ele>1481.5</ele>
</trkpt>
<trkpt lat="41.594282" lon="70.148795">
<ele>1476.7</ele>
</trkpt>
<trkpt lat="41.59427" lon="70.148989">
<ele>1472.6</ele>
</trkpt>
<trkpt lat="41.59434" lon="70.149164">
<ele>1477</ele>
</trkpt>
<trkpt lat="41.594353" lon="70.149358">
<ele>1481.1</ele>
</trkpt>
<trkpt lat="41.594326" lon="70.149163">
<ele>1480</ele>
</trkpt>
<trkpt lat="41.594345" lon="70.149355">
<ele>1477.8</ele>
</trkpt>
<trkpt lat="41.594341" lon="70.149158">
<ele>1478.3</ele>
</trkpt>
<trkpt lat="41.594333" lon="70.149365">
<ele>1478.3</ele>
</trkpt>
<trkpt lat="41.594333" lon="70.149172">
<ele>1478.6</ele>
</trkpt>
<trkpt lat="41.594351" lon="70.149422">
<ele>1478.3</ele>
</trkpt>
<trkpt lat="41.594458" lon="70.149556">
<ele>1485.6</ele>
</trkpt>
<trkpt lat="41.594578" lon="70.150113">
<ele>1494.7</ele>
</trkpt>
<trkpt lat="41.594603" lon="70.150302">
<ele>1494.8</ele>
</trkpt>
<trkpt lat="41.594604" lon="70.150507">
<ele>1497</ele>
</trkpt>
<trkpt lat="41.594524" lon="70.15089">
<ele>1493.4</ele>
</trkpt>
<trkpt lat="41.594515" lon="70.151091">
<ele>1493.5</ele>
</trkpt>
<trkpt lat="41.594465" lon="70.151279">
<ele>1493.7</ele>
</trkpt>
<trkpt lat="41.594438" lon="70.151477">
<ele>1492.3</ele>
</trkpt>
<trkpt lat="41.594478" lon="70.151667">
<ele>1498.5</ele>
</trkpt>
<trkpt lat="41.5945" lon="70.15186">
<ele>1494.6</ele>
</trkpt>
<trkpt lat="41.594485" lon="70.152054">
<ele>1494.6</ele>
</trkpt>
<trkpt lat="41.594524" lon="70.152244">
<ele>1496.5</ele>
</trkpt>
<trkpt lat="41.594551" lon="70.153024">
<ele>1511.7</ele>
</trkpt>
<trkpt lat="41.594697" lon="70.15336">
<ele>1516.4</ele>
</trkpt>
<trkpt lat="41.594752" lon="70.153541">
<ele>1520.3</ele>
</trkpt>
<trkpt lat="41.594861" lon="70.153683">
<ele>1523.8</ele>
</trkpt>
<trkpt lat="41.59492" lon="70.153868">
<ele>1525</ele>
</trkpt>
<trkpt lat="41.595048" lon="70.153973">
<ele>1527.3</ele>
</trkpt>
<trkpt lat="41.595123" lon="70.154139">
<ele>1529.9</ele>
</trkpt>
<trkpt lat="41.595251" lon="70.154245">
<ele>1533.7</ele>
</trkpt>
<trkpt lat="41.595394" lon="70.154211">
<ele>1537.7</ele>
</trkpt>
<trkpt lat="41.595527" lon="70.154135">
<ele>1542.3</ele>
</trkpt>
<trkpt lat="41.59568" lon="70.154146">
<ele>1544.1</ele>
</trkpt>
<trkpt lat="41.595975" lon="70.154098">
<ele>1552.7</ele>
</trkpt>
<trkpt lat="41.596126" lon="70.154098">
<ele>1555.6</ele>
</trkpt>
<trkpt lat="41.596266" lon="70.154155">
<ele>1559.9</ele>
</trkpt>
<trkpt lat="41.596411" lon="70.154128">
<ele>1561.6</ele>
</trkpt>
<trkpt lat="41.596537" lon="70.154023">
<ele>1563.5</ele>
</trkpt>
<trkpt lat="41.596679" lon="70.153983">
<ele>1565.9</ele>
</trkpt>
<trkpt lat="41.596969" lon="70.154041">
<ele>1573.6</ele>
</trkpt>
<trkpt lat="41.596924" lon="70.154224">
<ele>1580.1</ele>
</trkpt>
<trkpt lat="41.596689" lon="70.154728">
<ele>1587.3</ele>
</trkpt>
<trkpt lat="41.596646" lon="70.154919">
<ele>1593.6</ele>
</trkpt>
<trkpt lat="41.596739" lon="70.155073">
<ele>1592.5</ele>
</trkpt>
<trkpt lat="41.596759" lon="70.155266">
<ele>1596</ele>
</trkpt>
<trkpt lat="41.596638" lon="70.155627">
<ele>1599.6</ele>
</trkpt>
<trkpt lat="41.596637" lon="70.156017">
<ele>1604.5</ele>
</trkpt>
<trkpt lat="41.596682" lon="70.156206">
<ele>1607.7</ele>
</trkpt>
<trkpt lat="41.59662" lon="70.156386">
<ele>1609.4</ele>
</trkpt>
<trkpt lat="41.596659" lon="70.156778">
<ele>1615.6</ele>
</trkpt>
<trkpt lat="41.596617" lon="70.157171">
<ele>1624.8</ele>
</trkpt>
<trkpt lat="41.596542" lon="70.157556">
<ele>1628.1</ele>
</trkpt>
<trkpt lat="41.596522" lon="70.157749">
<ele>1630.2</ele>
</trkpt>
<trkpt lat="41.596542" lon="70.158138">
<ele>1636.2</ele>
</trkpt>
<trkpt lat="41.596497" lon="70.158329">
<ele>1636.5</ele>
</trkpt>
<trkpt lat="41.596476" lon="70.158524">
<ele>1636.3</ele>
</trkpt>
<trkpt lat="41.596521" lon="70.158905">
<ele>1637.4</ele>
</trkpt>
<trkpt lat="41.596527" lon="70.159111">
<ele>1636.1</ele>
</trkpt>
<trkpt lat="41.596512" lon="70.159304">
<ele>1637.2</ele>
</trkpt>
<trkpt lat="41.596543" lon="70.159503">
<ele>1637.2</ele>
</trkpt>
<trkpt lat="41.596658" lon="70.160083">
<ele>1633.8</ele>
</trkpt>
<trkpt lat="41.596735" lon="70.160263">
<ele>1634</ele>
</trkpt>
<trkpt lat="41.596789" lon="70.160454">
<ele>1631.5</ele>
</trkpt>
<trkpt lat="41.596874" lon="70.160629">
<ele>1629.4</ele>
</trkpt>
<trkpt lat="41.596767" lon="70.160772">
<ele>1632</ele>
</trkpt>
<trkpt lat="41.596628" lon="70.160854">
<ele>1636</ele>
</trkpt>
<trkpt lat="41.596484" lon="70.160866">
<ele>1639.6</ele>
</trkpt>
<trkpt lat="41.596363" lon="70.160971">
<ele>1644.9</ele>
</trkpt>
<trkpt lat="41.596411" lon="70.161162">
<ele>1641.5</ele>
</trkpt>
<trkpt lat="41.596485" lon="70.161331">
<ele>1638.5</ele>
</trkpt>
<trkpt lat="41.596613" lon="70.161696">
<ele>1636.1</ele>
</trkpt>
<trkpt lat="41.596575" lon="70.16189">
<ele>1635.4</ele>
</trkpt>
<trkpt lat="41.596427" lon="70.161943">
<ele>1636.9</ele>
</trkpt>
<trkpt lat="41.596294" lon="70.162023">
<ele>1638.6</ele>
</trkpt>
<trkpt lat="41.59619" lon="70.162156">
<ele>1642.2</ele>
</trkpt>
<trkpt lat="41.596041" lon="70.162925">
<ele>1647</ele>
</trkpt>
<trkpt lat="41.595892" lon="70.163269">
<ele>1647.6</ele>
</trkpt>
<trkpt lat="41.595786" lon="70.163407">
<ele>1646.4</ele>
</trkpt>
<trkpt lat="41.595762" lon="70.1636">
<ele>1645.2</ele>
</trkpt>
<trkpt lat="41.595836" lon="70.163768">
<ele>1643.9</ele>
</trkpt>
<trkpt lat="41.595875" lon="70.16405">
<ele>1640.4</ele>
</trkpt>
<trkpt lat="41.595673" lon="70.164327">
<ele>1638.5</ele>
</trkpt>
<trkpt lat="41.595556" lon="70.164444">
<ele>1643.6</ele>
</trkpt>
<trkpt lat="41.595408" lon="70.164504">
<ele>1644.4</ele>
</trkpt>
<trkpt lat="41.595292" lon="70.16463">
<ele>1647.8</ele>
</trkpt>
<trkpt lat="41.59523" lon="70.164806">
<ele>1648.1</ele>
</trkpt>
<trkpt lat="41.595097" lon="70.165367">
<ele>1647.9</ele>
</trkpt>
<trkpt lat="41.595101" lon="70.165564">
<ele>1645</ele>
</trkpt>
<trkpt lat="41.595123" lon="70.165758">
<ele>1648.5</ele>
</trkpt>
<trkpt lat="41.595092" lon="70.165954">
<ele>1648.4</ele>
</trkpt>
<trkpt lat="41.594883" lon="70.166236">
<ele>1648.8</ele>
</trkpt>
<trkpt lat="41.594768" lon="70.166609">
<ele>1649.4</ele>
</trkpt>
<trkpt lat="41.594658" lon="70.166733">
<ele>1645.7</ele>
</trkpt>
<trkpt lat="41.594575" lon="70.16691">
<ele>1644.6</ele>
</trkpt>
<trkpt lat="41.594472" lon="70.167065">
<ele>1644.3</ele>
</trkpt>
<trkpt lat="41.594387" lon="70.167229">
<ele>1643.6</ele>
</trkpt>
<trkpt lat="41.59433" lon="70.167417">
<ele>1650.6</ele>
</trkpt>
<trkpt lat="41.594321" lon="70.167627">
<ele>1652.3</ele>
</trkpt>
<trkpt lat="41.594289" lon="70.167819">
<ele>1656.7</ele>
</trkpt>
<trkpt lat="41.594365" lon="70.167989">
<ele>1661.7</ele>
</trkpt>
<trkpt lat="41.594371" lon="70.168182">
<ele>1667.4</ele>
</trkpt>
<trkpt lat="41.59445" lon="70.16856">
<ele>1656.1</ele>
</trkpt>
<trkpt lat="41.594369" lon="70.168722">
<ele>1646.3</ele>
</trkpt>
<trkpt lat="41.594455" lon="70.169103">
<ele>1635.2</ele>
</trkpt>
<trkpt lat="41.594463" lon="70.169302">
<ele>1628.2</ele>
</trkpt>
<trkpt lat="41.594317" lon="70.169308">
<ele>1635.6</ele>
</trkpt>
<trkpt lat="41.594142" lon="70.169371">
<ele>1641.1</ele>
</trkpt>
<trkpt lat="41.594191" lon="70.169552">
<ele>1648.2</ele>
</trkpt>
<trkpt lat="41.594218" lon="70.169751">
<ele>1646.7</ele>
</trkpt>
<trkpt lat="41.594121" lon="70.170127">
<ele>1649.1</ele>
</trkpt>
<trkpt lat="41.594025" lon="70.170272">
<ele>1652.7</ele>
</trkpt>
<trkpt lat="41.594087" lon="70.17065">
<ele>1666.2</ele>
</trkpt>
<trkpt lat="41.593985" lon="70.170797">
<ele>1674.1</ele>
</trkpt>
<trkpt lat="41.593978" lon="70.17099">
<ele>1682.1</ele>
</trkpt>
<trkpt lat="41.594117" lon="70.17104">
<ele>1687</ele>
</trkpt>
<trkpt lat="41.594051" lon="70.171215">
<ele>1693.6</ele>
</trkpt>
<trkpt lat="41.594113" lon="70.17139">
<ele>1704.2</ele>
</trkpt>
<trkpt lat="41.594261" lon="70.171406">
<ele>1712.7</ele>
</trkpt>
<trkpt lat="41.594387" lon="70.171294">
<ele>1715.7</ele>
</trkpt>
<trkpt lat="41.594532" lon="70.171303">
<ele>1721.7</ele>
</trkpt>
<trkpt lat="41.594824" lon="70.17125">
<ele>1733.6</ele>
</trkpt>
<trkpt lat="41.594929" lon="70.171109">
<ele>1737.4</ele>
</trkpt>
<trkpt lat="41.595027" lon="70.17126">
<ele>1745.7</ele>
</trkpt>
<trkpt lat="41.595059" lon="70.171456">
<ele>1751.9</ele>
</trkpt>
<trkpt lat="41.595188" lon="70.171553">
<ele>1758.8</ele>
</trkpt>
<trkpt lat="41.595146" lon="70.171739">
<ele>1765.2</ele>
</trkpt>
<trkpt lat="41.595213" lon="70.171911">
<ele>1770.9</ele>
</trkpt>
<trkpt lat="41.595357" lon="70.171877">
<ele>1776.4</ele>
</trkpt>
<trkpt lat="41.595406" lon="70.172059">
<ele>1783</ele>
</trkpt>
<trkpt lat="41.59554" lon="70.171979">
<ele>1788.1</ele>
</trkpt>
<trkpt lat="41.595621" lon="70.172139">
<ele>1795.1</ele>
</trkpt>
<trkpt lat="41.595766" lon="70.172174">
<ele>1803</ele>
</trkpt>
<trkpt lat="41.595914" lon="70.172162">
<ele>1804.6</ele>
</trkpt>
<trkpt lat="41.59606" lon="70.172192">
<ele>1806.7</ele>
</trkpt>
<trkpt lat="41.596201" lon="70.17226">
<ele>1810.8</ele>
</trkpt>
<trkpt lat="41.596459" lon="70.172468">
<ele>1816.1</ele>
</trkpt>
<trkpt lat="41.596603" lon="70.17248">
<ele>1819</ele>
</trkpt>
<trkpt lat="41.596746" lon="70.172561">
<ele>1817.6</ele>
</trkpt>
<trkpt lat="41.596893" lon="70.172596">
<ele>1821.2</ele>
</trkpt>
<trkpt lat="41.597164" lon="70.172737">
<ele>1826.5</ele>
</trkpt>
<trkpt lat="41.597416" lon="70.172937">
<ele>1830.2</ele>
</trkpt>
<trkpt lat="41.597533" lon="70.173066">
<ele>1829.7</ele>
</trkpt>
<trkpt lat="41.597621" lon="70.173224">
<ele>1833.9</ele>
</trkpt>
<trkpt lat="41.597755" lon="70.173335">
<ele>1835.6</ele>
</trkpt>
<trkpt lat="41.598068" lon="70.173745">
<ele>1847</ele>
</trkpt>
<trkpt lat="41.598195" lon="70.173845">
<ele>1848.4</ele>
</trkpt>
<trkpt lat="41.598295" lon="70.173986">
<ele>1851.9</ele>
</trkpt>
<trkpt lat="41.598359" lon="70.174164">
<ele>1854</ele>
</trkpt>
<trkpt lat="41.598392" lon="70.174362">
<ele>1857.6</ele>
</trkpt>
<trkpt lat="41.598455" lon="70.174541">
<ele>1856.3</ele>
</trkpt>
<trkpt lat="41.598536" lon="70.174701">
<ele>1863.5</ele>
</trkpt>
<trkpt lat="41.598733" lon="70.175236">
<ele>1873.2</ele>
</trkpt>
<trkpt lat="41.598803" lon="70.175628">
<ele>1877.5</ele>
</trkpt>
<trkpt lat="41.598876" lon="70.175795">
<ele>1881.2</ele>
</trkpt>
<trkpt lat="41.59898" lon="70.176168">
<ele>1889.7</ele>
</trkpt>
<trkpt lat="41.599098" lon="70.176281">
<ele>1892.8</ele>
</trkpt>
<trkpt lat="41.599103" lon="70.176478">
<ele>1896</ele>
</trkpt>
<trkpt lat="41.599168" lon="70.17665">
<ele>1897.5</ele>
</trkpt>
<trkpt lat="41.599255" lon="70.176812">
<ele>1899.8</ele>
</trkpt>
<trkpt lat="41.599256" lon="70.177009">
<ele>1901.8</ele>
</trkpt>
<trkpt lat="41.599103" lon="70.177346">
<ele>1909.5</ele>
</trkpt>
<trkpt lat="41.599058" lon="70.177743">
<ele>1909</ele>
</trkpt>
<trkpt lat="41.598806" lon="70.177965">
<ele>1914.3</ele>
</trkpt>
<trkpt lat="41.598614" lon="70.178257">
<ele>1922.4</ele>
</trkpt>
<trkpt lat="41.598488" lon="70.178355">
<ele>1925.9</ele>
</trkpt>
<trkpt lat="41.598381" lon="70.178488">
<ele>1931.7</ele>
</trkpt>
<trkpt lat="41.59819" lon="70.178778">
<ele>1940.3</ele>
</trkpt>
<trkpt lat="41.598179" lon="70.17897">
<ele>1943.7</ele>
</trkpt>
<trkpt lat="41.598317" lon="70.179057">
<ele>1945</ele>
</trkpt>
<trkpt lat="41.598608" lon="70.179">
<ele>1951.6</ele>
</trkpt>
<trkpt lat="41.598745" lon="70.179056">
<ele>1952.4</ele>
</trkpt>
<trkpt lat="41.599041" lon="70.179033">
<ele>1954.8</ele>
</trkpt>
<trkpt lat="41.599178" lon="70.178969">
<ele>1953.4</ele>
</trkpt>
<trkpt lat="41.599328" lon="70.178955">
<ele>1958.5</ele>
</trkpt>
<trkpt lat="41.599764" lon="70.179023">
<ele>1971.1</ele>
</trkpt>
<trkpt lat="41.59991" lon="70.178999">
<ele>1978.9</ele>
</trkpt>
<trkpt lat="41.600293" lon="70.178704">
<ele>1983.1</ele>
</trkpt>
<trkpt lat="41.600501" lon="70.178435">
<ele>1994</ele>
</trkpt>
<trkpt lat="41.600589" lon="70.178275">
<ele>1996.6</ele>
</trkpt>
<trkpt lat="41.600701" lon="70.178142">
<ele>2000.9</ele>
</trkpt>
<trkpt lat="41.600945" lon="70.177632">
<ele>2009.2</ele>
</trkpt>
<trkpt lat="41.600999" lon="70.17745">
<ele>2009.5</ele>
</trkpt>
<trkpt lat="41.601075" lon="70.177284">
<ele>2010.7</ele>
</trkpt>
<trkpt lat="41.601189" lon="70.177147">
<ele>2014.6</ele>
</trkpt>
<trkpt lat="41.601238" lon="70.177331">
<ele>2016.1</ele>
</trkpt>
<trkpt lat="41.60131" lon="70.177501">
<ele>2025.5</ele>
</trkpt>
<trkpt lat="41.601517" lon="70.177772">
<ele>2043.8</ele>
</trkpt>
<trkpt lat="41.601762" lon="70.177984">
<ele>2057</ele>
</trkpt>
<trkpt lat="41.601866" lon="70.178129">
<ele>2066.1</ele>
</trkpt>
<trkpt lat="41.601982" lon="70.178244">
<ele>2067.8</ele>
</trkpt>
<trkpt lat="41.602129" lon="70.178222">
<ele>2070.7</ele>
</trkpt>
<trkpt lat="41.602401" lon="70.178355">
<ele>2083.4</ele>
</trkpt>
<trkpt lat="41.60269" lon="70.178288">
<ele>2087</ele>
</trkpt>
<trkpt lat="41.602976" lon="70.178195">
<ele>2099.1</ele>
</trkpt>
<trkpt lat="41.603099" lon="70.17809">
<ele>2098.1</ele>
</trkpt>
<trkpt lat="41.603211" lon="70.177949">
<ele>2098.8</ele>
</trkpt>
<trkpt lat="41.603351" lon="70.177879">
<ele>2098.5</ele>
</trkpt>
<trkpt lat="41.603501" lon="70.177854">
<ele>2096.2</ele>
</trkpt>
<trkpt lat="41.603763" lon="70.177679">
<ele>2095.4</ele>
</trkpt>
<trkpt lat="41.603883" lon="70.177571">
<ele>2095.6</ele>
</trkpt>
<trkpt lat="41.604029" lon="70.17756">
<ele>2101.2</ele>
</trkpt>
<trkpt lat="41.604167" lon="70.177482">
<ele>2102</ele>
</trkpt>
<trkpt lat="41.604286" lon="70.177362">
<ele>2103.3</ele>
</trkpt>
<trkpt lat="41.604428" lon="70.177302">
<ele>2105.4</ele>
</trkpt>
<trkpt lat="41.604699" lon="70.177137">
<ele>2112.1</ele>
</trkpt>
<trkpt lat="41.604812" lon="70.177016">
<ele>2112.6</ele>
</trkpt>
<trkpt lat="41.604945" lon="70.176928">
<ele>2116.4</ele>
</trkpt>
<trkpt lat="41.605085" lon="70.176878">
<ele>2119.4</ele>
</trkpt>
<trkpt lat="41.605338" lon="70.176662">
<ele>2121.8</ele>
</trkpt>
<trkpt lat="41.605612" lon="70.17652">
<ele>2128.7</ele>
</trkpt>
<trkpt lat="41.605728" lon="70.1764">
<ele>2135.1</ele>
</trkpt>
<trkpt lat="41.605872" lon="70.176374">
<ele>2133.5</ele>
</trkpt>
<trkpt lat="41.606018" lon="70.176391">
<ele>2138.2</ele>
</trkpt>
<trkpt lat="41.606151" lon="70.176464">
<ele>2142.4</ele>
</trkpt>
<trkpt lat="41.606297" lon="70.176453">
<ele>2148.1</ele>
</trkpt>
<trkpt lat="41.606583" lon="70.176539">
<ele>2159.6</ele>
</trkpt>
<trkpt lat="41.606733" lon="70.176507">
<ele>2167.9</ele>
</trkpt>
<trkpt lat="41.607028" lon="70.176541">
<ele>2182.2</ele>
</trkpt>
<trkpt lat="41.607159" lon="70.176443">
<ele>2181.7</ele>
</trkpt>
<trkpt lat="41.607305" lon="70.176476">
<ele>2191.8</ele>
</trkpt>
<trkpt lat="41.60745" lon="70.17642">
<ele>2197.3</ele>
</trkpt>
<trkpt lat="41.607588" lon="70.176481">
<ele>2200.4</ele>
</trkpt>
<trkpt lat="41.607732" lon="70.176451">
<ele>2206.4</ele>
</trkpt>
<trkpt lat="41.607877" lon="70.176477">
<ele>2214.7</ele>
</trkpt>
<trkpt lat="41.60802" lon="70.176428">
<ele>2219.2</ele>
</trkpt>
<trkpt lat="41.608158" lon="70.176497">
<ele>2223.6</ele>
</trkpt>
<trkpt lat="41.608301" lon="70.17647">
<ele>2234.5</ele>
</trkpt>
<trkpt lat="41.60844" lon="70.176538">
<ele>2235.7</ele>
</trkpt>
<trkpt lat="41.608582" lon="70.176502">
<ele>2241.1</ele>
</trkpt>
<trkpt lat="41.608725" lon="70.17654">
<ele>2249.6</ele>
</trkpt>
<trkpt lat="41.608861" lon="70.176607">
<ele>2256.2</ele>
</trkpt>
<trkpt lat="41.609152" lon="70.176536">
<ele>2266</ele>
</trkpt>
<trkpt lat="41.609263" lon="70.17641">
<ele>2270.4</ele>
</trkpt>
<trkpt lat="41.609555" lon="70.176423">
<ele>2278.8</ele>
</trkpt>
<trkpt lat="41.609893" lon="70.176039">
<ele>2294.2</ele>
</trkpt>
<trkpt lat="41.610177" lon="70.17594">
<ele>2304.8</ele>
</trkpt>
<trkpt lat="41.610322" lon="70.175926">
<ele>2309.9</ele>
</trkpt>
<trkpt lat="41.610464" lon="70.175884">
<ele>2311.8</ele>
</trkpt>
<trkpt lat="41.610597" lon="70.175801">
<ele>2315.5</ele>
</trkpt>
<trkpt lat="41.610739" lon="70.175754">
<ele>2320.7</ele>
</trkpt>
<trkpt lat="41.610875" lon="70.175681">
<ele>2326.7</ele>
</trkpt>
<trkpt lat="41.610991" lon="70.175567">
<ele>2331.9</ele>
</trkpt>
<trkpt lat="41.611135" lon="70.175568">
<ele>2335.6</ele>
</trkpt>
<trkpt lat="41.611258" lon="70.175466">
<ele>2342.8</ele>
</trkpt>
<trkpt lat="41.611393" lon="70.175387">
<ele>2348.7</ele>
</trkpt>
<trkpt lat="41.611535" lon="70.175427">
<ele>2354.8</ele>
</trkpt>
<trkpt lat="41.611676" lon="70.175379">
<ele>2360.4</ele>
</trkpt>
<trkpt lat="41.611965" lon="70.175386">
<ele>2376.6</ele>
</trkpt>
<trkpt lat="41.612095" lon="70.175302">
<ele>2385.1</ele>
</trkpt>
<trkpt lat="41.61224" lon="70.1753">
<ele>2385.6</ele>
</trkpt>
<trkpt lat="41.612375" lon="70.175374">
<ele>2397.6</ele>
</trkpt>
<trkpt lat="41.612519" lon="70.175401">
<ele>2399</ele>
</trkpt>
</trkseg>
</trk>
</gpx>