<?xml version='1.0' encoding='utf-8'?>
<gpx xmlns="http://www.topografix.com/GPX/1/1" xmlns:ns2="https://gurumaps.app/gpx/v3" xmlns:xsi="http://www.w3.org/2001/XMLSchema-instance" version="1.1" creator="com.bodunov.galileo/v5.5.1" xsi:schemaLocation="http://www.topografix.com/GPX/1/1 http://www.topografix.com/GPX/1/1/gpx.xsd https://gurumaps.app/gpx/v3 https://gurumaps.app/gpx/v3/schema.xsd">
 <trk>
  <name>Кудук Quduq</name>
  <type>TrackStyle_E53935C8</type>
  <extensions>
   <ns2:time>2024-06-19T12:15:37.812Z</ns2:time>
  </extensions>
  <trkseg>
   <trkpt lat="41.7152836806" lon="70.1138069597"><ele>888.083</ele></trkpt>
   <trkpt lat="41.7150006656" lon="70.113900837"><ele>883.548</ele></trkpt>
   <trkpt lat="41.7145809837" lon="70.1141187665"><ele>877.012</ele></trkpt>
   <trkpt lat="41.7141940751" lon="70.1144154859"><ele>873.442</ele></trkpt>
   <trkpt lat="41.7140043926" lon="70.1144921803"><ele>871.291</ele></trkpt>
   <trkpt lat="41.7138960984" lon="70.1146316551"><ele>870.814</ele></trkpt>
   <trkpt lat="41.7137658856" lon="70.1147288852"><ele>868.213</ele></trkpt>
   <trkpt lat="41.7136635844" lon="70.1148689468"><ele>869.018</ele></trkpt>
   <trkpt lat="41.7134838764" lon="70.1151827653"><ele>865.298</ele></trkpt>
   <trkpt lat="41.7134020691" lon="70.1153492299"><ele>863.983</ele></trkpt>
   <trkpt lat="41.7132793999" lon="70.11570764"><ele>863.004</ele></trkpt>
   <trkpt lat="41.7130890888" lon="70.1160291699"><ele>862.532</ele></trkpt>
   <trkpt lat="41.7131023741" lon="70.116227821"><ele>860.4</ele></trkpt>
   <trkpt lat="41.7132498956" lon="70.1162450877"><ele>859.973</ele></trkpt>
   <trkpt lat="41.7133586927" lon="70.1161076245"><ele>861.67</ele></trkpt>
   <trkpt lat="41.7134952758" lon="70.1160316844"><ele>862.275</ele></trkpt>
   <trkpt lat="41.7141719888" lon="70.1155694225"><ele>868.081</ele></trkpt>
   <trkpt lat="41.7144637628" lon="70.1154887886"><ele>869.84</ele></trkpt>
   <trkpt lat="41.7150291641" lon="70.115241271"><ele>874.724</ele></trkpt>
   <trkpt lat="41.7160686877" lon="70.1149714575"><ele>874.62</ele></trkpt>
   <trkpt lat="41.7162189753" lon="70.1149725471"><ele>874.432</ele></trkpt>
   <trkpt lat="41.7163502778" lon="70.1150678494"><ele>873.213</ele></trkpt>
   <trkpt lat="41.7164962905" lon="70.1154163689"><ele>874.319</ele></trkpt>
   <trkpt lat="41.7165885753" lon="70.1157835801"><ele>873.863</ele></trkpt>
   <trkpt lat="41.7166551695" lon="70.1159633719"><ele>873.394</ele></trkpt>
   <trkpt lat="41.7167022758" lon="70.1161479414"><ele>872.653</ele></trkpt>
   <trkpt lat="41.7169315628" lon="70.1166632608"><ele>869.948</ele></trkpt>
   <trkpt lat="41.7172145777" lon="70.1171381795"><ele>871.753</ele></trkpt>
   <trkpt lat="41.7173893823" lon="70.1176908822"><ele>873.127</ele></trkpt>
   <trkpt lat="41.7174250892" lon="70.1178787206"><ele>873.147</ele></trkpt>
   <trkpt lat="41.7174190962" lon="70.1180850831"><ele>874.627</ele></trkpt>
   <trkpt lat="41.7173365763" lon="70.1184739196"><ele>876.144</ele></trkpt>
   <trkpt lat="41.7172332694" lon="70.1188437291"><ele>876.826</ele></trkpt>
   <trkpt lat="41.7172356582" lon="70.1190454815"><ele>878.441</ele></trkpt>
   <trkpt lat="41.7172798727" lon="70.119234242"><ele>878.269</ele></trkpt>
   <trkpt lat="41.7172924875" lon="70.1194296242"><ele>879.454</ele></trkpt>
   <trkpt lat="41.7173397614" lon="70.1196175464"><ele>878.358</ele></trkpt>
   <trkpt lat="41.7173502807" lon="70.1198128448"><ele>878.671</ele></trkpt>
   <trkpt lat="41.7174000692" lon="70.1200028625"><ele>877.674</ele></trkpt>
   <trkpt lat="41.717412684" lon="70.1202043635"><ele>875.729</ele></trkpt>
   <trkpt lat="41.7174973831" lon="70.1205923618"><ele>874.35</ele></trkpt>
   <trkpt lat="41.717576173" lon="70.1207707287"><ele>873.481</ele></trkpt>
   <trkpt lat="41.7176253748" lon="70.1209542923"><ele>871.795</ele></trkpt>
   <trkpt lat="41.7177071822" lon="70.1211146381"><ele>871.313</ele></trkpt>
   <trkpt lat="41.7179019776" lon="70.1216609706"><ele>869.66</ele></trkpt>
   <trkpt lat="41.7179912868" lon="70.1218239986"><ele>869.412</ele></trkpt>
   <trkpt lat="41.718005997" lon="70.1220250805"><ele>868.543</ele></trkpt>
   <trkpt lat="41.7181608946" lon="70.1223576744"><ele>867.944</ele></trkpt>
   <trkpt lat="41.7184952906" lon="70.1232553762"><ele>867.27</ele></trkpt>
   <trkpt lat="41.7186630963" lon="70.1238127728"><ele>865.905</ele></trkpt>
   <trkpt lat="41.7188490907" lon="70.1241294411"><ele>865.158</ele></trkpt>
   <trkpt lat="41.718887396" lon="70.1243251585"><ele>864.502</ele></trkpt>
   <trkpt lat="41.7190106938" lon="70.124698237"><ele>864.626</ele></trkpt>
   <trkpt lat="41.7190553694" lon="70.124886746"><ele>867.879</ele></trkpt>
   <trkpt lat="41.7192191937" lon="70.1252232794"><ele>866.652</ele></trkpt>
   <trkpt lat="41.7198134706" lon="70.1268406515"><ele>869.96</ele></trkpt>
   <trkpt lat="41.7198655641" lon="70.1270247181"><ele>870.758</ele></trkpt>
   <trkpt lat="41.7200646763" lon="70.1275633392"><ele>872.438</ele></trkpt>
   <trkpt lat="41.720111573" lon="70.1277488307"><ele>873.498</ele></trkpt>
   <trkpt lat="41.7202647942" lon="70.1280806702"><ele>874.668</ele></trkpt>
   <trkpt lat="41.7202874672" lon="70.1282756333"><ele>875.048</ele></trkpt>
   <trkpt lat="41.7206285688" lon="70.1296146423"><ele>879.034</ele></trkpt>
   <trkpt lat="41.721021261" lon="70.1309209619"><ele>880.38</ele></trkpt>
   <trkpt lat="41.7210645954" lon="70.1311172661"><ele>879.865</ele></trkpt>
   <trkpt lat="41.7212525596" lon="70.131678686"><ele>879.891</ele></trkpt>
   <trkpt lat="41.721354274" lon="70.1320577995"><ele>879.716</ele></trkpt>
   <trkpt lat="41.7214175992" lon="70.1322404411"><ele>880.079</ele></trkpt>
   <trkpt lat="41.7216689725" lon="70.133182148"><ele>876.985</ele></trkpt>
   <trkpt lat="41.7219421807" lon="70.1338942745"><ele>874.081</ele></trkpt>
   <trkpt lat="41.7221646783" lon="70.134411857"><ele>873.295</ele></trkpt>
   <trkpt lat="41.7222820668" lon="70.1347753801"><ele>872.006</ele></trkpt>
   <trkpt lat="41.7223626588" lon="70.1349372347"><ele>872.208</ele></trkpt>
   <trkpt lat="41.7224707854" lon="70.1350716804"><ele>872.466</ele></trkpt>
   <trkpt lat="41.7227514953" lon="70.1351944753"><ele>873.156</ele></trkpt>
   <trkpt lat="41.7228979691" lon="70.1352340379"><ele>872.627</ele></trkpt>
   <trkpt lat="41.7230225661" lon="70.1353324414"><ele>872.764</ele></trkpt>
   <trkpt lat="41.7234521805" lon="70.1359028299"><ele>873.203</ele></trkpt>
   <trkpt lat="41.7236351994" lon="70.1362030697"><ele>871.379</ele></trkpt>
   <trkpt lat="41.7237560664" lon="70.1363258646"><ele>871.59</ele></trkpt>
   <trkpt lat="41.7238174638" lon="70.1365069975"><ele>872.282</ele></trkpt>
   <trkpt lat="41.7239272668" lon="70.13664203"><ele>872.343</ele></trkpt>
   <trkpt lat="41.7241050889" lon="70.1369557646"><ele>872.188</ele></trkpt>
   <trkpt lat="41.7244655945" lon="70.1373014343"><ele>871.465</ele></trkpt>
   <trkpt lat="41.7250337618" lon="70.1379744173"><ele>869.021</ele></trkpt>
   <trkpt lat="41.7252744901" lon="70.1382027403"><ele>868.527</ele></trkpt>
   <trkpt lat="41.725387981" lon="70.1383481663"><ele>869.356</ele></trkpt>
   <trkpt lat="41.7255171881" lon="70.1384654292"><ele>870.192</ele></trkpt>
   <trkpt lat="41.725626069" lon="70.1385925826"><ele>871.275</ele></trkpt>
   <trkpt lat="41.7259996923" lon="70.1389381685"><ele>873.589</ele></trkpt>
   <trkpt lat="41.7261015744" lon="70.1390886237"><ele>873.673</ele></trkpt>
   <trkpt lat="41.7264500939" lon="70.139452985"><ele>874.315</ele></trkpt>
   <trkpt lat="41.7267196978" lon="70.1396431704"><ele>875.573</ele></trkpt>
   <trkpt lat="41.7268437919" lon="70.1397536439"><ele>875.373</ele></trkpt>
   <trkpt lat="41.7271128929" lon="70.1399105531"><ele>877.441</ele></trkpt>
   <trkpt lat="41.7275424654" lon="70.1401114673"><ele>879.02</ele></trkpt>
   <trkpt lat="41.7279396838" lon="70.140361248"><ele>879.297</ele></trkpt>
   <trkpt lat="41.7284241997" lon="70.1408221689"><ele>877.162</ele></trkpt>
   <trkpt lat="41.7286406624" lon="70.1411071536"><ele>878.094</ele></trkpt>
   <trkpt lat="41.7286634612" lon="70.141309828"><ele>877.946</ele></trkpt>
   <trkpt lat="41.728626497" lon="70.1415022765"><ele>876.371</ele></trkpt>
   <trkpt lat="41.7285229805" lon="70.1416473673"><ele>875.237</ele></trkpt>
   <trkpt lat="41.7284650615" lon="70.1418246445"><ele>873.943</ele></trkpt>
   <trkpt lat="41.7283302805" lon="70.1419677236"><ele>878.007</ele></trkpt>
   <trkpt lat="41.728186489" lon="70.142012483"><ele>878.743</ele></trkpt>
   <trkpt lat="41.7280315914" lon="70.1420138241"><ele>879.515</ele></trkpt>
   <trkpt lat="41.7277447627" lon="70.1420931169"><ele>885.63</ele></trkpt>
   <trkpt lat="41.7276270808" lon="70.142217169"><ele>887.603</ele></trkpt>
   <trkpt lat="41.7274866839" lon="70.1423044246"><ele>890.999</ele></trkpt>
   <trkpt lat="41.7272928943" lon="70.1425963663"><ele>897.836</ele></trkpt>
   <trkpt lat="41.727157778" lon="70.142676665"><ele>900.384</ele></trkpt>
   <trkpt lat="41.7271044691" lon="70.1428604801"><ele>903.656</ele></trkpt>
   <trkpt lat="41.7270334744" lon="70.14303189"><ele>908.929</ele></trkpt>
   <trkpt lat="41.7269106795" lon="70.143132389"><ele>918.034</ele></trkpt>
   <trkpt lat="41.7269578696" lon="70.1433145278"><ele>920.125</ele></trkpt>
   <trkpt lat="41.7268750983" lon="70.1434740354"><ele>930.301</ele></trkpt>
   <trkpt lat="41.7268788702" lon="70.1436668192"><ele>937.569</ele></trkpt>
   <trkpt lat="41.726921576" lon="70.1438514725"><ele>942.715</ele></trkpt>
   <trkpt lat="41.7267898963" lon="70.1439339504"><ele>949.868</ele></trkpt>
   <trkpt lat="41.7267811791" lon="70.1441275724"><ele>951.679</ele></trkpt>
   <trkpt lat="41.7266962704" lon="70.1442887564"><ele>966.122</ele></trkpt>
   <trkpt lat="41.7266895649" lon="70.1444840547"><ele>970.418</ele></trkpt>
   <trkpt lat="41.7266188635" lon="70.1446563867"><ele>971.293</ele></trkpt>
   <trkpt lat="41.7267179795" lon="70.1445133914"><ele>1013.872</ele></trkpt>
   <trkpt lat="41.7266831946" lon="70.1443248824"><ele>1005.398</ele></trkpt>
   <trkpt lat="41.7267720847" lon="70.144168057"><ele>994.615</ele></trkpt>
   <trkpt lat="41.7267813886" lon="70.1439715852"><ele>982.708</ele></trkpt>
   <trkpt lat="41.7269074944" lon="70.1438751933"><ele>984.219</ele></trkpt>
   <trkpt lat="41.7269201929" lon="70.1436790568"><ele>972.731</ele></trkpt>
   <trkpt lat="41.7269077877" lon="70.1434842613"><ele>958.811</ele></trkpt>
   <trkpt lat="41.7269849851" lon="70.1433133543"><ele>950.84</ele></trkpt>
   <trkpt lat="41.7269032615" lon="70.1431399328"><ele>933.325</ele></trkpt>
   <trkpt lat="41.727031798" lon="70.1427834504"><ele>915.402</ele></trkpt>
   <trkpt lat="41.7271754638" lon="70.1428128709"><ele>900.789</ele></trkpt>
  </trkseg>
 </trk>
</gpx>