<?xml version='1.0' encoding='utf-8'?>
<gpx xmlns="http://www.topografix.com/GPX/1/1" xmlns:ns2="https://gurumaps.app/gpx/v3" xmlns:xsi="http://www.w3.org/2001/XMLSchema-instance" version="1.1" creator="com.bodunov.galileo/v5.6.4" xsi:schemaLocation="http://www.topografix.com/GPX/1/1 http://www.topografix.com/GPX/1/1/gpx.xsd https://gurumaps.app/gpx/v3 https://gurumaps.app/gpx/v3/schema.xsd">
 <trk>
  <name>Kokbet&amp;Maygashkan</name>
  <type>TrackStyle_2196F3C8</type>
  <extensions>
   <ns2:time>2023-12-10T03:19:06.478Z</ns2:time>
  </extensions>
  <trkseg>
   <trkpt lat="41.4407986475" lon="69.8539651953"><ele>940.777</ele></trkpt>
   <trkpt lat="41.4407866195" lon="69.8539201845"><ele>941.531</ele></trkpt>
   <trkpt lat="41.4408667505" lon="69.8537447512"><ele>940.944</ele></trkpt>
   <trkpt lat="41.440841521" lon="69.8537067812"><ele>941.329</ele></trkpt>
   <trkpt lat="41.440843826" lon="69.8536759358"><ele>940.88</ele></trkpt>
   <trkpt lat="41.4409243342" lon="69.8535238881"><ele>942.276</ele></trkpt>
   <trkpt lat="41.4409594543" lon="69.8534989938"><ele>940.353</ele></trkpt>
   <trkpt lat="41.4410462489" lon="69.8532839142"><ele>941.86</ele></trkpt>
   <trkpt lat="41.4410913436" lon="69.8532708384"><ele>940.747</ele></trkpt>
   <trkpt lat="41.4411216442" lon="69.8533333674"><ele>939.965</ele></trkpt>
   <trkpt lat="41.441141635" lon="69.8534261551"><ele>940.497</ele></trkpt>
   <trkpt lat="41.4412192514" lon="69.8534696572"><ele>939.548</ele></trkpt>
   <trkpt lat="41.4412432237" lon="69.8535469383"><ele>942.127</ele></trkpt>
   <trkpt lat="41.4412651423" lon="69.8535445914"><ele>940.92</ele></trkpt>
   <trkpt lat="41.441346824" lon="69.8539428994"><ele>941.082</ele></trkpt>
   <trkpt lat="41.4413598578" lon="69.8539530415"><ele>941.778</ele></trkpt>
   <trkpt lat="41.4413849197" lon="69.8539100424"><ele>941.735</ele></trkpt>
   <trkpt lat="41.4413641326" lon="69.8538890876"><ele>940.162</ele></trkpt>
   <trkpt lat="41.4413363466" lon="69.8539045941"><ele>940.162</ele></trkpt>
   <trkpt lat="41.44131623" lon="69.8539867368"><ele>943.732</ele></trkpt>
   <trkpt lat="41.4413373524" lon="69.8541792691"><ele>941.963</ele></trkpt>
   <trkpt lat="41.4413700419" lon="69.8542208433"><ele>940.6</ele></trkpt>
   <trkpt lat="41.4413661443" lon="69.8542557959"><ele>944.061</ele></trkpt>
   <trkpt lat="41.4414296372" lon="69.8545061633"><ele>943.817</ele></trkpt>
   <trkpt lat="41.4414353369" lon="69.8545914911"><ele>943.738</ele></trkpt>
   <trkpt lat="41.4414657213" lon="69.8546631564"><ele>940.493</ele></trkpt>
   <trkpt lat="41.4414606502" lon="69.8548458818"><ele>942.837</ele></trkpt>
   <trkpt lat="41.4414413299" lon="69.8549661622"><ele>942.322</ele></trkpt>
   <trkpt lat="41.4414497538" lon="69.8550160345"><ele>942.745</ele></trkpt>
   <trkpt lat="41.4414688226" lon="69.8549898829"><ele>941.924</ele></trkpt>
   <trkpt lat="41.4414949322" lon="69.855045455"><ele>941.979</ele></trkpt>
   <trkpt lat="41.4414643383" lon="69.8551091574"><ele>941.845</ele></trkpt>
   <trkpt lat="41.4414316488" lon="69.8552487161"><ele>943.145</ele></trkpt>
   <trkpt lat="41.4412916292" lon="69.8554088105"><ele>943.062</ele></trkpt>
   <trkpt lat="41.4410517391" lon="69.8555733472"><ele>945.63</ele></trkpt>
   <trkpt lat="41.4408939498" lon="69.8556545679"><ele>943.552</ele></trkpt>
   <trkpt lat="41.4406842345" lon="69.8559175082"><ele>940.947</ele></trkpt>
   <trkpt lat="41.4405837355" lon="69.8559303325"><ele>941.179</ele></trkpt>
   <trkpt lat="41.440430221" lon="69.8559947055"><ele>941.227</ele></trkpt>
   <trkpt lat="41.4404029379" lon="69.8560306639"><ele>941.913</ele></trkpt>
   <trkpt lat="41.4403312307" lon="69.856035693"><ele>942.855</ele></trkpt>
   <trkpt lat="41.4400960345" lon="69.8561986372"><ele>944.527</ele></trkpt>
   <trkpt lat="41.440003624" lon="69.8562187538"><ele>945.696</ele></trkpt>
   <trkpt lat="41.439901742" lon="69.8562130541"><ele>946.199</ele></trkpt>
   <trkpt lat="41.4397006182" lon="69.8562635131"><ele>945.961</ele></trkpt>
   <trkpt lat="41.4396149552" lon="69.8562649381"><ele>944.839</ele></trkpt>
   <trkpt lat="41.4396265222" lon="69.8562841326"><ele>944.938</ele></trkpt>
   <trkpt lat="41.4397504486" lon="69.8562809475"><ele>944.9</ele></trkpt>
   <trkpt lat="41.439823455" lon="69.8563226894"><ele>946.95</ele></trkpt>
   <trkpt lat="41.4398590362" lon="69.8564128786"><ele>948.652</ele></trkpt>
   <trkpt lat="41.439820228" lon="69.8565203346"><ele>950.176</ele></trkpt>
   <trkpt lat="41.4397840181" lon="69.8565690335"><ele>952.352</ele></trkpt>
   <trkpt lat="41.4396594212" lon="69.8566487454"><ele>957.405</ele></trkpt>
   <trkpt lat="41.439555737" lon="69.8567886394"><ele>963.805</ele></trkpt>
   <trkpt lat="41.4394659249" lon="69.8568421159"><ele>968.468</ele></trkpt>
   <trkpt lat="41.4394212494" lon="69.8569566127"><ele>973.343</ele></trkpt>
   <trkpt lat="41.439381142" lon="69.8570133582"><ele>974.371</ele></trkpt>
   <trkpt lat="41.4393217562" lon="69.8572079022"><ele>975.856</ele></trkpt>
   <trkpt lat="41.4392620351" lon="69.8572151944"><ele>972.73</ele></trkpt>
   <trkpt lat="41.4391981231" lon="69.8572578583"><ele>973.536</ele></trkpt>
   <trkpt lat="41.4391391564" lon="69.8574394103"><ele>974.742</ele></trkpt>
   <trkpt lat="41.4390130507" lon="69.8576462757"><ele>980.391</ele></trkpt>
   <trkpt lat="41.4388999369" lon="69.8577183601"><ele>980.1</ele></trkpt>
   <trkpt lat="41.4388157407" lon="69.8578282468"><ele>982.431</ele></trkpt>
   <trkpt lat="41.4387940316" lon="69.8578907758"><ele>983.325</ele></trkpt>
   <trkpt lat="41.4387906369" lon="69.8579655424"><ele>984.218</ele></trkpt>
   <trkpt lat="41.4387386272" lon="69.8580422368"><ele>985.26</ele></trkpt>
   <trkpt lat="41.4386859469" lon="69.8581891716"><ele>990.269</ele></trkpt>
   <trkpt lat="41.4386187241" lon="69.8585156467"><ele>994.621</ele></trkpt>
   <trkpt lat="41.4385205301" lon="69.8587305587"><ele>997.998</ele></trkpt>
   <trkpt lat="41.4385003297" lon="69.8588187363"><ele>999.28</ele></trkpt>
   <trkpt lat="41.4384393513" lon="69.8589269467"><ele>998.791</ele></trkpt>
   <trkpt lat="41.438415421" lon="69.8590568662"><ele>998.021</ele></trkpt>
   <trkpt lat="41.4382929195" lon="69.8591646575"><ele>996.84</ele></trkpt>
   <trkpt lat="41.4382273311" lon="69.8593096644"><ele>998.273</ele></trkpt>
   <trkpt lat="41.4381589348" lon="69.8593809944"><ele>997.357</ele></trkpt>
   <trkpt lat="41.4381614493" lon="69.8594301961"><ele>997.413</ele></trkpt>
   <trkpt lat="41.4381114513" lon="69.85944696"><ele>997.834</ele></trkpt>
   <trkpt lat="41.4380778398" lon="69.8594935633"><ele>996.645</ele></trkpt>
   <trkpt lat="41.437990249" lon="69.8597545758"><ele>998.051</ele></trkpt>
   <trkpt lat="41.4379368562" lon="69.8601888422"><ele>999.704</ele></trkpt>
   <trkpt lat="41.4379017361" lon="69.8603449971"><ele>1000.95</ele></trkpt>
   <trkpt lat="41.4378623411" lon="69.8604136448"><ele>1001.348</ele></trkpt>
   <trkpt lat="41.4378062243" lon="69.8603974678"><ele>1000.938</ele></trkpt>
   <trkpt lat="41.4377807433" lon="69.8604102083"><ele>1001.137</ele></trkpt>
   <trkpt lat="41.4376613431" lon="69.8606148943"><ele>1005.134</ele></trkpt>
   <trkpt lat="41.4375594191" lon="69.8606913373"><ele>1006.691</ele></trkpt>
   <trkpt lat="41.4375285318" lon="69.8607337497"><ele>1008.065</ele></trkpt>
   <trkpt lat="41.4375141569" lon="69.8608636692"><ele>1008.49</ele></trkpt>
   <trkpt lat="41.437465919" lon="69.8610541061"><ele>1009.049</ele></trkpt>
   <trkpt lat="41.4374496162" lon="69.861262564"><ele>1011.028</ele></trkpt>
   <trkpt lat="41.4373309285" lon="69.8615376581"><ele>1015.109</ele></trkpt>
   <trkpt lat="41.4373351194" lon="69.8616012767"><ele>1016.169</ele></trkpt>
   <trkpt lat="41.4373088421" lon="69.8617458645"><ele>1017.816</ele></trkpt>
   <trkpt lat="41.4373347422" lon="69.8619773727"><ele>1019.281</ele></trkpt>
   <trkpt lat="41.4373205349" lon="69.862124978"><ele>1019.158</ele></trkpt>
   <trkpt lat="41.4371606501" lon="69.8625988908"><ele>1024.716</ele></trkpt>
   <trkpt lat="41.4371040303" lon="69.862699306"><ele>1026.35</ele></trkpt>
   <trkpt lat="41.4370892363" lon="69.8628631722"><ele>1028.045</ele></trkpt>
   <trkpt lat="41.4369620409" lon="69.863154611"><ele>1035.492</ele></trkpt>
   <trkpt lat="41.4369465344" lon="69.8632577084"><ele>1034.114</ele></trkpt>
   <trkpt lat="41.436957347" lon="69.8634423617"><ele>1033.234</ele></trkpt>
   <trkpt lat="41.437029138" lon="69.8636502329"><ele>1032.928</ele></trkpt>
   <trkpt lat="41.4370412499" lon="69.8636641469"><ele>1033.957</ele></trkpt>
   <trkpt lat="41.4370447284" lon="69.8636505682"><ele>1034.467</ele></trkpt>
   <trkpt lat="41.4371015577" lon="69.8641262412"><ele>1032.105</ele></trkpt>
   <trkpt lat="41.4371876398" lon="69.8644212842"><ele>1033.497</ele></trkpt>
   <trkpt lat="41.4372330278" lon="69.8646204382"><ele>1035.98</ele></trkpt>
   <trkpt lat="41.4372418288" lon="69.8647338454"><ele>1033.512</ele></trkpt>
   <trkpt lat="41.4373123206" lon="69.8650128789"><ele>1034.886</ele></trkpt>
   <trkpt lat="41.4373383464" lon="69.8653067485"><ele>1036.85</ele></trkpt>
   <trkpt lat="41.4373211216" lon="69.8655552719"><ele>1037.546</ele></trkpt>
   <trkpt lat="41.4373397294" lon="69.8656708583"><ele>1038.14</ele></trkpt>
   <trkpt lat="41.4373332335" lon="69.8658106685"><ele>1039.065</ele></trkpt>
   <trkpt lat="41.4373513384" lon="69.8659990937"><ele>1040.289</ele></trkpt>
   <trkpt lat="41.437394128" lon="69.8661348805"><ele>1039.639</ele></trkpt>
   <trkpt lat="41.43743302" lon="69.8662083898"><ele>1040.445</ele></trkpt>
   <trkpt lat="41.4375063198" lon="69.866311571"><ele>1041.728</ele></trkpt>
   <trkpt lat="41.4376313359" lon="69.8665429115"><ele>1043.156</ele></trkpt>
   <trkpt lat="41.4377168313" lon="69.8666574922"><ele>1044.4</ele></trkpt>
   <trkpt lat="41.4378831282" lon="69.8669729032"><ele>1047.328</ele></trkpt>
   <trkpt lat="41.4380001396" lon="69.8671195865"><ele>1049.431</ele></trkpt>
   <trkpt lat="41.4381150555" lon="69.8671657708"><ele>1050.16</ele></trkpt>
   <trkpt lat="41.4381492537" lon="69.8672148049"><ele>1051.159</ele></trkpt>
   <trkpt lat="41.438177333" lon="69.8673057485"><ele>1053.515</ele></trkpt>
   <trkpt lat="41.4381452303" lon="69.8675071657"><ele>1056.451</ele></trkpt>
   <trkpt lat="41.4381659336" lon="69.867566761"><ele>1057.085</ele></trkpt>
   <trkpt lat="41.4383049475" lon="69.8677004524"><ele>1057.433</ele></trkpt>
   <trkpt lat="41.4384193186" lon="69.867846046"><ele>1060.061</ele></trkpt>
   <trkpt lat="41.4384934565" lon="69.8680092417"><ele>1061.842</ele></trkpt>
   <trkpt lat="41.4387841409" lon="69.868195739"><ele>1066.493</ele></trkpt>
   <trkpt lat="41.4389893299" lon="69.8683816496"><ele>1068.241</ele></trkpt>
   <trkpt lat="41.4390260426" lon="69.8684362996"><ele>1069.712</ele></trkpt>
   <trkpt lat="41.4390520265" lon="69.8684961464"><ele>1069.684</ele></trkpt>
   <trkpt lat="41.4390398309" lon="69.8686894331"><ele>1069.874</ele></trkpt>
   <trkpt lat="41.4390571395" lon="69.8687945422"><ele>1070.957</ele></trkpt>
   <trkpt lat="41.439037442" lon="69.8688246332"><ele>1070.816</ele></trkpt>
   <trkpt lat="41.4390369391" lon="69.8688592505"><ele>1071.035</ele></trkpt>
   <trkpt lat="41.4390841292" lon="69.8691238672"><ele>1069.826</ele></trkpt>
   <trkpt lat="41.43907822" lon="69.8692625038"><ele>1068.206</ele></trkpt>
   <trkpt lat="41.4390913377" lon="69.8693756595"><ele>1068.06</ele></trkpt>
   <trkpt lat="41.4392381467" lon="69.8696246859"><ele>1068.98</ele></trkpt>
   <trkpt lat="41.4393744364" lon="69.8697355785"><ele>1072.062</ele></trkpt>
   <trkpt lat="41.4393884342" lon="69.8697631549"><ele>1071.616</ele></trkpt>
   <trkpt lat="41.4396334373" lon="69.8698720358"><ele>1067.616</ele></trkpt>
   <trkpt lat="41.4397256382" lon="69.8699537594"><ele>1067.346</ele></trkpt>
   <trkpt lat="41.4399098305" lon="69.8700434458"><ele>1067.632</ele></trkpt>
   <trkpt lat="41.4400546279" lon="69.8700842656"><ele>1065.763</ele></trkpt>
   <trkpt lat="41.4401414225" lon="69.8701499798"><ele>1066.421</ele></trkpt>
   <trkpt lat="41.440329219" lon="69.87040831"><ele>1066.195</ele></trkpt>
   <trkpt lat="41.4403342482" lon="69.8705297638"><ele>1069.283</ele></trkpt>
   <trkpt lat="41.4403554544" lon="69.8705702484"><ele>1070.516</ele></trkpt>
   <trkpt lat="41.440390826" lon="69.8705938015"><ele>1071.115</ele></trkpt>
   <trkpt lat="41.4405209551" lon="69.8706208751"><ele>1072.83</ele></trkpt>
   <trkpt lat="41.4405792512" lon="69.8706829012"><ele>1074.165</ele></trkpt>
   <trkpt lat="41.4405702407" lon="69.8706570011"><ele>1074.18</ele></trkpt>
   <trkpt lat="41.4405383475" lon="69.8706425004"><ele>1072.842</ele></trkpt>
   <trkpt lat="41.4405453464" lon="69.8706679814"><ele>1072.047</ele></trkpt>
   <trkpt lat="41.4406530539" lon="69.8707622778"><ele>1076.033</ele></trkpt>
   <trkpt lat="41.4407115176" lon="69.870930754"><ele>1076.542</ele></trkpt>
   <trkpt lat="41.4407410219" lon="69.870975681"><ele>1077.365</ele></trkpt>
   <trkpt lat="41.4409166228" lon="69.8711646091"><ele>1079.435</ele></trkpt>
   <trkpt lat="41.4410802376" lon="69.8712801956"><ele>1084.211</ele></trkpt>
   <trkpt lat="41.4411238235" lon="69.8714316566"><ele>1086.982</ele></trkpt>
   <trkpt lat="41.4411655234" lon="69.8714870609"><ele>1089.324</ele></trkpt>
   <trkpt lat="41.4411873164" lon="69.8715733107"><ele>1090.11</ele></trkpt>
   <trkpt lat="41.4412636336" lon="69.8716842033"><ele>1093.049</ele></trkpt>
   <trkpt lat="41.4413032381" lon="69.8717987839"><ele>1097.225</ele></trkpt>
   <trkpt lat="41.4412406253" lon="69.8718516737"><ele>1099.545</ele></trkpt>
   <trkpt lat="41.441246325" lon="69.8719121911"><ele>1100.166</ele></trkpt>
   <trkpt lat="41.4412595265" lon="69.871902049"><ele>1101.266</ele></trkpt>
   <trkpt lat="41.4412737338" lon="69.8719727084"><ele>1101.06</ele></trkpt>
   <trkpt lat="41.4412633402" lon="69.8720419429"><ele>1103.533</ele></trkpt>
   <trkpt lat="41.4413910385" lon="69.8721889615"><ele>1108.608</ele></trkpt>
   <trkpt lat="41.4414375162" lon="69.8723141872"><ele>1112.095</ele></trkpt>
   <trkpt lat="41.4414317327" lon="69.8724716831"><ele>1114.898</ele></trkpt>
   <trkpt lat="41.4413999233" lon="69.8726547439"><ele>1118.065</ele></trkpt>
   <trkpt lat="41.4414094368" lon="69.872599088"><ele>1115.364</ele></trkpt>
   <trkpt lat="41.4413965287" lon="69.8726142593"><ele>1117.094</ele></trkpt>
   <trkpt lat="41.4414073413" lon="69.8726057936"><ele>1116.742</ele></trkpt>
   <trkpt lat="41.4414079281" lon="69.8726235632"><ele>1115.898</ele></trkpt>
   <trkpt lat="41.4413707543" lon="69.8725922987"><ele>1115.553</ele></trkpt>
   <trkpt lat="41.4414216325" lon="69.8726276703"><ele>1117.27</ele></trkpt>
   <trkpt lat="41.4414140469" lon="69.8726011835"><ele>1116.097</ele></trkpt>
   <trkpt lat="41.4413944332" lon="69.872626413"><ele>1116.534</ele></trkpt>
   <trkpt lat="41.4414207524" lon="69.8726361361"><ele>1116.079</ele></trkpt>
   <trkpt lat="41.4414520169" lon="69.8727055382"><ele>1117.355</ele></trkpt>
   <trkpt lat="41.4415144201" lon="69.8727032751"><ele>1117.996</ele></trkpt>
   <trkpt lat="41.4414554535" lon="69.8727124952"><ele>1117.706</ele></trkpt>
   <trkpt lat="41.4414594349" lon="69.8726675682"><ele>1117.591</ele></trkpt>
   <trkpt lat="41.4414827365" lon="69.8726924624"><ele>1117.64</ele></trkpt>
   <trkpt lat="41.4415358359" lon="69.8726888582"><ele>1117.65</ele></trkpt>
   <trkpt lat="41.4415605206" lon="69.8727207933"><ele>1118.353</ele></trkpt>
   <trkpt lat="41.4416598462" lon="69.8730265651"><ele>1124.4</ele></trkpt>
   <trkpt lat="41.4416787474" lon="69.8731491923"><ele>1126.387</ele></trkpt>
   <trkpt lat="41.4417952558" lon="69.8733416408"><ele>1131.123</ele></trkpt>
   <trkpt lat="41.4417925317" lon="69.8733829636"><ele>1131.364</ele></trkpt>
   <trkpt lat="41.44172292" lon="69.8734813672"><ele>1132.925</ele></trkpt>
   <trkpt lat="41.4416287493" lon="69.8735208459"><ele>1135.882</ele></trkpt>
   <trkpt lat="41.4415586347" lon="69.8735233605"><ele>1137.218</ele></trkpt>
   <trkpt lat="41.4414377257" lon="69.8735937685"><ele>1136.348</ele></trkpt>
   <trkpt lat="41.4412125459" lon="69.8736058384"><ele>1145.51</ele></trkpt>
   <trkpt lat="41.4410575226" lon="69.8736711335"><ele>1147.581</ele></trkpt>
   <trkpt lat="41.4406615196" lon="69.8736964468"><ele>1153.005</ele></trkpt>
   <trkpt lat="41.4403970286" lon="69.8737692855"><ele>1157.712</ele></trkpt>
   <trkpt lat="41.4401340464" lon="69.873692172"><ele>1160.569</ele></trkpt>
   <trkpt lat="41.4399791488" lon="69.8738137934"><ele>1165.615</ele></trkpt>
   <trkpt lat="41.4399773467" lon="69.8738422919"><ele>1165.895</ele></trkpt>
   <trkpt lat="41.4400100362" lon="69.8739010491"><ele>1167.182</ele></trkpt>
   <trkpt lat="41.4401720164" lon="69.8740697768"><ele>1169.91</ele></trkpt>
   <trkpt lat="41.4402204219" lon="69.8740924079"><ele>1170.944</ele></trkpt>
   <trkpt lat="41.4402918357" lon="69.8741944995"><ele>1171.715</ele></trkpt>
   <trkpt lat="41.4402173206" lon="69.8740855348"><ele>1171.91</ele></trkpt>
   <trkpt lat="41.4400942324" lon="69.8739855386"><ele>1169.809</ele></trkpt>
   <trkpt lat="41.4400214355" lon="69.874058545"><ele>1170.175</ele></trkpt>
   <trkpt lat="41.4399857286" lon="69.8741526738"><ele>1171.528</ele></trkpt>
   <trkpt lat="41.4399852257" lon="69.8742526699"><ele>1172.979</ele></trkpt>
   <trkpt lat="41.4400316196" lon="69.8744493093"><ele>1177.338</ele></trkpt>
   <trkpt lat="41.4400415521" lon="69.8745669913"><ele>1180.137</ele></trkpt>
   <trkpt lat="41.4400921369" lon="69.8746746149"><ele>1183.302</ele></trkpt>
   <trkpt lat="41.4401039554" lon="69.8747402452"><ele>1184.775</ele></trkpt>
   <trkpt lat="41.4400946515" lon="69.8748606932"><ele>1187.195</ele></trkpt>
   <trkpt lat="41.4401187494" lon="69.8749433387"><ele>1188.602</ele></trkpt>
   <trkpt lat="41.4401074339" lon="69.8750189435"><ele>1189.489</ele></trkpt>
   <trkpt lat="41.4401506426" lon="69.875076611"><ele>1191.227</ele></trkpt>
   <trkpt lat="41.4400869401" lon="69.8751875036"><ele>1192.847</ele></trkpt>
   <trkpt lat="41.4401014408" lon="69.8752068658"><ele>1192.832</ele></trkpt>
   <trkpt lat="41.4401715554" lon="69.8751975618"><ele>1194.231</ele></trkpt>
   <trkpt lat="41.4402200447" lon="69.875228072"><ele>1195.923</ele></trkpt>
   <trkpt lat="41.4402400356" lon="69.8752674669"><ele>1197.808</ele></trkpt>
   <trkpt lat="41.440231528" lon="69.875249362"><ele>1196.463</ele></trkpt>
   <trkpt lat="41.4402302288" lon="69.8752621863"><ele>1195.208</ele></trkpt>
   <trkpt lat="41.4402364314" lon="69.875212314"><ele>1196.461</ele></trkpt>
   <trkpt lat="41.440223649" lon="69.8752344422"><ele>1194.927</ele></trkpt>
   <trkpt lat="41.4402340425" lon="69.8752320953"><ele>1194.577</ele></trkpt>
   <trkpt lat="41.4402337492" lon="69.8752732504"><ele>1197.922</ele></trkpt>
   <trkpt lat="41.4402618285" lon="69.8753361147"><ele>1197.919</ele></trkpt>
   <trkpt lat="41.4403372238" lon="69.8753207758"><ele>1200.744</ele></trkpt>
   <trkpt lat="41.4404333223" lon="69.8754463367"><ele>1202.745</ele></trkpt>
   <trkpt lat="41.440494133" lon="69.8754771821"><ele>1206.017</ele></trkpt>
   <trkpt lat="41.4407163372" lon="69.8754279804"><ele>1203.356</ele></trkpt>
   <trkpt lat="41.4408260563" lon="69.8754321713"><ele>1202.088</ele></trkpt>
   <trkpt lat="41.4409143178" lon="69.8754563112"><ele>1203.45</ele></trkpt>
   <trkpt lat="41.4410677485" lon="69.8755757533"><ele>1200.411</ele></trkpt>
   <trkpt lat="41.4411901243" lon="69.8755519487"><ele>1199.811</ele></trkpt>
   <trkpt lat="41.4412234424" lon="69.8756136395"><ele>1199.736</ele></trkpt>
   <trkpt lat="41.4412758293" lon="69.8756372765"><ele>1200.407</ele></trkpt>
   <trkpt lat="41.4413335387" lon="69.8757705487"><ele>1200.423</ele></trkpt>
   <trkpt lat="41.4413888173" lon="69.8758469079"><ele>1201.298</ele></trkpt>
   <trkpt lat="41.4414653441" lon="69.8759128735"><ele>1201.829</ele></trkpt>
   <trkpt lat="41.4415685253" lon="69.8762422823"><ele>1205.286</ele></trkpt>
   <trkpt lat="41.4416315572" lon="69.8763293702"><ele>1207.197</ele></trkpt>
   <trkpt lat="41.4417230457" lon="69.8763996106"><ele>1208.634</ele></trkpt>
   <trkpt lat="41.4417309247" lon="69.8764589545"><ele>1210.022</ele></trkpt>
   <trkpt lat="41.4416690243" lon="69.8765336372"><ele>1211.716</ele></trkpt>
   <trkpt lat="41.441653434" lon="69.8765929811"><ele>1213.176</ele></trkpt>
   <trkpt lat="41.4416330241" lon="69.8767593619"><ele>1216.263</ele></trkpt>
   <trkpt lat="41.4416391429" lon="69.8768413369"><ele>1217.691</ele></trkpt>
   <trkpt lat="41.4416008376" lon="69.8768910416"><ele>1218.512</ele></trkpt>
   <trkpt lat="41.4416697368" lon="69.8772068717"><ele>1226.809</ele></trkpt>
   <trkpt lat="41.4416876322" lon="69.8773877531"><ele>1229.849</ele></trkpt>
   <trkpt lat="41.4417431204" lon="69.8775501944"><ele>1233.683</ele></trkpt>
   <trkpt lat="41.4417764384" lon="69.877878765"><ele>1239.265</ele></trkpt>
   <trkpt lat="41.4418502411" lon="69.8781318985"><ele>1243.262</ele></trkpt>
   <trkpt lat="41.441952626" lon="69.8782604769"><ele>1245.383</ele></trkpt>
   <trkpt lat="41.4419613432" lon="69.8783499118"><ele>1248.818</ele></trkpt>
   <trkpt lat="41.4419499438" lon="69.8785590403"><ele>1252.07</ele></trkpt>
   <trkpt lat="41.4420261353" lon="69.8785820905"><ele>1252.901</ele></trkpt>
   <trkpt lat="41.4420679191" lon="69.8786662448"><ele>1255.002</ele></trkpt>
   <trkpt lat="41.4420991417" lon="69.8786906362"><ele>1256.882</ele></trkpt>
   <trkpt lat="41.442107817" lon="69.8786763031"><ele>1257.053</ele></trkpt>
   <trkpt lat="41.442087449" lon="69.8786811646"><ele>1256.779</ele></trkpt>
   <trkpt lat="41.442089754" lon="69.8786977608"><ele>1256.404</ele></trkpt>
   <trkpt lat="41.4420840543" lon="69.8786877025"><ele>1255.53</ele></trkpt>
   <trkpt lat="41.4420994351" lon="69.8787066456"><ele>1255.823</ele></trkpt>
   <trkpt lat="41.442083719" lon="69.8788289376"><ele>1256.601</ele></trkpt>
   <trkpt lat="41.4421037518" lon="69.8788747866"><ele>1258.103</ele></trkpt>
   <trkpt lat="41.4421352258" lon="69.8790592723"><ele>1260.764</ele></trkpt>
   <trkpt lat="41.4422056338" lon="69.8791725118"><ele>1262.392</ele></trkpt>
   <trkpt lat="41.4422478367" lon="69.8793264035"><ele>1265.597</ele></trkpt>
   <trkpt lat="41.4423386546" lon="69.8794374637"><ele>1268.133</ele></trkpt>
   <trkpt lat="41.4423608247" lon="69.879704595"><ele>1273.18</ele></trkpt>
   <trkpt lat="41.4423966574" lon="69.8798307426"><ele>1275.4</ele></trkpt>
   <trkpt lat="41.4423951486" lon="69.879955633"><ele>1277.482</ele></trkpt>
   <trkpt lat="41.4424324481" lon="69.8801355086"><ele>1280.784</ele></trkpt>
   <trkpt lat="41.442432951" lon="69.8802926693"><ele>1280.371</ele></trkpt>
   <trkpt lat="41.442453319" lon="69.8803256102"><ele>1281.273</ele></trkpt>
   <trkpt lat="41.442490828" lon="69.8803336568"><ele>1282.197</ele></trkpt>
   <trkpt lat="41.44257142" lon="69.8805738822"><ele>1288.645</ele></trkpt>
   <trkpt lat="41.4426203284" lon="69.8806409374"><ele>1290.502</ele></trkpt>
   <trkpt lat="41.4426308477" lon="69.88068511"><ele>1291.701</ele></trkpt>
   <trkpt lat="41.4426186521" lon="69.8807613015"><ele>1293.151</ele></trkpt>
   <trkpt lat="41.4426782474" lon="69.8808195558"><ele>1295.196</ele></trkpt>
   <trkpt lat="41.4427183548" lon="69.8809080687"><ele>1297.71</ele></trkpt>
   <trkpt lat="41.4427391419" lon="69.8810529918"><ele>1300.988</ele></trkpt>
   <trkpt lat="41.4427973542" lon="69.881114934"><ele>1303.329</ele></trkpt>
   <trkpt lat="41.4428216199" lon="69.88111309"><ele>1303.694</ele></trkpt>
   <trkpt lat="41.4428096337" lon="69.8811130062"><ele>1305.109</ele></trkpt>
   <trkpt lat="41.4428143276" lon="69.8811290994"><ele>1304.714</ele></trkpt>
   <trkpt lat="41.4428095499" lon="69.881107055"><ele>1305.469</ele></trkpt>
   <trkpt lat="41.4428117292" lon="69.8811224777"><ele>1304.331</ele></trkpt>
   <trkpt lat="41.4428698577" lon="69.8810643912"><ele>1304.216</ele></trkpt>
   <trkpt lat="41.4428082507" lon="69.8811204661"><ele>1304.583</ele></trkpt>
   <trkpt lat="41.4428064486" lon="69.8810904589"><ele>1302.633</ele></trkpt>
   <trkpt lat="41.44280582" lon="69.8811066359"><ele>1302.374</ele></trkpt>
   <trkpt lat="41.4427414469" lon="69.8810872737"><ele>1300.762</ele></trkpt>
   <trkpt lat="41.4428034311" lon="69.8810978349"><ele>1301.775</ele></trkpt>
   <trkpt lat="41.442786835" lon="69.8811123356"><ele>1301.633</ele></trkpt>
   <trkpt lat="41.442788218" lon="69.8810981702"><ele>1301.702</ele></trkpt>
   <trkpt lat="41.4428064486" lon="69.8811262496"><ele>1300.915</ele></trkpt>
   <trkpt lat="41.442814621" lon="69.8810969968"><ele>1302.704</ele></trkpt>
   <trkpt lat="41.4428314267" lon="69.8811391577"><ele>1302.25</ele></trkpt>
   <trkpt lat="41.4428212427" lon="69.8811638005"><ele>1303.644</ele></trkpt>
   <trkpt lat="41.4428400181" lon="69.8811751999"><ele>1303.074</ele></trkpt>
   <trkpt lat="41.4428941233" lon="69.8813155968"><ele>1306.439</ele></trkpt>
   <trkpt lat="41.4428622302" lon="69.8814881802"><ele>1308.784</ele></trkpt>
   <trkpt lat="41.4428814247" lon="69.8815605998"><ele>1310.272</ele></trkpt>
   <trkpt lat="41.4428483162" lon="69.8816234641"><ele>1310.775</ele></trkpt>
   <trkpt lat="41.442836833" lon="69.8816944588"><ele>1311.091</ele></trkpt>
   <trkpt lat="41.4428500345" lon="69.8818765138"><ele>1314.331</ele></trkpt>
   <trkpt lat="41.4429014575" lon="69.8819493525"><ele>1316.213</ele></trkpt>
   <trkpt lat="41.4429443309" lon="69.8819564771"><ele>1317.389</ele></trkpt>
   <trkpt lat="41.4429707339" lon="69.8819844727"><ele>1318.288</ele></trkpt>
   <trkpt lat="41.4429900542" lon="69.8820234485"><ele>1319.685</ele></trkpt>
   <trkpt lat="41.4429835163" lon="69.882092683"><ele>1320.936</ele></trkpt>
   <trkpt lat="41.4430454167" lon="69.8821310721"><ele>1321.833</ele></trkpt>
   <trkpt lat="41.4430552235" lon="69.8821547091"><ele>1322.477</ele></trkpt>
   <trkpt lat="41.4430324247" lon="69.8822158132"><ele>1323.241</ele></trkpt>
   <trkpt lat="41.4430300359" lon="69.8823225986"><ele>1324.97</ele></trkpt>
   <trkpt lat="41.4429923173" lon="69.882451177"><ele>1327.6</ele></trkpt>
   <trkpt lat="41.4429996515" lon="69.8825370077"><ele>1329.681</ele></trkpt>
   <trkpt lat="41.4430237494" lon="69.8825489938"><ele>1330.863</ele></trkpt>
   <trkpt lat="41.443021654" lon="69.8826989461"><ele>1333.644</ele></trkpt>
   <trkpt lat="41.4429819238" lon="69.8828349006"><ele>1336.229</ele></trkpt>
   <trkpt lat="41.44296143" lon="69.8829801589"><ele>1339.224</ele></trkpt>
   <trkpt lat="41.4429584544" lon="69.8830731981"><ele>1340.965</ele></trkpt>
   <trkpt lat="41.4429722427" lon="69.8831348051"><ele>1343.056</ele></trkpt>
   <trkpt lat="41.4429562332" lon="69.883226084"><ele>1346.348</ele></trkpt>
   <trkpt lat="41.4429683451" lon="69.8832548339"><ele>1347.812</ele></trkpt>
   <trkpt lat="41.4429595441" lon="69.8832648084"><ele>1348.87</ele></trkpt>
   <trkpt lat="41.4429910181" lon="69.8833234817"><ele>1350.263</ele></trkpt>
   <trkpt lat="41.4430049321" lon="69.8836466879"><ele>1359.735</ele></trkpt>
   <trkpt lat="41.4429663334" lon="69.8837165091"><ele>1361.342</ele></trkpt>
   <trkpt lat="41.4429690575" lon="69.8837714106"><ele>1363.058</ele></trkpt>
   <trkpt lat="41.4429433251" lon="69.8838556487"><ele>1366.228</ele></trkpt>
   <trkpt lat="41.4429655371" lon="69.8839037609"><ele>1367.247</ele></trkpt>
   <trkpt lat="41.4429483542" lon="69.8839259729"><ele>1368.757</ele></trkpt>
   <trkpt lat="41.4429416487" lon="69.8839895077"><ele>1369.433</ele></trkpt>
   <trkpt lat="41.4429777328" lon="69.8841309942"><ele>1372.786</ele></trkpt>
   <trkpt lat="41.4430495238" lon="69.8842838802"><ele>1377.268</ele></trkpt>
   <trkpt lat="41.4430453328" lon="69.8843286395"><ele>1378.302</ele></trkpt>
   <trkpt lat="41.4430876195" lon="69.8844659351"><ele>1382.4</ele></trkpt>
   <trkpt lat="41.44309202" lon="69.8845600639"><ele>1384.884</ele></trkpt>
   <trkpt lat="41.4431233265" lon="69.8846775782"><ele>1388.85</ele></trkpt>
   <trkpt lat="41.443114735" lon="69.8847293783"><ele>1390.308</ele></trkpt>
   <trkpt lat="41.4431076523" lon="69.8847186495"><ele>1390.614</ele></trkpt>
   <trkpt lat="41.4431030423" lon="69.8848180588"><ele>1391.359</ele></trkpt>
   <trkpt lat="41.4430513259" lon="69.8849136964"><ele>1393.844</ele></trkpt>
   <trkpt lat="41.4430483503" lon="69.8849779856"><ele>1395.125</ele></trkpt>
   <trkpt lat="41.4430722388" lon="69.8850408498"><ele>1395.848</ele></trkpt>
   <trkpt lat="41.4430805368" lon="69.8851447854"><ele>1397.204</ele></trkpt>
   <trkpt lat="41.4430671258" lon="69.8852392495"><ele>1398.329</ele></trkpt>
   <trkpt lat="41.4431195546" lon="69.8853348032"><ele>1397.791</ele></trkpt>
   <trkpt lat="41.4431391263" lon="69.8854145989"><ele>1397.787</ele></trkpt>
   <trkpt lat="41.4432528269" lon="69.8856862564"><ele>1399.272</ele></trkpt>
   <trkpt lat="41.4432677466" lon="69.885776278"><ele>1401.279</ele></trkpt>
   <trkpt lat="41.4432181258" lon="69.8858814709"><ele>1404.014</ele></trkpt>
   <trkpt lat="41.443279649" lon="69.8859334387"><ele>1404.768</ele></trkpt>
   <trkpt lat="41.4433286412" lon="69.8860211972"><ele>1408.3</ele></trkpt>
   <trkpt lat="41.4433098238" lon="69.8861038428"><ele>1410.315</ele></trkpt>
   <trkpt lat="41.4433601571" lon="69.8861802858"><ele>1412.58</ele></trkpt>
   <trkpt lat="41.4433691258" lon="69.8862349358"><ele>1414.587</ele></trkpt>
   <trkpt lat="41.4433741549" lon="69.8862151545"><ele>1414.979</ele></trkpt>
   <trkpt lat="41.4433658568" lon="69.8861933615"><ele>1414.08</ele></trkpt>
   <trkpt lat="41.4433619173" lon="69.8862748336"><ele>1415.33</ele></trkpt>
   <trkpt lat="41.4433869373" lon="69.8863403801"><ele>1417.533</ele></trkpt>
   <trkpt lat="41.4433443572" lon="69.8863620892"><ele>1418.502</ele></trkpt>
   <trkpt lat="41.4433403339" lon="69.886379775"><ele>1418.488</ele></trkpt>
   <trkpt lat="41.443364851" lon="69.8864223551"><ele>1420.445</ele></trkpt>
   <trkpt lat="41.4434085207" lon="69.8864424717"><ele>1422.062</ele></trkpt>
   <trkpt lat="41.4434267514" lon="69.8865262069"><ele>1422.565</ele></trkpt>
   <trkpt lat="41.4434521485" lon="69.886537271"><ele>1424.103</ele></trkpt>
   <trkpt lat="41.4434489215" lon="69.8865750734"><ele>1425.709</ele></trkpt>
   <trkpt lat="41.4434772523" lon="69.8866215091"><ele>1426.669</ele></trkpt>
   <trkpt lat="41.4434515199" lon="69.886703568"><ele>1429.807</ele></trkpt>
   <trkpt lat="41.4435317347" lon="69.8867413704"><ele>1431.828</ele></trkpt>
   <trkpt lat="41.4435852531" lon="69.8868227586"><ele>1434.83</ele></trkpt>
   <trkpt lat="41.4436162243" lon="69.8868220881"><ele>1433.67</ele></trkpt>
   <trkpt lat="41.4436036514" lon="69.886881851"><ele>1435.376</ele></trkpt>
   <trkpt lat="41.4436412443" lon="69.8869002912"><ele>1437.755</ele></trkpt>
   <trkpt lat="41.4436869256" lon="69.8869631555"><ele>1439.452</ele></trkpt>
   <trkpt lat="41.4436996242" lon="69.8870204039"><ele>1440.407</ele></trkpt>
   <trkpt lat="41.4436743528" lon="69.8870776523"><ele>1443.528</ele></trkpt>
   <trkpt lat="41.443728458" lon="69.8871478927"><ele>1447.242</ele></trkpt>
   <trkpt lat="41.4437362531" lon="69.8872238327"><ele>1447.119</ele></trkpt>
   <trkpt lat="41.4437881371" lon="69.8872502357"><ele>1450.84</ele></trkpt>
   <trkpt lat="41.4437925376" lon="69.8872304544"><ele>1449.299</ele></trkpt>
   <trkpt lat="41.4437829403" lon="69.8872975934"><ele>1452.874</ele></trkpt>
   <trkpt lat="41.4438548571" lon="69.8873669956"><ele>1452.247</ele></trkpt>
   <trkpt lat="41.4438381352" lon="69.8874080669"><ele>1454.104</ele></trkpt>
   <trkpt lat="41.4438509176" lon="69.8874796484"><ele>1454.511</ele></trkpt>
   <trkpt lat="41.4437567469" lon="69.8875090689"><ele>1456.869</ele></trkpt>
   <trkpt lat="41.443735834" lon="69.8875387408"><ele>1455.708</ele></trkpt>
   <trkpt lat="41.4437929567" lon="69.8875926364"><ele>1458.438</ele></trkpt>
   <trkpt lat="41.4437785398" lon="69.8876969073"><ele>1461.123</ele></trkpt>
   <trkpt lat="41.4438491574" lon="69.8877793852"><ele>1464.597</ele></trkpt>
   <trkpt lat="41.4438506242" lon="69.8878337"><ele>1464.957</ele></trkpt>
   <trkpt lat="41.4438832298" lon="69.8878914513"><ele>1467.862</ele></trkpt>
   <trkpt lat="41.4438920308" lon="69.8879771143"><ele>1471.783</ele></trkpt>
   <trkpt lat="41.4439191463" lon="69.8879975662"><ele>1472.226</ele></trkpt>
   <trkpt lat="41.4439318448" lon="69.8880472709"><ele>1475.602</ele></trkpt>
   <trkpt lat="41.4439185176" lon="69.8880761884"><ele>1475.244</ele></trkpt>
   <trkpt lat="41.443948441" lon="69.8881539725"><ele>1478.303</ele></trkpt>
   <trkpt lat="41.4439327249" lon="69.8882263921"><ele>1476.542</ele></trkpt>
   <trkpt lat="41.4439830164" lon="69.8883486841"><ele>1485.94</ele></trkpt>
   <trkpt lat="41.443970653" lon="69.8883875761"><ele>1489.076</ele></trkpt>
   <trkpt lat="41.4439392209" lon="69.8884004004"><ele>1486.033</ele></trkpt>
   <trkpt lat="41.4439606367" lon="69.8883691359"><ele>1486.875</ele></trkpt>
   <trkpt lat="41.4439646181" lon="69.8883936111"><ele>1485.655</ele></trkpt>
   <trkpt lat="41.4439684318" lon="69.8883704771"><ele>1486.39</ele></trkpt>
   <trkpt lat="41.4439957568" lon="69.8884015739"><ele>1487.212</ele></trkpt>
   <trkpt lat="41.4440207349" lon="69.8884910926"><ele>1488.966</ele></trkpt>
   <trkpt lat="41.4440189328" lon="69.8886029072"><ele>1491.614</ele></trkpt>
   <trkpt lat="41.4440494429" lon="69.8886578087"><ele>1497.125</ele></trkpt>
   <trkpt lat="41.444018849" lon="69.8887267918"><ele>1498.175</ele></trkpt>
   <trkpt lat="41.4440286558" lon="69.8888174839"><ele>1501.632</ele></trkpt>
   <trkpt lat="41.4440103414" lon="69.888909182"><ele>1502.932</ele></trkpt>
   <trkpt lat="41.4440798273" lon="69.8889331542"><ele>1506.019</ele></trkpt>
   <trkpt lat="41.444103129" lon="69.8889942583"><ele>1507.529</ele></trkpt>
   <trkpt lat="41.4440978484" lon="69.889036084"><ele>1506.393</ele></trkpt>
   <trkpt lat="41.4441726569" lon="69.8891399358"><ele>1513.325</ele></trkpt>
   <trkpt lat="41.4442084476" lon="69.8891552746"><ele>1513.783</ele></trkpt>
   <trkpt lat="41.444166119" lon="69.8891937476"><ele>1513.433</ele></trkpt>
   <trkpt lat="41.4441781471" lon="69.8891838569"><ele>1511.443</ele></trkpt>
   <trkpt lat="41.4441792367" lon="69.8892074939"><ele>1513.96</ele></trkpt>
   <trkpt lat="41.4441965453" lon="69.8891848628"><ele>1514.402</ele></trkpt>
   <trkpt lat="41.4442009458" lon="69.8892178036"><ele>1514.91</ele></trkpt>
   <trkpt lat="41.4441852298" lon="69.8892531753"><ele>1512.823</ele></trkpt>
   <trkpt lat="41.4442451185" lon="69.8893308755"><ele>1521.672</ele></trkpt>
   <trkpt lat="41.4442723177" lon="69.8893950809"><ele>1523.163</ele></trkpt>
   <trkpt lat="41.4442677496" lon="69.8894716915"><ele>1524.731</ele></trkpt>
   <trkpt lat="41.4443088209" lon="69.8895301972"><ele>1529.054</ele></trkpt>
   <trkpt lat="41.444386144" lon="69.8895395011"><ele>1527.962</ele></trkpt>
   <trkpt lat="41.4444212223" lon="69.8895899601"><ele>1526.073</ele></trkpt>
   <trkpt lat="41.4444209289" lon="69.8896498908"><ele>1530.113</ele></trkpt>
   <trkpt lat="41.4444715556" lon="69.8898109071"><ele>1535.131</ele></trkpt>
   <trkpt lat="41.4444392433" lon="69.889863294"><ele>1535.63</ele></trkpt>
   <trkpt lat="41.4444277182" lon="69.8899563331"><ele>1541.391</ele></trkpt>
   <trkpt lat="41.444475537" lon="69.8900857497"><ele>1544.52</ele></trkpt>
   <trkpt lat="41.4444813205" lon="69.8901482787"><ele>1546.44</ele></trkpt>
   <trkpt lat="41.4444610363" lon="69.8902012523"><ele>1550.28</ele></trkpt>
   <trkpt lat="41.4444946477" lon="69.890266715"><ele>1550.849</ele></trkpt>
   <trkpt lat="41.4444949411" lon="69.8903196048"><ele>1555.51</ele></trkpt>
   <trkpt lat="41.4444918398" lon="69.8902530525"><ele>1553.488</ele></trkpt>
   <trkpt lat="41.4444782192" lon="69.8902800422"><ele>1552.095</ele></trkpt>
   <trkpt lat="41.4445138423" lon="69.8903466784"><ele>1552.683</ele></trkpt>
   <trkpt lat="41.444515351" lon="69.8904097103"><ele>1556.56</ele></trkpt>
   <trkpt lat="41.4445287202" lon="69.8904304974"><ele>1556.875</ele></trkpt>
   <trkpt lat="41.4445158539" lon="69.890433012"><ele>1563.485</ele></trkpt>
   <trkpt lat="41.4445485434" lon="69.8904534638"><ele>1559.468</ele></trkpt>
   <trkpt lat="41.4445442267" lon="69.890488584"><ele>1559.24</ele></trkpt>
   <trkpt lat="41.4445664387" lon="69.8905159928"><ele>1562.412</ele></trkpt>
   <trkpt lat="41.444560739" lon="69.8905778513"><ele>1563.178</ele></trkpt>
   <trkpt lat="41.4445976194" lon="69.8906212695"><ele>1563.33</ele></trkpt>
   <trkpt lat="41.4445876449" lon="69.8906651069"><ele>1565.852</ele></trkpt>
   <trkpt lat="41.4446371401" lon="69.8907321621"><ele>1568.567</ele></trkpt>
   <trkpt lat="41.444700633" lon="69.8907389514"><ele>1569.247</ele></trkpt>
   <trkpt lat="41.4446994176" lon="69.890872559"><ele>1576.007</ele></trkpt>
   <trkpt lat="41.4447397346" lon="69.8909314837"><ele>1572.066</ele></trkpt>
   <trkpt lat="41.4447164329" lon="69.8909885645"><ele>1577.598</ele></trkpt>
   <trkpt lat="41.4446498387" lon="69.8910774965"><ele>1582.158</ele></trkpt>
   <trkpt lat="41.4446712544" lon="69.8912261915"><ele>1585.653</ele></trkpt>
   <trkpt lat="41.4446512217" lon="69.8912844457"><ele>1584.962</ele></trkpt>
   <trkpt lat="41.4446990404" lon="69.8913173866"><ele>1593.088</ele></trkpt>
   <trkpt lat="41.4447515531" lon="69.8914413549"><ele>1593.125</ele></trkpt>
   <trkpt lat="41.444739525" lon="69.8914431989"><ele>1594.204</ele></trkpt>
   <trkpt lat="41.4447611503" lon="69.8914398462"><ele>1594.08</ele></trkpt>
   <trkpt lat="41.4447471526" lon="69.8914314643"><ele>1593.947</ele></trkpt>
   <trkpt lat="41.4447671434" lon="69.8914758045"><ele>1592.662</ele></trkpt>
   <trkpt lat="41.4447530199" lon="69.8915049736"><ele>1593.96</ele></trkpt>
   <trkpt lat="41.4448010482" lon="69.8915842664"><ele>1599.974</ele></trkpt>
   <trkpt lat="41.4447793391" lon="69.8916301154"><ele>1599.683</ele></trkpt>
   <trkpt lat="41.4448504176" lon="69.8916802392"><ele>1601.011</ele></trkpt>
   <trkpt lat="41.4448288342" lon="69.891703457"><ele>1601.965</ele></trkpt>
   <trkpt lat="41.444843754" lon="69.8917033732"><ele>1599.661</ele></trkpt>
   <trkpt lat="41.4448406527" lon="69.8917278484"><ele>1600.725</ele></trkpt>
   <trkpt lat="41.4447949294" lon="69.8918190435"><ele>1600.678</ele></trkpt>
   <trkpt lat="41.4447914509" lon="69.8918635514"><ele>1605.901</ele></trkpt>
   <trkpt lat="41.4447365495" lon="69.8920106538"><ele>1610.535</ele></trkpt>
   <trkpt lat="41.4447315203" lon="69.8921017651"><ele>1610.755</ele></trkpt>
   <trkpt lat="41.4447680235" lon="69.8921580076"><ele>1614.607</ele></trkpt>
   <trkpt lat="41.444765928" lon="69.8921974864"><ele>1617.051</ele></trkpt>
   <trkpt lat="41.4447180254" lon="69.8922958061"><ele>1618.686</ele></trkpt>
   <trkpt lat="41.4447197437" lon="69.8923548147"><ele>1620.869</ele></trkpt>
   <trkpt lat="41.4446957296" lon="69.8924245522"><ele>1623.778</ele></trkpt>
   <trkpt lat="41.4446960229" lon="69.8925110534"><ele>1626.525</ele></trkpt>
   <trkpt lat="41.4447527265" lon="69.8925900109"><ele>1630.434</ele></trkpt>
   <trkpt lat="41.4447439255" lon="69.8926326748"><ele>1630.513</ele></trkpt>
   <trkpt lat="41.4447544448" lon="69.8927628458"><ele>1637.01</ele></trkpt>
   <trkpt lat="41.4447185284" lon="69.8928165738"><ele>1636.314</ele></trkpt>
   <trkpt lat="41.4447162233" lon="69.89287575"><ele>1641.99</ele></trkpt>
   <trkpt lat="41.4446848331" lon="69.8928980459"><ele>1643.021</ele></trkpt>
   <trkpt lat="41.444694137" lon="69.8929580603"><ele>1646.328</ele></trkpt>
   <trkpt lat="41.4446324462" lon="69.8930335812"><ele>1644.425</ele></trkpt>
   <trkpt lat="41.4446404509" lon="69.8931115329"><ele>1651.554</ele></trkpt>
   <trkpt lat="41.4445837474" lon="69.8931456473"><ele>1653.573</ele></trkpt>
   <trkpt lat="41.4446078453" lon="69.8932562884"><ele>1659.617</ele></trkpt>
   <trkpt lat="41.4445905367" lon="69.8932914086"><ele>1658.18</ele></trkpt>
   <trkpt lat="41.4446021456" lon="69.8933266126"><ele>1663.725</ele></trkpt>
   <trkpt lat="41.4445376469" lon="69.8933727969"><ele>1664.529</ele></trkpt>
   <trkpt lat="41.4445077235" lon="69.8933725454"><ele>1663.163</ele></trkpt>
   <trkpt lat="41.4444636347" lon="69.8934693564"><ele>1668.704</ele></trkpt>
   <trkpt lat="41.4444845475" lon="69.8935610544"><ele>1672.193</ele></trkpt>
   <trkpt lat="41.4445004312" lon="69.8935500741"><ele>1670.553</ele></trkpt>
   <trkpt lat="41.4444918398" lon="69.8935217433"><ele>1671.57</ele></trkpt>
   <trkpt lat="41.4444964498" lon="69.8935452126"><ele>1671.656</ele></trkpt>
   <trkpt lat="41.4444825359" lon="69.8935507447"><ele>1670.34</ele></trkpt>
   <trkpt lat="41.4444718489" lon="69.8935941629"><ele>1674.671</ele></trkpt>
   <trkpt lat="41.4444706336" lon="69.8934672609"><ele>1667.009</ele></trkpt>
   <trkpt lat="41.4444965337" lon="69.8935147863"><ele>1669.356</ele></trkpt>
   <trkpt lat="41.4444534507" lon="69.8935712803"><ele>1673.062</ele></trkpt>
   <trkpt lat="41.4444612458" lon="69.8936195601"><ele>1673.938</ele></trkpt>
   <trkpt lat="41.44447692" lon="69.8934998665"><ele>1670.875</ele></trkpt>
   <trkpt lat="41.4445183266" lon="69.8935067397"><ele>1668.294</ele></trkpt>
   <trkpt lat="41.4445554165" lon="69.8935641557"><ele>1669.693</ele></trkpt>
   <trkpt lat="41.4445286363" lon="69.8935657483"><ele>1669.437</ele></trkpt>
   <trkpt lat="41.4444710527" lon="69.8936317977"><ele>1675.608</ele></trkpt>
   <trkpt lat="41.4444870202" lon="69.8935948335"><ele>1673.247</ele></trkpt>
   <trkpt lat="41.4444798537" lon="69.8935583722"><ele>1672.2</ele></trkpt>
   <trkpt lat="41.4444629222" lon="69.8936727852"><ele>1677.528</ele></trkpt>
   <trkpt lat="41.4444735253" lon="69.8936999425"><ele>1675.784</ele></trkpt>
   <trkpt lat="41.4444767524" lon="69.8936676722"><ele>1675.46</ele></trkpt>
   <trkpt lat="41.4444814462" lon="69.8937533353"><ele>1678.774</ele></trkpt>
   <trkpt lat="41.4444436438" lon="69.8938299459"><ele>1678.755</ele></trkpt>
   <trkpt lat="41.4443959508" lon="69.8938556783"><ele>1681.033</ele></trkpt>
   <trkpt lat="41.4443718528" lon="69.8938913852"><ele>1685.239</ele></trkpt>
   <trkpt lat="41.4443592381" lon="69.8939567641"><ele>1685.784</ele></trkpt>
   <trkpt lat="41.4443343438" lon="69.893991549"><ele>1688.611</ele></trkpt>
   <trkpt lat="41.4443429353" lon="69.8940358892"><ele>1689.131</ele></trkpt>
   <trkpt lat="41.4443273449" lon="69.8941057943"><ele>1692.174</ele></trkpt>
   <trkpt lat="41.4443130538" lon="69.8941150144"><ele>1692.819</ele></trkpt>
   <trkpt lat="41.4443730263" lon="69.8942200396"><ele>1699.245</ele></trkpt>
   <trkpt lat="41.4443697574" lon="69.8943210416"><ele>1700.831</ele></trkpt>
   <trkpt lat="41.4444354296" lon="69.8945608478"><ele>1707.701</ele></trkpt>
   <trkpt lat="41.4444379442" lon="69.8945344448"><ele>1706.668</ele></trkpt>
   <trkpt lat="41.4444803566" lon="69.8945512925"><ele>1707.162</ele></trkpt>
   <trkpt lat="41.4444873555" lon="69.8946740035"><ele>1711.113</ele></trkpt>
   <trkpt lat="41.4445269181" lon="69.8947154101"><ele>1711.969</ele></trkpt>
   <trkpt lat="41.444532031" lon="69.8948371154"><ele>1717.38</ele></trkpt>
   <trkpt lat="41.4445804365" lon="69.8948760074"><ele>1717.072</ele></trkpt>
   <trkpt lat="41.4446513474" lon="69.8950283904"><ele>1723.502</ele></trkpt>
   <trkpt lat="41.4445980385" lon="69.8951324936"><ele>1727.829</ele></trkpt>
   <trkpt lat="41.4446356313" lon="69.8952222638"><ele>1728.969</ele></trkpt>
   <trkpt lat="41.4446286324" lon="69.8952023987"><ele>1728.189</ele></trkpt>
   <trkpt lat="41.4445880221" lon="69.8951912508"><ele>1727.053</ele></trkpt>
   <trkpt lat="41.4445105314" lon="69.8952086013"><ele>1726.681</ele></trkpt>
   <trkpt lat="41.4445590207" lon="69.8951744031"><ele>1728.667</ele></trkpt>
   <trkpt lat="41.4446481204" lon="69.8952122893"><ele>1726.237</ele></trkpt>
   <trkpt lat="41.4446032353" lon="69.8951856349"><ele>1728.444</ele></trkpt>
   <trkpt lat="41.4446162272" lon="69.8952128761"><ele>1727.153</ele></trkpt>
   <trkpt lat="41.4445945181" lon="69.8951733135"><ele>1723.973</ele></trkpt>
   <trkpt lat="41.4445722222" lon="69.8951896582"><ele>1728.587</ele></trkpt>
   <trkpt lat="41.4445406225" lon="69.8951830365"><ele>1727.25</ele></trkpt>
   <trkpt lat="41.4445937218" lon="69.8951858863"><ele>1726.034</ele></trkpt>
   <trkpt lat="41.4446401576" lon="69.8952113673"><ele>1726.95</ele></trkpt>
   <trkpt lat="41.4445815262" lon="69.8951951903"><ele>1725.833</ele></trkpt>
   <trkpt lat="41.4445286363" lon="69.8952213418"><ele>1725.634</ele></trkpt>
   <trkpt lat="41.4443905445" lon="69.895217067"><ele>1725.129</ele></trkpt>
   <trkpt lat="41.4444825359" lon="69.8952389438"><ele>1725.368</ele></trkpt>
   <trkpt lat="41.4445656424" lon="69.8951917537"><ele>1724.233</ele></trkpt>
   <trkpt lat="41.4446614476" lon="69.8952151392"><ele>1724.641</ele></trkpt>
   <trkpt lat="41.444568157" lon="69.8951752413"><ele>1724.038</ele></trkpt>
   <trkpt lat="41.444565852" lon="69.8952032369"><ele>1721.989</ele></trkpt>
   <trkpt lat="41.4445708392" lon="69.8951801028"><ele>1724.191</ele></trkpt>
   <trkpt lat="41.4446274171" lon="69.8952055838"><ele>1722.038</ele></trkpt>
   <trkpt lat="41.4446088512" lon="69.8951980401"><ele>1725.94</ele></trkpt>
   <trkpt lat="41.4446294287" lon="69.8951816954"><ele>1723.552</ele></trkpt>
   <trkpt lat="41.4446261179" lon="69.8951974534"><ele>1724.135</ele></trkpt>
   <trkpt lat="41.4445844179" lon="69.8951786779"><ele>1724.093</ele></trkpt>
   <trkpt lat="41.4445049575" lon="69.8951983754"><ele>1724.276</ele></trkpt>
   <trkpt lat="41.4444967432" lon="69.8951856349"><ele>1723.887</ele></trkpt>
   <trkpt lat="41.4444658559" lon="69.8952055"><ele>1723.634</ele></trkpt>
   <trkpt lat="41.4445017304" lon="69.8952176538"><ele>1723.63</ele></trkpt>
   <trkpt lat="41.4444688315" lon="69.8952146363"><ele>1724.56</ele></trkpt>
   <trkpt lat="41.4444939353" lon="69.8952184919"><ele>1724.103</ele></trkpt>
   <trkpt lat="41.4444803566" lon="69.89521011"><ele>1724.063</ele></trkpt>
   <trkpt lat="41.4444981262" lon="69.895181863"><ele>1722.535</ele></trkpt>
   <trkpt lat="41.4445236491" lon="69.8951793485"><ele>1723.036</ele></trkpt>
   <trkpt lat="41.4445222242" lon="69.8952094395"><ele>1724.134</ele></trkpt>
   <trkpt lat="41.4445657263" lon="69.8951949388"><ele>1724.975</ele></trkpt>
   <trkpt lat="41.4446446419" lon="69.8952127923"><ele>1725.427</ele></trkpt>
   <trkpt lat="41.4446239386" lon="69.8951793485"><ele>1723.171</ele></trkpt>
   <trkpt lat="41.4446234357" lon="69.8951935139"><ele>1723.939</ele></trkpt>
   <trkpt lat="41.4445700429" lon="69.8951785103"><ele>1724.039</ele></trkpt>
   <trkpt lat="41.4444974557" lon="69.8951959446"><ele>1723.952</ele></trkpt>
   <trkpt lat="41.4445022333" lon="69.8952382732"><ele>1723.531</ele></trkpt>
   <trkpt lat="41.4445235234" lon="69.8952236049"><ele>1723.75</ele></trkpt>
   <trkpt lat="41.4445234396" lon="69.8951838747"><ele>1723.369</ele></trkpt>
   <trkpt lat="41.4445478309" lon="69.8951573879"><ele>1724.398</ele></trkpt>
   <trkpt lat="41.4445436399" lon="69.8951987107"><ele>1723.461</ele></trkpt>
   <trkpt lat="41.4445676541" lon="69.8951736488"><ele>1724.812</ele></trkpt>
   <trkpt lat="41.4446122458" lon="69.8952284664"><ele>1725.482</ele></trkpt>
   <trkpt lat="41.4446497548" lon="69.8952174861"><ele>1725.68</ele></trkpt>
   <trkpt lat="41.4445733538" lon="69.8951622494"><ele>1724.846</ele></trkpt>
   <trkpt lat="41.4445433466" lon="69.8951611597"><ele>1725.222</ele></trkpt>
   <trkpt lat="41.4445624573" lon="69.8951742355"><ele>1726.596</ele></trkpt>
   <trkpt lat="41.4446144251" lon="69.8951053363"><ele>1724.885</ele></trkpt>
   <trkpt lat="41.4445567576" lon="69.8951630876"><ele>1725.947</ele></trkpt>
   <trkpt lat="41.4445579311" lon="69.8952008899"><ele>1725.151</ele></trkpt>
   <trkpt lat="41.44469552" lon="69.8953008022"><ele>1726.757</ele></trkpt>
   <trkpt lat="41.4447100207" lon="69.8955294606"><ele>1733.85</ele></trkpt>
   <trkpt lat="41.4447342444" lon="69.8955314722"><ele>1735.193</ele></trkpt>
   <trkpt lat="41.4447370524" lon="69.8955960967"><ele>1736.245</ele></trkpt>
   <trkpt lat="41.4447740166" lon="69.8956354916"><ele>1737.597</ele></trkpt>
   <trkpt lat="41.4447482422" lon="69.8958481405"><ele>1745.703</ele></trkpt>
   <trkpt lat="41.4447648384" lon="69.8958393395"><ele>1746.489</ele></trkpt>
   <trkpt lat="41.4447603541" lon="69.895925254"><ele>1747.055</ele></trkpt>
   <trkpt lat="41.4447807221" lon="69.8959505674"><ele>1752.122</ele></trkpt>
   <trkpt lat="41.4447922472" lon="69.8960198857"><ele>1753.938</ele></trkpt>
   <trkpt lat="41.4448018445" lon="69.8961943131"><ele>1756.175</ele></trkpt>
   <trkpt lat="41.4448262358" lon="69.8962456104"><ele>1762.013</ele></trkpt>
   <trkpt lat="41.4448588414" lon="69.8964006756"><ele>1762.757</ele></trkpt>
   <trkpt lat="41.4449392239" lon="69.8964969836"><ele>1764.525</ele></trkpt>
   <trkpt lat="41.4450273177" lon="69.8967121471"><ele>1772.021</ele></trkpt>
   <trkpt lat="41.4450281559" lon="69.8968067788"><ele>1772.51</ele></trkpt>
   <trkpt lat="41.444993832" lon="69.896834942"><ele>1775.55</ele></trkpt>
   <trkpt lat="41.4450113501" lon="69.8969890852"><ele>1779.624</ele></trkpt>
   <trkpt lat="41.4450475181" lon="69.8970112134"><ele>1779.654</ele></trkpt>
   <trkpt lat="41.445059127" lon="69.8972560488"><ele>1784.723</ele></trkpt>
   <trkpt lat="41.4450932413" lon="69.8972557973"><ele>1788.473</ele></trkpt>
   <trkpt lat="41.4451391323" lon="69.8973006405"><ele>1790.767</ele></trkpt>
   <trkpt lat="41.4451785272" lon="69.8974511795"><ele>1791.987</ele></trkpt>
   <trkpt lat="41.4451885436" lon="69.8975642514"><ele>1799.162</ele></trkpt>
   <trkpt lat="41.4452002363" lon="69.8975888103"><ele>1800.37</ele></trkpt>
   <trkpt lat="41.4452266393" lon="69.8975538578"><ele>1800.895</ele></trkpt>
   <trkpt lat="41.4452163296" lon="69.8975427937"><ele>1800.756</ele></trkpt>
   <trkpt lat="41.4452046368" lon="69.897600545"><ele>1797.687</ele></trkpt>
   <trkpt lat="41.4452062294" lon="69.8976717912"><ele>1801.363</ele></trkpt>
   <trkpt lat="41.4452207301" lon="69.8976912372"><ele>1802.147</ele></trkpt>
   <trkpt lat="41.4451984342" lon="69.8978149541"><ele>1805.734</ele></trkpt>
   <trkpt lat="41.445207822" lon="69.8978577018"><ele>1807.409</ele></trkpt>
   <trkpt lat="41.445224921" lon="69.8978678439"><ele>1807.525</ele></trkpt>
   <trkpt lat="41.4452148208" lon="69.8979483102"><ele>1810.939</ele></trkpt>
   <trkpt lat="41.4452325486" lon="69.8980396729"><ele>1816.774</ele></trkpt>
   <trkpt lat="41.4452635197" lon="69.8980851866"><ele>1817.589</ele></trkpt>
   <trkpt lat="41.4452708539" lon="69.8981485538"><ele>1817.218</ele></trkpt>
   <trkpt lat="41.4453030404" lon="69.8982314509"><ele>1820.49</ele></trkpt>
   <trkpt lat="41.4452749191" lon="69.8984855063"><ele>1830.129</ele></trkpt>
   <trkpt lat="41.445341639" lon="69.8987205349"><ele>1838.088</ele></trkpt>
   <trkpt lat="41.4453588219" lon="69.8987063695"><ele>1838.107</ele></trkpt>
   <trkpt lat="41.4453507334" lon="69.8987264861"><ele>1835.758</ele></trkpt>
   <trkpt lat="41.4454160284" lon="69.8990382929"><ele>1844.349</ele></trkpt>
   <trkpt lat="41.4454377376" lon="69.8991172504"><ele>1851.155</ele></trkpt>
   <trkpt lat="41.445464853" lon="69.899145665"><ele>1852.405</ele></trkpt>
   <trkpt lat="41.4454568483" lon="69.8992326692"><ele>1856.519</ele></trkpt>
   <trkpt lat="41.4455029488" lon="69.8993718926"><ele>1857.854</ele></trkpt>
   <trkpt lat="41.4455743207" lon="69.8995098587"><ele>1864.504</ele></trkpt>
   <trkpt lat="41.4455861392" lon="69.8995086853"><ele>1862.473</ele></trkpt>
   <trkpt lat="41.4455864325" lon="69.8994873952"><ele>1861.789</ele></trkpt>
   <trkpt lat="41.4455799365" lon="69.8995122057"><ele>1862.449</ele></trkpt>
   <trkpt lat="41.4456590198" lon="69.8996285465"><ele>1864.463</ele></trkpt>
   <trkpt lat="41.4457941361" lon="69.8997398582"><ele>1870.033</ele></trkpt>
   <trkpt lat="41.4458339501" lon="69.899797358"><ele>1870.131</ele></trkpt>
   <trkpt lat="41.4458434217" lon="69.8999059037"><ele>1873.1</ele></trkpt>
   <trkpt lat="41.4458264483" lon="69.8999577038"><ele>1872.577</ele></trkpt>
   <trkpt lat="41.4458402366" lon="69.9001473025"><ele>1878.904</ele></trkpt>
   <trkpt lat="41.4458300525" lon="69.9004389927"><ele>1888.368</ele></trkpt>
   <trkpt lat="41.4457938427" lon="69.9007262405"><ele>1893.585</ele></trkpt>
   <trkpt lat="41.4457777495" lon="69.9007596005"><ele>1896.07</ele></trkpt>
   <trkpt lat="41.4457919568" lon="69.900782986"><ele>1893.725</ele></trkpt>
   <trkpt lat="41.4458001291" lon="69.9009963893"><ele>1899.283</ele></trkpt>
   <trkpt lat="41.4457754444" lon="69.9011822999"><ele>1905.631</ele></trkpt>
   <trkpt lat="41.4457851255" lon="69.9012737464"><ele>1910.214</ele></trkpt>
   <trkpt lat="41.4457748577" lon="69.9013118003"><ele>1905.771</ele></trkpt>
   <trkpt lat="41.4456347542" lon="69.9013235349"><ele>1909.785</ele></trkpt>
   <trkpt lat="41.4456533201" lon="69.901475415"><ele>1915.037</ele></trkpt>
   <trkpt lat="41.4456728499" lon="69.9015034106"><ele>1916.911</ele></trkpt>
   <trkpt lat="41.4456778372" lon="69.9014923465"><ele>1915.239</ele></trkpt>
   <trkpt lat="41.4456679465" lon="69.9015043326"><ele>1915.107</ele></trkpt>
   <trkpt lat="41.4457076348" lon="69.9014927656"><ele>1915.821</ele></trkpt>
   <trkpt lat="41.4456995463" lon="69.9014791869"><ele>1916.127</ele></trkpt>
   <trkpt lat="41.4456572177" lon="69.9014993873"><ele>1913.738</ele></trkpt>
   <trkpt lat="41.445660319" lon="69.9014798574"><ele>1915.941</ele></trkpt>
   <trkpt lat="41.4456545355" lon="69.9015019857"><ele>1910.86</ele></trkpt>
   <trkpt lat="41.4456905358" lon="69.9015182466"><ele>1916.71</ele></trkpt>
   <trkpt lat="41.4456680304" lon="69.9014890775"><ele>1915.591</ele></trkpt>
   <trkpt lat="41.4456998397" lon="69.9014815338"><ele>1915.245</ele></trkpt>
   <trkpt lat="41.4457069224" lon="69.9015022371"><ele>1915.597</ele></trkpt>
   <trkpt lat="41.445686722" lon="69.9014887423"><ele>1913.11</ele></trkpt>
   <trkpt lat="41.445706629" lon="69.9014894128"><ele>1913.303</ele></trkpt>
   <trkpt lat="41.445675155" lon="69.9015039973"><ele>1913.282</ele></trkpt>
   <trkpt lat="41.4456958164" lon="69.9014897481"><ele>1915.04</ele></trkpt>
   <trkpt lat="41.4457054555" lon="69.9015055061"><ele>1915.574</ele></trkpt>
   <trkpt lat="41.4456937209" lon="69.901486563"><ele>1911.819</ele></trkpt>
   <trkpt lat="41.4456717184" lon="69.9015086074"><ele>1911.882</ele></trkpt>
   <trkpt lat="41.4456801422" lon="69.9015329149"><ele>1911.999</ele></trkpt>
   <trkpt lat="41.4456953554" lon="69.9015242815"><ele>1911.595</ele></trkpt>
   <trkpt lat="41.4456682399" lon="69.9015074339"><ele>1912.865</ele></trkpt>
   <trkpt lat="41.4456827406" lon="69.9014965374"><ele>1913.621</ele></trkpt>
   <trkpt lat="41.4456550384" lon="69.9014820367"><ele>1907.475</ele></trkpt>
   <trkpt lat="41.4456972413" lon="69.9015024886"><ele>1905.528</ele></trkpt>
   <trkpt lat="41.4456988338" lon="69.9014801927"><ele>1905.908</ele></trkpt>
   <trkpt lat="41.4456662282" lon="69.9014954478"><ele>1906.849</ele></trkpt>
   <trkpt lat="41.4456512246" lon="69.9014695477"><ele>1906.107</ele></trkpt>
   <trkpt lat="41.4456682399" lon="69.9014894966"><ele>1905.296</ele></trkpt>
   <trkpt lat="41.4456882307" lon="69.901484216"><ele>1905.989</ele></trkpt>
   <trkpt lat="41.4456810223" lon="69.901495364"><ele>1906.755</ele></trkpt>
   <trkpt lat="41.4456972413" lon="69.901478684"><ele>1906.426</ele></trkpt>
   <trkpt lat="41.4456879374" lon="69.9014931008"><ele>1906.931</ele></trkpt>
   <trkpt lat="41.4456817348" lon="69.9014754988"><ele>1906.181</ele></trkpt>
   <trkpt lat="41.4456934275" lon="69.9014934361"><ele>1906.448</ele></trkpt>
   <trkpt lat="41.4456644261" lon="69.9015004769"><ele>1906.627</ele></trkpt>
   <trkpt lat="41.4456767475" lon="69.9014861439"><ele>1906.459</ele></trkpt>
   <trkpt lat="41.4456685333" lon="69.9014766723"><ele>1907.03</ele></trkpt>
   <trkpt lat="41.445677921" lon="69.9014858924"><ele>1906.64</ele></trkpt>
   <trkpt lat="41.4456521466" lon="69.9014715594"><ele>1906.798</ele></trkpt>
   <trkpt lat="41.4456822377" lon="69.9014993035"><ele>1909.968</ele></trkpt>
   <trkpt lat="41.4456525238" lon="69.9014903348"><ele>1905.998</ele></trkpt>
   <trkpt lat="41.445642256" lon="69.901512966"><ele>1902.333</ele></trkpt>
   <trkpt lat="41.4457240215" lon="69.9014749121"><ele>1907.396</ele></trkpt>
   <trkpt lat="41.4457053298" lon="69.9014780134"><ele>1906.687</ele></trkpt>
   <trkpt lat="41.4456949363" lon="69.9015081883"><ele>1906.076</ele></trkpt>
   <trkpt lat="41.4457096465" lon="69.9014923465"><ele>1906.843</ele></trkpt>
   <trkpt lat="41.4456954392" lon="69.901474493"><ele>1906.618</ele></trkpt>
   <trkpt lat="41.4457167292" lon="69.9014804442"><ele>1906.292</ele></trkpt>
   <trkpt lat="41.4457155557" lon="69.9014617525"><ele>1906.435</ele></trkpt>
   <trkpt lat="41.4457062518" lon="69.9014899995"><ele>1906.245</ele></trkpt>
   <trkpt lat="41.4456938466" lon="69.9014872335"><ele>1905.734</ele></trkpt>
   <trkpt lat="41.4457032343" lon="69.9014770914"><ele>1905.864</ele></trkpt>
   <trkpt lat="41.4456935532" lon="69.9014875688"><ele>1905.524</ele></trkpt>
   <trkpt lat="41.4457313556" lon="69.9013775982"><ele>1904.742</ele></trkpt>
   <trkpt lat="41.4457391508" lon="69.9012408894"><ele>1901.146</ele></trkpt>
   <trkpt lat="41.4457836168" lon="69.9010945413"><ele>1894.835</ele></trkpt>
   <trkpt lat="41.4457762407" lon="69.9011126463"><ele>1894.411</ele></trkpt>
   <trkpt lat="41.4457979499" lon="69.9011556454"><ele>1893.261</ele></trkpt>
   <trkpt lat="41.4457593512" lon="69.9012403865"><ele>1896.41</ele></trkpt>
   <trkpt lat="41.4457928369" lon="69.901263772"><ele>1897.194</ele></trkpt>
   <trkpt lat="41.4457890231" lon="69.9012984731"><ele>1898.516</ele></trkpt>
   <trkpt lat="41.4457310204" lon="69.9013048433"><ele>1898.85</ele></trkpt>
   <trkpt lat="41.4457139213" lon="69.9013915122"><ele>1899.799</ele></trkpt>
   <trkpt lat="41.4456651386" lon="69.9014580645"><ele>1906.837</ele></trkpt>
   <trkpt lat="41.445681148" lon="69.9014537059"><ele>1903.968</ele></trkpt>
   <trkpt lat="41.445671425" lon="69.9014185857"><ele>1905.398</ele></trkpt>
   <trkpt lat="41.4456701258" lon="69.9014325835"><ele>1903.764</ele></trkpt>
   <trkpt lat="41.4457325291" lon="69.9014315777"><ele>1905.817</ele></trkpt>
   <trkpt lat="41.4457579263" lon="69.9014583159"><ele>1908.446</ele></trkpt>
   <trkpt lat="41.4457095208" lon="69.9014811147"><ele>1907.287</ele></trkpt>
   <trkpt lat="41.4457280448" lon="69.9014440667"><ele>1906.236</ele></trkpt>
   <trkpt lat="41.4457011389" lon="69.9014519457"><ele>1906.456</ele></trkpt>
   <trkpt lat="41.4457203334" lon="69.9013991397"><ele>1906.261</ele></trkpt>
   <trkpt lat="41.4456773343" lon="69.9014732357"><ele>1908.112</ele></trkpt>
   <trkpt lat="41.4456972413" lon="69.9014986329"><ele>1906.985</ele></trkpt>
   <trkpt lat="41.4456697486" lon="69.9014721461"><ele>1907.045</ele></trkpt>
   <trkpt lat="41.4456534458" lon="69.9014936038"><ele>1906.597</ele></trkpt>
   <trkpt lat="41.4456482491" lon="69.9014734034"><ele>1906.523</ele></trkpt>
   <trkpt lat="41.4456750292" lon="69.9014858924"><ele>1908.762</ele></trkpt>
   <trkpt lat="41.445672347" lon="69.9015092779"><ele>1905.827</ele></trkpt>
   <trkpt lat="41.4457203334" lon="69.9014798574"><ele>1906.778</ele></trkpt>
   <trkpt lat="41.4456770409" lon="69.9014980462"><ele>1907.134</ele></trkpt>
   <trkpt lat="41.445675155" lon="69.9014741577"><ele>1907.6</ele></trkpt>
   <trkpt lat="41.4457019351" lon="69.9014584836"><ele>1906.71</ele></trkpt>
   <trkpt lat="41.4456921283" lon="69.9014470842"><ele>1906.921</ele></trkpt>
   <trkpt lat="41.4456529429" lon="69.9014868982"><ele>1907.857</ele></trkpt>
   <trkpt lat="41.4456620373" lon="69.9014604952"><ele>1905.541</ele></trkpt>
   <trkpt lat="41.4456467403" lon="69.9014654406"><ele>1906.399</ele></trkpt>
   <trkpt lat="41.4456707545" lon="69.9014555499"><ele>1906.394</ele></trkpt>
   <trkpt lat="41.4456580559" lon="69.9014685419"><ele>1905.982</ele></trkpt>
   <trkpt lat="41.4456352571" lon="69.9014533706"><ele>1906.314</ele></trkpt>
   <trkpt lat="41.4456322396" lon="69.9014791031"><ele>1905.75</ele></trkpt>
   <trkpt lat="41.4456728499" lon="69.9014765885"><ele>1901.687</ele></trkpt>
   <trkpt lat="41.4456331197" lon="69.9014669493"><ele>1904.335</ele></trkpt>
   <trkpt lat="41.4456533201" lon="69.9014910054"><ele>1903.046</ele></trkpt>
   <trkpt lat="41.4456500512" lon="69.9014730681"><ele>1903.022</ele></trkpt>
   <trkpt lat="41.4456832435" lon="69.9015459907"><ele>1902.985</ele></trkpt>
   <trkpt lat="41.4457547411" lon="69.9015397042"><ele>1905.636</ele></trkpt>
   <trkpt lat="41.4458054517" lon="69.9015822843"><ele>1902.595</ele></trkpt>
   <trkpt lat="41.4459251452" lon="69.9017707095"><ele>1899.204</ele></trkpt>
   <trkpt lat="41.4459226307" lon="69.9018694483"><ele>1896.556</ele></trkpt>
   <trkpt lat="41.4459717486" lon="69.9019328993"><ele>1895.409</ele></trkpt>
   <trkpt lat="41.4460440425" lon="69.9019667622"><ele>1894.486</ele></trkpt>
   <trkpt lat="41.4460333556" lon="69.9020046484"><ele>1892.671</ele></trkpt>
   <trkpt lat="41.4460793303" lon="69.9020164669"><ele>1890.121</ele></trkpt>
   <trkpt lat="41.446156821" lon="69.902078493"><ele>1888.902</ele></trkpt>
   <trkpt lat="41.4461589165" lon="69.902170191"><ele>1887.259</ele></trkpt>
   <trkpt lat="41.4461873312" lon="69.9021623958"><ele>1887.657</ele></trkpt>
   <trkpt lat="41.4461722437" lon="69.9020996154"><ele>1888.675</ele></trkpt>
   <trkpt lat="41.4461800389" lon="69.9020878807"><ele>1887.854</ele></trkpt>
   <trkpt lat="41.446192025" lon="69.902104896"><ele>1888.114</ele></trkpt>
   <trkpt lat="41.4461850261" lon="69.9021727056"><ele>1889.784</ele></trkpt>
   <trkpt lat="41.4461617244" lon="69.9021355737"><ele>1887.586</ele></trkpt>
   <trkpt lat="41.4461709445" lon="69.9021059856"><ele>1887.399</ele></trkpt>
   <trkpt lat="41.4461547256" lon="69.9020760622"><ele>1888.72</ele></trkpt>
   <trkpt lat="41.4461637361" lon="69.9021012917"><ele>1886.888</ele></trkpt>
   <trkpt lat="41.4462744191" lon="69.9021577019"><ele>1888.183</ele></trkpt>
   <trkpt lat="41.4463585315" lon="69.9023160361"><ele>1882.879</ele></trkpt>
   <trkpt lat="41.4464559292" lon="69.9024462909"><ele>1882.406</ele></trkpt>
   <trkpt lat="41.4464455357" lon="69.9025229853"><ele>1880.037</ele></trkpt>
   <trkpt lat="41.4465034546" lon="69.9026190419"><ele>1876.463</ele></trkpt>
   <trkpt lat="41.4464868166" lon="69.902633794"><ele>1879.068</ele></trkpt>
   <trkpt lat="41.446471352" lon="69.9026189581"><ele>1878.5</ele></trkpt>
   <trkpt lat="41.4464728188" lon="69.9025716003"><ele>1878.349</ele></trkpt>
   <trkpt lat="41.4465345515" lon="69.9026104924"><ele>1877.109</ele></trkpt>
   <trkpt lat="41.4466233578" lon="69.9027337901"><ele>1875.503</ele></trkpt>
   <trkpt lat="41.4466466175" lon="69.9028278351"><ele>1872.055</ele></trkpt>
   <trkpt lat="41.4466763314" lon="69.9028711695"><ele>1870.636</ele></trkpt>
   <trkpt lat="41.4467082245" lon="69.9028721754"><ele>1869.413</ele></trkpt>
   <trkpt lat="41.4467254493" lon="69.9028500471"><ele>1870.731</ele></trkpt>
   <trkpt lat="41.4467114516" lon="69.9028106522"><ele>1871.265</ele></trkpt>
   <trkpt lat="41.4466983339" lon="69.9028124124"><ele>1870.965</ele></trkpt>
   <trkpt lat="41.446701519" lon="69.9027731851"><ele>1871.602</ele></trkpt>
   <trkpt lat="41.4467142176" lon="69.9027720954"><ele>1873.564</ele></trkpt>
   <trkpt lat="41.4467065482" lon="69.9028384801"><ele>1871.33</ele></trkpt>
   <trkpt lat="41.4467205459" lon="69.9028462753"><ele>1871.279</ele></trkpt>
   <trkpt lat="41.4467133375" lon="69.9028323613"><ele>1873.276</ele></trkpt>
   <trkpt lat="41.4467300175" lon="69.9028269969"><ele>1868.714</ele></trkpt>
   <trkpt lat="41.4467064224" lon="69.9028554116"><ele>1872.922</ele></trkpt>
   <trkpt lat="41.4467141338" lon="69.9028251529"><ele>1872.916</ele></trkpt>
   <trkpt lat="41.4467207555" lon="69.9028787971"><ele>1871.632</ele></trkpt>
   <trkpt lat="41.4467102362" lon="69.9028912023"><ele>1873.547</ele></trkpt>
   <trkpt lat="41.4467171513" lon="69.9028718401"><ele>1873.988</ele></trkpt>
   <trkpt lat="41.4466944363" lon="69.9028782942"><ele>1873.392</ele></trkpt>
   <trkpt lat="41.4467310233" lon="69.9028847482"><ele>1873.35</ele></trkpt>
   <trkpt lat="41.4467046203" lon="69.902911235"><ele>1874.478</ele></trkpt>
   <trkpt lat="41.4467188276" lon="69.9029027693"><ele>1874.643</ele></trkpt>
   <trkpt lat="41.446719121" lon="69.9028761987"><ele>1874.639</ele></trkpt>
   <trkpt lat="41.4466735235" lon="69.9028847482"><ele>1874.495</ele></trkpt>
   <trkpt lat="41.4467274191" lon="69.9028938007"><ele>1874.034</ele></trkpt>
   <trkpt lat="41.4467294308" lon="69.9028269969"><ele>1874.209</ele></trkpt>
   <trkpt lat="41.4467165226" lon="69.9028824851"><ele>1875.409</ele></trkpt>
   <trkpt lat="41.446724234" lon="69.9029093072"><ele>1874.779</ele></trkpt>
   <trkpt lat="41.446722851" lon="69.9028581776"><ele>1875.523</ele></trkpt>
   <trkpt lat="41.4467100266" lon="69.9029002547"><ele>1874.907</ele></trkpt>
   <trkpt lat="41.4467254493" lon="69.9029576708"><ele>1872.099</ele></trkpt>
   <trkpt lat="41.4468067538" lon="69.9031020072"><ele>1869.635</ele></trkpt>
   <trkpt lat="41.4468631221" lon="69.9031026777"><ele>1871.44</ele></trkpt>
   <trkpt lat="41.4468549498" lon="69.90313126"><ele>1869.977</ele></trkpt>
   <trkpt lat="41.4468694504" lon="69.9031916935"><ele>1868.488</ele></trkpt>
   <trkpt lat="41.4470077518" lon="69.9034471739"><ele>1866.163</ele></trkpt>
   <trkpt lat="41.4471277388" lon="69.9037267104"><ele>1862.864</ele></trkpt>
   <trkpt lat="41.4471963447" lon="69.9038195819"><ele>1862.802</ele></trkpt>
   <trkpt lat="41.4472048523" lon="69.9040028941"><ele>1857.817</ele></trkpt>
   <trkpt lat="41.4471940396" lon="69.9040735536"><ele>1855.24</ele></trkpt>
   <trkpt lat="41.4472150363" lon="69.9040959332"><ele>1854.439</ele></trkpt>
   <trkpt lat="41.4472611368" lon="69.9041033093"><ele>1851.978</ele></trkpt>
   <trkpt lat="41.4473362386" lon="69.9042364139"><ele>1844.885</ele></trkpt>
   <trkpt lat="41.447382842" lon="69.9042589613"><ele>1842.45</ele></trkpt>
   <trkpt lat="41.4473751307" lon="69.9043743801"><ele>1838.234</ele></trkpt>
   <trkpt lat="41.4475064332" lon="69.9044370767"><ele>1831.874</ele></trkpt>
   <trkpt lat="41.4475707224" lon="69.9043867853"><ele>1828.595</ele></trkpt>
   <trkpt lat="41.4476359336" lon="69.9044008669"><ele>1824.91</ele></trkpt>
   <trkpt lat="41.4477107421" lon="69.904478148"><ele>1823.164</ele></trkpt>
   <trkpt lat="41.447789951" lon="69.9045037128"><ele>1819.685</ele></trkpt>
   <trkpt lat="41.4478491273" lon="69.9045478016"><ele>1816.409</ele></trkpt>
   <trkpt lat="41.4479631212" lon="69.9047757894"><ele>1809.823</ele></trkpt>
   <trkpt lat="41.4481253529" lon="69.9049938865"><ele>1806.052</ele></trkpt>
   <trkpt lat="41.4481717467" lon="69.9050834052"><ele>1805.911</ele></trkpt>
   <trkpt lat="41.4481928272" lon="69.9050855007"><ele>1806.614</ele></trkpt>
   <trkpt lat="41.4481899355" lon="69.9050551582"><ele>1806.369</ele></trkpt>
   <trkpt lat="41.4481673462" lon="69.9050960619"><ele>1802.979</ele></trkpt>
   <trkpt lat="41.4481456371" lon="69.9050932121"><ele>1803.28</ele></trkpt>
   <trkpt lat="41.448156827" lon="69.9050592654"><ele>1804.654</ele></trkpt>
   <trkpt lat="41.4481932463" lon="69.9050503805"><ele>1802.635</ele></trkpt>
   <trkpt lat="41.4482843576" lon="69.9051383067"><ele>1804.462</ele></trkpt>
   <trkpt lat="41.4484338489" lon="69.90549437"><ele>1810.524</ele></trkpt>
   <trkpt lat="41.4485051369" lon="69.9055891693"><ele>1815.035</ele></trkpt>
   <trkpt lat="41.4485370301" lon="69.9056612537"><ele>1815.664</ele></trkpt>
   <trkpt lat="41.4485732399" lon="69.9056725692"><ele>1819.233</ele></trkpt>
   <trkpt lat="41.4485934403" lon="69.9057808634"><ele>1820.407</ele></trkpt>
   <trkpt lat="41.4485819571" lon="69.9058161512"><ele>1820.159</ele></trkpt>
   <trkpt lat="41.4486432288" lon="69.9059024848"><ele>1824.884</ele></trkpt>
   <trkpt lat="41.4486702185" lon="69.9061037343"><ele>1825.711</ele></trkpt>
   <trkpt lat="41.4486904189" lon="69.9064315506"><ele>1829.667</ele></trkpt>
   <trkpt lat="41.4486735294" lon="69.9067317065"><ele>1831.766</ele></trkpt>
   <trkpt lat="41.4486943165" lon="69.9070045375"><ele>1835.302</ele></trkpt>
   <trkpt lat="41.4486916343" lon="69.9072020989"><ele>1836.657</ele></trkpt>
   <trkpt lat="41.4487701308" lon="69.9077449948"><ele>1842.004</ele></trkpt>
   <trkpt lat="41.4488150578" lon="69.90788799"><ele>1844.237</ele></trkpt>
   <trkpt lat="41.4488799337" lon="69.9080107849"><ele>1846.244</ele></trkpt>
   <trkpt lat="41.4490136251" lon="69.9081633356"><ele>1848.474</ele></trkpt>
   <trkpt lat="41.4492195265" lon="69.9082797602"><ele>1854.124</ele></trkpt>
   <trkpt lat="41.4492947541" lon="69.908367854"><ele>1854.029</ele></trkpt>
   <trkpt lat="41.4493181396" lon="69.9083663453"><ele>1851.756</ele></trkpt>
   <trkpt lat="41.449363821" lon="69.908307169"><ele>1861.116</ele></trkpt>
   <trkpt lat="41.4493957561" lon="69.9083065823"><ele>1859.369</ele></trkpt>
   <trkpt lat="41.449480539" lon="69.9083485756"><ele>1857.251</ele></trkpt>
   <trkpt lat="41.4495409306" lon="69.9084356636"><ele>1855.08</ele></trkpt>
   <trkpt lat="41.4495936528" lon="69.9084805906"><ele>1852.184</ele></trkpt>
   <trkpt lat="41.4497104546" lon="69.9085002043"><ele>1852.077</ele></trkpt>
   <trkpt lat="41.4497035395" lon="69.9085468915"><ele>1853.156</ele></trkpt>
   <trkpt lat="41.4496836325" lon="69.908562398"><ele>1852.267</ele></trkpt>
   <trkpt lat="41.4497131368" lon="69.9085188959"><ele>1852.673</ele></trkpt>
   <trkpt lat="41.4497020308" lon="69.9085079156"><ele>1850.795</ele></trkpt>
   <trkpt lat="41.4497205548" lon="69.9085002881"><ele>1854.282</ele></trkpt>
   <trkpt lat="41.4497577285" lon="69.9085304629"><ele>1854.755</ele></trkpt>
   <trkpt lat="41.4497632187" lon="69.9085722048"><ele>1851.707</ele></trkpt>
   <trkpt lat="41.4498568446" lon="69.9085930757"><ele>1856.505</ele></trkpt>
   <trkpt lat="41.4498666514" lon="69.9086039722"><ele>1857.111</ele></trkpt>
   <trkpt lat="41.4498570541" lon="69.908648061"><ele>1856.082</ele></trkpt>
   <trkpt lat="41.4498540366" lon="69.9086333089"><ele>1856.142</ele></trkpt>
   <trkpt lat="41.4499119556" lon="69.9086483963"><ele>1856.175</ele></trkpt>
   <trkpt lat="41.4499896558" lon="69.9086212389"><ele>1861.66</ele></trkpt>
   <trkpt lat="41.4500121193" lon="69.9086988554"><ele>1862.641</ele></trkpt>
   <trkpt lat="41.4500867182" lon="69.9087460455"><ele>1862.312</ele></trkpt>
   <trkpt lat="41.4501712497" lon="69.9087478057"><ele>1868.276</ele></trkpt>
   <trkpt lat="41.4502396461" lon="69.908720313"><ele>1868.68</ele></trkpt>
   <trkpt lat="41.4503314279" lon="69.9087390885"><ele>1870.535</ele></trkpt>
   <trkpt lat="41.4503208248" lon="69.9088381626"><ele>1872.896</ele></trkpt>
   <trkpt lat="41.4504220363" lon="69.9089007754"><ele>1877.169</ele></trkpt>
   <trkpt lat="41.4504348187" lon="69.9089973349"><ele>1880.484</ele></trkpt>
   <trkpt lat="41.4505054362" lon="69.9091049586"><ele>1884.988</ele></trkpt>
   <trkpt lat="41.4504837271" lon="69.9090698384"><ele>1884.23</ele></trkpt>
   <trkpt lat="41.4504940368" lon="69.9090608698"><ele>1885.474</ele></trkpt>
   <trkpt lat="41.450498144" lon="69.909098756"><ele>1883.813</ele></trkpt>
   <trkpt lat="41.4505779397" lon="69.9091868498"><ele>1884.396</ele></trkpt>
   <trkpt lat="41.4506304523" lon="69.9092192039"><ele>1886.36</ele></trkpt>
   <trkpt lat="41.4509189574" lon="69.9096263968"><ele>1891.543</ele></trkpt>
   <trkpt lat="41.4510303529" lon="69.9098896723"><ele>1893.989</ele></trkpt>
   <trkpt lat="41.4510516429" lon="69.9100136407"><ele>1892.45</ele></trkpt>
   <trkpt lat="41.4511804309" lon="69.9102490045"><ele>1895.462</ele></trkpt>
   <trkpt lat="41.4512269504" lon="69.9105216678"><ele>1897.111</ele></trkpt>
   <trkpt lat="41.4512617353" lon="69.9105537705"><ele>1902.843</ele></trkpt>
   <trkpt lat="41.4513032258" lon="69.9105634097"><ele>1903.205</ele></trkpt>
   <trkpt lat="41.4514144536" lon="69.9107113503"><ele>1904.428</ele></trkpt>
   <trkpt lat="41.4515597539" lon="69.9109730333"><ele>1902.162</ele></trkpt>
   <trkpt lat="41.4517136457" lon="69.9113148473"><ele>1905.886</ele></trkpt>
   <trkpt lat="41.4517349357" lon="69.9114311043"><ele>1910.915</ele></trkpt>
   <trkpt lat="41.4517263442" lon="69.9114451859"><ele>1910.157</ele></trkpt>
   <trkpt lat="41.4516998574" lon="69.9114352953"><ele>1908.417</ele></trkpt>
   <trkpt lat="41.4517305352" lon="69.9114359658"><ele>1907.973</ele></trkpt>
   <trkpt lat="41.4517501488" lon="69.9115121573"><ele>1909.203</ele></trkpt>
   <trkpt lat="41.4517937347" lon="69.9115571682"><ele>1912.81</ele></trkpt>
   <trkpt lat="41.4518514441" lon="69.9116663005"><ele>1914.745</ele></trkpt>
   <trkpt lat="41.4518428527" lon="69.9117886763"><ele>1915.641</ele></trkpt>
   <trkpt lat="41.4518704292" lon="69.9118450865"><ele>1919.886</ele></trkpt>
   <trkpt lat="41.4518579401" lon="69.9118931148"><ele>1918.545</ele></trkpt>
   <trkpt lat="41.4518866481" lon="69.9119729944"><ele>1924.384</ele></trkpt>
   <trkpt lat="41.4518449482" lon="69.9120439891"><ele>1925.594</ele></trkpt>
   <trkpt lat="41.4518591555" lon="69.9120884132"><ele>1926.667</ele></trkpt>
   <trkpt lat="41.4518463312" lon="69.9121379502"><ele>1927.39</ele></trkpt>
   <trkpt lat="41.4518665316" lon="69.9122264631"><ele>1930.213</ele></trkpt>
   <trkpt lat="41.4518650228" lon="69.9123022355"><ele>1930.89</ele></trkpt>
   <trkpt lat="41.4518975446" lon="69.9124013935"><ele>1936.743</ele></trkpt>
   <trkpt lat="41.4518909229" lon="69.9124417104"><ele>1936.548</ele></trkpt>
   <trkpt lat="41.4519084411" lon="69.9125321511"><ele>1942.227</ele></trkpt>
   <trkpt lat="41.4519400409" lon="69.9125688639"><ele>1940.734</ele></trkpt>
   <trkpt lat="41.4520241533" lon="69.9126092646"><ele>1946.198</ele></trkpt>
   <trkpt lat="41.4520377319" lon="69.912677661"><ele>1946.028</ele></trkpt>
   <trkpt lat="41.4521841219" lon="69.912883772"><ele>1951.975</ele></trkpt>
   <trkpt lat="41.4522034422" lon="69.9129510787"><ele>1953.258</ele></trkpt>
   <trkpt lat="41.4521851277" lon="69.9129616399"><ele>1952.017</ele></trkpt>
   <trkpt lat="41.45219242" lon="69.9129316326"><ele>1951.703</ele></trkpt>
   <trkpt lat="41.4522201222" lon="69.9129704409"><ele>1947.805</ele></trkpt>
   <trkpt lat="41.4523213336" lon="69.9130227439"><ele>1954.105</ele></trkpt>
   <trkpt lat="41.4523709545" lon="69.9131022882"><ele>1950.64</ele></trkpt>
   <trkpt lat="41.4526707333" lon="69.9134027794"><ele>1959.837</ele></trkpt>
   <trkpt lat="41.45282693" lon="69.9137020972"><ele>1963.951</ele></trkpt>
   <trkpt lat="41.4528894171" lon="69.9138808832"><ele>1964.432</ele></trkpt>
   <trkpt lat="41.4529476294" lon="69.9139784485"><ele>1966.969</ele></trkpt>
   <trkpt lat="41.4532902397" lon="69.9142995592"><ele>1962.768</ele></trkpt>
   <trkpt lat="41.4533407407" lon="69.9143192567"><ele>1962.029</ele></trkpt>
   <trkpt lat="41.4534317263" lon="69.9144407943"><ele>1962.287</ele></trkpt>
   <trkpt lat="41.4534916569" lon="69.9144777585"><ele>1967.656</ele></trkpt>
   <trkpt lat="41.4534915311" lon="69.914513214"><ele>1964.169</ele></trkpt>
   <trkpt lat="41.453532351" lon="69.9145036586"><ele>1966.721</ele></trkpt>
   <trkpt lat="41.4535634479" lon="69.9145281337"><ele>1963.892</ele></trkpt>
   <trkpt lat="41.4536581215" lon="69.9145505972"><ele>1970.038</ele></trkpt>
   <trkpt lat="41.4536859494" lon="69.9145780899"><ele>1971.944</ele></trkpt>
   <trkpt lat="41.4536914395" lon="69.9146760743"><ele>1972.535</ele></trkpt>
   <trkpt lat="41.4537390487" lon="69.9147994559"><ele>1972.261</ele></trkpt>
   <trkpt lat="41.4537383363" lon="69.914838348"><ele>1976.902</ele></trkpt>
   <trkpt lat="41.4537106341" lon="69.9148582969"><ele>1974.086</ele></trkpt>
   <trkpt lat="41.453738923" lon="69.9148590513"><ele>1973.177</ele></trkpt>
   <trkpt lat="41.4537667509" lon="69.9150416091"><ele>1975.023</ele></trkpt>
   <trkpt lat="41.4538220296" lon="69.9152022064"><ele>1976.062</ele></trkpt>
   <trkpt lat="41.4538630171" lon="69.9157041148"><ele>1975.713</ele></trkpt>
   <trkpt lat="41.4539192177" lon="69.9159110639"><ele>1979.384</ele></trkpt>
   <trkpt lat="41.4539542541" lon="69.9161264789"><ele>1980.55</ele></trkpt>
   <trkpt lat="41.4539447406" lon="69.9163965438"><ele>1974.34</ele></trkpt>
   <trkpt lat="41.453984429" lon="69.9164421413"><ele>1981.106</ele></trkpt>
   <trkpt lat="41.4539657373" lon="69.9165350128"><ele>1976.981</ele></trkpt>
   <trkpt lat="41.4539827526" lon="69.9165467475"><ele>1980.132</ele></trkpt>
   <trkpt lat="41.4539746221" lon="69.9164744955"><ele>1973.891</ele></trkpt>
   <trkpt lat="41.453967749" lon="69.9166459892"><ele>1970.53</ele></trkpt>
   <trkpt lat="41.453984429" lon="69.9166782595"><ele>1972.021</ele></trkpt>
   <trkpt lat="41.4539521167" lon="69.9167918343"><ele>1972.327</ele></trkpt>
   <trkpt lat="41.453989039" lon="69.9168401979"><ele>1976.772</ele></trkpt>
   <trkpt lat="41.4539923498" lon="69.9169010505"><ele>1975.93</ele></trkpt>
   <trkpt lat="41.4540322477" lon="69.9170311377"><ele>1979.408</ele></trkpt>
   <trkpt lat="41.454010329" lon="69.9170712032"><ele>1978.457</ele></trkpt>
   <trkpt lat="41.4540622549" lon="69.9171429523"><ele>1981.955</ele></trkpt>
   <trkpt lat="41.4540616263" lon="69.9171863705"><ele>1983.329</ele></trkpt>
   <trkpt lat="41.454103452" lon="69.9172511626"><ele>1985.567</ele></trkpt>
   <trkpt lat="41.4541637179" lon="69.917471942"><ele>1994.746</ele></trkpt>
   <trkpt lat="41.4542019393" lon="69.9174939025"><ele>1991.133</ele></trkpt>
   <trkpt lat="41.4541989219" lon="69.917581242"><ele>1995.506</ele></trkpt>
   <trkpt lat="41.454231737" lon="69.9176449444"><ele>1997.424</ele></trkpt>
   <trkpt lat="41.4542145541" lon="69.917728512"><ele>2000.551</ele></trkpt>
   <trkpt lat="41.4542569246" lon="69.917892965"><ele>2005.63</ele></trkpt>
   <trkpt lat="41.4542408314" lon="69.9179195356"><ele>2007.256</ele></trkpt>
   <trkpt lat="41.4542025261" lon="69.9179007601"><ele>2005.537</ele></trkpt>
   <trkpt lat="41.4542297253" lon="69.9178405781"><ele>2006.171</ele></trkpt>
   <trkpt lat="41.454227127" lon="69.9179549072"><ele>2004.143</ele></trkpt>
   <trkpt lat="41.4542448547" lon="69.9180217948"><ele>2007.212</ele></trkpt>
   <trkpt lat="41.4542779213" lon="69.9180440068"><ele>2009.845</ele></trkpt>
   <trkpt lat="41.4542689527" lon="69.9181202822"><ele>2014.308</ele></trkpt>
   <trkpt lat="41.4542986246" lon="69.9181854934"><ele>2016.208</ele></trkpt>
   <trkpt lat="41.4542854231" lon="69.9182073701"><ele>2014.627</ele></trkpt>
   <trkpt lat="41.4542921286" lon="69.9183099646"><ele>2020.638</ele></trkpt>
   <trkpt lat="41.4542779213" lon="69.9183543049"><ele>2019.947</ele></trkpt>
   <trkpt lat="41.4542701261" lon="69.918344079"><ele>2018.283</ele></trkpt>
   <trkpt lat="41.4542841239" lon="69.9183274828"><ele>2018.651</ele></trkpt>
   <trkpt lat="41.4542482494" lon="69.9183196876"><ele>2019.171</ele></trkpt>
   <trkpt lat="41.4542326171" lon="69.9182669655"><ele>2019.33</ele></trkpt>
   <trkpt lat="41.4542746523" lon="69.9183061928"><ele>2019.87</ele></trkpt>
   <trkpt lat="41.4542549549" lon="69.9183436599"><ele>2017.415</ele></trkpt>
   <trkpt lat="41.4542758258" lon="69.9183572386"><ele>2021.784</ele></trkpt>
   <trkpt lat="41.4542730179" lon="69.918311641"><ele>2020.665</ele></trkpt>
   <trkpt lat="41.4542537395" lon="69.9182924465"><ele>2017.698</ele></trkpt>
   <trkpt lat="41.4542553321" lon="69.9183379602"><ele>2020.251</ele></trkpt>
   <trkpt lat="41.4542611575" lon="69.9183071148"><ele>2018.714</ele></trkpt>
   <trkpt lat="41.4542736465" lon="69.9183409777"><ele>2017.005</ele></trkpt>
   <trkpt lat="41.4542867223" lon="69.9183356133"><ele>2019.144</ele></trkpt>
   <trkpt lat="41.4542850459" lon="69.9183092941"><ele>2015.999</ele></trkpt>
   <trkpt lat="41.4543027317" lon="69.9183400557"><ele>2020.954</ele></trkpt>
   <trkpt lat="41.4543037376" lon="69.9184341844"><ele>2023.082</ele></trkpt>
   <trkpt lat="41.4543268297" lon="69.9185051792"><ele>2024.046</ele></trkpt>
   <trkpt lat="41.454357256" lon="69.918547843"><ele>2025.405</ele></trkpt>
   <trkpt lat="41.4543770373" lon="69.9186268006"><ele>2029.043</ele></trkpt>
   <trkpt lat="41.4544250237" lon="69.9187190015"><ele>2027.999</ele></trkpt>
   <trkpt lat="41.4544977367" lon="69.9188260384"><ele>2029.86</ele></trkpt>
   <trkpt lat="41.4545332341" lon="69.9189682793"><ele>2032.164</ele></trkpt>
   <trkpt lat="41.4546498263" lon="69.9191748094"><ele>2037.668</ele></trkpt>
   <trkpt lat="41.4546554422" lon="69.9191616498"><ele>2037.506</ele></trkpt>
   <trkpt lat="41.4546447553" lon="69.9191698641"><ele>2037.063</ele></trkpt>
   <trkpt lat="41.454688425" lon="69.9192800023"><ele>2040.462</ele></trkpt>
   <trkpt lat="41.4548752576" lon="69.9195402604"><ele>2051.056</ele></trkpt>
   <trkpt lat="41.454958448" lon="69.9197099939"><ele>2053.551</ele></trkpt>
   <trkpt lat="41.4549553467" lon="69.9197659012"><ele>2053.984</ele></trkpt>
   <trkpt lat="41.4549965438" lon="69.9198083975"><ele>2056.047</ele></trkpt>
   <trkpt lat="41.4550311191" lon="69.9197966628"><ele>2055.039</ele></trkpt>
   <trkpt lat="41.4550405488" lon="69.9197638057"><ele>2055.132</ele></trkpt>
   <trkpt lat="41.4550163251" lon="69.9197711818"><ele>2053.578</ele></trkpt>
   <trkpt lat="41.455016828" lon="69.9197457008"><ele>2054.628</ele></trkpt>
   <trkpt lat="41.4549716495" lon="69.9196757958"><ele>2055.191</ele></trkpt>
   <trkpt lat="41.4550121341" lon="69.9196897097"><ele>2054.615</ele></trkpt>
   <trkpt lat="41.455003836" lon="69.9197070603"><ele>2054.205</ele></trkpt>
   <trkpt lat="41.4550285207" lon="69.9197084852"><ele>2054.54</ele></trkpt>
   <trkpt lat="41.4549747508" lon="69.9197695054"><ele>2055.297</ele></trkpt>
   <trkpt lat="41.4549938196" lon="69.9197638057"><ele>2051.566</ele></trkpt>
   <trkpt lat="41.4550277244" lon="69.9198373989"><ele>2056.909</ele></trkpt>
   <trkpt lat="41.4551872321" lon="69.919963295"><ele>2065.38</ele></trkpt>
   <trkpt lat="41.4552131321" lon="69.9199749459"><ele>2064.23</ele></trkpt>
   <trkpt lat="41.4552351346" lon="69.9199567572"><ele>2063.538</ele></trkpt>
   <trkpt lat="41.4552767508" lon="69.9200358823"><ele>2068.58</ele></trkpt>
   <trkpt lat="41.4554418324" lon="69.9201209586"><ele>2077.279</ele></trkpt>
   <trkpt lat="41.4558845226" lon="69.9204720766"><ele>2090.698</ele></trkpt>
   <trkpt lat="41.4558960477" lon="69.9204514571"><ele>2093.962</ele></trkpt>
   <trkpt lat="41.4558836425" lon="69.9204551451"><ele>2094.609</ele></trkpt>
   <trkpt lat="41.4558984365" lon="69.9204517924"><ele>2092.785</ele></trkpt>
   <trkpt lat="41.4559473449" lon="69.9205110524"><ele>2093.756</ele></trkpt>
   <trkpt lat="41.4559647374" lon="69.9205610086"><ele>2095.132</ele></trkpt>
   <trkpt lat="41.4560740374" lon="69.9206813727"><ele>2101.555</ele></trkpt>
   <trkpt lat="41.4560803238" lon="69.9207247909"><ele>2101.007</ele></trkpt>
   <trkpt lat="41.4560596205" lon="69.9207817041"><ele>2099.455</ele></trkpt>
   <trkpt lat="41.4560300324" lon="69.9207858112"><ele>2105.041</ele></trkpt>
   <trkpt lat="41.4559561459" lon="69.9208829575"><ele>2104.427</ele></trkpt>
   <trkpt lat="41.4559085367" lon="69.9209086899"><ele>2105.723</ele></trkpt>
   <trkpt lat="41.4558553536" lon="69.920978595"><ele>2108.104</ele></trkpt>
   <trkpt lat="41.4558490252" lon="69.921007764"><ele>2108.862</ele></trkpt>
   <trkpt lat="41.4558644479" lon="69.9209982924"><ele>2108.954</ele></trkpt>
   <trkpt lat="41.4558452534" lon="69.9210120388"><ele>2107.579</ele></trkpt>
   <trkpt lat="41.4557519209" lon="69.9213119433"><ele>2114.715</ele></trkpt>
   <trkpt lat="41.4557794554" lon="69.9213241808"><ele>2114.205</ele></trkpt>
   <trkpt lat="41.4557660444" lon="69.921308842"><ele>2113.135</ele></trkpt>
   <trkpt lat="41.4557371268" lon="69.9213375081"><ele>2113.23</ele></trkpt>
   <trkpt lat="41.4557184352" lon="69.9215557728"><ele>2110.015</ele></trkpt>
   <trkpt lat="41.4556616478" lon="69.9216091655"><ele>2109.592</ele></trkpt>
   <trkpt lat="41.4556895176" lon="69.9217229918"><ele>2108.47</ele></trkpt>
   <trkpt lat="41.4557122326" lon="69.9217374087"><ele>2106.35</ele></trkpt>
   <trkpt lat="41.4556924513" lon="69.9219866026"><ele>2109.048</ele></trkpt>
   <trkpt lat="41.4557430361" lon="69.9220863473"><ele>2108.515</ele></trkpt>
   <trkpt lat="41.4557868315" lon="69.9223295901"><ele>2113.194</ele></trkpt>
   <trkpt lat="41.4559388373" lon="69.9227361124"><ele>2121.795</ele></trkpt>
   <trkpt lat="41.4559553497" lon="69.9228195124"><ele>2123.91</ele></trkpt>
   <trkpt lat="41.455937119" lon="69.922837282"><ele>2123.47</ele></trkpt>
   <trkpt lat="41.455953338" lon="69.92279839"><ele>2123.782</ele></trkpt>
   <trkpt lat="41.4559673358" lon="69.9229029123"><ele>2127.742</ele></trkpt>
   <trkpt lat="41.4559618456" lon="69.9230207619"><ele>2127.857</ele></trkpt>
   <trkpt lat="41.4559764302" lon="69.9231566325"><ele>2132.273</ele></trkpt>
   <trkpt lat="41.455936658" lon="69.923404653"><ele>2138.125</ele></trkpt>
   <trkpt lat="41.4559594568" lon="69.9235479836"><ele>2136.455</ele></trkpt>
   <trkpt lat="41.4559719458" lon="69.923540356"><ele>2143.539</ele></trkpt>
   <trkpt lat="41.4559436569" lon="69.9235896416"><ele>2140.507</ele></trkpt>
   <trkpt lat="41.4559316289" lon="69.9236537632"><ele>2140.979</ele></trkpt>
   <trkpt lat="41.455957026" lon="69.9236779031"><ele>2143.361</ele></trkpt>
   <trkpt lat="41.4559328443" lon="69.923783096"><ele>2154.981</ele></trkpt>
   <trkpt lat="41.4559517454" lon="69.9238079064"><ele>2151.371</ele></trkpt>
   <trkpt lat="41.4558627296" lon="69.9238320463"><ele>2152.316</ele></trkpt>
   <trkpt lat="41.4558649508" lon="69.9238768894"><ele>2157.356</ele></trkpt>
   <trkpt lat="41.4558212392" lon="69.9239448667"><ele>2159.478</ele></trkpt>
   <trkpt lat="41.4558292439" lon="69.9239643965"><ele>2160.967</ele></trkpt>
   <trkpt lat="41.4558713211" lon="69.9239676655"><ele>2162.129</ele></trkpt>
   <trkpt lat="41.4558488576" lon="69.923977137"><ele>2160.381</ele></trkpt>
   <trkpt lat="41.4558584549" lon="69.9239980079"><ele>2159.572</ele></trkpt>
   <trkpt lat="41.4559816269" lon="69.9241548334"><ele>2164.41</ele></trkpt>
   <trkpt lat="41.4559970496" lon="69.9242086452"><ele>2167.628</ele></trkpt>
   <trkpt lat="41.455992733" lon="69.9242782988"><ele>2167.145</ele></trkpt>
   <trkpt lat="41.4559605464" lon="69.9243808933"><ele>2170.871</ele></trkpt>
   <trkpt lat="41.455958451" lon="69.9244592641"><ele>2170.492</ele></trkpt>
   <trkpt lat="41.4559321318" lon="69.9245559074"><ele>2177.312</ele></trkpt>
   <trkpt lat="41.455904723" lon="69.9246114794"><ele>2178.685</ele></trkpt>
   <trkpt lat="41.4558641546" lon="69.9246412352"><ele>2180.423</ele></trkpt>
   <trkpt lat="41.4558503244" lon="69.9248109687"><ele>2185.274</ele></trkpt>
   <trkpt lat="41.4557165492" lon="69.9250164092"><ele>2188.697</ele></trkpt>
   <trkpt lat="41.4556887213" lon="69.9250988033"><ele>2186.042</ele></trkpt>
   <trkpt lat="41.455633736" lon="69.925395355"><ele>2193.142</ele></trkpt>
   <trkpt lat="41.4556387233" lon="69.9254595604"><ele>2193.342</ele></trkpt>
   <trkpt lat="41.4556803394" lon="69.9255482409"><ele>2192.977</ele></trkpt>
   <trkpt lat="41.4556854524" lon="69.9256368377"><ele>2195.3</ele></trkpt>
   <trkpt lat="41.4556739273" lon="69.9257278651"><ele>2194.526</ele></trkpt>
   <trkpt lat="41.4556433333" lon="69.925789053"><ele>2193.086</ele></trkpt>
   <trkpt lat="41.4556441296" lon="69.9258692678"><ele>2193.156</ele></trkpt>
   <trkpt lat="41.4556102248" lon="69.9260286916"><ele>2192.423</ele></trkpt>
   <trkpt lat="41.4556123203" lon="69.9260799889"><ele>2192.518</ele></trkpt>
   <trkpt lat="41.4556350352" lon="69.9261117563"><ele>2192.046</ele></trkpt>
   <trkpt lat="41.4556664255" lon="69.9264741898"><ele>2201.105</ele></trkpt>
   <trkpt lat="41.4556664255" lon="69.9265073821"><ele>2203.207</ele></trkpt>
   <trkpt lat="41.455640232" lon="69.9265468609"><ele>2203.48</ele></trkpt>
   <trkpt lat="41.4556428304" lon="69.9265902791"><ele>2204.383</ele></trkpt>
   <trkpt lat="41.4556895176" lon="69.9267038539"><ele>2208.536</ele></trkpt>
   <trkpt lat="41.455686542" lon="69.9267951329"><ele>2213.673</ele></trkpt>
   <trkpt lat="41.45573193" lon="69.9268239666"><ele>2212.258</ele></trkpt>
   <trkpt lat="41.4557419464" lon="69.9269067798"><ele>2215.851</ele></trkpt>
   <trkpt lat="41.4557684332" lon="69.9269344401"><ele>2218.379</ele></trkpt>
   <trkpt lat="41.4557598418" lon="69.9269772716"><ele>2217.984</ele></trkpt>
   <trkpt lat="41.4557711573" lon="69.9269991484"><ele>2217.648</ele></trkpt>
   <trkpt lat="41.4558522523" lon="69.9270468414"><ele>2219.816</ele></trkpt>
   <trkpt lat="41.4558371229" lon="69.9271193449"><ele>2217.97</ele></trkpt>
   <trkpt lat="41.4558896355" lon="69.9271465861"><ele>2219.694</ele></trkpt>
   <trkpt lat="41.4559540505" lon="69.9272560537"><ele>2225.98</ele></trkpt>
   <trkpt lat="41.4559179245" lon="69.9272825405"><ele>2226.45</ele></trkpt>
   <trkpt lat="41.4558942456" lon="69.9273319099"><ele>2227.004</ele></trkpt>
   <trkpt lat="41.4559115542" lon="69.9273625877"><ele>2234.452</ele></trkpt>
   <trkpt lat="41.4559517454" lon="69.9273625039"><ele>2232.31</ele></trkpt>
   <trkpt lat="41.4559341434" lon="69.9274228536"><ele>2235.411</ele></trkpt>
   <trkpt lat="41.4559525417" lon="69.9275350873"><ele>2236.245</ele></trkpt>
   <trkpt lat="41.455920439" lon="69.9275733087"><ele>2240.497</ele></trkpt>
   <trkpt lat="41.4559610494" lon="69.9276298028"><ele>2242.889</ele></trkpt>
   <trkpt lat="41.4559610494" lon="69.927617649"><ele>2240.215</ele></trkpt>
   <trkpt lat="41.4559673358" lon="69.9276542779"><ele>2242.714</ele></trkpt>
   <trkpt lat="41.4559705209" lon="69.9279324733"><ele>2249.414</ele></trkpt>
   <trkpt lat="41.4559569422" lon="69.9279801663"><ele>2249.965</ele></trkpt>
   <trkpt lat="41.4559113447" lon="69.9279528413"><ele>2252.983</ele></trkpt>
   <trkpt lat="41.4558953352" lon="69.9280308768"><ele>2255.284</ele></trkpt>
   <trkpt lat="41.4559068184" lon="69.9280749657"><ele>2255.057</ele></trkpt>
   <trkpt lat="41.4558878334" lon="69.9282323778"><ele>2261.209</ele></trkpt>
   <trkpt lat="41.4559066508" lon="69.9282923922"><ele>2258.616</ele></trkpt>
   <trkpt lat="41.4559063574" lon="69.9283806537"><ele>2261.243</ele></trkpt>
   <trkpt lat="41.455875051" lon="69.9284583539"><ele>2264.274</ele></trkpt>
   <trkpt lat="41.4558864504" lon="69.92850831"><ele>2263.341</ele></trkpt>
   <trkpt lat="41.4559367418" lon="69.9285970744"><ele>2264.717</ele></trkpt>
   <trkpt lat="41.4559796572" lon="69.9286229745"><ele>2264.625</ele></trkpt>
   <trkpt lat="41.4559812497" lon="69.928645438"><ele>2262.225</ele></trkpt>
   <trkpt lat="41.4559616361" lon="69.9286535684"><ele>2263.702</ele></trkpt>
   <trkpt lat="41.4559474288" lon="69.9286226392"><ele>2263.555</ele></trkpt>
   <trkpt lat="41.4559756339" lon="69.928647282"><ele>2262.629</ele></trkpt>
   <trkpt lat="41.4559544277" lon="69.9286547419"><ele>2263.471</ele></trkpt>
   <trkpt lat="41.4559588282" lon="69.9286710028"><ele>2264.051</ele></trkpt>
   <trkpt lat="41.455939424" lon="69.9286971543"><ele>2266.306</ele></trkpt>
   </trkseg>
 </trk>
</gpx>