<?xml version='1.0' encoding='utf-8'?>
<gpx xmlns="http://www.topografix.com/GPX/1/1" xmlns:ns2="https://gurumaps.app/gpx/v3" xmlns:xsi="http://www.w3.org/2001/XMLSchema-instance" version="1.1" creator="com.bodunov.galileo/v5.5.1" xsi:schemaLocation="http://www.topografix.com/GPX/1/1 http://www.topografix.com/GPX/1/1/gpx.xsd https://gurumaps.app/gpx/v3 https://gurumaps.app/gpx/v3/schema.xsd">
 <trk>
  <name>Kyrdaptir</name>
  <type>TrackStyle_E53935C8</type>
  <extensions>
   <ns2:time>2024-05-11T07:51:00.114Z</ns2:time>
  </extensions>
  <trkseg>
   <trkpt lat="41.7888826997" lon="70.2209792309"><ele>1021.406</ele></trkpt>
   <trkpt lat="41.7890290896" lon="70.2209765487"><ele>1026.616</ele></trkpt>
   <trkpt lat="41.7891595959" lon="70.2208866947"><ele>1024.03</ele></trkpt>
   <trkpt lat="41.7893051895" lon="70.2208221541"><ele>1024.001</ele></trkpt>
   <trkpt lat="41.7894167946" lon="70.220695755"><ele>1021.611</ele></trkpt>
   <trkpt lat="41.7895506955" lon="70.2206151211"><ele>1023.167</ele></trkpt>
   <trkpt lat="41.7896771784" lon="70.220503977"><ele>1022.145</ele></trkpt>
   <trkpt lat="41.7898207604" lon="70.2204359998"><ele>1025.32</ele></trkpt>
   <trkpt lat="41.789670892" lon="70.2204157994"><ele>1023.281</ele></trkpt>
   <trkpt lat="41.7895904676" lon="70.2205842757"><ele>1024.762</ele></trkpt>
   <trkpt lat="41.7894543874" lon="70.2204904822"><ele>1020.629</ele></trkpt>
   <trkpt lat="41.7894379589" lon="70.2202891489"><ele>1016.486</ele></trkpt>
   <trkpt lat="41.7897327923" lon="70.2202866343"><ele>1024.646</ele></trkpt>
   <trkpt lat="41.7900249855" lon="70.2202479937"><ele>1023.945</ele></trkpt>
   <trkpt lat="41.7901690704" lon="70.2202796773"><ele>1024.634</ele></trkpt>
   <trkpt lat="41.7903125686" lon="70.220242294"><ele>1031.498</ele></trkpt>
   <trkpt lat="41.7904101758" lon="70.2200965327"><ele>1038.444</ele></trkpt>
   <trkpt lat="41.7905466751" lon="70.2200277173"><ele>1037.886</ele></trkpt>
   <trkpt lat="41.7906669973" lon="70.2199117956"><ele>1047.222</ele></trkpt>
   <trkpt lat="41.7907746629" lon="70.2197758411"><ele>1044.016</ele></trkpt>
   <trkpt lat="41.7909544966" lon="70.2194599272"><ele>1049.177</ele></trkpt>
   <trkpt lat="41.7911867591" lon="70.2192157623"><ele>1050.754</ele></trkpt>
   <trkpt lat="41.7912822709" lon="70.219062625"><ele>1051.739</ele></trkpt>
   <trkpt lat="41.7914187702" lon="70.2189879422"><ele>1057.138</ele></trkpt>
   <trkpt lat="41.7915452951" lon="70.2188823302"><ele>1058.271</ele></trkpt>
   <trkpt lat="41.791687075" lon="70.2188156941"><ele>1061.693</ele></trkpt>
   <trkpt lat="41.7919364785" lon="70.2186165401"><ele>1068.742</ele></trkpt>
   <trkpt lat="41.7920431801" lon="70.21848595"><ele>1072.85</ele></trkpt>
   <trkpt lat="41.7921369736" lon="70.2183309686"><ele>1078.765</ele></trkpt>
   <trkpt lat="41.7922786697" lon="70.2182865446"><ele>1079.443</ele></trkpt>
   <trkpt lat="41.7923978603" lon="70.2181672701"><ele>1082.445</ele></trkpt>
   <trkpt lat="41.7925285761" lon="70.2180800983"><ele>1087.721</ele></trkpt>
   <trkpt lat="41.7929548797" lon="70.2179328282"><ele>1101.926</ele></trkpt>
   <trkpt lat="41.7931025688" lon="70.2179461555"><ele>1101.991</ele></trkpt>
   <trkpt lat="41.7931942669" lon="70.2180983708"><ele>1100.349</ele></trkpt>
   <trkpt lat="41.7933389804" lon="70.2180975326"><ele>1104.186</ele></trkpt>
   <trkpt lat="41.7934705763" lon="70.2180185751"><ele>1105.079</ele></trkpt>
   <trkpt lat="41.7937582851" lon="70.2179244463"><ele>1109.199</ele></trkpt>
   <trkpt lat="41.7939021605" lon="70.2179460716"><ele>1118.769</ele></trkpt>
   <trkpt lat="41.7941550844" lon="70.2177591552"><ele>1119.815</ele></trkpt>
   <trkpt lat="41.7943040728" lon="70.2177552995"><ele>1124.101</ele></trkpt>
   <trkpt lat="41.794592075" lon="70.217848171"><ele>1131.672</ele></trkpt>
   <trkpt lat="41.7947366628" lon="70.2178388671"><ele>1124.573</ele></trkpt>
   <trkpt lat="41.7948797838" lon="70.2177886595"><ele>1132.103</ele></trkpt>
   <trkpt lat="41.7950062667" lon="70.2176884958"><ele>1141.701</ele></trkpt>
   <trkpt lat="41.7950529958" lon="70.2175059379"><ele>1139.494</ele></trkpt>
   <trkpt lat="41.7951986733" lon="70.2175053512"><ele>1142.339</ele></trkpt>
   <trkpt lat="41.7953435964" lon="70.2175439917"><ele>1144.22</ele></trkpt>
   <trkpt lat="41.7954785869" lon="70.2176195965"><ele>1148.128</ele></trkpt>
   <trkpt lat="41.7956298803" lon="70.2176167467"><ele>1149.02</ele></trkpt>
   <trkpt lat="41.7957628592" lon="70.2177008172"><ele>1154.917</ele></trkpt>
   <trkpt lat="41.796054298" lon="70.217674498"><ele>1167.918</ele></trkpt>
   <trkpt lat="41.7963330801" lon="70.2175522898"><ele>1180.941</ele></trkpt>
   <trkpt lat="41.7966241836" lon="70.2175399684"><ele>1187.902</ele></trkpt>
   <trkpt lat="41.7967652929" lon="70.2175029204"><ele>1190.404</ele></trkpt>
   <trkpt lat="41.7968713659" lon="70.2173562371"><ele>1192.024</ele></trkpt>
   <trkpt lat="41.7970140678" lon="70.2173133218"><ele>1192.733</ele></trkpt>
   <trkpt lat="41.7971677919" lon="70.2173272357"><ele>1196.976</ele></trkpt>
   <trkpt lat="41.7973072668" lon="70.2174191852"><ele>1197.58</ele></trkpt>
   <trkpt lat="41.7974497591" lon="70.2174743381"><ele>1200.396</ele></trkpt>
   <trkpt lat="41.7977199917" lon="70.2173109748"><ele>1207.872</ele></trkpt>
   <trkpt lat="41.797864789" lon="70.2173080412"><ele>1210.397</ele></trkpt>
   <trkpt lat="41.7979894699" lon="70.2172072907"><ele>1213.322</ele></trkpt>
   <trkpt lat="41.7981265978" lon="70.2171490365"><ele>1220.716</ele></trkpt>
   <trkpt lat="41.7982472972" lon="70.2170425863"><ele>1222.028</ele></trkpt>
   <trkpt lat="41.7983966627" lon="70.2170688217"><ele>1220.981</ele></trkpt>
   <trkpt lat="41.7986854612" lon="70.2169837453"><ele>1222.951</ele></trkpt>
   <trkpt lat="41.798830971" lon="70.2169697476"><ele>1224.722</ele></trkpt>
   <trkpt lat="41.7990725794" lon="70.2167516504"><ele>1232.106</ele></trkpt>
   <trkpt lat="41.7991466754" lon="70.2165797376"><ele>1235.42</ele></trkpt>
   <trkpt lat="41.7992293629" lon="70.2164219902"><ele>1237.774</ele></trkpt>
   <trkpt lat="41.7993267606" lon="70.2162796655"><ele>1245.09</ele></trkpt>
   <trkpt lat="41.7993951988" lon="70.216105741"><ele>1249.433</ele></trkpt>
   <trkpt lat="41.7994827897" lon="70.2159486641"><ele>1252.575</ele></trkpt>
   <trkpt lat="41.7997719654" lon="70.2155095362"><ele>1261.296</ele></trkpt>
   <trkpt lat="41.7999060758" lon="70.2154332609"><ele>1262.625</ele></trkpt>
   <trkpt lat="41.800047269" lon="70.2153951232"><ele>1263.628</ele></trkpt>
   <trkpt lat="41.8001837683" lon="70.2153330971"><ele>1267.935</ele></trkpt>
   <trkpt lat="41.8003267636" lon="70.215297055"><ele>1272.89</ele></trkpt>
   <trkpt lat="41.8004740755" lon="70.2152853203"><ele>1276.051</ele></trkpt>
   <trkpt lat="41.8005945654" lon="70.2151647885"><ele>1279.247</ele></trkpt>
   <trkpt lat="41.8008102736" lon="70.2149023511"><ele>1291.462</ele></trkpt>
   <trkpt lat="41.8009479883" lon="70.2148227231"><ele>1290.679</ele></trkpt>
   <trkpt lat="41.8010655864" lon="70.2146951505"><ele>1292.349</ele></trkpt>
   <trkpt lat="41.8012759722" lon="70.2144278516"><ele>1303.924</ele></trkpt>
   <trkpt lat="41.8013363638" lon="70.2142522507"><ele>1311.481</ele></trkpt>
   <trkpt lat="41.8017103643" lon="70.2139421203"><ele>1319.902</ele></trkpt>
   <trkpt lat="41.8018548683" lon="70.2139201597"><ele>1328.19</ele></trkpt>
   <trkpt lat="41.8019751905" lon="70.2138047409"><ele>1326.521</ele></trkpt>
   <trkpt lat="41.8021110612" lon="70.2137299743"><ele>1335.571</ele></trkpt>
   <trkpt lat="41.8022567806" lon="70.2137302258"><ele>1340.636</ele></trkpt>
   <trkpt lat="41.8023731633" lon="70.2136127953"><ele>1349.848</ele></trkpt>
   <trkpt lat="41.8025204753" lon="70.2136012283"><ele>1348.506</ele></trkpt>
   <trkpt lat="41.8026515682" lon="70.2135197562"><ele>1353.364</ele></trkpt>
   <trkpt lat="41.8029448929" lon="70.2135016513"><ele>1358.988</ele></trkpt>
   <trkpt lat="41.8032042709" lon="70.2133341809"><ele>1366.174</ele></trkpt>
   <trkpt lat="41.8033462604" lon="70.213297049"><ele>1369.731</ele></trkpt>
   <trkpt lat="41.8034912673" lon="70.2132864879"><ele>1373.449</ele></trkpt>
   <trkpt lat="41.8036314965" lon="70.2133311634"><ele>1377.012</ele></trkpt>
   <trkpt lat="41.8037763777" lon="70.2133510285"><ele>1381.602</ele></trkpt>
   <trkpt lat="41.8040621587" lon="70.213250278"><ele>1390.093</ele></trkpt>
   <trkpt lat="41.8042091773" lon="70.213262348"><ele>1397.815</ele></trkpt>
   <trkpt lat="41.8045013704" lon="70.2132224501"><ele>1400.735</ele></trkpt>
   <trkpt lat="41.8047786857" lon="70.2131105517"><ele>1417.616</ele></trkpt>
   <trkpt lat="41.8052196995" lon="70.2130715759"><ele>1423.022</ele></trkpt>
   <trkpt lat="41.8055074922" lon="70.2130044368"><ele>1433.735</ele></trkpt>
   <trkpt lat="41.805650697" lon="70.2130250563"><ele>1441.042</ele></trkpt>
   <trkpt lat="41.805938783" lon="70.2129641199"><ele>1454.703</ele></trkpt>
   <trkpt lat="41.8060589795" lon="70.2128517185"><ele>1457.5</ele></trkpt>
   <trkpt lat="41.8061898629" lon="70.212769995"><ele>1468.154</ele></trkpt>
   <trkpt lat="41.8063072934" lon="70.2126544924"><ele>1466.78</ele></trkpt>
   <trkpt lat="41.8064068704" lon="70.2125096531"><ele>1470.974</ele></trkpt>
   <trkpt lat="41.8066581598" lon="70.2123153605"><ele>1480.316</ele></trkpt>
   <trkpt lat="41.8069607885" lon="70.211893667"><ele>1495.776</ele></trkpt>
   <trkpt lat="41.8071186616" lon="70.2115590614"><ele>1503.239</ele></trkpt>
   <trkpt lat="41.8073800932" lon="70.211084981"><ele>1521.727</ele></trkpt>
   <trkpt lat="41.8074040654" lon="70.2108898503"><ele>1526.361</ele></trkpt>
   <trkpt lat="41.8074680612" lon="70.2107123216"><ele>1529.08</ele></trkpt>
   <trkpt lat="41.8075532633" lon="70.2105560829"><ele>1524.053</ele></trkpt>
   <trkpt lat="41.8077621822" lon="70.2102825814"><ele>1547.828</ele></trkpt>
   <trkpt lat="41.8078943648" lon="70.2102018637"><ele>1550.883</ele></trkpt>
   <trkpt lat="41.8080377792" lon="70.21018225"><ele>1558.745</ele></trkpt>
   <trkpt lat="41.8082831594" lon="70.2099756361"><ele>1568.103</ele></trkpt>
   <trkpt lat="41.8083563753" lon="70.2098042262"><ele>1567.193</ele></trkpt>
   <trkpt lat="41.8085739695" lon="70.2095461474"><ele>1580.495</ele></trkpt>
   <trkpt lat="41.8089202679" lon="70.2090705582"><ele>1594.545</ele></trkpt>
   <trkpt lat="41.8090477985" lon="70.2089764294"><ele>1594.446</ele></trkpt>
   <trkpt lat="41.8093312745" lon="70.2088636928"><ele>1606.87</ele></trkpt>
   <trkpt lat="41.8095635789" lon="70.2086141636"><ele>1603.684</ele></trkpt>
   <trkpt lat="41.8097005812" lon="70.2085387264"><ele>1622.262</ele></trkpt>
   <trkpt lat="41.8098434926" lon="70.2084984933"><ele>1628.926</ele></trkpt>
   <trkpt lat="41.8099872841" lon="70.2085259859"><ele>1634.703</ele></trkpt>
   <trkpt lat="41.8100890824" lon="70.2086632815"><ele>1646.825</ele></trkpt>
   <trkpt lat="41.8102274676" lon="70.2087189374"><ele>1649.626</ele></trkpt>
   <trkpt lat="41.8102706763" lon="70.2085186937"><ele>1683.967</ele></trkpt>
   <trkpt lat="41.8101974604" lon="70.2083524805"><ele>1674.005</ele></trkpt>
   <trkpt lat="41.8101893718" lon="70.2081474592"><ele>1676.751</ele></trkpt>
   <trkpt lat="41.8100917646" lon="70.2079755464"><ele>1670.928</ele></trkpt>
   <trkpt lat="41.809985985" lon="70.2081087348"><ele>1655.319</ele></trkpt>
   <trkpt lat="41.8098591668" lon="70.2082057972"><ele>1638.131</ele></trkpt>
   <trkpt lat="41.8095158859" lon="70.2085760259"><ele>1617.651</ele></trkpt>
   <trkpt lat="41.8097328934" lon="70.2086958871"><ele>1614.609</ele></trkpt>
   <trkpt lat="41.8096041893" lon="70.2086093859"><ele>1622.681</ele></trkpt>
   <trkpt lat="41.8094599786" lon="70.2086356212"><ele>1614.921</ele></trkpt>
   <trkpt lat="41.8091345931" lon="70.2090252959"><ele>1599.081</ele></trkpt>
   <trkpt lat="41.8090110858" lon="70.2091305726"><ele>1595.733</ele></trkpt>
   <trkpt lat="41.808738171" lon="70.2092797705"><ele>1589.047</ele></trkpt>
   <trkpt lat="41.8086550645" lon="70.2094468218"><ele>1585.741</ele></trkpt>
   <trkpt lat="41.8083063773" lon="70.2098042262"><ele>1569.744</ele></trkpt>
   <trkpt lat="41.8082357598" lon="70.209973373"><ele>1569.339</ele></trkpt>
   <trkpt lat="41.8080903756" lon="70.2100332198"><ele>1564.728</ele></trkpt>
   <trkpt lat="41.8079979652" lon="70.2101814956"><ele>1560.644</ele></trkpt>
   <trkpt lat="41.8078764695" lon="70.2102872753"><ele>1556.124</ele></trkpt>
   <trkpt lat="41.8077647806" lon="70.2104141773"><ele>1549.01</ele></trkpt>
   <trkpt lat="41.8076262697" lon="70.2104682405"><ele>1539.259</ele></trkpt>
   <trkpt lat="41.8074270737" lon="70.210759344"><ele>1526.088</ele></trkpt>
   <trkpt lat="41.8073476971" lon="70.2109350287"><ele>1523.382</ele></trkpt>
   <trkpt lat="41.8072797618" lon="70.211314226"><ele>1511.748</ele></trkpt>
   <trkpt lat="41.8072055819" lon="70.2114908327"><ele>1506.139</ele></trkpt>
   <trkpt lat="41.8069977946" lon="70.2117712912"><ele>1497.0</ele></trkpt>
   <trkpt lat="41.8068302822" lon="70.2120927372"><ele>1486.498</ele></trkpt>
   <trkpt lat="41.8066051862" lon="70.2123379917"><ele>1478.658</ele></trkpt>
   <trkpt lat="41.8063577943" lon="70.2125530713"><ele>1466.132</ele></trkpt>
   <trkpt lat="41.8060638829" lon="70.2126372256"><ele>1460.529</ele></trkpt>
   <trkpt lat="41.8059184988" lon="70.2126423386"><ele>1451.984</ele></trkpt>
   <trkpt lat="41.8058180836" lon="70.2127811429"><ele>1449.141</ele></trkpt>
   <trkpt lat="41.8056745854" lon="70.2128250641"><ele>1440.585</ele></trkpt>
   <trkpt lat="41.8055458813" lon="70.2129350347"><ele>1436.902</ele></trkpt>
   <trkpt lat="41.8054043948" lon="70.2129736752"><ele>1432.811</ele></trkpt>
   <trkpt lat="41.8052874672" lon="70.2128587593"><ele>1428.074</ele></trkpt>
   <trkpt lat="41.8051430889" lon="70.2129002498"><ele>1428.403</ele></trkpt>
   <trkpt lat="41.8049990878" lon="70.2128989925"><ele>1424.509</ele></trkpt>
   <trkpt lat="41.804857266" lon="70.2129432489"><ele>1419.892</ele></trkpt>
   <trkpt lat="41.8047073976" lon="70.2129314304"><ele>1415.581</ele></trkpt>
   <trkpt lat="41.804583094" lon="70.2130311751"><ele>1410.709</ele></trkpt>
   <trkpt lat="41.8044446669" lon="70.2130848193"><ele>1405.184</ele></trkpt>
   <trkpt lat="41.804188474" lon="70.2132813749"><ele>1398.378</ele></trkpt>
   <trkpt lat="41.8040398628" lon="70.2132569836"><ele>1394.701</ele></trkpt>
   <trkpt lat="41.8038998851" lon="70.2133208537"><ele>1391.723</ele></trkpt>
   <trkpt lat="41.8037506872" lon="70.2133155731"><ele>1389.706</ele></trkpt>
   <trkpt lat="41.8036148584" lon="70.2133818739"><ele>1383.748</ele></trkpt>
   <trkpt lat="41.8033674666" lon="70.2136063413"><ele>1374.912</ele></trkpt>
   <trkpt lat="41.8030807636" lon="70.213547165"><ele>1366.822</ele></trkpt>
   <trkpt lat="41.8029421688" lon="70.2136118733"><ele>1360.924</ele></trkpt>
   <trkpt lat="41.8028219723" lon="70.2137179882"><ele>1359.916</ele></trkpt>
   <trkpt lat="41.8026780969" lon="70.2137217601"><ele>1355.011</ele></trkpt>
   <trkpt lat="41.8025356884" lon="70.2137617418"><ele>1348.891</ele></trkpt>
   <trkpt lat="41.8023871611" lon="70.2137333271"><ele>1348.346</ele></trkpt>
   <trkpt lat="41.8023367858" lon="70.2139173937"><ele>1342.958</ele></trkpt>
   <trkpt lat="41.802198694" lon="70.2139965189"><ele>1336.79</ele></trkpt>
   <trkpt lat="41.8019079677" lon="70.214012193"><ele>1332.923</ele></trkpt>
   <trkpt lat="41.8018035711" lon="70.2141504944"><ele>1323.304</ele></trkpt>
   <trkpt lat="41.8017292655" lon="70.2143165399"><ele>1328.518</ele></trkpt>
   <trkpt lat="41.8015851806" lon="70.2143755485"><ele>1319.651</ele></trkpt>
   <trkpt lat="41.8014533752" lon="70.2144574397"><ele>1313.151</ele></trkpt>
   <trkpt lat="41.8012066958" lon="70.2146895346"><ele>1306.318</ele></trkpt>
   <trkpt lat="41.8010602639" lon="70.214711579"><ele>1303.055</ele></trkpt>
   <trkpt lat="41.8009196994" lon="70.2147729346"><ele>1298.813</ele></trkpt>
   <trkpt lat="41.8007367643" lon="70.2150896867"><ele>1288.037</ele></trkpt>
   <trkpt lat="41.8006203816" lon="70.2152144932"><ele>1285.97</ele></trkpt>
   <trkpt lat="41.8004714771" lon="70.2151917783"><ele>1283.568</ele></trkpt>
   <trkpt lat="41.8003857722" lon="70.2153511182"><ele>1280.225</ele></trkpt>
   <trkpt lat="41.800372864" lon="70.2155441535"><ele>1281.373</ele></trkpt>
   <trkpt lat="41.8003276856" lon="70.2157280524"><ele>1279.162</ele></trkpt>
   <trkpt lat="41.8002350655" lon="70.2158822794"><ele>1273.742</ele></trkpt>
   <trkpt lat="41.8000082931" lon="70.2161263605"><ele>1262.985</ele></trkpt>
   <trkpt lat="41.7999310958" lon="70.2163022966"><ele>1260.614</ele></trkpt>
   <trkpt lat="41.7998235979" lon="70.2164361556"><ele>1258.694</ele></trkpt>
   <trkpt lat="41.7997899865" lon="70.2166248322"><ele>1255.254</ele></trkpt>
   <trkpt lat="41.7997090592" lon="70.2167851781"><ele>1249.796</ele></trkpt>
   <trkpt lat="41.7995712607" lon="70.2168470365"><ele>1247.4</ele></trkpt>
   <trkpt lat="41.7994535788" lon="70.2169677359"><ele>1240.66</ele></trkpt>
   <trkpt lat="41.7993081947" lon="70.2169794706"><ele>1236.45</ele></trkpt>
   <trkpt lat="41.7992137725" lon="70.2171308477"><ele>1233.558</ele></trkpt>
   <trkpt lat="41.7989839827" lon="70.217366966"><ele>1226.669</ele></trkpt>
   <trkpt lat="41.7988574997" lon="70.2174645313"><ele>1223.192</ele></trkpt>
   <trkpt lat="41.7987801767" lon="70.2176309959"><ele>1219.042</ele></trkpt>
   <trkpt lat="41.7986822761" lon="70.217790755"><ele>1215.268</ele></trkpt>
   <trkpt lat="41.798426167" lon="70.2179710497"><ele>1211.315</ele></trkpt>
   <trkpt lat="41.7982860635" lon="70.2180159767"><ele>1209.429</ele></trkpt>
   <trkpt lat="41.7981525817" lon="70.2180940961"><ele>1205.135</ele></trkpt>
   <trkpt lat="41.7980092931" lon="70.2181488299"><ele>1204.416</ele></trkpt>
   <trkpt lat="41.7977716661" lon="70.2183689387"><ele>1198.759</ele></trkpt>
   <trkpt lat="41.7976340772" lon="70.2184515842"><ele>1197.809</ele></trkpt>
   <trkpt lat="41.7974736894" lon="70.2184560266"><ele>1193.194</ele></trkpt>
   <trkpt lat="41.797337274" lon="70.2185195615"><ele>1195.49</ele></trkpt>
   <trkpt lat="41.7971946978" lon="70.2185458806"><ele>1194.701</ele></trkpt>
   <trkpt lat="41.7970524988" lon="70.2186064818"><ele>1192.862</ele></trkpt>
   <trkpt lat="41.7969034686" lon="70.2186189708"><ele>1192.083</ele></trkpt>
   <trkpt lat="41.7967580845" lon="70.2186854393"><ele>1190.953</ele></trkpt>
   <trkpt lat="41.7964677772" lon="70.2187110879"><ele>1193.334</ele></trkpt>
   <trkpt lat="41.7963259974" lon="70.2187463758"><ele>1194.348</ele></trkpt>
   <trkpt lat="41.7960471733" lon="70.2188551729"><ele>1201.063</ele></trkpt>
   <trkpt lat="41.7959692636" lon="70.2190237329"><ele>1197.997</ele></trkpt>
   <trkpt lat="41.7956793754" lon="70.2191326977"><ele>1187.921</ele></trkpt>
   <trkpt lat="41.7955784992" lon="70.2192722564"><ele>1185.996</ele></trkpt>
   <trkpt lat="41.7954337857" lon="70.2192736813"><ele>1183.408</ele></trkpt>
   <trkpt lat="41.7953294729" lon="70.2194138267"><ele>1178.343</ele></trkpt>
   <trkpt lat="41.7952403733" lon="70.2195684728"><ele>1177.331</ele></trkpt>
   <trkpt lat="41.7951078973" lon="70.2196566504"><ele>1174.041</ele></trkpt>
   <trkpt lat="41.7948593738" lon="70.2198704728"><ele>1168.326</ele></trkpt>
   <trkpt lat="41.7947229584" lon="70.2199346782"><ele>1161.421</ele></trkpt>
   <trkpt lat="41.7946047735" lon="70.2200474986"><ele>1157.454</ele></trkpt>
   <trkpt lat="41.7944701602" lon="70.2201198344"><ele>1157.008</ele></trkpt>
   <trkpt lat="41.794323896" lon="70.2201543679"><ele>1150.552</ele></trkpt>
   <trkpt lat="41.794177967" lon="70.220139951"><ele>1147.19</ele></trkpt>
   <trkpt lat="41.794037193" lon="70.2201831178"><ele>1142.718</ele></trkpt>
   <trkpt lat="41.7937404736" lon="70.2201306471"><ele>1145.399</ele></trkpt>
   <trkpt lat="41.7935840673" lon="70.2201365982"><ele>1138.232</ele></trkpt>
   <trkpt lat="41.793443377" lon="70.2201952715"><ele>1138.505</ele></trkpt>
   <trkpt lat="41.7932996693" lon="70.2202101913"><ele>1132.939</ele></trkpt>
   <trkpt lat="41.7931435983" lon="70.2201969479"><ele>1132.473</ele></trkpt>
   <trkpt lat="41.7930559655" lon="70.220364586"><ele>1128.522</ele></trkpt>
   <trkpt lat="41.792795875" lon="70.2205772349"><ele>1123.678</ele></trkpt>
   <trkpt lat="41.7925616846" lon="70.2208149456"><ele>1119.08</ele></trkpt>
   <trkpt lat="41.7921698726" lon="70.2211006847"><ele>1111.659</ele></trkpt>
   <trkpt lat="41.7919335867" lon="70.2213588473"><ele>1108.301</ele></trkpt>
   <trkpt lat="41.7916582831" lon="70.2215061174"><ele>1102.465</ele></trkpt>
   <trkpt lat="41.7915060678" lon="70.2214887668"><ele>1103.771</ele></trkpt>
   <trkpt lat="41.7913637849" lon="70.2215175168"><ele>1101.079</ele></trkpt>
   <trkpt lat="41.7910977852" lon="70.2216787846"><ele>1090.603</ele></trkpt>
   <trkpt lat="41.7908597811" lon="70.221925464"><ele>1088.341</ele></trkpt>
   <trkpt lat="41.7905987686" lon="70.2221027412"><ele>1079.884</ele></trkpt>
   <trkpt lat="41.790444374" lon="70.2221187507"><ele>1079.682</ele></trkpt>
   <trkpt lat="41.7903346968" lon="70.222243641"><ele>1075.36</ele></trkpt>
   <trkpt lat="41.7901938808" lon="70.2223099419"><ele>1073.957</ele></trkpt>
   <trkpt lat="41.7900434676" lon="70.2222795994"><ele>1076.774</ele></trkpt>
   <trkpt lat="41.7899634623" lon="70.2221128833"><ele>1071.257</ele></trkpt>
   <trkpt lat="41.7898618736" lon="70.2219616738"><ele>1069.53</ele></trkpt>
   <trkpt lat="41.7897157771" lon="70.2219549683"><ele>1064.93</ele></trkpt>
   <trkpt lat="41.7894169622" lon="70.2220277232"><ele>1064.459</ele></trkpt>
   <trkpt lat="41.7892801695" lon="70.2221061778"><ele>1064.346</ele></trkpt>
   <trkpt lat="41.7889991662" lon="70.2222275478"><ele>1057.253</ele></trkpt>
   <trkpt lat="41.7888892795" lon="70.2223612391"><ele>1054.565</ele></trkpt>
   <trkpt lat="41.7888504713" lon="70.2225523465"><ele>1052.018</ele></trkpt>
   <trkpt lat="41.788838569" lon="70.2227461361"><ele>1049.101</ele></trkpt>
   <trkpt lat="41.7888038679" lon="70.222940261"><ele>1046.345</ele></trkpt>
   <trkpt lat="41.7886614594" lon="70.2229112596"><ele>1048.343</ele></trkpt>
   <trkpt lat="41.7883338946" lon="70.222497948"><ele>1043.624</ele></trkpt>
   <trkpt lat="41.7882434958" lon="70.2223406197"><ele>1041.848</ele></trkpt>
   <trkpt lat="41.7881843614" lon="70.2221585647"><ele>1042.475</ele></trkpt>
   <trkpt lat="41.7881863731" lon="70.2219636855"><ele>1036.714</ele></trkpt>
   <trkpt lat="41.7883584955" lon="70.2216170938"><ele>1030.989</ele></trkpt>
   <trkpt lat="41.7886022831" lon="70.2214096417"><ele>1029.778</ele></trkpt>
   <trkpt lat="41.7887175762" lon="70.2212739387"><ele>1026.042</ele></trkpt>
   <trkpt lat="41.7888419636" lon="70.2211643872"><ele>1028.425</ele></trkpt>
  </trkseg>
 </trk>
</gpx>