<?xml version='1.0' encoding='utf-8'?>
<gpx xmlns="http://www.topografix.com/GPX/1/1" xmlns:ns2="https://gurumaps.app/gpx/v3" xmlns:xsi="http://www.w3.org/2001/XMLSchema-instance" version="1.1" creator="com.bodunov.galileo/v5.4.0" xsi:schemaLocation="http://www.topografix.com/GPX/1/1 http://www.topografix.com/GPX/1/1/gpx.xsd https://gurumaps.app/gpx/v3 https://gurumaps.app/gpx/v3/schema.xsd">
 <trk>
  <name>Лашкарак Go On Foot</name>
  <type>TrackStyle_3A96FFC8</type>
  <extensions>
   <ns2:time>2023-09-17T04:54:52.285Z</ns2:time>
  </extensions>
  <trkseg>
   <trkpt lat="40.910062364" lon="70.2184982714"><ele>1381.472</ele></trkpt>
   <trkpt lat="40.9100289621" lon="70.2185163763"><ele>1381.711</ele></trkpt>
   <trkpt lat="40.9099631642" lon="70.2186044701"><ele>1382.57</ele></trkpt>
   <trkpt lat="40.9099125794" lon="70.2188513172"><ele>1385.425</ele></trkpt>
   <trkpt lat="40.9098652635" lon="70.2189802309"><ele>1387.652</ele></trkpt>
   <trkpt lat="40.9098628747" lon="70.219068157"><ele>1388.919</ele></trkpt>
   <trkpt lat="40.9098367651" lon="70.2191351284"><ele>1389.553</ele></trkpt>
   <trkpt lat="40.9098155589" lon="70.2191082225"><ele>1390.498</ele></trkpt>
   <trkpt lat="40.909830772" lon="70.2191179455"><ele>1390.183</ele></trkpt>
   <trkpt lat="40.9098123737" lon="70.2191621182"><ele>1387.327</ele></trkpt>
   <trkpt lat="40.9098014773" lon="70.2192610246"><ele>1392.245</ele></trkpt>
   <trkpt lat="40.9097594839" lon="70.2193605178"><ele>1392.755</ele></trkpt>
   <trkpt lat="40.9097363918" lon="70.2195821353"><ele>1392.96</ele></trkpt>
   <trkpt lat="40.9097049596" lon="70.2196903457"><ele>1393.005</ele></trkpt>
   <trkpt lat="40.9096697976" lon="70.2199899987"><ele>1395.524</ele></trkpt>
   <trkpt lat="40.909673779" lon="70.2200782602"><ele>1395.916</ele></trkpt>
   <trkpt lat="40.9096113757" lon="70.2202849579"><ele>1397.857</ele></trkpt>
   <trkpt lat="40.9096039996" lon="70.2202603989"><ele>1395.078</ele></trkpt>
   <trkpt lat="40.9095813685" lon="70.2203705371"><ele>1397.133</ele></trkpt>
   <trkpt lat="40.9095223599" lon="70.2205024683"><ele>1399.129</ele></trkpt>
   <trkpt lat="40.9094302847" lon="70.2206033864"><ele>1403.663</ele></trkpt>
   <trkpt lat="40.9093475972" lon="70.2207344794"><ele>1403.743</ele></trkpt>
   <trkpt lat="40.9092639877" lon="70.2209292748"><ele>1406.216</ele></trkpt>
   <trkpt lat="40.9092653707" lon="70.22099633"><ele>1405.911</ele></trkpt>
   <trkpt lat="40.909195298" lon="70.2211768762"><ele>1410.417</ele></trkpt>
   <trkpt lat="40.9091783666" lon="70.2212738548"><ele>1415.721</ele></trkpt>
   <trkpt lat="40.9091963877" lon="70.2213781257"><ele>1415.877</ele></trkpt>
   <trkpt lat="40.9093298695" lon="70.2215941274"><ele>1416.875</ele></trkpt>
   <trkpt lat="40.9093749641" lon="70.2217377932"><ele>1419.236</ele></trkpt>
   <trkpt lat="40.9094088689" lon="70.2217589994"><ele>1419.648</ele></trkpt>
   <trkpt lat="40.9094016605" lon="70.2218188462"><ele>1420.011</ele></trkpt>
   <trkpt lat="40.9093391734" lon="70.2219799464"><ele>1422.802</ele></trkpt>
   <trkpt lat="40.9093195597" lon="70.2219960396"><ele>1427.778</ele></trkpt>
   <trkpt lat="40.9093015806" lon="70.2219655295"><ele>1425.161</ele></trkpt>
   <trkpt lat="40.9092825955" lon="70.2220123843"><ele>1423.798</ele></trkpt>
   <trkpt lat="40.9091492814" lon="70.2220925991"><ele>1420.458</ele></trkpt>
   <trkpt lat="40.9091407737" lon="70.2221160685"><ele>1421.922</ele></trkpt>
   <trkpt lat="40.9091570765" lon="70.2221485903"><ele>1425.002</ele></trkpt>
   <trkpt lat="40.9091923644" lon="70.2221027412"><ele>1423.967</ele></trkpt>
   <trkpt lat="40.9091875867" lon="70.2220897493"><ele>1424.639</ele></trkpt>
   <trkpt lat="40.9091527599" lon="70.2221545414"><ele>1424.586</ele></trkpt>
   <trkpt lat="40.9091102636" lon="70.2221588162"><ele>1428.11</ele></trkpt>
   <trkpt lat="40.909009597" lon="70.222244144"><ele>1427.049</ele></trkpt>
   <trkpt lat="40.9088510952" lon="70.2224914939"><ele>1424.852</ele></trkpt>
   <trkpt lat="40.9087218881" lon="70.2226313879"><ele>1427.625</ele></trkpt>
   <trkpt lat="40.9086554616" lon="70.2226611436"><ele>1427.983</ele></trkpt>
   <trkpt lat="40.9085963691" lon="70.2227514167"><ele>1429.834</ele></trkpt>
   <trkpt lat="40.9084599956" lon="70.2228793246"><ele>1429.827</ele></trkpt>
   <trkpt lat="40.908398179" lon="70.2229161211"><ele>1433.289</ele></trkpt>
   <trkpt lat="40.9083272681" lon="70.2229278558"><ele>1432.331</ele></trkpt>
   <trkpt lat="40.9081955884" lon="70.2230300312"><ele>1433.101</ele></trkpt>
   <trkpt lat="40.9081428663" lon="70.2230991819"><ele>1431.732</ele></trkpt>
   <trkpt lat="40.9081067822" lon="70.2232414228"><ele>1431.58</ele></trkpt>
   <trkpt lat="40.9080322671" lon="70.2233569254"><ele>1434.614</ele></trkpt>
   <trkpt lat="40.9079211649" lon="70.2236000844"><ele>1434.96</ele></trkpt>
   <trkpt lat="40.9078830692" lon="70.2238116437"><ele>1436.014</ele></trkpt>
   <trkpt lat="40.9078342865" lon="70.2239684691"><ele>1434.991</ele></trkpt>
   <trkpt lat="40.9078542773" lon="70.2241767594"><ele>1436.608</ele></trkpt>
   <trkpt lat="40.9078439676" lon="70.2243326628"><ele>1433.883</ele></trkpt>
   <trkpt lat="40.9077888985" lon="70.2244267915"><ele>1434.14</ele></trkpt>
   <trkpt lat="40.9078328616" lon="70.2245052462"><ele>1434.533</ele></trkpt>
   <trkpt lat="40.9078357952" lon="70.2245905739"><ele>1434.561</ele></trkpt>
   <trkpt lat="40.9078211688" lon="70.2245932561"><ele>1434.361</ele></trkpt>
   <trkpt lat="40.9078391899" lon="70.2246087627"><ele>1434.718</ele></trkpt>
   <trkpt lat="40.9078096856" lon="70.2248336491"><ele>1435.149</ele></trkpt>
   <trkpt lat="40.907725196" lon="70.2252043807"><ele>1434.672</ele></trkpt>
   <trkpt lat="40.9077425885" lon="70.225687346"><ele>1433.763</ele></trkpt>
   <trkpt lat="40.9077281716" lon="70.2258419921"><ele>1431.497</ele></trkpt>
   <trkpt lat="40.9076922971" lon="70.2260537189"><ele>1432.922</ele></trkpt>
   <trkpt lat="40.9076392815" lon="70.2261978877"><ele>1430.229</ele></trkpt>
   <trkpt lat="40.9076222663" lon="70.2262149868"><ele>1435.685</ele></trkpt>
   <trkpt lat="40.907589493" lon="70.2262047608"><ele>1435.827</ele></trkpt>
   <trkpt lat="40.9075535766" lon="70.2261628513"><ele>1433.872</ele></trkpt>
   <trkpt lat="40.907544566" lon="70.2260552277"><ele>1434.266</ele></trkpt>
   <trkpt lat="40.9074993876" lon="70.2259422396"><ele>1433.452</ele></trkpt>
   <trkpt lat="40.9073585716" lon="70.2257043612"><ele>1441.389</ele></trkpt>
   <trkpt lat="40.9072894628" lon="70.2256200393"><ele>1440.335</ele></trkpt>
   <trkpt lat="40.9072723637" lon="70.2256366354"><ele>1440.993</ele></trkpt>
   <trkpt lat="40.9072909715" lon="70.2256190334"><ele>1440.363</ele></trkpt>
   <trkpt lat="40.9073400895" lon="70.2256364678"><ele>1440.973</ele></trkpt>
   <trkpt lat="40.9073525785" lon="70.2256632899"><ele>1439.728</ele></trkpt>
   <trkpt lat="40.9073261755" lon="70.2256232244"><ele>1441.041</ele></trkpt>
   <trkpt lat="40.9072804942" lon="70.2256135852"><ele>1439.936</ele></trkpt>
   <trkpt lat="40.9072804942" lon="70.2256395691"><ele>1441.666</ele></trkpt>
   <trkpt lat="40.9072994792" lon="70.2256590989"><ele>1441.864</ele></trkpt>
   <trkpt lat="40.9072906782" lon="70.2256311872"><ele>1440.906</ele></trkpt>
   <trkpt lat="40.9072114692" lon="70.2256529802"><ele>1440.542</ele></trkpt>
   <trkpt lat="40.9071416898" lon="70.2256980748"><ele>1440.041</ele></trkpt>
   <trkpt lat="40.9070941644" lon="70.2258040221"><ele>1440.003</ele></trkpt>
   <trkpt lat="40.9070773587" lon="70.2258043573"><ele>1440.842</ele></trkpt>
   <trkpt lat="40.906991989" lon="70.2262467542"><ele>1440.358</ele></trkpt>
   <trkpt lat="40.9069628619" lon="70.2263360214"><ele>1437.384</ele></trkpt>
   <trkpt lat="40.906903099" lon="70.2264438965"><ele>1434.863</ele></trkpt>
   <trkpt lat="40.9068439646" lon="70.2264895779"><ele>1435.079</ele></trkpt>
   <trkpt lat="40.9068181903" lon="70.2265745704"><ele>1432.739</ele></trkpt>
   <trkpt lat="40.9068025999" lon="70.2265336667"><ele>1434.143</ele></trkpt>
   <trkpt lat="40.9068159691" lon="70.2265623328"><ele>1430.702</ele></trkpt>
   <trkpt lat="40.9068093893" lon="70.2266130433"><ele>1433.397</ele></trkpt>
   <trkpt lat="40.9067480757" lon="70.2267040708"><ele>1432.555</ele></trkpt>
   <trkpt lat="40.9066605686" lon="70.2267871355"><ele>1434.534</ele></trkpt>
   <trkpt lat="40.906621467" lon="70.2267837827"><ele>1432.574</ele></trkpt>
   <trkpt lat="40.9065992969" lon="70.2268370916"><ele>1431.633</ele></trkpt>
   <trkpt lat="40.9066232691" lon="70.2268412826"><ele>1431.399</ele></trkpt>
   <trkpt lat="40.9065532802" lon="70.2269115229"><ele>1431.629</ele></trkpt>
   <trkpt lat="40.9064906674" lon="70.2270095912"><ele>1433.446</ele></trkpt>
   <trkpt lat="40.906453787" lon="70.2270317194"><ele>1432.067</ele></trkpt>
   <trkpt lat="40.9064224806" lon="70.2270804183"><ele>1433.685</ele></trkpt>
   <trkpt lat="40.9063962872" lon="70.2270695218"><ele>1433.759</ele></trkpt>
   <trkpt lat="40.9064040824" lon="70.2270635706"><ele>1431.616</ele></trkpt>
   <trkpt lat="40.9063193832" lon="70.2272699331"><ele>1432.667</ele></trkpt>
   <trkpt lat="40.9063031642" lon="70.2274129284"><ele>1434.052</ele></trkpt>
   <trkpt lat="40.9063118814" lon="70.2274982561"><ele>1435.634</ele></trkpt>
   <trkpt lat="40.9063005659" lon="70.227529353"><ele>1434.864</ele></trkpt>
   <trkpt lat="40.9062475922" lon="70.2275476255"><ele>1432.393</ele></trkpt>
   <trkpt lat="40.9061087879" lon="70.2274876949"><ele>1438.74</ele></trkpt>
   <trkpt lat="40.9060412717" lon="70.2275063866"><ele>1434.996</ele></trkpt>
   <trkpt lat="40.9059830594" lon="70.2273742878"><ele>1442.017</ele></trkpt>
   <trkpt lat="40.9059590871" lon="70.227353333"><ele>1443.235</ele></trkpt>
   <trkpt lat="40.9059337738" lon="70.2273614635"><ele>1442.462</ele></trkpt>
   <trkpt lat="40.9058895592" lon="70.2274419297"><ele>1441.796</ele></trkpt>
   <trkpt lat="40.905889685" lon="70.2276606974"><ele>1446.277</ele></trkpt>
   <trkpt lat="40.9058534751" lon="70.2277832408"><ele>1449.773</ele></trkpt>
   <trkpt lat="40.9057954724" lon="70.2278306824"><ele>1453.562</ele></trkpt>
   <trkpt lat="40.9057503777" lon="70.2278312692"><ele>1447.771</ele></trkpt>
   <trkpt lat="40.9055893614" lon="70.2277121623"><ele>1456.331</ele></trkpt>
   <trkpt lat="40.9055771657" lon="70.2277522278"><ele>1458.421</ele></trkpt>
   <trkpt lat="40.9056435923" lon="70.2279180218"><ele>1458.325</ele></trkpt>
   <trkpt lat="40.9056336597" lon="70.2279821434"><ele>1461.292</ele></trkpt>
   <trkpt lat="40.905445486" lon="70.2281076205"><ele>1464.443</ele></trkpt>
   <trkpt lat="40.9053731921" lon="70.2281928645"><ele>1466.079</ele></trkpt>
   <trkpt lat="40.9052984674" lon="70.2283307468"><ele>1466.231</ele></trkpt>
   <trkpt lat="40.9052391655" lon="70.2287087706"><ele>1473.497</ele></trkpt>
   <trkpt lat="40.9052173725" lon="70.2290493273"><ele>1479.8</ele></trkpt>
   <trkpt lat="40.9051471741" lon="70.2292520856"><ele>1484.545</ele></trkpt>
   <trkpt lat="40.9051569809" lon="70.2292800811"><ele>1479.001</ele></trkpt>
   <trkpt lat="40.9051716911" lon="70.229275052"><ele>1479.582</ele></trkpt>
   <trkpt lat="40.9051531671" lon="70.2296212246"><ele>1481.775</ele></trkpt>
   <trkpt lat="40.9051619681" lon="70.2300379728"><ele>1484.474</ele></trkpt>
   <trkpt lat="40.905080496" lon="70.2302480233"><ele>1484.937</ele></trkpt>
   <trkpt lat="40.9049931985" lon="70.2303869952"><ele>1485.372</ele></trkpt>
   <trkpt lat="40.9048707808" lon="70.230513562"><ele>1494.079</ele></trkpt>
   <trkpt lat="40.9047843634" lon="70.2307991334"><ele>1494.589</ele></trkpt>
   <trkpt lat="40.9047205771" lon="70.2309365966"><ele>1496.861</ele></trkpt>
   <trkpt lat="40.9047051963" lon="70.2309445594"><ele>1496.779</ele></trkpt>
   <trkpt lat="40.9047212896" lon="70.2309232694"><ele>1497.179</ele></trkpt>
   <trkpt lat="40.9046598921" lon="70.2309991256"><ele>1502.095</ele></trkpt>
   <trkpt lat="40.9046322738" lon="70.2310782508"><ele>1497.682</ele></trkpt>
   <trkpt lat="40.9044545774" lon="70.2312243474"><ele>1501.039</ele></trkpt>
   <trkpt lat="40.9044086865" lon="70.2313784906"><ele>1500.718</ele></trkpt>
   <trkpt lat="40.9042900826" lon="70.2315712743"><ele>1500.857</ele></trkpt>
   <trkpt lat="40.9042089876" lon="70.2319050417"><ele>1503.352</ele></trkpt>
   <trkpt lat="40.9042260867" lon="70.2319335402"><ele>1504.512</ele></trkpt>
   <trkpt lat="40.9041888711" lon="70.2321620309"><ele>1502.389</ele></trkpt>
   <trkpt lat="40.9042107898" lon="70.2322317683"><ele>1500.711</ele></trkpt>
   <trkpt lat="40.9042006896" lon="70.2321971511"><ele>1500.367</ele></trkpt>
   <trkpt lat="40.904162971" lon="70.2325417311"><ele>1495.75</ele></trkpt>
   <trkpt lat="40.9041251686" lon="70.2326073614"><ele>1496.684</ele></trkpt>
   <trkpt lat="40.9040519946" lon="70.2326471754"><ele>1493.142</ele></trkpt>
   <trkpt lat="40.9039376654" lon="70.23275899"><ele>1485.576</ele></trkpt>
   <trkpt lat="40.9039599613" lon="70.2328041685"><ele>1488.414</ele></trkpt>
   <trkpt lat="40.9040519946" lon="70.2328402945"><ele>1487.011</ele></trkpt>
   <trkpt lat="40.9041464586" lon="70.2328671166"><ele>1484.91</ele></trkpt>
   <trkpt lat="40.9041841772" lon="70.2328399592"><ele>1483.873</ele></trkpt>
   <trkpt lat="40.9041985941" lon="70.2328960341"><ele>1483.254</ele></trkpt>
   <trkpt lat="40.9042738636" lon="70.2330128779"><ele>1482.9</ele></trkpt>
   <trkpt lat="40.9043042899" lon="70.2331020613"><ele>1487.066</ele></trkpt>
   <trkpt lat="40.9042897892" lon="70.2331710444"><ele>1480.826</ele></trkpt>
   <trkpt lat="40.9043025716" lon="70.233563066"><ele>1488.344</ele></trkpt>
   <trkpt lat="40.9042938963" lon="70.2337512397"><ele>1485.524</ele></trkpt>
   <trkpt lat="40.9042730673" lon="70.2339483821"><ele>1486.419</ele></trkpt>
   <trkpt lat="40.9042433954" lon="70.2340665669"><ele>1487.925</ele></trkpt>
   <trkpt lat="40.9042748694" lon="70.2342030243"><ele>1487.966</ele></trkpt>
   <trkpt lat="40.9042357678" lon="70.2342922916"><ele>1489.818</ele></trkpt>
   <trkpt lat="40.9042514839" lon="70.2343751886"><ele>1489.818</ele></trkpt>
   <trkpt lat="40.9042086943" lon="70.2345104725"><ele>1494.847</ele></trkpt>
   <trkpt lat="40.9041876976" lon="70.2347182599"><ele>1496.383</ele></trkpt>
   <trkpt lat="40.9041997676" lon="70.2348781866"><ele>1497.696</ele></trkpt>
   <trkpt lat="40.9040984723" lon="70.2354595554"><ele>1506.778</ele></trkpt>
   <trkpt lat="40.9040974664" lon="70.2355162171"><ele>1509.652</ele></trkpt>
   <trkpt lat="40.9041209777" lon="70.2355296281"><ele>1512.839</ele></trkpt>
   <trkpt lat="40.9041203909" lon="70.2354951785"><ele>1506.457</ele></trkpt>
   <trkpt lat="40.9041305749" lon="70.2355415304"><ele>1507.04</ele></trkpt>
   <trkpt lat="40.9040946585" lon="70.2357166284"><ele>1511.201</ele></trkpt>
   <trkpt lat="40.9040978855" lon="70.2359748748"><ele>1511.82</ele></trkpt>
   <trkpt lat="40.9040818761" lon="70.2360533294"><ele>1510.33</ele></trkpt>
   <trkpt lat="40.9039669602" lon="70.2362231468"><ele>1507.876</ele></trkpt>
   <trkpt lat="40.9039280682" lon="70.2363792178"><ele>1506.539</ele></trkpt>
   <trkpt lat="40.9039023776" lon="70.2364214626"><ele>1505.09</ele></trkpt>
   <trkpt lat="40.9038485658" lon="70.2364581754"><ele>1506.592</ele></trkpt>
   <trkpt lat="40.903832263" lon="70.2365318523"><ele>1504.778</ele></trkpt>
   <trkpt lat="40.9038555647" lon="70.2365740971"><ele>1502.061</ele></trkpt>
   <trkpt lat="40.9038736696" lon="70.2365682297"><ele>1508.601</ele></trkpt>
   <trkpt lat="40.9038723704" lon="70.2365510468"><ele>1504.334</ele></trkpt>
   <trkpt lat="40.9038130684" lon="70.2365112328"><ele>1503.674</ele></trkpt>
   <trkpt lat="40.9038579955" lon="70.2365458501"><ele>1504.697</ele></trkpt>
   <trkpt lat="40.9038385913" lon="70.2365582553"><ele>1501.019</ele></trkpt>
   <trkpt lat="40.9038483982" lon="70.2365687327"><ele>1504.643</ele></trkpt>
   <trkpt lat="40.9038372921" lon="70.2365556569"><ele>1506.739</ele></trkpt>
   <trkpt lat="40.9038435786" lon="70.2365654637"><ele>1507.492</ele></trkpt>
   <trkpt lat="40.903805399" lon="70.2366133244"><ele>1509.257</ele></trkpt>
   <trkpt lat="40.9037973943" lon="70.2365911962"><ele>1506.835</ele></trkpt>
   <trkpt lat="40.9035987851" lon="70.2368002408"><ele>1518.416</ele></trkpt>
   <trkpt lat="40.903512661" lon="70.2368606743"><ele>1519.55</ele></trkpt>
   <trkpt lat="40.9034513893" lon="70.2369751711"><ele>1517.503</ele></trkpt>
   <trkpt lat="40.9034272914" lon="70.2370621753"><ele>1517.814</ele></trkpt>
   <trkpt lat="40.9034224718" lon="70.2373372694"><ele>1520.757</ele></trkpt>
   <trkpt lat="40.9034528981" lon="70.2375705377"><ele>1525.869</ele></trkpt>
   <trkpt lat="40.9034299736" lon="70.2376336535"><ele>1527.228</ele></trkpt>
   <trkpt lat="40.9034342902" lon="70.2376781614"><ele>1525.103</ele></trkpt>
   <trkpt lat="40.9034807679" lon="70.2378207375"><ele>1527.241</ele></trkpt>
   <trkpt lat="40.9035505892" lon="70.237963649"><ele>1534.145</ele></trkpt>
   <trkpt lat="40.9035708734" lon="70.238113266"><ele>1527.527</ele></trkpt>
   <trkpt lat="40.9035346635" lon="70.2381915529"><ele>1527.921</ele></trkpt>
   <trkpt lat="40.903514086" lon="70.2382030361"><ele>1528.539</ele></trkpt>
   <trkpt lat="40.9034117848" lon="70.2381195524"><ele>1532.278</ele></trkpt>
   <trkpt lat="40.9033729766" lon="70.2381065604"><ele>1518.349</ele></trkpt>
   <trkpt lat="40.9033840826" lon="70.2381746215"><ele>1533.898</ele></trkpt>
   <trkpt lat="40.9034345836" lon="70.238261458"><ele>1537.46</ele></trkpt>
   <trkpt lat="40.9034125811" lon="70.2383510605"><ele>1533.195</ele></trkpt>
   <trkpt lat="40.9034375592" lon="70.238444854"><ele>1538.432</ele></trkpt>
   <trkpt lat="40.9034403671" lon="70.2385220514"><ele>1544.739</ele></trkpt>
   <trkpt lat="40.9034741881" lon="70.2385929623"><ele>1549.848</ele></trkpt>
   <trkpt lat="40.9034368886" lon="70.2387803816"><ele>1556.561</ele></trkpt>
   <trkpt lat="40.9034175683" lon="70.2389983949"><ele>1557.933</ele></trkpt>
   <trkpt lat="40.9032990901" lon="70.2393561346"><ele>1555.141</ele></trkpt>
   <trkpt lat="40.9032968689" lon="70.2393982955"><ele>1558.866</ele></trkpt>
   <trkpt lat="40.9033295584" lon="70.2394134668"><ele>1558.326</ele></trkpt>
   <trkpt lat="40.9033154768" lon="70.2393552964"><ele>1557.91</ele></trkpt>
   <trkpt lat="40.9032136786" lon="70.2395372675"><ele>1561.066</ele></trkpt>
   <trkpt lat="40.9031641834" lon="70.2397308894"><ele>1563.548</ele></trkpt>
   <trkpt lat="40.9031015706" lon="70.2397675184"><ele>1561.433</ele></trkpt>
   <trkpt lat="40.9029488942" lon="70.2400616393"><ele>1561.717</ele></trkpt>
   <trkpt lat="40.9028224951" lon="70.2401658264"><ele>1562.484</ele></trkpt>
   <trkpt lat="40.9027118959" lon="70.2403302793"><ele>1559.387</ele></trkpt>
   <trkpt lat="40.9026956769" lon="70.2404390764"><ele>1562.436</ele></trkpt>
   <trkpt lat="40.9027068668" lon="70.2405502205"><ele>1557.432</ele></trkpt>
   <trkpt lat="40.9026684777" lon="70.2405632963"><ele>1563.147</ele></trkpt>
   <trkpt lat="40.9026031826" lon="70.2406360512"><ele>1561.761</ele></trkpt>
   <trkpt lat="40.9025982792" lon="70.2406813973"><ele>1561.019</ele></trkpt>
   <trkpt lat="40.9025129934" lon="70.2408975666"><ele>1562.15</ele></trkpt>
   <trkpt lat="40.9025305954" lon="70.24096546"><ele>1567.195</ele></trkpt>
   <trkpt lat="40.9025211657" lon="70.2409684775"><ele>1566.062</ele></trkpt>
   <trkpt lat="40.9025290866" lon="70.2411120595"><ele>1572.66</ele></trkpt>
   <trkpt lat="40.9024885601" lon="70.2411216986"><ele>1568.562</ele></trkpt>
   <trkpt lat="40.9024921643" lon="70.2410989837"><ele>1568.313</ele></trkpt>
   <trkpt lat="40.9025236803" lon="70.2410865785"><ele>1566.82</ele></trkpt>
   <trkpt lat="40.9024557869" lon="70.2411591657"><ele>1569.345</ele></trkpt>
   <trkpt lat="40.9023992928" lon="70.2412699745"><ele>1570.322</ele></trkpt>
   <trkpt lat="40.9023663939" lon="70.2414250397"><ele>1567.602</ele></trkpt>
   <trkpt lat="40.9023321957" lon="70.2414265485"><ele>1569.191</ele></trkpt>
   <trkpt lat="40.9022761627" lon="70.241536519"><ele>1567.155</ele></trkpt>
   <trkpt lat="40.9022706725" lon="70.2415826195"><ele>1569.429</ele></trkpt>
   <trkpt lat="40.9022382765" lon="70.2415872295"><ele>1561.763</ele></trkpt>
   <trkpt lat="40.9022156873" lon="70.24162872"><ele>1564.289</ele></trkpt>
   <trkpt lat="40.9022093589" lon="70.2416446456"><ele>1563.729</ele></trkpt>
   <trkpt lat="40.9022304813" lon="70.2416484174"><ele>1564.462</ele></trkpt>
   <trkpt lat="40.9022099876" lon="70.2417209209"><ele>1567.944</ele></trkpt>
   <trkpt lat="40.9021686648" lon="70.241748665"><ele>1565.493</ele></trkpt>
   <trkpt lat="40.9021843808" lon="70.2417722181"><ele>1569.938</ele></trkpt>
   <trkpt lat="40.9021791841" lon="70.2418354177"><ele>1569.857</ele></trkpt>
   <trkpt lat="40.9021979595" lon="70.2418765728"><ele>1576.683</ele></trkpt>
   <trkpt lat="40.9020917608" lon="70.2421759744"><ele>1573.108</ele></trkpt>
   <trkpt lat="40.9020005657" lon="70.2423186344"><ele>1575.239</ele></trkpt>
   <trkpt lat="40.902057395" lon="70.242251663"><ele>1581.807</ele></trkpt>
   <trkpt lat="40.9020295671" lon="70.2422642359"><ele>1577.879</ele></trkpt>
   <trkpt lat="40.9020208918" lon="70.2422930696"><ele>1578.28</ele></trkpt>
   <trkpt lat="40.9020418885" lon="70.2422376652"><ele>1579.276</ele></trkpt>
   <trkpt lat="40.9020364822" lon="70.2422897168"><ele>1578.988</ele></trkpt>
   <trkpt lat="40.9020460794" lon="70.2422304568"><ele>1577.223</ele></trkpt>
   <trkpt lat="40.9020511924" lon="70.2422663313"><ele>1577.878</ele></trkpt>
   <trkpt lat="40.9020318721" lon="70.2422366594"><ele>1578.297</ele></trkpt>
   <trkpt lat="40.9020410922" lon="70.2422769764"><ele>1577.8</ele></trkpt>
   <trkpt lat="40.9020151921" lon="70.2422786527"><ele>1577.649</ele></trkpt>
   <trkpt lat="40.9020266753" lon="70.2422886272"><ele>1580.059</ele></trkpt>
   <trkpt lat="40.9020521982" lon="70.242246131"><ele>1579.09</ele></trkpt>
   <trkpt lat="40.9020391644" lon="70.2422353183"><ele>1578.088</ele></trkpt>
   <trkpt lat="40.9020259629" lon="70.2422738751"><ele>1579.309</ele></trkpt>
   <trkpt lat="40.9020242865" lon="70.2422566922"><ele>1579.825</ele></trkpt>
   <trkpt lat="40.9020132643" lon="70.2422617213"><ele>1577.807</ele></trkpt>
   <trkpt lat="40.9020172876" lon="70.2422827599"><ele>1577.252</ele></trkpt>
   <trkpt lat="40.9020417628" lon="70.2422503219"><ele>1577.707</ele></trkpt>
   <trkpt lat="40.9020302796" lon="70.2422706899"><ele>1577.972</ele></trkpt>
   <trkpt lat="40.9019828799" lon="70.242246131"><ele>1576.307</ele></trkpt>
   <trkpt lat="40.9019447841" lon="70.2423369908"><ele>1575.091</ele></trkpt>
   <trkpt lat="40.9019215663" lon="70.2423369908"><ele>1574.824</ele></trkpt>
   <trkpt lat="40.9020274716" lon="70.2424572711"><ele>1576.282</ele></trkpt>
   <trkpt lat="40.9020368593" lon="70.2425166988"><ele>1579.635</ele></trkpt>
   <trkpt lat="40.9019734922" lon="70.242575875"><ele>1580.164</ele></trkpt>
   <trkpt lat="40.9019731988" lon="70.2426535753"><ele>1589.935</ele></trkpt>
   <trkpt lat="40.9019485979" lon="70.2426734404"><ele>1583.589</ele></trkpt>
   <trkpt lat="40.9019426887" lon="70.2427030285"><ele>1585.679</ele></trkpt>
   <trkpt lat="40.9019630986" lon="70.2426773799"><ele>1587.62</ele></trkpt>
   <trkpt lat="40.9019717739" lon="70.2426864323"><ele>1584.674</ele></trkpt>
   <trkpt lat="40.9019213986" lon="70.2428388991"><ele>1585.009</ele></trkpt>
   <trkpt lat="40.9019089934" lon="70.2429851634"><ele>1589.247</ele></trkpt>
   <trkpt lat="40.9018812912" lon="70.2430944634"><ele>1592.044</ele></trkpt>
   <trkpt lat="40.9018782737" lon="70.2431503707"><ele>1593.433</ele></trkpt>
   <trkpt lat="40.9018934869" lon="70.2431342774"><ele>1597.158</ele></trkpt>
   <trkpt lat="40.9019198899" lon="70.2431586688"><ele>1600.841</ele></trkpt>
   <trkpt lat="40.9019233684" lon="70.2432953776"><ele>1598.062</ele></trkpt>
   <trkpt lat="40.9018728674" lon="70.243408198"><ele>1602.656</ele></trkpt>
   <trkpt lat="40.9018606717" lon="70.243532334"><ele>1604.471</ele></trkpt>
   <trkpt lat="40.9017581611" lon="70.2435886604"><ele>1601.695</ele></trkpt>
   <trkpt lat="40.9017432832" lon="70.2436391194"><ele>1601.76</ele></trkpt>
   <trkpt lat="40.9017340631" lon="70.2436213498"><ele>1601.007</ele></trkpt>
   <trkpt lat="40.9017493601" lon="70.2436054242"><ele>1600.404</ele></trkpt>
   <trkpt lat="40.901719269" lon="70.2436182485"><ele>1599.92</ele></trkpt>
   <trkpt lat="40.9017340631" lon="70.2435846371"><ele>1601.028</ele></trkpt>
   <trkpt lat="40.9017131922" lon="70.2435977967"><ele>1601.501</ele></trkpt>
   <trkpt lat="40.9017317581" lon="70.2435990539"><ele>1602.81</ele></trkpt>
   <trkpt lat="40.9017250945" lon="70.2436350961"><ele>1598.283</ele></trkpt>
   <trkpt lat="40.9017374997" lon="70.2436529496"><ele>1598.456</ele></trkpt>
   <trkpt lat="40.9017833906" lon="70.2436412987"><ele>1602.081</ele></trkpt>
   <trkpt lat="40.90179106" lon="70.2436568891"><ele>1600.492</ele></trkpt>
   <trkpt lat="40.9017316743" lon="70.2437780914"><ele>1603.645</ele></trkpt>
   <trkpt lat="40.901650286" lon="70.2438145527"><ele>1597.922</ele></trkpt>
   <trkpt lat="40.9016358691" lon="70.2438790933"><ele>1597.451</ele></trkpt>
   <trkpt lat="40.9016438738" lon="70.2438722202"><ele>1593.862</ele></trkpt>
   <trkpt lat="40.9016540997" lon="70.243900551"><ele>1596.844</ele></trkpt>
   <trkpt lat="40.9016713665" lon="70.244005241"><ele>1597.02</ele></trkpt>
   <trkpt lat="40.901640563" lon="70.2440423728"><ele>1595.484</ele></trkpt>
   <trkpt lat="40.9016212846" lon="70.244164581"><ele>1597.354</ele></trkpt>
   <trkpt lat="40.9014583823" lon="70.2444038843"><ele>1594.84</ele></trkpt>
   <trkpt lat="40.9013795924" lon="70.2445530822"><ele>1596.379</ele></trkpt>
   <trkpt lat="40.9013830709" lon="70.2445345582"><ele>1595.118</ele></trkpt>
   <trkpt lat="40.9013418738" lon="70.2445774735"><ele>1598.694</ele></trkpt>
   <trkpt lat="40.9012871819" lon="70.2446913836"><ele>1604.703</ele></trkpt>
   <trkpt lat="40.9012532771" lon="70.2447054652"><ele>1601.139</ele></trkpt>
   <trkpt lat="40.9012562946" lon="70.2446658188"><ele>1601.479</ele></trkpt>
   <trkpt lat="40.9012633773" lon="70.2446813253"><ele>1601.186</ele></trkpt>
   <trkpt lat="40.9012286762" lon="70.244683756"><ele>1601.569</ele></trkpt>
   <trkpt lat="40.9012790934" lon="70.2447048784"><ele>1597.689</ele></trkpt>
   <trkpt lat="40.9012872657" lon="70.2446741168"><ele>1600.693</ele></trkpt>
   <trkpt lat="40.9011881917" lon="70.2448514779"><ele>1601.552</ele></trkpt>
   <trkpt lat="40.9011001817" lon="70.2449224726"><ele>1603.742</ele></trkpt>
   <trkpt lat="40.9010920931" lon="70.2449516417"><ele>1603.462</ele></trkpt>
   <trkpt lat="40.9009983835" lon="70.245061277"><ele>1605.463</ele></trkpt>
   <trkpt lat="40.9009807815" lon="70.2450594329"><ele>1606.581</ele></trkpt>
   <trkpt lat="40.9008521612" lon="70.2452037693"><ele>1610.912</ele></trkpt>
   <trkpt lat="40.9008418933" lon="70.2452581679"><ele>1617.108</ele></trkpt>
   <trkpt lat="40.9007883749" lon="70.2453387179"><ele>1615.034</ele></trkpt>
   <trkpt lat="40.9007818789" lon="70.2454497782"><ele>1612.323</ele></trkpt>
   <trkpt lat="40.9003966885" lon="70.2456154884"><ele>1609.883</ele></trkpt>
   <trkpt lat="40.9003455589" lon="70.2456808672"><ele>1608.174</ele></trkpt>
   <trkpt lat="40.9002762825" lon="70.2458477509"><ele>1608.908</ele></trkpt>
   <trkpt lat="40.9002490832" lon="70.2458605752"><ele>1601.231</ele></trkpt>
   <trkpt lat="40.9002123705" lon="70.2459434723"><ele>1610.172</ele></trkpt>
   <trkpt lat="40.9002152622" lon="70.2460051631"><ele>1610.741</ele></trkpt>
   <trkpt lat="40.9001915834" lon="70.2461013873"><ele>1605.549</ele></trkpt>
   <trkpt lat="40.9002041981" lon="70.2462076699"><ele>1609.472</ele></trkpt>
   <trkpt lat="40.9001248634" lon="70.2463600529"><ele>1605.283</ele></trkpt>
   <trkpt lat="40.9001780885" lon="70.2463449654"><ele>1603.971</ele></trkpt>
   <trkpt lat="40.9002168967" lon="70.2464237553"><ele>1611.917</ele></trkpt>
   <trkpt lat="40.9002374743" lon="70.2464286168"><ele>1609.039</ele></trkpt>
   <trkpt lat="40.900240869" lon="70.2464750526"><ele>1604.555</ele></trkpt>
   <trkpt lat="40.9002165614" lon="70.2465186385"><ele>1610.283</ele></trkpt>
   <trkpt lat="40.900188063" lon="70.2464936604"><ele>1610.123</ele></trkpt>
   <trkpt lat="40.9002154718" lon="70.2465561894"><ele>1606.933</ele></trkpt>
   <trkpt lat="40.9002172739" lon="70.2466159524"><ele>1612.047</ele></trkpt>
   <trkpt lat="40.9002480774" lon="70.2466828399"><ele>1614.106</ele></trkpt>
   <trkpt lat="40.9002802639" lon="70.2466924791"><ele>1611.865</ele></trkpt>
   <trkpt lat="40.9002627876" lon="70.246655934"><ele>1611.076</ele></trkpt>
   <trkpt lat="40.9002413719" lon="70.2466810797"><ele>1612.21</ele></trkpt>
   <trkpt lat="40.9002728878" lon="70.2466234961"><ele>1615.426</ele></trkpt>
   <trkpt lat="40.9002566688" lon="70.2466254239"><ele>1611.167</ele></trkpt>
   <trkpt lat="40.9002300982" lon="70.246591561"><ele>1610.392</ele></trkpt>
   <trkpt lat="40.9002318584" lon="70.2465576981"><ele>1611.297</ele></trkpt>
   <trkpt lat="40.9002430902" lon="70.2465629787"><ele>1608.756</ele></trkpt>
   <trkpt lat="40.9002258653" lon="70.2465661638"><ele>1611.423</ele></trkpt>
   <trkpt lat="40.9002283799" lon="70.2466006973"><ele>1606.951</ele></trkpt>
   <trkpt lat="40.9002720915" lon="70.2466575266"><ele>1611.955</ele></trkpt>
   <trkpt lat="40.9002657632" lon="70.2466761344"><ele>1611.68</ele></trkpt>
   <trkpt lat="40.9002766597" lon="70.2466615499"><ele>1612.665</ele></trkpt>
   <trkpt lat="40.9003086786" lon="70.2467152779"><ele>1611.92</ele></trkpt>
   <trkpt lat="40.9003244784" lon="70.2468023659"><ele>1610.676</ele></trkpt>
   <trkpt lat="40.9003526835" lon="70.2468026173"><ele>1610.079</ele></trkpt>
   <trkpt lat="40.9003780807" lon="70.2468405874"><ele>1608.358</ele></trkpt>
   <trkpt lat="40.9003285856" lon="70.2468993445"><ele>1612.602</ele></trkpt>
   <trkpt lat="40.9003531865" lon="70.2469573473"><ele>1614.859</ele></trkpt>
   <trkpt lat="40.9003293819" lon="70.2470280905"><ele>1617.251</ele></trkpt>
   <trkpt lat="40.9003661784" lon="70.2470905357"><ele>1614.591</ele></trkpt>
   <trkpt lat="40.9003497918" lon="70.2471530647"><ele>1620.687</ele></trkpt>
   <trkpt lat="40.9003710818" lon="70.2471699962"><ele>1617.586</ele></trkpt>
   <trkpt lat="40.9003620713" lon="70.2471244824"><ele>1617.457</ele></trkpt>
   <trkpt lat="40.9003730935" lon="70.2471144241"><ele>1616.131</ele></trkpt>
   <trkpt lat="40.9003882647" lon="70.2471450181"><ele>1616.655</ele></trkpt>
   <trkpt lat="40.9003711656" lon="70.2471540705"><ele>1614.997</ele></trkpt>
   <trkpt lat="40.90038399" lon="70.2471471974"><ele>1613.482</ele></trkpt>
   <trkpt lat="40.9004277854" lon="70.2472254844"><ele>1614.744</ele></trkpt>
   <trkpt lat="40.9004237621" lon="70.2472886839"><ele>1616.701</ele></trkpt>
   <trkpt lat="40.9003983649" lon="70.2473260672"><ele>1616.495</ele></trkpt>
   <trkpt lat="40.9004071659" lon="70.2474957169"><ele>1621.944</ele></trkpt>
   <trkpt lat="40.900425187" lon="70.2475255565"><ele>1622.383</ele></trkpt>
   <trkpt lat="40.9004127818" lon="70.2476018318"><ele>1617.873</ele></trkpt>
   <trkpt lat="40.9004560743" lon="70.2477113833"><ele>1622.919</ele></trkpt>
   <trkpt lat="40.9004562839" lon="70.2477812884"><ele>1624.66</ele></trkpt>
   <trkpt lat="40.9004755622" lon="70.2478075237"><ele>1627.09</ele></trkpt>
   <trkpt lat="40.9004655878" lon="70.247970887"><ele>1626.594</ele></trkpt>
   <trkpt lat="40.9004345747" lon="70.2480017324"><ele>1631.487</ele></trkpt>
   <trkpt lat="40.9004375922" lon="70.2480779239"><ele>1630.4</ele></trkpt>
   <trkpt lat="40.900424265" lon="70.2481176541"><ele>1627.998</ele></trkpt>
   <trkpt lat="40.9003384762" lon="70.2482397785"><ele>1627.417</ele></trkpt>
   <trkpt lat="40.9003504623" lon="70.2481992939"><ele>1627.147</ele></trkpt>
   <trkpt lat="40.9003250652" lon="70.2482625772"><ele>1626.888</ele></trkpt>
   <trkpt lat="40.9002514721" lon="70.2482965239"><ele>1627.336</ele></trkpt>
   <trkpt lat="40.9002377677" lon="70.2483249386"><ele>1633.151</ele></trkpt>
   <trkpt lat="40.9002611951" lon="70.2484002919"><ele>1634.711</ele></trkpt>
   <trkpt lat="40.900258471" lon="70.2486051456"><ele>1639.153</ele></trkpt>
   <trkpt lat="40.90023299" lon="70.2487143618"><ele>1634.173</ele></trkpt>
   <trkpt lat="40.9001924635" lon="70.2487530862"><ele>1633.746</ele></trkpt>
   <trkpt lat="40.9001882725" lon="70.2489030385"><ele>1632.174</ele></trkpt>
   <trkpt lat="40.9002533999" lon="70.2487507393"><ele>1639.113</ele></trkpt>
   <trkpt lat="40.9002935911" lon="70.2487129369"><ele>1633.998</ele></trkpt>
   <trkpt lat="40.9003203713" lon="70.2487163735"><ele>1633.65</ele></trkpt>
   <trkpt lat="40.9003364646" lon="70.2486889646"><ele>1638.497</ele></trkpt>
   <trkpt lat="40.9004078784" lon="70.2486569458"><ele>1641.77</ele></trkpt>
   <trkpt lat="40.9004495783" lon="70.2486695186"><ele>1645.197</ele></trkpt>
   <trkpt lat="40.9004936672" lon="70.2487122663"><ele>1645.274</ele></trkpt>
   <trkpt lat="40.900579875" lon="70.248849059"><ele>1651.842</ele></trkpt>
   <trkpt lat="40.9007145722" lon="70.2489843429"><ele>1655.743</ele></trkpt>
   <trkpt lat="40.9009370698" lon="70.2490867698"><ele>1665.306</ele></trkpt>
   <trkpt lat="40.9009840923" lon="70.2491533221"><ele>1664.494</ele></trkpt>
   <trkpt lat="40.9010730662" lon="70.2492195391"><ele>1665.936</ele></trkpt>
   <trkpt lat="40.9011125869" lon="70.2492884384"><ele>1666.674</ele></trkpt>
   <trkpt lat="40.9011372716" lon="70.2492808946"><ele>1667.648</ele></trkpt>
   <trkpt lat="40.9011299793" lon="70.2492703335"><ele>1668.307</ele></trkpt>
   <trkpt lat="40.9011119582" lon="70.2492754464"><ele>1667.929</ele></trkpt>
   <trkpt lat="40.9011677817" lon="70.2493212954"><ele>1669.119</ele></trkpt>
   <trkpt lat="40.9012035724" lon="70.2493287553"><ele>1670.349</ele></trkpt>
   <trkpt lat="40.9013363837" lon="70.2494792943"><ele>1675.65</ele></trkpt>
   <trkpt lat="40.9013897764" lon="70.2495146659"><ele>1678.015</ele></trkpt>
   <trkpt lat="40.90144187" lon="70.2495216229"><ele>1678.371</ele></trkpt>
   <trkpt lat="40.9015110626" lon="70.249594294"><ele>1685.561</ele></trkpt>
   <trkpt lat="40.9014910717" lon="70.2496403945"><ele>1688.618</ele></trkpt>
   <trkpt lat="40.9013256968" lon="70.2497699787"><ele>1689.36</ele></trkpt>
   <trkpt lat="40.9011741939" lon="70.2498138999"><ele>1690.724</ele></trkpt>
   <trkpt lat="40.9010728986" lon="70.2498686337"><ele>1695.278</ele></trkpt>
   <trkpt lat="40.9010509799" lon="70.2498998982"><ele>1697.591</ele></trkpt>
   <trkpt lat="40.90103518" lon="70.2499691327"><ele>1698.344</ele></trkpt>
   <trkpt lat="40.9010404606" lon="70.2500203461"><ele>1697.774</ele></trkpt>
   <trkpt lat="40.9011182866" lon="70.2500906703"><ele>1706.524</ele></trkpt>
   <trkpt lat="40.901153281" lon="70.2501832903"><ele>1702.25</ele></trkpt>
   <trkpt lat="40.9011454859" lon="70.2502292232"><ele>1701.404</ele></trkpt>
   <trkpt lat="40.9011360981" lon="70.2501337533"><ele>1701.705</ele></trkpt>
   <trkpt lat="40.9011174903" lon="70.2501062607"><ele>1704.139</ele></trkpt>
   <trkpt lat="40.9011367687" lon="70.2502140519"><ele>1703.209</ele></trkpt>
   <trkpt lat="40.9011239863" lon="70.2502957755"><ele>1702.308</ele></trkpt>
   <trkpt lat="40.9011503893" lon="70.250392335"><ele>1703.203</ele></trkpt>
   <trkpt lat="40.9011628783" lon="70.250534073"><ele>1703.085</ele></trkpt>
   <trkpt lat="40.901126878" lon="70.2507175529"><ele>1700.475</ele></trkpt>
   <trkpt lat="40.9011405824" lon="70.2507839375"><ele>1701.377</ele></trkpt>
   <trkpt lat="40.9010941886" lon="70.2509321296"><ele>1705.536</ele></trkpt>
   <trkpt lat="40.9010937695" lon="70.251059786"><ele>1701.638</ele></trkpt>
   <trkpt lat="40.9011011875" lon="70.2512357221"><ele>1703.434</ele></trkpt>
   <trkpt lat="40.9011469946" lon="70.2513874346"><ele>1704.923</ele></trkpt>
   <trkpt lat="40.9011377745" lon="70.2514998359"><ele>1701.984</ele></trkpt>
   <trkpt lat="40.9011930951" lon="70.2515948867"><ele>1699.13</ele></trkpt>
   <trkpt lat="40.9012011836" lon="70.2516437532"><ele>1699.85</ele></trkpt>
   <trkpt lat="40.9011856771" lon="70.2516467706"><ele>1700.535</ele></trkpt>
   <trkpt lat="40.9011855933" lon="70.2516315994"><ele>1699.54</ele></trkpt>
   <trkpt lat="40.9011561728" lon="70.2517029294"><ele>1702.246</ele></trkpt>
   <trkpt lat="40.9011015647" lon="70.251726734"><ele>1703.228</ele></trkpt>
   <trkpt lat="40.9010517762" lon="70.2517993213"><ele>1705.511</ele></trkpt>
   <trkpt lat="40.9009875708" lon="70.251825389"><ele>1702.51</ele></trkpt>
   <trkpt lat="40.9009333818" lon="70.2519050171"><ele>1703.43</ele></trkpt>
   <trkpt lat="40.9009014887" lon="70.2518979763"><ele>1706.45</ele></trkpt>
   <trkpt lat="40.9008913885" lon="70.2518756804"><ele>1708.502</ele></trkpt>
   <trkpt lat="40.9008740798" lon="70.2519466751"><ele>1705.26</ele></trkpt>
   <trkpt lat="40.9008216929" lon="70.2519650315"><ele>1709.186</ele></trkpt>
   <trkpt lat="40.9008544662" lon="70.2521219407"><ele>1712.202</ele></trkpt>
   <trkpt lat="40.9008447851" lon="70.2522485913"><ele>1711.66</ele></trkpt>
   <trkpt lat="40.9008573998" lon="70.2523964481"><ele>1707.227</ele></trkpt>
   <trkpt lat="40.9008254648" lon="70.2526017209"><ele>1708.963</ele></trkpt>
   <trkpt lat="40.9007349821" lon="70.2528649964"><ele>1711.399</ele></trkpt>
   <trkpt lat="40.9007352755" lon="70.2530636476"><ele>1708.993</ele></trkpt>
   <trkpt lat="40.9006698967" lon="70.2532933955"><ele>1713.795</ele></trkpt>
   <trkpt lat="40.9006620596" lon="70.2533688326"><ele>1717.476</ele></trkpt>
   <trkpt lat="40.9007169611" lon="70.2537531429"><ele>1719.604</ele></trkpt>
   <trkpt lat="40.9007096688" lon="70.2538324357"><ele>1720.264</ele></trkpt>
   <trkpt lat="40.9006878759" lon="70.2538598445"><ele>1719.666</ele></trkpt>
   <trkpt lat="40.9006811703" lon="70.2539103874"><ele>1723.991</ele></trkpt>
   <trkpt lat="40.9007052683" lon="70.2539997385"><ele>1721.589</ele></trkpt>
   <trkpt lat="40.9007281928" lon="70.2539898479"><ele>1719.89</ele></trkpt>
   <trkpt lat="40.9007190984" lon="70.2539977268"><ele>1721.774</ele></trkpt>
   <trkpt lat="40.9007320904" lon="70.2540782769"><ele>1726.368</ele></trkpt>
   <trkpt lat="40.9006725789" lon="70.2541511995"><ele>1722.822</ele></trkpt>
   <trkpt lat="40.9006730818" lon="70.2543249563"><ele>1728.35</ele></trkpt>
   <trkpt lat="40.9006269813" lon="70.2543754992"><ele>1727.437</ele></trkpt>
   <trkpt lat="40.9005732952" lon="70.2544758306"><ele>1725.151</ele></trkpt>
   <trkpt lat="40.9005349899" lon="70.2546079294"><ele>1727.882</ele></trkpt>
   <trkpt lat="40.9004604748" lon="70.2547003818"><ele>1728.745</ele></trkpt>
   <trkpt lat="40.9004525958" lon="70.2547759866"><ele>1730.329</ele></trkpt>
   <trkpt lat="40.9005353671" lon="70.2549561975"><ele>1734.269</ele></trkpt>
   <trkpt lat="40.9005285778" lon="70.2550441236"><ele>1736.817</ele></trkpt>
   <trkpt lat="40.9004252708" lon="70.2551864483"><ele>1741.464</ele></trkpt>
   <trkpt lat="40.9003786674" lon="70.2553388313"><ele>1744.772</ele></trkpt>
   <trkpt lat="40.9004002928" lon="70.2553888713"><ele>1740.919</ele></trkpt>
   <trkpt lat="40.9004285817" lon="70.2553964988"><ele>1741.275</ele></trkpt>
   <trkpt lat="40.9005029711" lon="70.2554830839"><ele>1739.617</ele></trkpt>
   <trkpt lat="40.9005374626" lon="70.2554926393"><ele>1745.934</ele></trkpt>
   <trkpt lat="40.9005959683" lon="70.2555692499"><ele>1737.314</ele></trkpt>
   <trkpt lat="40.9005782825" lon="70.2556790528"><ele>1744.066</ele></trkpt>
   <trkpt lat="40.9005254765" lon="70.2558415779"><ele>1749.691</ele></trkpt>
   <trkpt lat="40.9005235905" lon="70.2560582501"><ele>1747.958</ele></trkpt>
   <trkpt lat="40.900538678" lon="70.2561367885"><ele>1754.225</ele></trkpt>
   <trkpt lat="40.9005314695" lon="70.2561624372"><ele>1752.577</ele></trkpt>
   <trkpt lat="40.9005120654" lon="70.2561549773"><ele>1751.347</ele></trkpt>
   <trkpt lat="40.9005234648" lon="70.2561398898"><ele>1750.389</ele></trkpt>
   <trkpt lat="40.9005163821" lon="70.2561816317"><ele>1752.018</ele></trkpt>
   <trkpt lat="40.9005408992" lon="70.2562240441"><ele>1756.46</ele></trkpt>
   <trkpt lat="40.9005333974" lon="70.2564043389"><ele>1761.552</ele></trkpt>
   <trkpt lat="40.9005517957" lon="70.2565420535"><ele>1763.104</ele></trkpt>
   <trkpt lat="40.9005707807" lon="70.2565804427"><ele>1768.856</ele></trkpt>
   <trkpt lat="40.9005519633" lon="70.2567215939"><ele>1769.604</ele></trkpt>
   <trkpt lat="40.9005728761" lon="70.2568094363"><ele>1770.351</ele></trkpt>
   <trkpt lat="40.9006029672" lon="70.2573436988"><ele>1786.253</ele></trkpt>
   <trkpt lat="40.9005757679" lon="70.2575676632"><ele>1787.703</ele></trkpt>
   <trkpt lat="40.9005773605" lon="70.2576858481"><ele>1794.499</ele></trkpt>
   <trkpt lat="40.9005351995" lon="70.2579059568"><ele>1800.037</ele></trkpt>
   <trkpt lat="40.9005523824" lon="70.2579746884"><ele>1799.909</ele></trkpt>
   <trkpt lat="40.9005241773" lon="70.2581077931"><ele>1800.623</ele></trkpt>
   <trkpt lat="40.9005342775" lon="70.2585375332"><ele>1806.483</ele></trkpt>
   <trkpt lat="40.9005553999" lon="70.2585901716"><ele>1803.651</ele></trkpt>
   <trkpt lat="40.9005898914" lon="70.2586083603"><ele>1804.032</ele></trkpt>
   <trkpt lat="40.9006066971" lon="70.2586433967"><ele>1803.921</ele></trkpt>
   <trkpt lat="40.9006225808" lon="70.2587742382"><ele>1801.034</ele></trkpt>
   <trkpt lat="40.9007228703" lon="70.2589323209"><ele>1800.538</ele></trkpt>
   <trkpt lat="40.9007368681" lon="70.2590947622"><ele>1800.367</ele></trkpt>
   <trkpt lat="40.900726265" lon="70.2592965984"><ele>1793.763</ele></trkpt>
   <trkpt lat="40.9007722816" lon="70.2593267732"><ele>1791.642</ele></trkpt>
   <trkpt lat="40.9008382891" lon="70.2593208221"><ele>1791.328</ele></trkpt>
   <trkpt lat="40.9008770973" lon="70.259358373"><ele>1789.198</ele></trkpt>
   <trkpt lat="40.9008613812" lon="70.2595210658"><ele>1793.576</ele></trkpt>
   <trkpt lat="40.9009106668" lon="70.2597427671"><ele>1797.256</ele></trkpt>
   <trkpt lat="40.9008453718" lon="70.2599046216"><ele>1799.98</ele></trkpt>
   <trkpt lat="40.9008048872" lon="70.259939658"><ele>1800.505</ele></trkpt>
   <trkpt lat="40.9008131853" lon="70.2599158534"><ele>1801.287</ele></trkpt>
   <trkpt lat="40.9007344792" lon="70.2600360499"><ele>1801.337</ele></trkpt>
   <trkpt lat="40.9007052683" lon="70.2601151751"><ele>1802.982</ele></trkpt>
   <trkpt lat="40.9006903904" lon="70.2601848287"><ele>1802.527</ele></trkpt>
   <trkpt lat="40.900691983" lon="70.2603026782"><ele>1808.631</ele></trkpt>
   <trkpt lat="40.9006626882" lon="70.2604367887"><ele>1810.767</ele></trkpt>
   <trkpt lat="40.9006751773" lon="70.26049454"><ele>1809.125</ele></trkpt>
   <trkpt lat="40.9006411887" lon="70.2605853998"><ele>1809.231</ele></trkpt>
   <trkpt lat="40.9006325972" lon="70.2607196779"><ele>1809.018</ele></trkpt>
   <trkpt lat="40.9006569885" lon="70.2606903412"><ele>1815.437</ele></trkpt>
   <trkpt lat="40.9006341898" lon="70.2606200171"><ele>1810.717</ele></trkpt>
   <trkpt lat="40.9006484809" lon="70.2605292411"><ele>1810.199</ele></trkpt>
   <trkpt lat="40.9006333935" lon="70.2606182569"><ele>1810.38</ele></trkpt>
   <trkpt lat="40.9006416916" lon="70.2608074364"><ele>1810.335</ele></trkpt>
   <trkpt lat="40.9006661667" lon="70.2608426404"><ele>1810.485</ele></trkpt>
   <trkpt lat="40.9006744648" lon="70.2609756612"><ele>1814.388</ele></trkpt>
   <trkpt lat="40.9006688908" lon="70.2610668563"><ele>1816.138</ele></trkpt>
   <trkpt lat="40.9006463854" lon="70.2611117833"><ele>1816.303</ele></trkpt>
   <trkpt lat="40.9006492772" lon="70.2611879748"><ele>1821.163</ele></trkpt>
   <trkpt lat="40.9006892589" lon="70.2612232627"><ele>1818.662</ele></trkpt>
   <trkpt lat="40.9007142788" lon="70.2613008791"><ele>1816.272</ele></trkpt>
   <trkpt lat="40.9007025861" lon="70.2613095963"><ele>1815.45</ele></trkpt>
   <trkpt lat="40.9007169611" lon="70.2614291222"><ele>1813.867</ele></trkpt>
   <trkpt lat="40.9007025861" lon="70.2615314652"><ele>1813.169</ele></trkpt>
   <trkpt lat="40.9007355689" lon="70.2616187208"><ele>1808.8</ele></trkpt>
   <trkpt lat="40.9007192661" lon="70.2616542601"><ele>1807.504</ele></trkpt>
   <trkpt lat="40.9007190984" lon="70.2617267636"><ele>1813.125</ele></trkpt>
   <trkpt lat="40.9007288634" lon="70.2617824194"><ele>1809.858</ele></trkpt>
   <trkpt lat="40.9007821723" lon="70.2617975907"><ele>1809.806</ele></trkpt>
   <trkpt lat="40.9007694737" lon="70.2618779731"><ele>1810.956</ele></trkpt>
   <trkpt lat="40.9007860698" lon="70.26193036"><ele>1811.984</ele></trkpt>
   <trkpt lat="40.9007672944" lon="70.2619416756"><ele>1810.72</ele></trkpt>
   <trkpt lat="40.9007668753" lon="70.2619932243"><ele>1804.945</ele></trkpt>
   <trkpt lat="40.9007735808" lon="70.2620047913"><ele>1815.089</ele></trkpt>
   <trkpt lat="40.9007860698" lon="70.2619733592"><ele>1818.876</ele></trkpt>
   <trkpt lat="40.900798978" lon="70.2619851777"><ele>1813.769</ele></trkpt>
   <trkpt lat="40.900793865" lon="70.2619978343"><ele>1813.309</ele></trkpt>
   <trkpt lat="40.9007888778" lon="70.2619823278"><ele>1812.579</ele></trkpt>
   <trkpt lat="40.9007893807" lon="70.2620218904"><ele>1814.138</ele></trkpt>
   <trkpt lat="40.9007545958" lon="70.2620752831"><ele>1810.974</ele></trkpt>
   <trkpt lat="40.9007666657" lon="70.2622204577"><ele>1819.044</ele></trkpt>
   <trkpt lat="40.9007433641" lon="70.2624526364"><ele>1820.501</ele></trkpt>
   <trkpt lat="40.9007601698" lon="70.2625512914"><ele>1824.874</ele></trkpt>
   <trkpt lat="40.9006932822" lon="70.2626113896"><ele>1827.585</ele></trkpt>
   <trkpt lat="40.9006550607" lon="70.2628198476"><ele>1821.264</ele></trkpt>
   <trkpt lat="40.9006221617" lon="70.26286226"><ele>1823.564</ele></trkpt>
   <trkpt lat="40.9005885922" lon="70.2628657804"><ele>1820.557</ele></trkpt>
   <trkpt lat="40.9005383846" lon="70.2629177482"><ele>1823.57</ele></trkpt>
   <trkpt lat="40.9005332716" lon="70.2629583166"><ele>1824.294</ele></trkpt>
   <trkpt lat="40.9005637818" lon="70.2630259586"><ele>1821.04</ele></trkpt>
   <trkpt lat="40.9005555675" lon="70.2630602406"><ele>1819.358</ele></trkpt>
   <trkpt lat="40.9005093832" lon="70.2630883199"><ele>1826.412</ele></trkpt>
   <trkpt lat="40.9004838603" lon="70.2631429699"><ele>1825.284</ele></trkpt>
   <trkpt lat="40.9005066591" lon="70.2631344204"><ele>1822.414</ele></trkpt>
  </trkseg>
 </trk>
</gpx>