<?xml version='1.0' encoding='utf-8'?>
<gpx xmlns="http://www.topografix.com/GPX/1/1" xmlns:ns2="https://gurumaps.app/gpx/v3" xmlns:xsi="http://www.w3.org/2001/XMLSchema-instance" version="1.1" creator="com.bodunov.galileo/v5.8.1" xsi:schemaLocation="http://www.topografix.com/GPX/1/1 http://www.topografix.com/GPX/1/1/gpx.xsd https://gurumaps.app/gpx/v3 https://gurumaps.app/gpx/v3/schema.xsd">
 <trk>
  <name>Navolisoy</name>
  <type>TrackStyle_E53935C8</type>
  <extensions>
   <ns2:time>2025-07-26T05:06:38.000Z</ns2:time>
  </extensions>
  <trkseg>
   <trkpt lat="41.7175892907" lon="70.076603631"><ele>935.999</ele></trkpt>
   <trkpt lat="41.7179527719" lon="70.0763427862"><ele>936.709</ele></trkpt>
   <trkpt lat="41.7181123634" lon="70.0762976077"><ele>936.839</ele></trkpt>
   <trkpt lat="41.7182106412" lon="70.0762463105"><ele>936.659</ele></trkpt>
   <trkpt lat="41.7185051393" lon="70.0761443865"><ele>936.539</ele></trkpt>
   <trkpt lat="41.7186820394" lon="70.0760548678"><ele>936.849</ele></trkpt>
   <trkpt lat="41.7190136275" lon="70.0759382755"><ele>939.969</ele></trkpt>
   <trkpt lat="41.7191722131" lon="70.0759263732"><ele>941.409</ele></trkpt>
   <trkpt lat="41.7193131548" lon="70.0759509322"><ele>942.389</ele></trkpt>
   <trkpt lat="41.7194841037" lon="70.0759243616"><ele>943.259</ele></trkpt>
   <trkpt lat="41.7195550565" lon="70.0758774229"><ele>943.399</ele></trkpt>
   <trkpt lat="41.7196493529" lon="70.0758564681"><ele>943.359</ele></trkpt>
   <trkpt lat="41.7197629696" lon="70.075796789"><ele>944.029</ele></trkpt>
   <trkpt lat="41.7200565039" lon="70.0755996466"><ele>946.409</ele></trkpt>
   <trkpt lat="41.720357037" lon="70.075545751"><ele>947.159</ele></trkpt>
   <trkpt lat="41.7204802929" lon="70.0754431565"><ele>948.019</ele></trkpt>
   <trkpt lat="41.7206501941" lon="70.0753675517"><ele>949.469</ele></trkpt>
   <trkpt lat="41.7208657766" lon="70.0751109817"><ele>951.319</ele></trkpt>
   <trkpt lat="41.720933712" lon="70.0749789667"><ele>952.669</ele></trkpt>
   <trkpt lat="41.7211489592" lon="70.0748104066"><ele>956.889</ele></trkpt>
   <trkpt lat="41.7212495421" lon="70.0746285193"><ele>961.799</ele></trkpt>
   <trkpt lat="41.7212914097" lon="70.0746026192"><ele>962.369</ele></trkpt>
   <trkpt lat="41.7214229637" lon="70.0744160381"><ele>964.789</ele></trkpt>
   <trkpt lat="41.7217114688" lon="70.0741299637"><ele>970.469</ele></trkpt>
   <trkpt lat="41.7217464213" lon="70.0740579632"><ele>971.899</ele></trkpt>
   <trkpt lat="41.7217537136" lon="70.0739983678"><ele>972.969</ele></trkpt>
   <trkpt lat="41.7216954593" lon="70.0738973659"><ele>974.719</ele></trkpt>
   <trkpt lat="41.7216931124" lon="70.0738267065"><ele>975.039</ele></trkpt>
   <trkpt lat="41.7217167494" lon="70.0737697933"><ele>975.089</ele></trkpt>
   <trkpt lat="41.7217767219" lon="70.0737281353"><ele>975.219</ele></trkpt>
   <trkpt lat="41.7219106647" lon="70.0737371039"><ele>975.389</ele></trkpt>
   <trkpt lat="41.7220233175" lon="70.0737188314"><ele>975.379</ele></trkpt>
   <trkpt lat="41.722270877" lon="70.0737750739"><ele>976.839</ele></trkpt>
   <trkpt lat="41.7227496513" lon="70.0741844461"><ele>970.689</ele></trkpt>
   <trkpt lat="41.7229695505" lon="70.0743126892"><ele>966.289</ele></trkpt>
   <trkpt lat="41.7232337481" lon="70.0745354802"><ele>963.859</ele></trkpt>
   <trkpt lat="41.7233057487" lon="70.0745285232"><ele>963.279</ele></trkpt>
   <trkpt lat="41.723615921" lon="70.0744066504"><ele>958.119</ele></trkpt>
   <trkpt lat="41.7238281927" lon="70.0744219892"><ele>954.839</ele></trkpt>
   <trkpt lat="41.7241257083" lon="70.0743286987"><ele>950.569</ele></trkpt>
   <trkpt lat="41.7241903747" lon="70.0743376673"><ele>950.079</ele></trkpt>
   <trkpt lat="41.7243503014" lon="70.0744029623"><ele>948.289</ele></trkpt>
   <trkpt lat="41.7250603325" lon="70.074523997"><ele>947.659</ele></trkpt>
   <trkpt lat="41.7253391984" lon="70.0746334647"><ele>950.819</ele></trkpt>
   <trkpt lat="41.7254997956" lon="70.0746139348"><ele>954.529</ele></trkpt>
   <trkpt lat="41.725698321" lon="70.0746358116"><ele>958.359</ele></trkpt>
   <trkpt lat="41.7258782386" lon="70.0745888729"><ele>962.439</ele></trkpt>
   <trkpt lat="41.7259741694" lon="70.0745912199"><ele>963.689</ele></trkpt>
   <trkpt lat="41.7261071483" lon="70.0746514857"><ele>964.339</ele></trkpt>
   <trkpt lat="41.7262297337" lon="70.0747674075"><ele>965.029</ele></trkpt>
   <trkpt lat="41.7262776782" lon="70.0747871049"><ele>965.439</ele></trkpt>
   <trkpt lat="41.7263510198" lon="70.0747694191"><ele>965.809</ele></trkpt>
   <trkpt lat="41.7265892754" lon="70.0746328779"><ele>965.239</ele></trkpt>
   <trkpt lat="41.7268667583" lon="70.0745683373"><ele>965.369</ele></trkpt>
   <trkpt lat="41.7271343506" lon="70.074633297"><ele>965.339</ele></trkpt>
   <trkpt lat="41.7273689181" lon="70.0746462051"><ele>965.669</ele></trkpt>
   <trkpt lat="41.727601474" lon="70.0746346381"><ele>965.359</ele></trkpt>
   <trkpt lat="41.727865043" lon="70.0747094885"><ele>965.569</ele></trkpt>
   <trkpt lat="41.7281249239" lon="70.0748613686"><ele>965.619</ele></trkpt>
   <trkpt lat="41.7282225731" lon="70.0748713431"><ele>965.579</ele></trkpt>
   <trkpt lat="41.7283604973" lon="70.0748390727"><ele>965.549</ele></trkpt>
   <trkpt lat="41.7285057557" lon="70.0748327863"><ele>965.409</ele></trkpt>
   <trkpt lat="41.7286307298" lon="70.0748640508"><ele>965.679</ele></trkpt>
   <trkpt lat="41.7288329433" lon="70.0749835767"><ele>965.869</ele></trkpt>
   <trkpt lat="41.7289232583" lon="70.0749706686"><ele>965.959</ele></trkpt>
   <trkpt lat="41.7290911478" lon="70.0748574291"><ele>966.379</ele></trkpt>
   <trkpt lat="41.7291517908" lon="70.0748407491"><ele>965.949</ele></trkpt>
   <trkpt lat="41.7292587439" lon="70.0748231471"><ele>964.489</ele></trkpt>
   <trkpt lat="41.7293420601" lon="70.0748441019"><ele>963.489</ele></trkpt>
   <trkpt lat="41.7295006457" lon="70.0748222251"><ele>963.159</ele></trkpt>
   <trkpt lat="41.7295582712" lon="70.0748438504"><ele>963.329</ele></trkpt>
   <trkpt lat="41.7296138852" lon="70.0749051221"><ele>963.559</ele></trkpt>
   <trkpt lat="41.7297135041" lon="70.0748911244"><ele>963.889</ele></trkpt>
   <trkpt lat="41.7297767875" lon="70.0749181141"><ele>963.939</ele></trkpt>
   <trkpt lat="41.729944677" lon="70.0751430005"><ele>966.029</ele></trkpt>
   <trkpt lat="41.7300489059" lon="70.075380879"><ele>968.469</ele></trkpt>
   <trkpt lat="41.7300911926" lon="70.0754442461"><ele>968.789</ele></trkpt>
   <trkpt lat="41.7301708207" lon="70.0755112176"><ele>969.239</ele></trkpt>
   <trkpt lat="41.7302817971" lon="70.0755431526"><ele>969.599</ele></trkpt>
   <trkpt lat="41.7304613794" lon="70.0754908495"><ele>970.769</ele></trkpt>
   <trkpt lat="41.7305856411" lon="70.0754974712"><ele>971.499</ele></trkpt>
   <trkpt lat="41.7306122537" lon="70.0754538853"><ele>971.229</ele></trkpt>
   <trkpt lat="41.7307655168" lon="70.0755581562"><ele>971.379</ele></trkpt>
   <trkpt lat="41.7308624535" lon="70.0755770993"><ele>971.669</ele></trkpt>
   <trkpt lat="41.7311946283" lon="70.0752499536"><ele>973.139</ele></trkpt>
   <trkpt lat="41.731278615" lon="70.0752422423"><ele>973.689</ele></trkpt>
   <trkpt lat="41.7313888789" lon="70.0752788712"><ele>973.629</ele></trkpt>
   <trkpt lat="41.7317127556" lon="70.0752323516"><ele>975.009</ele></trkpt>
   <trkpt lat="41.7318637137" lon="70.075140486"><ele>975.189</ele></trkpt>
   <trkpt lat="41.7320302621" lon="70.0749819004"><ele>975.839</ele></trkpt>
   <trkpt lat="41.7321079205" lon="70.0749675673"><ele>976.059</ele></trkpt>
   <trkpt lat="41.7323245088" lon="70.0750534818"><ele>976.289</ele></trkpt>
   <trkpt lat="41.7324530872" lon="70.0751317688"><ele>976.719</ele></trkpt>
   <trkpt lat="41.7326229884" lon="70.0752689805"><ele>977.209</ele></trkpt>
   <trkpt lat="41.7327292709" lon="70.0752983172"><ele>977.639</ele></trkpt>
   <trkpt lat="41.7329665626" lon="70.075295635"><ele>979.449</ele></trkpt>
   <trkpt lat="41.7330218413" lon="70.0753179309"><ele>980.129</ele></trkpt>
   <trkpt lat="41.7331504197" lon="70.0754964654"><ele>979.609</ele></trkpt>
   <trkpt lat="41.7332497033" lon="70.0756793585"><ele>979.539</ele></trkpt>
   <trkpt lat="41.7332996595" lon="70.0757363555"><ele>979.809</ele></trkpt>
   <trkpt lat="41.7333789523" lon="70.0757859763"><ele>980.279</ele></trkpt>
   <trkpt lat="41.7336305351" lon="70.0758585636"><ele>980.929</ele></trkpt>
   <trkpt lat="41.7337521565" lon="70.0759604876"><ele>981.769</ele></trkpt>
   <trkpt lat="41.7338381129" lon="70.0760011398"><ele>982.249</ele></trkpt>
   <trkpt lat="41.7340027335" lon="70.0760174007"><ele>983.119</ele></trkpt>
   <trkpt lat="41.7340847504" lon="70.0760011398"><ele>983.549</ele></trkpt>
   <trkpt lat="41.734147028" lon="70.0760197476"><ele>983.479</ele></trkpt>
   <trkpt lat="41.7343482774" lon="70.0760087673"><ele>983.569</ele></trkpt>
   <trkpt lat="41.7345868683" lon="70.0759251997"><ele>984.229</ele></trkpt>
   <trkpt lat="41.734667125" lon="70.0759731442"><ele>984.609</ele></trkpt>
   <trkpt lat="41.7346814581" lon="70.0760208373"><ele>984.499</ele></trkpt>
   <trkpt lat="41.7347587392" lon="70.0760121201"><ele>984.699</ele></trkpt>
   <trkpt lat="41.7351162693" lon="70.076089988"><ele>987.489</ele></trkpt>
   <trkpt lat="41.7352535649" lon="70.0761912414"><ele>987.129</ele></trkpt>
   <trkpt lat="41.7353078377" lon="70.0762649183"><ele>987.379</ele></trkpt>
   <trkpt lat="41.7353141661" lon="70.076336835"><ele>989.049</ele></trkpt>
   <trkpt lat="41.7353670978" lon="70.0763052352"><ele>988.899</ele></trkpt>
   <trkpt lat="41.7355463867" lon="70.0763421994"><ele>989.949</ele></trkpt>
   <trkpt lat="41.7356623503" lon="70.0763344881"><ele>990.589</ele></trkpt>
   <trkpt lat="41.7359675773" lon="70.0762809277"><ele>991.819</ele></trkpt>
   <trkpt lat="41.7361445193" lon="70.0761800096"><ele>993.719</ele></trkpt>
   <trkpt lat="41.7363644185" lon="70.0761544448"><ele>994.979</ele></trkpt>
   <trkpt lat="41.7366856131" lon="70.0762069155"><ele>997.179</ele></trkpt>
   <trkpt lat="41.736877852" lon="70.0763338175"><ele>998.589</ele></trkpt>
   <trkpt lat="41.7369458292" lon="70.0763577898"><ele>998.779</ele></trkpt>
   <trkpt lat="41.7370284748" lon="70.0763444625"><ele>998.949</ele></trkpt>
   <trkpt lat="41.7372007229" lon="70.0762659241"><ele>999.329</ele></trkpt>
   <trkpt lat="41.7372950193" lon="70.0762615655"><ele>999.369</ele></trkpt>
   <trkpt lat="41.7375335683" lon="70.0763141201"><ele>999.719</ele></trkpt>
   <trkpt lat="41.7378517872" lon="70.0765613862"><ele>1000.499</ele></trkpt>
   <trkpt lat="41.7379434434" lon="70.0766086601"><ele>1000.249</ele></trkpt>
   <trkpt lat="41.738293304" lon="70.0765960873"><ele>1002.329</ele></trkpt>
   <trkpt lat="41.7385542326" lon="70.0766383321"><ele>1004.179</ele></trkpt>
   <trkpt lat="41.7388857788" lon="70.0766197242"><ele>1007.229</ele></trkpt>
   <trkpt lat="41.7389080747" lon="70.0766524137"><ele>1008.479</ele></trkpt>
   <trkpt lat="41.738990385" lon="70.0766477198"><ele>1008.789</ele></trkpt>
   <trkpt lat="41.7391786425" lon="70.0767359812"><ele>1010.659</ele></trkpt>
   <trkpt lat="41.7393256192" lon="70.0768366479"><ele>1011.509</ele></trkpt>
   <trkpt lat="41.7395095181" lon="70.0768885319"><ele>1010.129</ele></trkpt>
   <trkpt lat="41.739687466" lon="70.0769757875"><ele>1010.209</ele></trkpt>
   <trkpt lat="41.7397671359" lon="70.0769720995"><ele>1010.739</ele></trkpt>
   <trkpt lat="41.7399393841" lon="70.07688015"><ele>1012.439</ele></trkpt>
   <trkpt lat="41.7400053496" lon="70.0768675771"><ele>1013.249</ele></trkpt>
   <trkpt lat="41.7401429386" lon="70.0769581855"><ele>1013.509</ele></trkpt>
   <trkpt lat="41.7403428889" lon="70.0771710858"><ele>1013.609</ele></trkpt>
   <trkpt lat="41.7408630279" lon="70.0772961438"><ele>1016.709</ele></trkpt>
   <trkpt lat="41.7410279837" lon="70.0774270692"><ele>1016.519</ele></trkpt>
   <trkpt lat="41.7411945741" lon="70.0774480239"><ele>1016.919</ele></trkpt>
   <trkpt lat="41.7412338852" lon="70.0774853234"><ele>1017.049</ele></trkpt>
   <trkpt lat="41.7412934805" lon="70.0776403048"><ele>1017.109</ele></trkpt>
   <trkpt lat="41.74131871" lon="70.0776097108"><ele>1016.869</ele></trkpt>
   <trkpt lat="41.7413413412" lon="70.0776107167"><ele>1017.109</ele></trkpt>
   <trkpt lat="41.7414772956" lon="70.0777149875"><ele>1018.249</ele></trkpt>
   <trkpt lat="41.7416725102" lon="70.0778058474"><ele>1021.029</ele></trkpt>
   <trkpt lat="41.7418151283" lon="70.0779051729"><ele>1022.269</ele></trkpt>
   <trkpt lat="41.7418857877" lon="70.0779284746"><ele>1022.779</ele></trkpt>
   <trkpt lat="41.7424542065" lon="70.0780232739"><ele>1025.109</ele></trkpt>
   <trkpt lat="41.7425042045" lon="70.0780179095"><ele>1024.969</ele></trkpt>
   <trkpt lat="41.7426654304" lon="70.0777900894"><ele>1026.809</ele></trkpt>
   <trkpt lat="41.7427683602" lon="70.0775988144"><ele>1028.589</ele></trkpt>
   <trkpt lat="41.7429160074" lon="70.0774795399"><ele>1028.789</ele></trkpt>
   <trkpt lat="41.7430842741" lon="70.0773849082"><ele>1029.139</ele></trkpt>
   <trkpt lat="41.7431822167" lon="70.0773626123"><ele>1030.099</ele></trkpt>
   <trkpt lat="41.7433408442" lon="70.0772876781"><ele>1031.609</ele></trkpt>
   <trkpt lat="41.7434724401" lon="70.0772966467"><ele>1032.469</ele></trkpt>
   <trkpt lat="41.7436713845" lon="70.0773985707"><ele>1033.539</ele></trkpt>
   <trkpt lat="41.7437120368" lon="70.0774395582"><ele>1034.059</ele></trkpt>
   <trkpt lat="41.7437676507" lon="70.0775348604"><ele>1035.389</ele></trkpt>
   <trkpt lat="41.7438905294" lon="70.0778257963"><ele>1039.479</ele></trkpt>
   <trkpt lat="41.7440797089" lon="70.0781333283"><ele>1041.429</ele></trkpt>
   <trkpt lat="41.7442049765" lon="70.0781892356"><ele>1040.659</ele></trkpt>
   <trkpt lat="41.744357569" lon="70.0782062509"><ele>1041.089</ele></trkpt>
   <trkpt lat="41.7444518654" lon="70.0782528543"><ele>1042.839</ele></trkpt>
   <trkpt lat="41.7445454494" lon="70.078416469"><ele>1044.149</ele></trkpt>
   <trkpt lat="41.7446264186" lon="70.0785214104"><ele>1044.979</ele></trkpt>
   <trkpt lat="41.7449056198" lon="70.0786582869"><ele>1046.609</ele></trkpt>
   <trkpt lat="41.7450182306" lon="70.0788478856"><ele>1046.549</ele></trkpt>
   <trkpt lat="41.7453224518" lon="70.0791137595"><ele>1046.369</ele></trkpt>
   <trkpt lat="41.7454967116" lon="70.0793143385"><ele>1048.369</ele></trkpt>
   <trkpt lat="41.7455906727" lon="70.079370581"><ele>1048.619</ele></trkpt>
   <trkpt lat="41.7456862683" lon="70.0793925416"><ele>1049.059</ele></trkpt>
   <trkpt lat="41.7458658925" lon="70.0793725927"><ele>1051.429</ele></trkpt>
   <trkpt lat="41.7460461453" lon="70.0794311822"><ele>1053.339</ele></trkpt>
   <trkpt lat="41.7463940362" lon="70.0794740976"><ele>1054.139</ele></trkpt>
   <trkpt lat="41.7466616285" lon="70.0793615286"><ele>1054.389</ele></trkpt>
   <trkpt lat="41.7468945616" lon="70.079325654"><ele>1055.559</ele></trkpt>
   <trkpt lat="41.7470295102" lon="70.0792220537"><ele>1056.109</ele></trkpt>
   <trkpt lat="41.7470891475" lon="70.0792003446"><ele>1056.299</ele></trkpt>
   <trkpt lat="41.7472860803" lon="70.0791831617"><ele>1056.399</ele></trkpt>
   <trkpt lat="41.7474966756" lon="70.0792357162"><ele>1055.399</ele></trkpt>
   <trkpt lat="41.7477222745" lon="70.0792653043"><ele>1054.639</ele></trkpt>
   <trkpt lat="41.7477932273" lon="70.0792919588"><ele>1054.439</ele></trkpt>
   <trkpt lat="41.7478668623" lon="70.0793575891"><ele>1053.889</ele></trkpt>
   <trkpt lat="41.7480821096" lon="70.0793858361"><ele>1054.069</ele></trkpt>
   <trkpt lat="41.7482603927" lon="70.0794584234"><ele>1054.569</ele></trkpt>
   <trkpt lat="41.7483789966" lon="70.0795287476"><ele>1054.979</ele></trkpt>
   <trkpt lat="41.7486348542" lon="70.0798512832"><ele>1056.099</ele></trkpt>
   <trkpt lat="41.7488024504" lon="70.0800342601"><ele>1057.269</ele></trkpt>
   <trkpt lat="41.7488194237" lon="70.0800768402"><ele>1057.589</ele></trkpt>
   <trkpt lat="41.7488137659" lon="70.0801137206"><ele>1057.739</ele></trkpt>
   <trkpt lat="41.7488392888" lon="70.0801038299"><ele>1058.399</ele></trkpt>
   <trkpt lat="41.7489038295" lon="70.0801490084"><ele>1057.929</ele></trkpt>
   <trkpt lat="41.7489643887" lon="70.0803353381"><ele>1058.849</ele></trkpt>
   <trkpt lat="41.7490103635" lon="70.0803639204"><ele>1058.569</ele></trkpt>
   <trkpt lat="41.7491269558" lon="70.0803969451"><ele>1058.559</ele></trkpt>
   <trkpt lat="41.7492186119" lon="70.0803746492"><ele>1058.749</ele></trkpt>
   <trkpt lat="41.7493219188" lon="70.0804148824"><ele>1059.059</ele></trkpt>
   <trkpt lat="41.7494695241" lon="70.0804095179"><ele>1059.839</ele></trkpt>
   <trkpt lat="41.7495461347" lon="70.0804577977"><ele>1060.159</ele></trkpt>
   <trkpt lat="41.7496250923" lon="70.0804654252"><ele>1060.349</ele></trkpt>
   <trkpt lat="41.7497587417" lon="70.0804371782"><ele>1060.629</ele></trkpt>
   <trkpt lat="41.7497960412" lon="70.0804145471"><ele>1060.609</ele></trkpt>
   <trkpt lat="41.749799352" lon="70.0803938438"><ele>1060.369</ele></trkpt>
   <trkpt lat="41.7497943648" lon="70.0804090989"><ele>1060.279</ele></trkpt>
   <trkpt lat="41.7498150262" lon="70.0804134574"><ele>1060.429</ele></trkpt>
   <trkpt lat="41.749925332" lon="70.0803944305"><ele>1060.769</ele></trkpt>
   <trkpt lat="41.7501372265" lon="70.0804727175"><ele>1061.429</ele></trkpt>
   <trkpt lat="41.7504184394" lon="70.0803861324"><ele>1062.099</ele></trkpt>
   <trkpt lat="41.7506706509" lon="70.0804160558"><ele>1062.789</ele></trkpt>
   <trkpt lat="41.7507519553" lon="70.0803600647"><ele>1063.169</ele></trkpt>
   <trkpt lat="41.7508299489" lon="70.0803467375"><ele>1063.899</ele></trkpt>
   <trkpt lat="41.750903584" lon="70.0803727214"><ele>1063.909</ele></trkpt>
   <trkpt lat="41.7509992215" lon="70.0804626592"><ele>1064.009</ele></trkpt>
   <trkpt lat="41.7511928015" lon="70.0805649184"><ele>1064.839</ele></trkpt>
   <trkpt lat="41.7513697016" lon="70.080630884"><ele>1065.099</ele></trkpt>
   <trkpt lat="41.7514506289" lon="70.0806884677"><ele>1065.489</ele></trkpt>
   <trkpt lat="41.7516172192" lon="70.0807063211"><ele>1066.819</ele></trkpt>
   <trkpt lat="41.7518328437" lon="70.080689725"><ele>1071.009</ele></trkpt>
   <trkpt lat="41.7519291517" lon="70.0807167147"><ele>1071.809</ele></trkpt>
   <trkpt lat="41.7520527848" lon="70.0807027169"><ele>1072.029</ele></trkpt>
   <trkpt lat="41.752125414" lon="70.0807143678"><ele>1072.089</ele></trkpt>
   <trkpt lat="41.7523603168" lon="70.0808385876"><ele>1070.919</ele></trkpt>
   <trkpt lat="41.7524692816" lon="70.0809561857"><ele>1071.309</ele></trkpt>
   <trkpt lat="41.7526355785" lon="70.0810934812"><ele>1072.989</ele></trkpt>
   <trkpt lat="41.7527758497" lon="70.0813207146"><ele>1072.019</ele></trkpt>
   <trkpt lat="41.7527875005" lon="70.0814666436"><ele>1071.639</ele></trkpt>
   <trkpt lat="41.7528394264" lon="70.0815855828"><ele>1072.229</ele></trkpt>
   <trkpt lat="41.7530289831" lon="70.0818361179"><ele>1073.019</ele></trkpt>
   <trkpt lat="41.753174954" lon="70.0819431548"><ele>1073.419</ele></trkpt>
   <trkpt lat="41.7534791752" lon="70.0820567296"><ele>1074.149</ele></trkpt>
   <trkpt lat="41.7535801352" lon="70.0821423088"><ele>1074.559</ele></trkpt>
   <trkpt lat="41.7537013794" lon="70.0823115394"><ele>1075.299</ele></trkpt>
   <trkpt lat="41.7539346478" lon="70.0824674428"><ele>1075.959</ele></trkpt>
   <trkpt lat="41.7542565129" lon="70.0826263637"><ele>1076.979</ele></trkpt>
   <trkpt lat="41.7545330738" lon="70.082678583"><ele>1077.619</ele></trkpt>
   <trkpt lat="41.7547520091" lon="70.0826958497"><ele>1078.619</ele></trkpt>
   <trkpt lat="41.7552991378" lon="70.0829523359"><ele>1081.299</ele></trkpt>
   <trkpt lat="41.7554497606" lon="70.0829307106"><ele>1081.639</ele></trkpt>
   <trkpt lat="41.7557320212" lon="70.0827945047"><ele>1083.009</ele></trkpt>
   <trkpt lat="41.7557970228" lon="70.0827838597"><ele>1083.369</ele></trkpt>
   <trkpt lat="41.7561218635" lon="70.0828208239"><ele>1085.739</ele></trkpt>
   <trkpt lat="41.7564670722" lon="70.0829646573"><ele>1086.919</ele></trkpt>
   <trkpt lat="41.7566646756" lon="70.083097259"><ele>1088.969</ele></trkpt>
   <trkpt lat="41.75685528" lon="70.0832711835"><ele>1089.279</ele></trkpt>
   <trkpt lat="41.7569188987" lon="70.0833484647"><ele>1089.569</ele></trkpt>
   <trkpt lat="41.7570295398" lon="70.0835367222"><ele>1090.319</ele></trkpt>
   <trkpt lat="41.7572830924" lon="70.0837082998"><ele>1091.059</ele></trkpt>
   <trkpt lat="41.7574793546" lon="70.083779965"><ele>1091.499</ele></trkpt>
   <trkpt lat="41.7577585977" lon="70.0839371257"><ele>1092.789</ele></trkpt>
   <trkpt lat="41.7578615694" lon="70.0840191007"><ele>1093.439</ele></trkpt>
   <trkpt lat="41.758116505" lon="70.0840903469"><ele>1094.549</ele></trkpt>
   <trkpt lat="41.7582440776" lon="70.0841923547"><ele>1096.059</ele></trkpt>
   <trkpt lat="41.7584196784" lon="70.0842998945"><ele>1097.059</ele></trkpt>
   <trkpt lat="41.758594944" lon="70.0844518584"><ele>1098.059</ele></trkpt>
   <trkpt lat="41.7588345407" lon="70.0844794349"><ele>1098.589</ele></trkpt>
   <trkpt lat="41.7590621094" lon="70.0845300615"><ele>1099.139</ele></trkpt>
   <trkpt lat="41.7591860778" lon="70.0846659322"><ele>1100.379</ele></trkpt>
   <trkpt lat="41.7594099584" lon="70.0848215003"><ele>1100.929</ele></trkpt>
   <trkpt lat="41.759601904" lon="70.0848741387"><ele>1103.129</ele></trkpt>
   <trkpt lat="41.7598504693" lon="70.0850486499"><ele>1104.899</ele></trkpt>
   <trkpt lat="41.7599093941" lon="70.0851323013"><ele>1105.219</ele></trkpt>
   <trkpt lat="41.7599570452" lon="70.0851626438"><ele>1105.749</ele></trkpt>
   <trkpt lat="41.7601206181" lon="70.0851952494"><ele>1106.809</ele></trkpt>
   <trkpt lat="41.7602495736" lon="70.0853074831"><ele>1108.959</ele></trkpt>
   <trkpt lat="41.7603494859" lon="70.0855110795"><ele>1109.499</ele></trkpt>
   <trkpt lat="41.7604794054" lon="70.0856796396"><ele>1111.279</ele></trkpt>
   <trkpt lat="41.7606632206" lon="70.0858027697"><ele>1112.189</ele></trkpt>
   <trkpt lat="41.7607114584" lon="70.0857795519"><ele>1112.309</ele></trkpt>
   <trkpt lat="41.760701903" lon="70.085746611"><ele>1110.839</ele></trkpt>
   <trkpt lat="41.7607231931" lon="70.0857665599"><ele>1110.929</ele></trkpt>
   <trkpt lat="41.760762127" lon="70.0857652188"><ele>1111.429</ele></trkpt>
   <trkpt lat="41.7607933915" lon="70.0857145921"><ele>1111.479</ele></trkpt>
   <trkpt lat="41.7608196688" lon="70.0856056274"><ele>1111.979</ele></trkpt>
   <trkpt lat="41.7608756599" lon="70.0855360576"><ele>1112.849</ele></trkpt>
   <trkpt lat="41.7609336207" lon="70.085426087"><ele>1113.959</ele></trkpt>
   <trkpt lat="41.7611264883" lon="70.085198183"><ele>1116.819</ele></trkpt>
   <trkpt lat="41.7611941303" lon="70.0851431978"><ele>1117.519</ele></trkpt>
   <trkpt lat="41.761350369" lon="70.0850742985"><ele>1118.689</ele></trkpt>
   <trkpt lat="41.7615473018" lon="70.0848670141"><ele>1121.159</ele></trkpt>
   <trkpt lat="41.7616055979" lon="70.0848406949"><ele>1121.529</ele></trkpt>
   <trkpt lat="41.7616452443" lon="70.0848540221"><ele>1121.919</ele></trkpt>
   <trkpt lat="41.7617282252" lon="70.0849363324"><ele>1121.669</ele></trkpt>
   <trkpt lat="41.7618568036" lon="70.0849899766"><ele>1120.419</ele></trkpt>
   <trkpt lat="41.7619374375" lon="70.084978661"><ele>1119.479</ele></trkpt>
   <trkpt lat="41.762100675" lon="70.0848886394"><ele>1118.539</ele></trkpt>
   <trkpt lat="41.7623342787" lon="70.0848477357"><ele>1119.139</ele></trkpt>
   <trkpt lat="41.7627031662" lon="70.0849272799"><ele>1120.499</ele></trkpt>
   <trkpt lat="41.7629970358" lon="70.0850341492"><ele>1121.169</ele></trkpt>
   <trkpt lat="41.7631855867" lon="70.0850142003"><ele>1122.179</ele></trkpt>
   <trkpt lat="41.7635414823" lon="70.0850970135"><ele>1123.179</ele></trkpt>
   <trkpt lat="41.763804716" lon="70.0852996041"><ele>1123.929</ele></trkpt>
   <trkpt lat="41.763911669" lon="70.0853441958"><ele>1124.539</ele></trkpt>
   <trkpt lat="41.7642562072" lon="70.0854301103"><ele>1126.319</ele></trkpt>
   <trkpt lat="41.7646413975" lon="70.0854855985"><ele>1128.029</ele></trkpt>
   <trkpt lat="41.7648799465" lon="70.0856858422"><ele>1128.629</ele></trkpt>
   <trkpt lat="41.7650758735" lon="70.0857407436"><ele>1130.499</ele></trkpt>
   <trkpt lat="41.7652004705" lon="70.0858363812"><ele>1131.689</ele></trkpt>
   <trkpt lat="41.7653321083" lon="70.0859042746"><ele>1132.099</ele></trkpt>
   <trkpt lat="41.765668013" lon="70.085988848"><ele>1134.899</ele></trkpt>
   <trkpt lat="41.7657496528" lon="70.0860778638"><ele>1134.999</ele></trkpt>
   <trkpt lat="41.7658045961" lon="70.0862008263"><ele>1135.179</ele></trkpt>
   <trkpt lat="41.7659005689" lon="70.0863314164"><ele>1135.679</ele></trkpt>
   <trkpt lat="41.7660394571" lon="70.0865676184"><ele>1136.939</ele></trkpt>
   <trkpt lat="41.7663236874" lon="70.0867484999"><ele>1141.709</ele></trkpt>
   <trkpt lat="41.7664225939" lon="70.0868681096"><ele>1143.839</ele></trkpt>
   <trkpt lat="41.7666671778" lon="70.087078663"><ele>1140.739</ele></trkpt>
   <trkpt lat="41.7667848178" lon="70.0871389289"><ele>1140.869</ele></trkpt>
   <trkpt lat="41.766862099" lon="70.0872102589"><ele>1141.359</ele></trkpt>
   <trkpt lat="41.767089961" lon="70.0874807429"><ele>1142.649</ele></trkpt>
   <trkpt lat="41.7671472513" lon="70.0875827507"><ele>1143.159</ele></trkpt>
   <trkpt lat="41.7672285558" lon="70.0877883588"><ele>1143.919</ele></trkpt>
   <trkpt lat="41.7674741036" lon="70.0881595933"><ele>1145.439</ele></trkpt>
   <trkpt lat="41.7676263609" lon="70.0883181789"><ele>1146.929</ele></trkpt>
   <trkpt lat="41.767771284" lon="70.0883631059"><ele>1148.509</ele></trkpt>
   <trkpt lat="41.7677845693" lon="70.0884150737"><ele>1148.979</ele></trkpt>
   <trkpt lat="41.7677829348" lon="70.0885200989"><ele>1149.349</ele></trkpt>
   <trkpt lat="41.7678002435" lon="70.0885673728"><ele>1149.459</ele></trkpt>
   <trkpt lat="41.7679302049" lon="70.0887153134"><ele>1149.779</ele></trkpt>
   <trkpt lat="41.7680017863" lon="70.0889036548"><ele>1150.459</ele></trkpt>
   <trkpt lat="41.7681003994" lon="70.0890079257"><ele>1150.929</ele></trkpt>
   <trkpt lat="41.7681996831" lon="70.0891668466"><ele>1151.809</ele></trkpt>
   <trkpt lat="41.7682623378" lon="70.0892131985"><ele>1152.149</ele></trkpt>
   <trkpt lat="41.7683756192" lon="70.0892604724"><ele>1152.859</ele></trkpt>
   <trkpt lat="41.7685032756" lon="70.0892841094"><ele>1153.719</ele></trkpt>
   <trkpt lat="41.7686075465" lon="70.0893457164"><ele>1154.859</ele></trkpt>
   <trkpt lat="41.7686415351" lon="70.0893956725"><ele>1154.729</ele></trkpt>
   <trkpt lat="41.7687001246" lon="70.0895569403"><ele>1154.789</ele></trkpt>
   <trkpt lat="41.7688454249" lon="70.08967194"><ele>1156.029</ele></trkpt>
   <trkpt lat="41.7689046849" lon="70.0898222276"><ele>1156.229</ele></trkpt>
   <trkpt lat="41.7690947446" lon="70.090008222"><ele>1158.659</ele></trkpt>
   <trkpt lat="41.769164943" lon="70.0899469503"><ele>1158.379</ele></trkpt>
   <trkpt lat="41.7692498936" lon="70.0899330363"><ele>1162.319</ele></trkpt>
   <trkpt lat="41.7693408792" lon="70.0899560027"><ele>1161.809</ele></trkpt>
   <trkpt lat="41.7694757859" lon="70.0900626206"><ele>1162.099</ele></trkpt>
   <trkpt lat="41.7695200843" lon="70.0901169353"><ele>1160.899</ele></trkpt>
   <trkpt lat="41.7696916199" lon="70.0905167521"><ele>1161.719</ele></trkpt>
   <trkpt lat="41.7697725472" lon="70.0906343502"><ele>1162.469</ele></trkpt>
   <trkpt lat="41.7699190629" lon="70.0909418822"><ele>1166.429</ele></trkpt>
   <trkpt lat="41.7700100065" lon="70.0910201692"><ele>1168.319</ele></trkpt>
   <trkpt lat="41.7702392097" lon="70.0910774176"><ele>1169.999</ele></trkpt>
   <trkpt lat="41.7703541675" lon="70.0911409524"><ele>1170.089</ele></trkpt>
   <trkpt lat="41.770495654" lon="70.091425518"><ele>1173.639</ele></trkpt>
   <trkpt lat="41.7705782576" lon="70.0915461336"><ele>1174.929</ele></trkpt>
   <trkpt lat="41.7706528566" lon="70.0918013625"><ele>1175.059</ele></trkpt>
   <trkpt lat="41.7707751066" lon="70.0920103234"><ele>1175.919</ele></trkpt>
   <trkpt lat="41.7707907389" lon="70.0920989201"><ele>1176.159</ele></trkpt>
   <trkpt lat="41.7708976501" lon="70.0923718349"><ele>1177.259</ele></trkpt>
   <trkpt lat="41.7710485662" lon="70.092509801"><ele>1177.659</ele></trkpt>
   <trkpt lat="41.7711095446" lon="70.0925447535"><ele>1177.889</ele></trkpt>
   <trkpt lat="41.771309453" lon="70.0925464299"><ele>1178.649</ele></trkpt>
   <trkpt lat="41.7714167413" lon="70.0925827236"><ele>1179.149</ele></trkpt>
   <trkpt lat="41.7715999697" lon="70.0928119686"><ele>1180.279</ele></trkpt>
   <trkpt lat="41.7716752392" lon="70.0929822051"><ele>1180.379</ele></trkpt>
   <trkpt lat="41.7717591421" lon="70.0930864759"><ele>1180.649</ele></trkpt>
   <trkpt lat="41.7717571723" lon="70.093107766"><ele>1181.799</ele></trkpt>
   <trkpt lat="41.7719310549" lon="70.0932563771"><ele>1181.789</ele></trkpt>
   <trkpt lat="41.7720590047" lon="70.0933215883"><ele>1182.419</ele></trkpt>
   <trkpt lat="41.7722912253" lon="70.0934911542"><ele>1185.739</ele></trkpt>
   <trkpt lat="41.7723448695" lon="70.0935747218"><ele>1185.909</ele></trkpt>
   <trkpt lat="41.7724594082" lon="70.0938393385"><ele>1186.599</ele></trkpt>
   <trkpt lat="41.7726003499" lon="70.0940352236"><ele>1186.539</ele></trkpt>
   <trkpt lat="41.7728802216" lon="70.0942674023"><ele>1188.149</ele></trkpt>
   <trkpt lat="41.7729535214" lon="70.0944279995"><ele>1189.219</ele></trkpt>
   <trkpt lat="41.7729747695" lon="70.0946605974"><ele>1189.429</ele></trkpt>
   <trkpt lat="41.7731589618" lon="70.0950207677"><ele>1191.909</ele></trkpt>
   <trkpt lat="41.7732682618" lon="70.0951447361"><ele>1192.639</ele></trkpt>
   <trkpt lat="41.7734660747" lon="70.0952945207"><ele>1195.189</ele></trkpt>
   <trkpt lat="41.7734574833" lon="70.0952812773"><ele>1194.739</ele></trkpt>
   <trkpt lat="41.7736643487" lon="70.0955321477"><ele>1196.169</ele></trkpt>
   <trkpt lat="41.7737442701" lon="70.0956004602"><ele>1196.809</ele></trkpt>
   <trkpt lat="41.7738382312" lon="70.0957440422"><ele>1197.539</ele></trkpt>
   <trkpt lat="41.773995811" lon="70.0959120155"><ele>1199.479</ele></trkpt>
   <trkpt lat="41.7740544424" lon="70.0960049708"><ele>1199.619</ele></trkpt>
   <trkpt lat="41.7741657122" lon="70.0961109181"><ele>1200.529</ele></trkpt>
   <trkpt lat="41.7742043528" lon="70.0961868581"><ele>1201.069</ele></trkpt>
   <trkpt lat="41.7742183505" lon="70.0962824956"><ele>1201.929</ele></trkpt>
   <trkpt lat="41.7742673009" lon="70.0964194559"><ele>1203.189</ele></trkpt>
   <trkpt lat="41.7744168759" lon="70.096710308"><ele>1205.639</ele></trkpt>
   <trkpt lat="41.7747963247" lon="70.0971068558"><ele>1210.059</ele></trkpt>
   <trkpt lat="41.7749455645" lon="70.0973794353"><ele>1213.799</ele></trkpt>
   <trkpt lat="41.7752913599" lon="70.0977701996"><ele>1218.179</ele></trkpt>
   <trkpt lat="41.7754082455" lon="70.0979924877"><ele>1219.999</ele></trkpt>
   <trkpt lat="41.7754857781" lon="70.0982293603"><ele>1223.959</ele></trkpt>
   <trkpt lat="41.7756480099" lon="70.0983669911"><ele>1225.359</ele></trkpt>
   <trkpt lat="41.7756662824" lon="70.0984822423"><ele>1225.359</ele></trkpt>
   <trkpt lat="41.7756556793" lon="70.0985148479"><ele>1225.539</ele></trkpt>
   <trkpt lat="41.7756626363" lon="70.0986268301"><ele>1226.149</ele></trkpt>
   <trkpt lat="41.7757015702" lon="70.0987773691"><ele>1226.529</ele></trkpt>
   <trkpt lat="41.7757615008" lon="70.0988657144"><ele>1227.169</ele></trkpt>
   <trkpt lat="41.7757988003" lon="70.0988866691"><ele>1227.469</ele></trkpt>
   <trkpt lat="41.7758490917" lon="70.0988846575"><ele>1227.589</ele></trkpt>
   <trkpt lat="41.7758777159" lon="70.0989269861"><ele>1227.359</ele></trkpt>
   <trkpt lat="41.7759696235" lon="70.0991708156"><ele>1228.309</ele></trkpt>
   <trkpt lat="41.776055538" lon="70.0992764276"><ele>1228.929</ele></trkpt>
   <trkpt lat="41.7761008422" lon="70.0993681256"><ele>1229.569</ele></trkpt>
   <trkpt lat="41.7761161392" lon="70.0994467479"><ele>1230.249</ele></trkpt>
   <trkpt lat="41.7762062865" lon="70.0996084348"><ele>1231.869</ele></trkpt>
   <trkpt lat="41.7762978169" lon="70.0999349099"><ele>1233.809</ele></trkpt>
   <trkpt lat="41.7764696878" lon="70.1001675077"><ele>1234.979</ele></trkpt>
   <trkpt lat="41.7765329712" lon="70.1003704336"><ele>1236.749</ele></trkpt>
   <trkpt lat="41.7766245854" lon="70.1005079807"><ele>1238.439</ele></trkpt>
   <trkpt lat="41.7766518266" lon="70.1006442704"><ele>1239.819</ele></trkpt>
   <trkpt lat="41.7767114638" lon="70.1007725135"><ele>1241.679</ele></trkpt>
   <trkpt lat="41.7767227794" lon="70.100905199"><ele>1242.459</ele></trkpt>
   <trkpt lat="41.7767797344" lon="70.1010637847"><ele>1243.349</ele></trkpt>
   <trkpt lat="41.7768616675" lon="70.1011994038"><ele>1245.689</ele></trkpt>
   <trkpt lat="41.7769565926" lon="70.1013032556"><ele>1248.099</ele></trkpt>
   <trkpt lat="41.7770464885" lon="70.101479527"><ele>1248.089</ele></trkpt>
   <trkpt lat="41.7771314391" lon="70.1015998074"><ele>1249.209</ele></trkpt>
   <trkpt lat="41.7772110672" lon="70.1016941038"><ele>1249.559</ele></trkpt>
   <trkpt lat="41.7773033519" lon="70.1017567166"><ele>1250.249</ele></trkpt>
   <trkpt lat="41.7773483208" lon="70.1018083491"><ele>1250.499</ele></trkpt>
   <trkpt lat="41.7774436231" lon="70.1019859616"><ele>1251.589</ele></trkpt>
   <trkpt lat="41.777560844" lon="70.1022578706"><ele>1252.319</ele></trkpt>
   <trkpt lat="41.7776614268" lon="70.1023695175"><ele>1254.209</ele></trkpt>
   <trkpt lat="41.7778276819" lon="70.1024930668"><ele>1257.679</ele></trkpt>
   <trkpt lat="41.777875333" lon="70.1025560149"><ele>1257.889</ele></trkpt>
   <trkpt lat="41.7780820726" lon="70.1030118228"><ele>1262.459</ele></trkpt>
   <trkpt lat="41.7781283407" lon="70.1032051095"><ele>1264.729</ele></trkpt>
   <trkpt lat="41.7783585497" lon="70.1035509468"><ele>1265.459</ele></trkpt>
   <trkpt lat="41.7784980665" lon="70.1038894918"><ele>1268.049</ele></trkpt>
   <trkpt lat="41.7785880043" lon="70.1039914996"><ele>1269.709</ele></trkpt>
   <trkpt lat="41.7787629346" lon="70.1041137078"><ele>1268.409</ele></trkpt>
   <trkpt lat="41.7789391222" lon="70.10441093"><ele>1268.399</ele></trkpt>
   <trkpt lat="41.7791123343" lon="70.1046341401"><ele>1270.009</ele></trkpt>
   <trkpt lat="41.7791796409" lon="70.1046891254"><ele>1270.179</ele></trkpt>
   <trkpt lat="41.7792548685" lon="70.1048120879"><ele>1271.259</ele></trkpt>
   <trkpt lat="41.779273183" lon="70.1048586913"><ele>1271.719</ele></trkpt>
   <trkpt lat="41.7793470695" lon="70.1052989089"><ele>1273.929</ele></trkpt>
   <trkpt lat="41.7793447644" lon="70.1055201073"><ele>1274.549</ele></trkpt>
   <trkpt lat="41.7793826925" lon="70.105658744"><ele>1275.429</ele></trkpt>
   <trkpt lat="41.7794499573" lon="70.1057816227"><ele>1277.729</ele></trkpt>
   <trkpt lat="41.7794383484" lon="70.1057882444"><ele>1278.069</ele></trkpt>
   <trkpt lat="41.779456579" lon="70.1057909266"><ele>1277.679</ele></trkpt>
   <trkpt lat="41.7794559085" lon="70.10590886"><ele>1278.429</ele></trkpt>
   <trkpt lat="41.7794668888" lon="70.1059654378"><ele>1278.309</ele></trkpt>
   <trkpt lat="41.7794814314" lon="70.1059680362"><ele>1279.059</ele></trkpt>
   <trkpt lat="41.7794701996" lon="70.1059902482"><ele>1278.919</ele></trkpt>
   <trkpt lat="41.7794898133" lon="70.106113546"><ele>1279.679</ele></trkpt>
   <trkpt lat="41.779529753" lon="70.1062137936"><ele>1280.179</ele></trkpt>
   <trkpt lat="41.7795746381" lon="70.106468352"><ele>1280.649</ele></trkpt>
   <trkpt lat="41.7796252648" lon="70.1065105968"><ele>1281.039</ele></trkpt>
   <trkpt lat="41.7797128976" lon="70.1066399296"><ele>1282.059</ele></trkpt>
   <trkpt lat="41.7798531269" lon="70.1067988504"><ele>1283.219</ele></trkpt>
   <trkpt lat="41.7799733234" lon="70.107086685"><ele>1287.849</ele></trkpt>
   <trkpt lat="41.7800872334" lon="70.1072786306"><ele>1290.629</ele></trkpt>
   <trkpt lat="41.7801498881" lon="70.1073378068"><ele>1290.919</ele></trkpt>
   <trkpt lat="41.7802977449" lon="70.107374771"><ele>1291.339</ele></trkpt>
   <trkpt lat="41.7803979925" lon="70.1074210391"><ele>1291.989</ele></trkpt>
   <trkpt lat="41.7804646286" lon="70.1075423253"><ele>1292.049</ele></trkpt>
   <trkpt lat="41.7805175603" lon="70.1076019206"><ele>1292.659</ele></trkpt>
   <trkpt lat="41.7805861662" lon="70.1077595004"><ele>1292.809</ele></trkpt>
   <trkpt lat="41.780649701" lon="70.1078074448"><ele>1294.119</ele></trkpt>
   <trkpt lat="41.7806872939" lon="70.1078647771"><ele>1294.729</ele></trkpt>
   <trkpt lat="41.7807662095" lon="70.1078860671"><ele>1295.369</ele></trkpt>
   <trkpt lat="41.7808045148" lon="70.1079286472"><ele>1296.559</ele></trkpt>
   <trkpt lat="41.7809570235" lon="70.1079462492"><ele>1299.279</ele></trkpt>
   <trkpt lat="41.7810342627" lon="70.1081207604"><ele>1300.379</ele></trkpt>
   <trkpt lat="41.7810865658" lon="70.1081347582"><ele>1300.809</ele></trkpt>
   <trkpt lat="41.7811351809" lon="70.1081880671"><ele>1301.909</ele></trkpt>
   <trkpt lat="41.7811498073" lon="70.1081847981"><ele>1302.959</ele></trkpt>
   <trkpt lat="41.781211079" lon="70.1082782564"><ele>1303.689</ele></trkpt>
   <trkpt lat="41.7812519827" lon="70.1083602314"><ele>1304.759</ele></trkpt>
   <trkpt lat="41.781262963" lon="70.1084471517"><ele>1305.059</ele></trkpt>
   <trkpt lat="41.7813402022" lon="70.1085717906"><ele>1306.649</ele></trkpt>
   <trkpt lat="41.7813408728" lon="70.1085240976"><ele>1306.619</ele></trkpt>
   <trkpt lat="41.7812849236" lon="70.1085547753"><ele>1305.309</ele></trkpt>
   <trkpt lat="41.7813155594" lon="70.1086057373"><ele>1304.239</ele></trkpt>
   <trkpt lat="41.7814277931" lon="70.1086692721"><ele>1304.879</ele></trkpt>
   <trkpt lat="41.7817416535" lon="70.1085951761"><ele>1309.649</ele></trkpt>
   <trkpt lat="41.7818332677" lon="70.1086081681"><ele>1310.179</ele></trkpt>
   <trkpt lat="41.7819418552" lon="70.1085865427"><ele>1311.819</ele></trkpt>
   <trkpt lat="41.7819724492" lon="70.1086012111"><ele>1312.619</ele></trkpt>
   <trkpt lat="41.7820237464" lon="70.1085669291"><ele>1313.599</ele></trkpt>
   <trkpt lat="41.7821952402" lon="70.1087153726"><ele>1314.109</ele></trkpt>
   <trkpt lat="41.782255548" lon="70.1086778217"><ele>1314.949</ele></trkpt>
   <trkpt lat="41.7822788496" lon="70.1086867903"><ele>1316.259</ele></trkpt>
   <trkpt lat="41.7822731919" lon="70.1087047276"><ele>1317.549</ele></trkpt>
   <trkpt lat="41.7822788077" lon="70.108674888"><ele>1316.779</ele></trkpt>
   <trkpt lat="41.7824119962" lon="70.1086443779"><ele>1317.769</ele></trkpt>
   <trkpt lat="41.7825342881" lon="70.1086882991"><ele>1319.189</ele></trkpt>
   <trkpt lat="41.7826581308" lon="70.1085644145"><ele>1321.479</ele></trkpt>
   <trkpt lat="41.7827280777" lon="70.108616047"><ele>1322.289</ele></trkpt>
   <trkpt lat="41.7829459234" lon="70.1085648336"><ele>1326.309</ele></trkpt>
   <trkpt lat="41.7832920541" lon="70.108619316"><ele>1330.469</ele></trkpt>
   <trkpt lat="41.7834006417" lon="70.1086235908"><ele>1331.949</ele></trkpt>
   <trkpt lat="41.7834846283" lon="70.1085992832"><ele>1333.259</ele></trkpt>
   <trkpt lat="41.7835892345" lon="70.1086546038"><ele>1334.539</ele></trkpt>
   <trkpt lat="41.7837624465" lon="70.108513704"><ele>1336.899</ele></trkpt>
   <trkpt lat="41.7838903963" lon="70.1084614009"><ele>1338.409</ele></trkpt>
   <trkpt lat="41.7839989838" lon="70.1084610657"><ele>1340.299</ele></trkpt>
   <trkpt lat="41.78404894" lon="70.1084963535"><ele>1341.319</ele></trkpt>
   <trkpt lat="41.7841089125" lon="70.1085726288"><ele>1341.639</ele></trkpt>
   <trkpt lat="41.7841858583" lon="70.1086176396"><ele>1340.899</ele></trkpt>
   <trkpt lat="41.7842325455" lon="70.1086072461"><ele>1340.759</ele></trkpt>
   <trkpt lat="41.7842931467" lon="70.1085626543"><ele>1341.499</ele></trkpt>
   <trkpt lat="41.7845999663" lon="70.1086374209"><ele>1344.939</ele></trkpt>
   <trkpt lat="41.7848098491" lon="70.1087979343"><ele>1345.729</ele></trkpt>
   <trkpt lat="41.7848484897" lon="70.1088642352"><ele>1346.709</ele></trkpt>
   <trkpt lat="41.7848861244" lon="70.1088905544"><ele>1347.309</ele></trkpt>
   <trkpt lat="41.7849657106" lon="70.1088991877"><ele>1348.629</ele></trkpt>
   <trkpt lat="41.7850539721" lon="70.1088812505"><ele>1350.519</ele></trkpt>
   <trkpt lat="41.7851982246" lon="70.108912515"><ele>1353.239</ele></trkpt>
   <trkpt lat="41.7853138111" lon="70.1090280176"><ele>1355.509</ele></trkpt>
   <trkpt lat="41.7853987616" lon="70.109061629"><ele>1357.279</ele></trkpt>
   <trkpt lat="41.7855299384" lon="70.1092355535"><ele>1358.579</ele></trkpt>
   <trkpt lat="41.7856135898" lon="70.1092924666"><ele>1359.749</ele></trkpt>
   <trkpt lat="41.7858160966" lon="70.1091919676"><ele>1363.859</ele></trkpt>
   <trkpt lat="41.7858583833" lon="70.1091379882"><ele>1364.189</ele></trkpt>
   <trkpt lat="41.7859366284" lon="70.1091346354"><ele>1365.949</ele></trkpt>
   <trkpt lat="41.7860095509" lon="70.1090647303"><ele>1368.129</ele></trkpt>
   <trkpt lat="41.7861048113" lon="70.1090716873"><ele>1370.049</ele></trkpt>
   <trkpt lat="41.7862260555" lon="70.1090451167"><ele>1373.599</ele></trkpt>
   <trkpt lat="41.7862882911" lon="70.1090007764"><ele>1374.339</ele></trkpt>
   <trkpt lat="41.7863329248" lon="70.1090098289"><ele>1375.259</ele></trkpt>
   <trkpt lat="41.7863575675" lon="70.1089538377"><ele>1376.499</ele></trkpt>
   <trkpt lat="41.7865150635" lon="70.1088213199"><ele>1380.419</ele></trkpt>
   <trkpt lat="41.7865896624" lon="70.1086990279"><ele>1382.779</ele></trkpt>
   <trkpt lat="41.7866516047" lon="70.1086841081"><ele>1384.659</ele></trkpt>
   <trkpt lat="41.786779764" lon="70.1085888059"><ele>1387.559</ele></trkpt>
   <trkpt lat="41.7869325661" lon="70.108349754"><ele>1394.189</ele></trkpt>
   <trkpt lat="41.7872995677" lon="70.108273311"><ele>1403.699</ele></trkpt>
   <trkpt lat="41.7872776491" lon="70.1081437268"><ele>1407.089</ele></trkpt>
   <trkpt lat="41.7872986038" lon="70.1080920943"><ele>1407.859</ele></trkpt>
   <trkpt lat="41.7874977159" lon="70.1080535375"><ele>1413.189</ele></trkpt>
   <trkpt lat="41.7876209299" lon="70.1079809502"><ele>1416.099</ele></trkpt>
   <trkpt lat="41.7877261228" lon="70.1080105384"><ele>1418.389</ele></trkpt>
   <trkpt lat="41.78777742" lon="70.1079573133"><ele>1420.519</ele></trkpt>
   <trkpt lat="41.7878150129" lon="70.1078790263"><ele>1423.909</ele></trkpt>
   <trkpt lat="41.7878642146" lon="70.1078574848"><ele>1427.209</ele></trkpt>
   <trkpt lat="41.7878629154" lon="70.107784227"><ele>1429.009</ele></trkpt>
   <trkpt lat="41.7878918749" lon="70.1077432395"><ele>1430.029</ele></trkpt>
   <trkpt lat="41.787910818" lon="70.1077481848"><ele>1430.879</ele></trkpt>
   <trkpt lat="41.78797473" lon="70.1077045989"><ele>1435.269</ele></trkpt>
   <trkpt lat="41.7880300087" lon="70.1077185967"><ele>1437.029</ele></trkpt>
   <trkpt lat="41.7880686074" lon="70.1076849852"><ele>1438.239</ele></trkpt>
   <trkpt lat="41.7881918213" lon="70.1076746755"><ele>1441.119</ele></trkpt>
   <trkpt lat="41.7882407297" lon="70.107749945"><ele>1443.869</ele></trkpt>
   </trkseg>
 </trk>
</gpx>