<?xml version='1.0' encoding='utf-8'?>
<gpx xmlns="http://www.topografix.com/GPX/1/1" xmlns:ns2="http://www.topografix.com/GPX/gpx_style/0/2" xmlns:xsi="http://www.w3.org/2001/XMLSchema-instance" version="1.1" creator="GaiaGPS for Android" xsi:schemaLocation="http://www.topografix.com/GPX/1/1 http://www.topografix.com/GPX/1/1/gpx.xsd http://www.topografix.com/GPX/Private/TopoGrafix/0/1 http://www.topografix.com/GPX/Private/TopoGrafix/0/1/topografix.xsd">
<trk>
<name>Polvonak Waterfalls</name>
<desc>Зелёный, Опар, Три Водопада, Обипар</desc>
<number>104</number>
<extensions>
<ns2:line>
<ns2:color>FF0000</ns2:color>
</ns2:line>
</extensions>
<trkseg>
<trkpt lat="41.77565" lon="70.200712">
<ele>1005.5</ele>
</trkpt>
<trkpt lat="41.775517" lon="70.200359">
<ele>1006.2</ele>
</trkpt>
<trkpt lat="41.775339" lon="70.200045">
<ele>1002.4</ele>
</trkpt>
<trkpt lat="41.77483" lon="70.199307">
<ele>990.5</ele>
</trkpt>
<trkpt lat="41.774742" lon="70.199138">
<ele>987.8</ele>
</trkpt>
<trkpt lat="41.774636" lon="70.198987">
<ele>986.8</ele>
</trkpt>
<trkpt lat="41.774373" lon="70.198503">
<ele>978.9</ele>
</trkpt>
<trkpt lat="41.774261" lon="70.198371">
<ele>978.5</ele>
</trkpt>
<trkpt lat="41.773978" lon="70.198267">
<ele>971.9</ele>
</trkpt>
<trkpt lat="41.773846" lon="70.198357">
<ele>966.5</ele>
</trkpt>
<trkpt lat="41.773894" lon="70.198552">
<ele>965.1</ele>
</trkpt>
<trkpt lat="41.773865" lon="70.19895">
<ele>965.4</ele>
</trkpt>
<trkpt lat="41.773935" lon="70.199136">
<ele>965.5</ele>
</trkpt>
<trkpt lat="41.773865" lon="70.19931">
<ele>959.7</ele>
</trkpt>
<trkpt lat="41.773771" lon="70.199463">
<ele>959.4</ele>
</trkpt>
<trkpt lat="41.773743" lon="70.199664">
<ele>958.1</ele>
</trkpt>
<trkpt lat="41.773784" lon="70.199858">
<ele>955</ele>
</trkpt>
<trkpt lat="41.773807" lon="70.200057">
<ele>952.9</ele>
</trkpt>
<trkpt lat="41.773785" lon="70.200255">
<ele>954.2</ele>
</trkpt>
<trkpt lat="41.773854" lon="70.200442">
<ele>952.7</ele>
</trkpt>
<trkpt lat="41.773929" lon="70.201037">
<ele>954.1</ele>
</trkpt>
<trkpt lat="41.773894" lon="70.201234">
<ele>950.1</ele>
</trkpt>
<trkpt lat="41.77393" lon="70.201439">
<ele>949.8</ele>
</trkpt>
<trkpt lat="41.773929" lon="70.201842">
<ele>946.4</ele>
</trkpt>
<trkpt lat="41.774011" lon="70.202231">
<ele>948.8</ele>
</trkpt>
<trkpt lat="41.773962" lon="70.202413">
<ele>945.8</ele>
</trkpt>
<trkpt lat="41.773951" lon="70.202617">
<ele>942.1</ele>
</trkpt>
<trkpt lat="41.774001" lon="70.202801">
<ele>942.3</ele>
</trkpt>
<trkpt lat="41.774013" lon="70.203006">
<ele>940.3</ele>
</trkpt>
<trkpt lat="41.774004" lon="70.203199">
<ele>938.5</ele>
</trkpt>
<trkpt lat="41.773944" lon="70.203612">
<ele>936.2</ele>
</trkpt>
<trkpt lat="41.773988" lon="70.203811">
<ele>938.6</ele>
</trkpt>
<trkpt lat="41.774093" lon="70.203954">
<ele>939.2</ele>
</trkpt>
<trkpt lat="41.774094" lon="70.204157">
<ele>938.1</ele>
</trkpt>
<trkpt lat="41.774245" lon="70.204182">
<ele>938.2</ele>
</trkpt>
<trkpt lat="41.774308" lon="70.204359">
<ele>940.3</ele>
</trkpt>
<trkpt lat="41.774434" lon="70.204455">
<ele>942.6</ele>
</trkpt>
<trkpt lat="41.774566" lon="70.204535">
<ele>946</ele>
</trkpt>
<trkpt lat="41.774841" lon="70.20441">
<ele>964.4</ele>
</trkpt>
<trkpt lat="41.7747" lon="70.204503">
<ele>957.6</ele>
</trkpt>
<trkpt lat="41.774834" lon="70.204432">
<ele>957.3</ele>
</trkpt>
<trkpt lat="41.774711" lon="70.204537">
<ele>954.8</ele>
</trkpt>
<trkpt lat="41.774784" lon="70.204707">
<ele>956</ele>
</trkpt>
<trkpt lat="41.774887" lon="70.204842">
<ele>959.6</ele>
</trkpt>
<trkpt lat="41.775009" lon="70.204953">
<ele>961</ele>
</trkpt>
<trkpt lat="41.775097" lon="70.205112">
<ele>964.7</ele>
</trkpt>
<trkpt lat="41.775157" lon="70.205295">
<ele>969.1</ele>
</trkpt>
<trkpt lat="41.775432" lon="70.20577">
<ele>970.7</ele>
</trkpt>
<trkpt lat="41.775545" lon="70.205899">
<ele>971.6</ele>
</trkpt>
<trkpt lat="41.775802" lon="70.206106">
<ele>974.7</ele>
</trkpt>
<trkpt lat="41.775851" lon="70.206288">
<ele>982.5</ele>
</trkpt>
<trkpt lat="41.775996" lon="70.206254">
<ele>991.9</ele>
</trkpt>
<trkpt lat="41.776074" lon="70.206423">
<ele>998.3</ele>
</trkpt>
<trkpt lat="41.776362" lon="70.206325">
<ele>1009.5</ele>
</trkpt>
<trkpt lat="41.7765" lon="70.206396">
<ele>1007</ele>
</trkpt>
<trkpt lat="41.776613" lon="70.206517">
<ele>1002</ele>
</trkpt>
<trkpt lat="41.776725" lon="70.206391">
<ele>1013.1</ele>
</trkpt>
<trkpt lat="41.776881" lon="70.20637">
<ele>1010.7</ele>
</trkpt>
<trkpt lat="41.777024" lon="70.206399">
<ele>1014</ele>
</trkpt>
<trkpt lat="41.777114" lon="70.206232">
<ele>1015.8</ele>
</trkpt>
<trkpt lat="41.777342" lon="70.205991">
<ele>1015.4</ele>
</trkpt>
<trkpt lat="41.777454" lon="70.205849">
<ele>1015.2</ele>
</trkpt>
<trkpt lat="41.777588" lon="70.205777">
<ele>1017.5</ele>
</trkpt>
<trkpt lat="41.777683" lon="70.205633">
<ele>1019.1</ele>
</trkpt>
<trkpt lat="41.777808" lon="70.205525">
<ele>1015.9</ele>
</trkpt>
<trkpt lat="41.777949" lon="70.205464">
<ele>1026.5</ele>
</trkpt>
<trkpt lat="41.778185" lon="70.205226">
<ele>1023.4</ele>
</trkpt>
<trkpt lat="41.778316" lon="70.205131">
<ele>1025.5</ele>
</trkpt>
<trkpt lat="41.778429" lon="70.205002">
<ele>1026.5</ele>
</trkpt>
<trkpt lat="41.778556" lon="70.204901">
<ele>1028.6</ele>
</trkpt>
<trkpt lat="41.778694" lon="70.204822">
<ele>1028.5</ele>
</trkpt>
<trkpt lat="41.778945" lon="70.204606">
<ele>1035.3</ele>
</trkpt>
<trkpt lat="41.779207" lon="70.204424">
<ele>1035.8</ele>
</trkpt>
<trkpt lat="41.779607" lon="70.204186">
<ele>1040.1</ele>
</trkpt>
<trkpt lat="41.77975" lon="70.204156">
<ele>1044.9</ele>
</trkpt>
<trkpt lat="41.779883" lon="70.204066">
<ele>1052</ele>
</trkpt>
<trkpt lat="41.780005" lon="70.203955">
<ele>1046.3</ele>
</trkpt>
<trkpt lat="41.780295" lon="70.203848">
<ele>1048.9</ele>
</trkpt>
<trkpt lat="41.780707" lon="70.203637">
<ele>1055</ele>
</trkpt>
<trkpt lat="41.781" lon="70.203569">
<ele>1059.5</ele>
</trkpt>
<trkpt lat="41.781251" lon="70.203795">
<ele>1062.3</ele>
</trkpt>
<trkpt lat="41.781501" lon="70.203985">
<ele>1065.4</ele>
</trkpt>
<trkpt lat="41.781651" lon="70.203985">
<ele>1068.3</ele>
</trkpt>
<trkpt lat="41.781948" lon="70.204056">
<ele>1072.1</ele>
</trkpt>
<trkpt lat="41.782096" lon="70.204033">
<ele>1074.3</ele>
</trkpt>
<trkpt lat="41.782247" lon="70.204034">
<ele>1077.5</ele>
</trkpt>
<trkpt lat="41.78238" lon="70.203961">
<ele>1079.6</ele>
</trkpt>
<trkpt lat="41.782532" lon="70.20396">
<ele>1082.5</ele>
</trkpt>
<trkpt lat="41.782677" lon="70.203905">
<ele>1089.3</ele>
</trkpt>
<trkpt lat="41.782814" lon="70.203556">
<ele>1096.7</ele>
</trkpt>
<trkpt lat="41.78293" lon="70.203426">
<ele>1098</ele>
</trkpt>
<trkpt lat="41.783217" lon="70.203315">
<ele>1100.1</ele>
</trkpt>
<trkpt lat="41.783368" lon="70.203326">
<ele>1101.3</ele>
</trkpt>
<trkpt lat="41.783807" lon="70.203438">
<ele>1110.2</ele>
</trkpt>
<trkpt lat="41.783963" lon="70.203402">
<ele>1106.3</ele>
</trkpt>
<trkpt lat="41.784196" lon="70.203151">
<ele>1106.3</ele>
</trkpt>
<trkpt lat="41.784389" lon="70.202858">
<ele>1108.8</ele>
</trkpt>
<trkpt lat="41.784522" lon="70.202774">
<ele>1100.4</ele>
</trkpt>
<trkpt lat="41.784452" lon="70.202606">
<ele>1113.5</ele>
</trkpt>
<trkpt lat="41.784652" lon="70.202324">
<ele>1116.5</ele>
</trkpt>
<trkpt lat="41.784783" lon="70.202235">
<ele>1117.2</ele>
</trkpt>
<trkpt lat="41.784973" lon="70.201932">
<ele>1123.9</ele>
</trkpt>
<trkpt lat="41.785104" lon="70.201832">
<ele>1127.7</ele>
</trkpt>
<trkpt lat="41.785209" lon="70.201692">
<ele>1130.8</ele>
</trkpt>
<trkpt lat="41.785288" lon="70.201512">
<ele>1137.5</ele>
</trkpt>
<trkpt lat="41.785387" lon="70.201146">
<ele>1148</ele>
</trkpt>
<trkpt lat="41.785544" lon="70.200813">
<ele>1156</ele>
</trkpt>
<trkpt lat="41.785638" lon="70.200667">
<ele>1157.6</ele>
</trkpt>
<trkpt lat="41.785688" lon="70.200483">
<ele>1161.2</ele>
</trkpt>
<trkpt lat="41.785679" lon="70.200282">
<ele>1163.6</ele>
</trkpt>
<trkpt lat="41.785748" lon="70.199892">
<ele>1171</ele>
</trkpt>
<trkpt lat="41.785824" lon="70.199726">
<ele>1176.1</ele>
</trkpt>
<trkpt lat="41.785876" lon="70.199544">
<ele>1180.5</ele>
</trkpt>
<trkpt lat="41.785946" lon="70.19937">
<ele>1182.2</ele>
</trkpt>
<trkpt lat="41.786024" lon="70.199207">
<ele>1183.4</ele>
</trkpt>
<trkpt lat="41.786067" lon="70.199022">
<ele>1183.6</ele>
</trkpt>
<trkpt lat="41.786175" lon="70.198894">
<ele>1189.5</ele>
</trkpt>
<trkpt lat="41.786214" lon="70.198699">
<ele>1192.3</ele>
</trkpt>
<trkpt lat="41.78628" lon="70.198523">
<ele>1197.9</ele>
</trkpt>
<trkpt lat="41.786298" lon="70.198327">
<ele>1201.5</ele>
</trkpt>
<trkpt lat="41.786402" lon="70.198187">
<ele>1203.5</ele>
</trkpt>
<trkpt lat="41.786389" lon="70.197791">
<ele>1216.8</ele>
</trkpt>
<trkpt lat="41.786309" lon="70.197623">
<ele>1213.6</ele>
</trkpt>
<trkpt lat="41.786276" lon="70.197432">
<ele>1219.2</ele>
</trkpt>
<trkpt lat="41.786318" lon="70.197242">
<ele>1220.4</ele>
</trkpt>
<trkpt lat="41.786364" lon="70.196658">
<ele>1234.5</ele>
</trkpt>
<trkpt lat="41.786336" lon="70.196272">
<ele>1245.4</ele>
</trkpt>
<trkpt lat="41.786384" lon="70.196086">
<ele>1244</ele>
</trkpt>
<trkpt lat="41.786454" lon="70.195915">
<ele>1254.3</ele>
</trkpt>
<trkpt lat="41.786462" lon="70.195719">
<ele>1258.4</ele>
</trkpt>
<trkpt lat="41.78653" lon="70.195337">
<ele>1264.1</ele>
</trkpt>
<trkpt lat="41.7868" lon="70.194885">
<ele>1271.8</ele>
</trkpt>
<trkpt lat="41.786931" lon="70.194797">
<ele>1286.4</ele>
</trkpt>
<trkpt lat="41.787071" lon="70.194851">
<ele>1289.5</ele>
</trkpt>
<trkpt lat="41.787216" lon="70.194808">
<ele>1295.5</ele>
</trkpt>
<trkpt lat="41.78734" lon="70.194698">
<ele>1295.2</ele>
</trkpt>
<trkpt lat="41.787412" lon="70.19453">
<ele>1301.2</ele>
</trkpt>
<trkpt lat="41.787592" lon="70.194221">
<ele>1296.3</ele>
</trkpt>
<trkpt lat="41.787646" lon="70.19404">
<ele>1310.6</ele>
</trkpt>
<trkpt lat="41.787678" lon="70.193841">
<ele>1308.5</ele>
</trkpt>
<trkpt lat="41.787732" lon="70.193661">
<ele>1317.1</ele>
</trkpt>
<trkpt lat="41.787777" lon="70.19327">
<ele>1325.5</ele>
</trkpt>
<trkpt lat="41.787817" lon="70.193076">
<ele>1323</ele>
</trkpt>
<trkpt lat="41.78788" lon="70.192887">
<ele>1331.9</ele>
</trkpt>
<trkpt lat="41.787986" lon="70.192753">
<ele>1338</ele>
</trkpt>
<trkpt lat="41.78812" lon="70.192675">
<ele>1330.2</ele>
</trkpt>
<trkpt lat="41.788239" lon="70.192556">
<ele>1339.4</ele>
</trkpt>
<trkpt lat="41.788302" lon="70.192376">
<ele>1342.5</ele>
</trkpt>
<trkpt lat="41.788417" lon="70.19226">
<ele>1354.7</ele>
</trkpt>
<trkpt lat="41.788561" lon="70.192291">
<ele>1353.3</ele>
</trkpt>
<trkpt lat="41.788701" lon="70.192237">
<ele>1361.9</ele>
</trkpt>
<trkpt lat="41.788995" lon="70.192253">
<ele>1373</ele>
</trkpt>
<trkpt lat="41.789093" lon="70.19211">
<ele>1377.8</ele>
</trkpt>
<trkpt lat="41.78924" lon="70.192129">
<ele>1382.6</ele>
</trkpt>
<trkpt lat="41.789381" lon="70.192047">
<ele>1378.1</ele>
</trkpt>
<trkpt lat="41.789494" lon="70.19192">
<ele>1404.4</ele>
</trkpt>
<trkpt lat="41.789779" lon="70.19185">
<ele>1412.3</ele>
</trkpt>
<trkpt lat="41.789829" lon="70.191667">
<ele>1428.6</ele>
</trkpt>
<trkpt lat="41.789923" lon="70.191519">
<ele>1429.1</ele>
</trkpt>
<trkpt lat="41.789919" lon="70.191321">
<ele>1433</ele>
</trkpt>
<trkpt lat="41.789956" lon="70.191132">
<ele>1440.8</ele>
</trkpt>
<trkpt lat="41.790071" lon="70.191016">
<ele>1442.3</ele>
</trkpt>
<trkpt lat="41.7903" lon="70.190597">
<ele>1451</ele>
</trkpt>
<trkpt lat="41.790582" lon="70.190489">
<ele>1456.5</ele>
</trkpt>
<trkpt lat="41.790903" lon="70.190472">
<ele>1473.2</ele>
</trkpt>
<trkpt lat="41.791043" lon="70.190376">
<ele>1470.2</ele>
</trkpt>
<trkpt lat="41.791279" lon="70.190143">
<ele>1471.6</ele>
</trkpt>
<trkpt lat="41.791409" lon="70.190056">
<ele>1475</ele>
</trkpt>
<trkpt lat="41.791554" lon="70.190033">
<ele>1486.9</ele>
</trkpt>
<trkpt lat="41.791703" lon="70.190049">
<ele>1485.8</ele>
</trkpt>
<trkpt lat="41.791844" lon="70.190003">
<ele>1490.2</ele>
</trkpt>
<trkpt lat="41.791979" lon="70.18993">
<ele>1492.5</ele>
</trkpt>
<trkpt lat="41.792132" lon="70.18998">
<ele>1508.4</ele>
</trkpt>
<trkpt lat="41.792268" lon="70.189914">
<ele>1511.8</ele>
</trkpt>
<trkpt lat="41.792394" lon="70.189819">
<ele>1519.8</ele>
</trkpt>
<trkpt lat="41.792437" lon="70.189632">
<ele>1513.7</ele>
</trkpt>
<trkpt lat="41.792539" lon="70.189493">
<ele>1528.6</ele>
</trkpt>
<trkpt lat="41.792557" lon="70.189299">
<ele>1536.2</ele>
</trkpt>
<trkpt lat="41.792389" lon="70.189192">
<ele>1533.3</ele>
</trkpt>
<trkpt lat="41.792377" lon="70.189392">
<ele>1548.6</ele>
</trkpt>
<trkpt lat="41.792518" lon="70.189216">
<ele>1553.8</ele>
</trkpt>
<trkpt lat="41.792443" lon="70.189381">
<ele>1540.2</ele>
</trkpt>
<trkpt lat="41.792411" lon="70.189572">
<ele>1513.5</ele>
</trkpt>
<trkpt lat="41.792328" lon="70.189825">
<ele>1510.8</ele>
</trkpt>
<trkpt lat="41.79223" lon="70.189968">
<ele>1514.6</ele>
</trkpt>
<trkpt lat="41.79209" lon="70.190014">
<ele>1513.6</ele>
</trkpt>
<trkpt lat="41.79199" lon="70.189852">
<ele>1506.7</ele>
</trkpt>
<trkpt lat="41.792098" lon="70.189988">
<ele>1519.1</ele>
</trkpt>
<trkpt lat="41.792143" lon="70.190172">
<ele>1521</ele>
</trkpt>
<trkpt lat="41.79213" lon="70.190369">
<ele>1528.7</ele>
</trkpt>
<trkpt lat="41.792143" lon="70.190567">
<ele>1528.1</ele>
</trkpt>
<trkpt lat="41.792124" lon="70.190759">
<ele>1535.2</ele>
</trkpt>
<trkpt lat="41.791993" lon="70.190841">
<ele>1543.9</ele>
</trkpt>
<trkpt lat="41.791848" lon="70.190819">
<ele>1551.3</ele>
</trkpt>
<trkpt lat="41.791689" lon="70.19115">
<ele>1553.4</ele>
</trkpt>
<trkpt lat="41.791818" lon="70.191237">
<ele>1558</ele>
</trkpt>
<trkpt lat="41.791961" lon="70.191278">
<ele>1571.7</ele>
</trkpt>
<trkpt lat="41.792238" lon="70.191424">
<ele>1570.2</ele>
</trkpt>
<trkpt lat="41.792383" lon="70.191418">
<ele>1574.9</ele>
</trkpt>
<trkpt lat="41.792461" lon="70.19125">
<ele>1603.7</ele>
</trkpt>
<trkpt lat="41.792708" lon="70.191032">
<ele>1601.5</ele>
</trkpt>
<trkpt lat="41.792719" lon="70.19084">
<ele>1612.4</ele>
</trkpt>
<trkpt lat="41.792823" lon="70.190705">
<ele>1616.9</ele>
</trkpt>
<trkpt lat="41.792861" lon="70.190518">
<ele>1624.2</ele>
</trkpt>
<trkpt lat="41.792984" lon="70.190404">
<ele>1639</ele>
</trkpt>
<trkpt lat="41.79307" lon="70.190249">
<ele>1638.4</ele>
</trkpt>
<trkpt lat="41.7933" lon="70.190015">
<ele>1638.9</ele>
</trkpt>
<trkpt lat="41.79338" lon="70.189847">
<ele>1640.4</ele>
</trkpt>
<trkpt lat="41.793443" lon="70.189464">
<ele>1645.7</ele>
</trkpt>
<trkpt lat="41.793414" lon="70.189272">
<ele>1653.9</ele>
</trkpt>
<trkpt lat="41.793487" lon="70.189098">
<ele>1648</ele>
</trkpt>
<trkpt lat="41.793516" lon="70.188907">
<ele>1644.1</ele>
</trkpt>
<trkpt lat="41.793603" lon="70.188749">
<ele>1650</ele>
</trkpt>
<trkpt lat="41.793664" lon="70.188572">
<ele>1651.2</ele>
</trkpt>
<trkpt lat="41.793761" lon="70.188425">
<ele>1652</ele>
</trkpt>
<trkpt lat="41.793899" lon="70.188367">
<ele>1663.8</ele>
</trkpt>
<trkpt lat="41.793991" lon="70.188216">
<ele>1668</ele>
</trkpt>
<trkpt lat="41.794117" lon="70.188116">
<ele>1669</ele>
</trkpt>
<trkpt lat="41.794254" lon="70.188043">
<ele>1672.4</ele>
</trkpt>
<trkpt lat="41.794501" lon="70.187825">
<ele>1691.1</ele>
</trkpt>
<trkpt lat="41.794724" lon="70.187566">
<ele>1688.4</ele>
</trkpt>
<trkpt lat="41.794882" lon="70.187464">
<ele>1699.8</ele>
</trkpt>
<trkpt lat="41.795248" lon="70.187151">
<ele>1711.3</ele>
</trkpt>
<trkpt lat="41.79553" lon="70.18724">
<ele>1729.3</ele>
</trkpt>
<trkpt lat="41.795677" lon="70.187228">
<ele>1732.8</ele>
</trkpt>
<trkpt lat="41.795934" lon="70.187042">
<ele>1749</ele>
</trkpt>
<trkpt lat="41.796022" lon="70.186888">
<ele>1759.3</ele>
</trkpt>
<trkpt lat="41.796291" lon="70.186743">
<ele>1764.3</ele>
</trkpt>
<trkpt lat="41.796433" lon="70.18677">
<ele>1776.5</ele>
</trkpt>
<trkpt lat="41.796568" lon="70.186699">
<ele>1775.3</ele>
</trkpt>
<trkpt lat="41.796712" lon="70.186705">
<ele>1785</ele>
</trkpt>
<trkpt lat="41.797011" lon="70.186807">
<ele>1810.8</ele>
</trkpt>
<trkpt lat="41.796957" lon="70.186625">
<ele>1808.8</ele>
</trkpt>
<trkpt lat="41.796814" lon="70.186571">
<ele>1801.1</ele>
</trkpt>
<trkpt lat="41.79669" lon="70.186461">
<ele>1793.4</ele>
</trkpt>
<trkpt lat="41.796596" lon="70.186313">
<ele>1792.7</ele>
</trkpt>
<trkpt lat="41.796532" lon="70.186486">
<ele>1789.3</ele>
</trkpt>
<trkpt lat="41.796386" lon="70.186508">
<ele>1778</ele>
</trkpt>
<trkpt lat="41.796389" lon="70.186704">
<ele>1777</ele>
</trkpt>
<trkpt lat="41.796121" lon="70.186547">
<ele>1768.7</ele>
</trkpt>
<trkpt lat="41.795975" lon="70.18654">
<ele>1771.9</ele>
</trkpt>
<trkpt lat="41.795699" lon="70.186655">
<ele>1772.2</ele>
</trkpt>
<trkpt lat="41.795553" lon="70.186678">
<ele>1778</ele>
</trkpt>
<trkpt lat="41.795432" lon="70.186566">
<ele>1770.7</ele>
</trkpt>
<trkpt lat="41.795369" lon="70.186391">
<ele>1778</ele>
</trkpt>
<trkpt lat="41.795112" lon="70.186208">
<ele>1773.7</ele>
</trkpt>
<trkpt lat="41.79483" lon="70.186285">
<ele>1781.2</ele>
</trkpt>
<trkpt lat="41.794562" lon="70.186139">
<ele>1782.4</ele>
</trkpt>
<trkpt lat="41.794417" lon="70.186146">
<ele>1773.1</ele>
</trkpt>
<trkpt lat="41.794128" lon="70.186114">
<ele>1770.7</ele>
</trkpt>
<trkpt lat="41.794001" lon="70.18602">
<ele>1779.8</ele>
</trkpt>
<trkpt lat="41.793913" lon="70.185862">
<ele>1777.1</ele>
</trkpt>
<trkpt lat="41.793794" lon="70.185749">
<ele>1784.1</ele>
</trkpt>
<trkpt lat="41.79369" lon="70.185605">
<ele>1791</ele>
</trkpt>
<trkpt lat="41.793619" lon="70.185431">
<ele>1782.3</ele>
</trkpt>
<trkpt lat="41.793532" lon="70.185585">
<ele>1785.7</ele>
</trkpt>
<trkpt lat="41.793461" lon="70.18576">
<ele>1774.2</ele>
</trkpt>
<trkpt lat="41.793239" lon="70.186017">
<ele>1767.6</ele>
</trkpt>
<trkpt lat="41.793162" lon="70.186184">
<ele>1772.8</ele>
</trkpt>
<trkpt lat="41.793014" lon="70.186181">
<ele>1777.5</ele>
</trkpt>
<trkpt lat="41.79289" lon="70.186077">
<ele>1783.7</ele>
</trkpt>
<trkpt lat="41.792502" lon="70.186375">
<ele>1778</ele>
</trkpt>
<trkpt lat="41.792479" lon="70.18657">
<ele>1779.1</ele>
</trkpt>
<trkpt lat="41.792479" lon="70.18677">
<ele>1775.7</ele>
</trkpt>
<trkpt lat="41.792396" lon="70.186931">
<ele>1781.4</ele>
</trkpt>
<trkpt lat="41.792249" lon="70.186981">
<ele>1775.1</ele>
</trkpt>
<trkpt lat="41.792159" lon="70.187153">
<ele>1779.5</ele>
</trkpt>
<trkpt lat="41.792017" lon="70.18712">
<ele>1777.1</ele>
</trkpt>
<trkpt lat="41.791879" lon="70.187047">
<ele>1777.7</ele>
</trkpt>
<trkpt lat="41.791747" lon="70.18695">
<ele>1776.6</ele>
</trkpt>
<trkpt lat="41.791602" lon="70.186896">
<ele>1777</ele>
</trkpt>
<trkpt lat="41.791312" lon="70.186924">
<ele>1779.2</ele>
</trkpt>
<trkpt lat="41.791165" lon="70.186909">
<ele>1778.3</ele>
</trkpt>
<trkpt lat="41.79102" lon="70.186856">
<ele>1775.6</ele>
</trkpt>
<trkpt lat="41.79087" lon="70.186866">
<ele>1772.2</ele>
</trkpt>
<trkpt lat="41.790718" lon="70.186835">
<ele>1775.5</ele>
</trkpt>
<trkpt lat="41.790428" lon="70.186825">
<ele>1776.3</ele>
</trkpt>
<trkpt lat="41.790307" lon="70.186946">
<ele>1779.5</ele>
</trkpt>
<trkpt lat="41.790177" lon="70.187033">
<ele>1780.9</ele>
</trkpt>
<trkpt lat="41.7901" lon="70.186866">
<ele>1782</ele>
</trkpt>
<trkpt lat="41.789973" lon="70.186746">
<ele>1778.9</ele>
</trkpt>
<trkpt lat="41.789842" lon="70.186666">
<ele>1785</ele>
</trkpt>
<trkpt lat="41.789602" lon="70.186423">
<ele>1782.3</ele>
</trkpt>
<trkpt lat="41.789458" lon="70.186417">
<ele>1784.4</ele>
</trkpt>
<trkpt lat="41.789349" lon="70.186544">
<ele>1780</ele>
</trkpt>
<trkpt lat="41.78925" lon="70.186698">
<ele>1784.9</ele>
</trkpt>
<trkpt lat="41.78911" lon="70.186747">
<ele>1785.3</ele>
</trkpt>
<trkpt lat="41.788874" lon="70.186511">
<ele>1786.4</ele>
</trkpt>
<trkpt lat="41.78874" lon="70.18644">
<ele>1782.7</ele>
</trkpt>
<trkpt lat="41.788514" lon="70.186191">
<ele>1787.7</ele>
</trkpt>
<trkpt lat="41.788302" lon="70.185911">
<ele>1789.1</ele>
</trkpt>
<trkpt lat="41.788182" lon="70.185799">
<ele>1790.5</ele>
</trkpt>
<trkpt lat="41.787894" lon="70.18586">
<ele>1785.8</ele>
</trkpt>
<trkpt lat="41.787748" lon="70.185814">
<ele>1787.1</ele>
</trkpt>
<trkpt lat="41.787612" lon="70.185737">
<ele>1787.7</ele>
</trkpt>
<trkpt lat="41.787463" lon="70.185745">
<ele>1792.6</ele>
</trkpt>
<trkpt lat="41.787319" lon="70.185686">
<ele>1790</ele>
</trkpt>
<trkpt lat="41.787174" lon="70.185701">
<ele>1796.1</ele>
</trkpt>
<trkpt lat="41.787023" lon="70.185682">
<ele>1800.9</ele>
</trkpt>
<trkpt lat="41.786883" lon="70.18564">
<ele>1794.1</ele>
</trkpt>
<trkpt lat="41.786737" lon="70.185669">
<ele>1791</ele>
</trkpt>
<trkpt lat="41.786876" lon="70.18561">
<ele>1791.8</ele>
</trkpt>
<trkpt lat="41.787024" lon="70.185642">
<ele>1793.4</ele>
</trkpt>
<trkpt lat="41.786875" lon="70.18561">
<ele>1792.4</ele>
</trkpt>
<trkpt lat="41.786584" lon="70.185652">
<ele>1787.8</ele>
</trkpt>
<trkpt lat="41.786638" lon="70.185467">
<ele>1793</ele>
</trkpt>
<trkpt lat="41.786632" lon="70.185274">
<ele>1782.9</ele>
</trkpt>
<trkpt lat="41.786547" lon="70.185116">
<ele>1774.8</ele>
</trkpt>
<trkpt lat="41.786438" lon="70.18499">
<ele>1768.4</ele>
</trkpt>
<trkpt lat="41.786506" lon="70.184816">
<ele>1760.1</ele>
</trkpt>
<trkpt lat="41.786624" lon="70.184689">
<ele>1759.6</ele>
</trkpt>
<trkpt lat="41.786715" lon="70.184535">
<ele>1758.2</ele>
</trkpt>
<trkpt lat="41.786676" lon="70.18435">
<ele>1752</ele>
</trkpt>
<trkpt lat="41.786673" lon="70.184152">
<ele>1747.3</ele>
</trkpt>
<trkpt lat="41.786697" lon="70.183958">
<ele>1743.4</ele>
</trkpt>
<trkpt lat="41.786609" lon="70.183806">
<ele>1735.7</ele>
</trkpt>
<trkpt lat="41.786398" lon="70.183539">
<ele>1714.1</ele>
</trkpt>
<trkpt lat="41.786405" lon="70.183339">
<ele>1706.5</ele>
</trkpt>
<trkpt lat="41.78647" lon="70.183164">
<ele>1705.3</ele>
</trkpt>
<trkpt lat="41.786547" lon="70.18278">
<ele>1693.4</ele>
</trkpt>
<trkpt lat="41.786662" lon="70.182663">
<ele>1685.7</ele>
</trkpt>
<trkpt lat="41.786873" lon="70.18239">
<ele>1675.4</ele>
</trkpt>
<trkpt lat="41.787025" lon="70.181627">
<ele>1643.7</ele>
</trkpt>
<trkpt lat="41.787025" lon="70.181434">
<ele>1639.3</ele>
</trkpt>
<trkpt lat="41.786991" lon="70.181245">
<ele>1627.3</ele>
</trkpt>
<trkpt lat="41.787057" lon="70.18107">
<ele>1620.1</ele>
</trkpt>
<trkpt lat="41.78716" lon="70.180935">
<ele>1611.5</ele>
</trkpt>
<trkpt lat="41.787081" lon="70.180768">
<ele>1597.8</ele>
</trkpt>
<trkpt lat="41.787158" lon="70.180603">
<ele>1602.4</ele>
</trkpt>
<trkpt lat="41.787186" lon="70.180413">
<ele>1595.3</ele>
</trkpt>
<trkpt lat="41.787157" lon="70.180224">
<ele>1589.6</ele>
</trkpt>
<trkpt lat="41.787331" lon="70.179916">
<ele>1581.1</ele>
</trkpt>
<trkpt lat="41.787493" lon="70.17937">
<ele>1560.1</ele>
</trkpt>
<trkpt lat="41.787597" lon="70.179132">
<ele>1552.9</ele>
</trkpt>
<trkpt lat="41.787452" lon="70.179112">
<ele>1556.3</ele>
</trkpt>
<trkpt lat="41.787582" lon="70.179027">
<ele>1564.1</ele>
</trkpt>
<trkpt lat="41.787499" lon="70.179186">
<ele>1571.9</ele>
</trkpt>
<trkpt lat="41.787358" lon="70.179238">
<ele>1561.1</ele>
</trkpt>
<trkpt lat="41.787483" lon="70.179138">
<ele>1567.9</ele>
</trkpt>
<trkpt lat="41.787545" lon="70.17896">
<ele>1571.7</ele>
</trkpt>
<trkpt lat="41.787607" lon="70.179135">
<ele>1554</ele>
</trkpt>
<trkpt lat="41.787749" lon="70.178865">
<ele>1558.6</ele>
</trkpt>
<trkpt lat="41.787792" lon="70.179057">
<ele>1561.9</ele>
</trkpt>
<trkpt lat="41.787645" lon="70.179074">
<ele>1555.6</ele>
</trkpt>
<trkpt lat="41.787522" lon="70.179181">
<ele>1549</ele>
</trkpt>
<trkpt lat="41.787377" lon="70.179224">
<ele>1550.3</ele>
</trkpt>
<trkpt lat="41.787236" lon="70.179179">
<ele>1546.8</ele>
</trkpt>
<trkpt lat="41.787088" lon="70.179177">
<ele>1540</ele>
</trkpt>
<trkpt lat="41.786948" lon="70.179126">
<ele>1530.4</ele>
</trkpt>
<trkpt lat="41.78682" lon="70.179034">
<ele>1527.1</ele>
</trkpt>
<trkpt lat="41.786677" lon="70.179009">
<ele>1518.3</ele>
</trkpt>
<trkpt lat="41.78641" lon="70.179162">
<ele>1506.5</ele>
</trkpt>
<trkpt lat="41.786119" lon="70.179225">
<ele>1496.8</ele>
</trkpt>
<trkpt lat="41.78585" lon="70.179367">
<ele>1485.7</ele>
</trkpt>
<trkpt lat="41.785579" lon="70.179547">
<ele>1475.8</ele>
</trkpt>
<trkpt lat="41.785405" lon="70.179554">
<ele>1469.1</ele>
</trkpt>
<trkpt lat="41.785266" lon="70.179498">
<ele>1462.9</ele>
</trkpt>
<trkpt lat="41.785122" lon="70.179521">
<ele>1460</ele>
</trkpt>
<trkpt lat="41.784984" lon="70.179587">
<ele>1454.7</ele>
</trkpt>
<trkpt lat="41.78484" lon="70.179606">
<ele>1447.8</ele>
</trkpt>
<trkpt lat="41.784696" lon="70.17959">
<ele>1443.3</ele>
</trkpt>
<trkpt lat="41.784552" lon="70.179602">
<ele>1433.1</ele>
</trkpt>
<trkpt lat="41.784268" lon="70.179508">
<ele>1420.9</ele>
</trkpt>
<trkpt lat="41.783977" lon="70.179483">
<ele>1412.1</ele>
</trkpt>
<trkpt lat="41.783706" lon="70.179331">
<ele>1398.4</ele>
</trkpt>
<trkpt lat="41.783566" lon="70.179386">
<ele>1392.9</ele>
</trkpt>
<trkpt lat="41.783446" lon="70.17927">
<ele>1387.9</ele>
</trkpt>
<trkpt lat="41.78328" lon="70.17895">
<ele>1375</ele>
</trkpt>
<trkpt lat="41.783169" lon="70.178826">
<ele>1371.5</ele>
</trkpt>
<trkpt lat="41.78312" lon="70.178645">
<ele>1364.7</ele>
</trkpt>
<trkpt lat="41.783032" lon="70.178487">
<ele>1361.3</ele>
</trkpt>
<trkpt lat="41.78292" lon="70.178362">
<ele>1354.2</ele>
</trkpt>
<trkpt lat="41.782645" lon="70.178245">
<ele>1347.5</ele>
</trkpt>
<trkpt lat="41.7825" lon="70.178245">
<ele>1343.3</ele>
</trkpt>
<trkpt lat="41.782363" lon="70.178304">
<ele>1341.6</ele>
</trkpt>
<trkpt lat="41.782216" lon="70.178316">
<ele>1336.3</ele>
</trkpt>
<trkpt lat="41.781929" lon="70.17826">
<ele>1328.9</ele>
</trkpt>
<trkpt lat="41.781806" lon="70.178156">
<ele>1324.7</ele>
</trkpt>
<trkpt lat="41.781708" lon="70.178008">
<ele>1320.1</ele>
</trkpt>
<trkpt lat="41.781587" lon="70.177899">
<ele>1316.6</ele>
</trkpt>
<trkpt lat="41.78145" lon="70.177821">
<ele>1312.3</ele>
</trkpt>
<trkpt lat="41.781304" lon="70.177787">
<ele>1304.2</ele>
</trkpt>
<trkpt lat="41.781169" lon="70.177717">
<ele>1299.4</ele>
</trkpt>
<trkpt lat="41.781029" lon="70.177768">
<ele>1292.6</ele>
</trkpt>
<trkpt lat="41.780776" lon="70.177571">
<ele>1284.5</ele>
</trkpt>
<trkpt lat="41.780625" lon="70.177549">
<ele>1279.7</ele>
</trkpt>
<trkpt lat="41.780337" lon="70.177625">
<ele>1271.5</ele>
</trkpt>
<trkpt lat="41.780199" lon="70.177544">
<ele>1265.1</ele>
</trkpt>
<trkpt lat="41.780062" lon="70.177612">
<ele>1261.2</ele>
</trkpt>
<trkpt lat="41.779918" lon="70.177654">
<ele>1256.3</ele>
</trkpt>
<trkpt lat="41.779773" lon="70.177666">
<ele>1253.5</ele>
</trkpt>
<trkpt lat="41.779627" lon="70.177718">
<ele>1246.5</ele>
</trkpt>
<trkpt lat="41.77948" lon="70.177724">
<ele>1241.8</ele>
</trkpt>
<trkpt lat="41.779341" lon="70.177785">
<ele>1234.4</ele>
</trkpt>
<trkpt lat="41.779195" lon="70.177776">
<ele>1232.6</ele>
</trkpt>
<trkpt lat="41.779093" lon="70.177915">
<ele>1228.1</ele>
</trkpt>
<trkpt lat="41.778835" lon="70.17811">
<ele>1220.7</ele>
</trkpt>
<trkpt lat="41.778605" lon="70.178358">
<ele>1209.6</ele>
</trkpt>
<trkpt lat="41.778322" lon="70.178452">
<ele>1204.9</ele>
</trkpt>
<trkpt lat="41.778224" lon="70.178602">
<ele>1197.1</ele>
</trkpt>
<trkpt lat="41.778088" lon="70.178682">
<ele>1195.5</ele>
</trkpt>
<trkpt lat="41.777967" lon="70.1788">
<ele>1188.7</ele>
</trkpt>
<trkpt lat="41.777893" lon="70.178966">
<ele>1185.1</ele>
</trkpt>
<trkpt lat="41.777791" lon="70.179104">
<ele>1181.8</ele>
</trkpt>
<trkpt lat="41.777504" lon="70.179191">
<ele>1180.5</ele>
</trkpt>
<trkpt lat="41.777375" lon="70.179278">
<ele>1169.1</ele>
</trkpt>
<trkpt lat="41.777088" lon="70.179374">
<ele>1161.7</ele>
</trkpt>
<trkpt lat="41.77696" lon="70.179462">
<ele>1153.2</ele>
</trkpt>
<trkpt lat="41.776872" lon="70.179621">
<ele>1155.3</ele>
</trkpt>
<trkpt lat="41.776746" lon="70.179726">
<ele>1147.1</ele>
</trkpt>
<trkpt lat="41.776605" lon="70.179768">
<ele>1145</ele>
</trkpt>
<trkpt lat="41.776513" lon="70.179917">
<ele>1142.7</ele>
</trkpt>
<trkpt lat="41.776368" lon="70.179945">
<ele>1137</ele>
</trkpt>
<trkpt lat="41.776103" lon="70.180123">
<ele>1131.7</ele>
</trkpt>
<trkpt lat="41.775979" lon="70.180236">
<ele>1125.3</ele>
</trkpt>
<trkpt lat="41.775877" lon="70.180373">
<ele>1122.9</ele>
</trkpt>
<trkpt lat="41.775504" lon="70.180679">
<ele>1112.5</ele>
</trkpt>
<trkpt lat="41.775288" lon="70.180947">
<ele>1106.8</ele>
</trkpt>
<trkpt lat="41.775235" lon="70.181131">
<ele>1102.9</ele>
</trkpt>
<trkpt lat="41.775205" lon="70.181322">
<ele>1097.4</ele>
</trkpt>
<trkpt lat="41.775224" lon="70.181519">
<ele>1094</ele>
</trkpt>
<trkpt lat="41.775158" lon="70.181691">
<ele>1091.7</ele>
</trkpt>
<trkpt lat="41.775046" lon="70.181818">
<ele>1086.4</ele>
</trkpt>
<trkpt lat="41.77492" lon="70.181917">
<ele>1081.7</ele>
</trkpt>
<trkpt lat="41.774713" lon="70.18219">
<ele>1074.1</ele>
</trkpt>
<trkpt lat="41.7746" lon="70.182313">
<ele>1068.5</ele>
</trkpt>
<trkpt lat="41.774329" lon="70.18248">
<ele>1058</ele>
</trkpt>
<trkpt lat="41.774183" lon="70.18246">
<ele>1052.3</ele>
</trkpt>
<trkpt lat="41.774036" lon="70.182495">
<ele>1050.3</ele>
</trkpt>
<trkpt lat="41.773908" lon="70.182589">
<ele>1043.5</ele>
</trkpt>
<trkpt lat="41.773801" lon="70.182726">
<ele>1039.9</ele>
</trkpt>
<trkpt lat="41.773671" lon="70.182825">
<ele>1039.8</ele>
</trkpt>
<trkpt lat="41.773528" lon="70.182811">
<ele>1034.2</ele>
</trkpt>
<trkpt lat="41.773388" lon="70.182859">
<ele>1030.1</ele>
</trkpt>
<trkpt lat="41.77314" lon="70.183078">
<ele>1027.8</ele>
</trkpt>
<trkpt lat="41.773065" lon="70.182913">
<ele>1023.3</ele>
</trkpt>
<trkpt lat="41.772926" lon="70.182966">
<ele>1015.1</ele>
</trkpt>
<trkpt lat="41.772641" lon="70.182878">
<ele>1005.3</ele>
</trkpt>
<trkpt lat="41.772491" lon="70.182918">
<ele>1000.4</ele>
</trkpt>
<trkpt lat="41.77237" lon="70.183026">
<ele>1000.5</ele>
</trkpt>
<trkpt lat="41.772224" lon="70.183048">
<ele>997.2</ele>
</trkpt>
<trkpt lat="41.772084" lon="70.183107">
<ele>993.6</ele>
</trkpt>
<trkpt lat="41.771789" lon="70.18311">
<ele>986.2</ele>
</trkpt>
<trkpt lat="41.77161" lon="70.183872">
<ele>970</ele>
</trkpt>
<trkpt lat="41.771612" lon="70.184277">
<ele>964.7</ele>
</trkpt>
<trkpt lat="41.771548" lon="70.184862">
<ele>954.3</ele>
</trkpt>
<trkpt lat="41.771564" lon="70.185054">
<ele>954.7</ele>
</trkpt>
<trkpt lat="41.771659" lon="70.18521">
<ele>954.7</ele>
</trkpt>
<trkpt lat="41.771641" lon="70.184998">
<ele>953.2</ele>
</trkpt>
<trkpt lat="41.771674" lon="70.185189">
<ele>953.6</ele>
</trkpt>
<trkpt lat="41.771741" lon="70.186004">
<ele>953.7</ele>
</trkpt>
<trkpt lat="41.771819" lon="70.186613">
<ele>948.7</ele>
</trkpt>
<trkpt lat="41.771856" lon="70.186806">
<ele>950.5</ele>
</trkpt>
<trkpt lat="41.771865" lon="70.187002">
<ele>948</ele>
</trkpt>
<trkpt lat="41.771945" lon="70.187604">
<ele>949.2</ele>
</trkpt>
<trkpt lat="41.772081" lon="70.187971">
<ele>949.4</ele>
</trkpt>
<trkpt lat="41.772265" lon="70.188299">
<ele>947.8</ele>
</trkpt>
<trkpt lat="41.77247" lon="70.188583">
<ele>946.1</ele>
</trkpt>
<trkpt lat="41.772707" lon="70.188838">
<ele>947</ele>
</trkpt>
<trkpt lat="41.772899" lon="70.189138">
<ele>943.2</ele>
</trkpt>
<trkpt lat="41.773074" lon="70.189472">
<ele>945.7</ele>
</trkpt>
<trkpt lat="41.773334" lon="70.190188">
<ele>942.6</ele>
</trkpt>
<trkpt lat="41.773412" lon="70.190364">
<ele>942.2</ele>
</trkpt>
<trkpt lat="41.773602" lon="70.190688">
<ele>938.4</ele>
</trkpt>
<trkpt lat="41.773808" lon="70.190983">
<ele>938.3</ele>
</trkpt>
<trkpt lat="41.773878" lon="70.191161">
<ele>936.2</ele>
</trkpt>
<trkpt lat="41.773909" lon="70.191358">
<ele>937.1</ele>
</trkpt>
<trkpt lat="41.773909" lon="70.191572">
<ele>935.1</ele>
</trkpt>
<trkpt lat="41.773869" lon="70.192365">
<ele>935.8</ele>
</trkpt>
<trkpt lat="41.773845" lon="70.192564">
<ele>935.4</ele>
</trkpt>
<trkpt lat="41.77373" lon="70.193165">
<ele>936.2</ele>
</trkpt>
<trkpt lat="41.773676" lon="70.19335">
<ele>936.3</ele>
</trkpt>
<trkpt lat="41.773493" lon="70.194529">
<ele>939</ele>
</trkpt>
<trkpt lat="41.773458" lon="70.194857">
<ele>941.3</ele>
</trkpt>
<trkpt lat="41.773446" lon="70.195164">
<ele>943.8</ele>
</trkpt>
<trkpt lat="41.773477" lon="70.195423">
<ele>945.8</ele>
</trkpt>
<trkpt lat="41.773528" lon="70.195674">
<ele>949.1</ele>
</trkpt>
<trkpt lat="41.773747" lon="70.196158">
<ele>951.3</ele>
</trkpt>
<trkpt lat="41.773986" lon="70.196869">
<ele>958.1</ele>
</trkpt>
<trkpt lat="41.774071" lon="70.197144">
<ele>958.6</ele>
</trkpt>
<trkpt lat="41.774489" lon="70.198736">
<ele>972.2</ele>
</trkpt>
<trkpt lat="41.774684" lon="70.199163">
<ele>979.2</ele>
</trkpt>
<trkpt lat="41.775678" lon="70.201042">
<ele>1008</ele>
</trkpt>
<trkpt lat="41.775731" lon="70.200862">
<ele>997.3</ele>
</trkpt>
<trkpt lat="41.775473" lon="70.200344">
<ele>998.9</ele>
</trkpt>
<trkpt lat="41.774722" lon="70.199111">
<ele>993.4</ele>
</trkpt>
<trkpt lat="41.774269" lon="70.198244">
<ele>984.9</ele>
</trkpt>
<trkpt lat="41.774138" lon="70.197866">
<ele>980.9</ele>
</trkpt>
<trkpt lat="41.774026" lon="70.197234">
<ele>974.9</ele>
</trkpt>
<trkpt lat="41.773934" lon="70.196819">
<ele>971.9</ele>
</trkpt>
<trkpt lat="41.77381" lon="70.196422">
<ele>968.5</ele>
</trkpt>
<trkpt lat="41.773605" lon="70.195864">
<ele>963.7</ele>
</trkpt>
<trkpt lat="41.773505" lon="70.195523">
<ele>959.4</ele>
</trkpt>
<trkpt lat="41.773487" lon="70.195143">
<ele>955.8</ele>
</trkpt>
<trkpt lat="41.773498" lon="70.194938">
<ele>954.8</ele>
</trkpt>
<trkpt lat="41.773617" lon="70.193819">
<ele>948.6</ele>
</trkpt>
<trkpt lat="41.773687" lon="70.193355">
<ele>948.5</ele>
</trkpt>
<trkpt lat="41.773841" lon="70.19268">
<ele>946.4</ele>
</trkpt>
<trkpt lat="41.7739" lon="70.192225">
<ele>946</ele>
</trkpt>
<trkpt lat="41.77392" lon="70.191794">
<ele>943.9</ele>
</trkpt>
<trkpt lat="41.773915" lon="70.191426">
<ele>942.6</ele>
</trkpt>
<trkpt lat="41.773861" lon="70.19112">
<ele>941.1</ele>
</trkpt>
<trkpt lat="41.773747" lon="70.190875">
<ele>940.1</ele>
</trkpt>
<trkpt lat="41.773496" lon="70.190471">
<ele>941.5</ele>
</trkpt>
<trkpt lat="41.77338" lon="70.19023">
<ele>942.4</ele>
</trkpt>
<trkpt lat="41.773085" lon="70.189501">
<ele>943</ele>
</trkpt>
<trkpt lat="41.772899" lon="70.189084">
<ele>944.4</ele>
</trkpt>
<trkpt lat="41.772786" lon="70.188885">
<ele>946.8</ele>
</trkpt>
<trkpt lat="41.772636" lon="70.188698">
<ele>945.6</ele>
</trkpt>
<trkpt lat="41.772352" lon="70.188401">
<ele>946.4</ele>
</trkpt>
<trkpt lat="41.772137" lon="70.188028">
<ele>947.3</ele>
</trkpt>
<trkpt lat="41.772053" lon="70.187841">
<ele>947.9</ele>
</trkpt>
<trkpt lat="41.771985" lon="70.187653">
<ele>947.2</ele>
</trkpt>
<trkpt lat="41.771903" lon="70.187234">
<ele>948.3</ele>
</trkpt>
<trkpt lat="41.771821" lon="70.18654">
<ele>950.3</ele>
</trkpt>
<trkpt lat="41.771777" lon="70.185782">
<ele>952.5</ele>
</trkpt>
<trkpt lat="41.771704" lon="70.185144">
<ele>953.8</ele>
</trkpt>
<trkpt lat="41.771595" lon="70.184986">
<ele>955.1</ele>
</trkpt>
</trkseg>
</trk>
</gpx>