<?xml version='1.0' encoding='utf-8'?>
<gpx xmlns="http://www.topografix.com/GPX/1/1" xmlns:ns2="https://gurumaps.app/gpx/v3" xmlns:xsi="http://www.w3.org/2001/XMLSchema-instance" version="1.1" creator="com.bodunov.galileo/v5.3.3" xsi:schemaLocation="http://www.topografix.com/GPX/1/1 http://www.topografix.com/GPX/1/1/gpx.xsd https://gurumaps.app/gpx/v3 https://gurumaps.app/gpx/v3/schema.xsd">
 <trk>
  <name>Babaytag | Go on Foot</name>
  <type>TrackStyle_3A96FFC8</type>
  <extensions>
   <ns2:time>2023-08-19T01:08:14.161Z</ns2:time>
  </extensions>
  <trkseg>
   <trkpt lat="41.1134628651" lon="70.1932707545"><ele>1678.781</ele></trkpt>
   <trkpt lat="41.1134217938" lon="70.1932544936"><ele>1679.03</ele></trkpt>
   <trkpt lat="41.1134115678" lon="70.1932259952"><ele>1679.28</ele></trkpt>
   <trkpt lat="41.1134452631" lon="70.193259439"><ele>1677.801</ele></trkpt>
   <trkpt lat="41.1134408626" lon="70.1932875183"><ele>1679.732</ele></trkpt>
   <trkpt lat="41.1134598895" lon="70.1932624564"><ele>1679.599</ele></trkpt>
   <trkpt lat="41.113444383" lon="70.1932934695"><ele>1680.998</ele></trkpt>
   <trkpt lat="41.1134653797" lon="70.1932860934"><ele>1679.459</ele></trkpt>
   <trkpt lat="41.1134496636" lon="70.1932635461"><ele>1679.886</ele></trkpt>
   <trkpt lat="41.1134622784" lon="70.1932480396"><ele>1683.437</ele></trkpt>
   <trkpt lat="41.1134285831" lon="70.1933215489"><ele>1684.935</ele></trkpt>
   <trkpt lat="41.113431391" lon="70.1933024381"><ele>1685.615</ele></trkpt>
   <trkpt lat="41.1134218776" lon="70.1933083893"><ele>1685.689</ele></trkpt>
   <trkpt lat="41.1134486997" lon="70.193292296"><ele>1685.286</ele></trkpt>
   <trkpt lat="41.1134478615" lon="70.1932623726"><ele>1684.472</ele></trkpt>
   <trkpt lat="41.1135135756" lon="70.193302019"><ele>1686.99</ele></trkpt>
   <trkpt lat="41.1136236719" lon="70.1934178569"><ele>1688.587</ele></trkpt>
   <trkpt lat="41.1137782761" lon="70.1935342816"><ele>1690.72</ele></trkpt>
   <trkpt lat="41.1138055592" lon="70.1936080423"><ele>1690.654</ele></trkpt>
   <trkpt lat="41.1138425653" lon="70.1935240556"><ele>1691.514</ele></trkpt>
   <trkpt lat="41.1138780627" lon="70.1935165957"><ele>1692.076</ele></trkpt>
   <trkpt lat="41.1140586927" lon="70.1936598425"><ele>1694.012</ele></trkpt>
   <trkpt lat="41.1141661906" lon="70.1936626923"><ele>1694.294</ele></trkpt>
   <trkpt lat="41.1142107823" lon="70.1936435816"><ele>1694.991</ele></trkpt>
   <trkpt lat="41.1143341639" lon="70.1935273246"><ele>1696.748</ele></trkpt>
   <trkpt lat="41.1144242694" lon="70.1933677331"><ele>1698.711</ele></trkpt>
   <trkpt lat="41.1144110679" lon="70.1930965786"><ele>1698.498</ele></trkpt>
   <trkpt lat="41.1143765764" lon="70.1929129311"><ele>1699.891</ele></trkpt>
   <trkpt lat="41.1143394864" lon="70.1928100851"><ele>1700.066</ele></trkpt>
   <trkpt lat="41.1143355889" lon="70.1927426946"><ele>1701.406</ele></trkpt>
   <trkpt lat="41.1143885625" lon="70.1926136971"><ele>1700.932</ele></trkpt>
   <trkpt lat="41.1144398597" lon="70.1925823488"><ele>1702.279</ele></trkpt>
   <trkpt lat="41.1144893968" lon="70.1925839414"><ele>1703.215</ele></trkpt>
   <trkpt lat="41.114617598" lon="70.192655439"><ele>1705.209</ele></trkpt>
   <trkpt lat="41.1147991919" lon="70.192799021"><ele>1708.423</ele></trkpt>
   <trkpt lat="41.114944576" lon="70.1929834229"><ele>1713.157</ele></trkpt>
   <trkpt lat="41.1150120923" lon="70.1931145997"><ele>1714.909</ele></trkpt>
   <trkpt lat="41.1150842604" lon="70.1932023582"><ele>1715.959</ele></trkpt>
   <trkpt lat="41.1151127589" lon="70.1932731853"><ele>1716.747</ele></trkpt>
   <trkpt lat="41.1152046665" lon="70.1934172702"><ele>1719.72</ele></trkpt>
   <trkpt lat="41.1152580592" lon="70.1934725908"><ele>1720.984</ele></trkpt>
   <trkpt lat="41.1153957739" lon="70.1936969743"><ele>1725.294</ele></trkpt>
   <trkpt lat="41.1155220892" lon="70.1938620978"><ele>1726.908</ele></trkpt>
   <trkpt lat="41.1156178943" lon="70.1939506945"><ele>1728.935</ele></trkpt>
   <trkpt lat="41.1157059881" lon="70.1940767583"><ele>1730.958</ele></trkpt>
   <trkpt lat="41.1158578682" lon="70.1942218491"><ele>1734.854</ele></trkpt>
   <trkpt lat="41.1159940741" lon="70.1943111164"><ele>1736.085</ele></trkpt>
   <trkpt lat="41.1161299867" lon="70.1943512657"><ele>1737.013</ele></trkpt>
   <trkpt lat="41.1161678729" lon="70.1943721366"><ele>1737.803</ele></trkpt>
   <trkpt lat="41.116158569" lon="70.1943786745"><ele>1736.334</ele></trkpt>
   <trkpt lat="41.1161473791" lon="70.1942758285"><ele>1738.665</ele></trkpt>
   <trkpt lat="41.1161059725" lon="70.1942361821"><ele>1736.374</ele></trkpt>
   <trkpt lat="41.1160915976" lon="70.194175581"><ele>1738.519</ele></trkpt>
   <trkpt lat="41.1160230755" lon="70.1940656942"><ele>1742.663</ele></trkpt>
   <trkpt lat="41.1160131849" lon="70.1940293168"><ele>1743.19</ele></trkpt>
   <trkpt lat="41.1160225726" lon="70.1939983875"><ele>1744.39</ele></trkpt>
   <trkpt lat="41.1161384943" lon="70.1938705635"><ele>1752.313</ele></trkpt>
   <trkpt lat="41.1161515701" lon="70.193805939"><ele>1754.275</ele></trkpt>
   <trkpt lat="41.116180781" lon="70.1937856548"><ele>1757.986</ele></trkpt>
   <trkpt lat="41.1161817868" lon="70.1937170909"><ele>1757.952</ele></trkpt>
   <trkpt lat="41.1162076869" lon="70.1936604292"><ele>1759.127</ele></trkpt>
   <trkpt lat="41.1162353891" lon="70.1936379657"><ele>1762.339</ele></trkpt>
   <trkpt lat="41.1162925956" lon="70.1936536399"><ele>1763.043</ele></trkpt>
   <trkpt lat="41.1163719722" lon="70.1937249699"><ele>1764.134</ele></trkpt>
   <trkpt lat="41.1164137979" lon="70.1937894267"><ele>1762.344</ele></trkpt>
   <trkpt lat="41.1164819847" lon="70.1937769377"><ele>1768.509</ele></trkpt>
   <trkpt lat="41.1164956891" lon="70.193702674"><ele>1771.819</ele></trkpt>
   <trkpt lat="41.1165255706" lon="70.193672583"><ele>1773.22</ele></trkpt>
   <trkpt lat="41.1165718806" lon="70.1936922804"><ele>1774.781</ele></trkpt>
   <trkpt lat="41.1166116947" lon="70.193780039"><ele>1776.306</ele></trkpt>
   <trkpt lat="41.1166629919" lon="70.1938260556"><ele>1773.141</ele></trkpt>
   <trkpt lat="41.1167128642" lon="70.1938149915"><ele>1779.518</ele></trkpt>
   <trkpt lat="41.1166493713" lon="70.193739722"><ele>1779.279</ele></trkpt>
   <trkpt lat="41.1166515925" lon="70.1936969743"><ele>1780.887</ele></trkpt>
   <trkpt lat="41.1166786661" lon="70.1936729182"><ele>1781.929</ele></trkpt>
   <trkpt lat="41.1166817674" lon="70.1936370437"><ele>1785.049</ele></trkpt>
   <trkpt lat="41.1165700785" lon="70.1934418292"><ele>1780.653</ele></trkpt>
   <trkpt lat="41.1166623633" lon="70.1933815633"><ele>1786.493</ele></trkpt>
   <trkpt lat="41.1166327751" lon="70.1933258236"><ele>1788.729</ele></trkpt>
   <trkpt lat="41.1166361698" lon="70.1933055394"><ele>1787.627</ele></trkpt>
   <trkpt lat="41.1166993694" lon="70.1931900368"><ele>1793.262</ele></trkpt>
   <trkpt lat="41.1167493674" lon="70.1931368955"><ele>1795.795</ele></trkpt>
   <trkpt lat="41.1167400635" lon="70.1931411703"><ele>1796.269</ele></trkpt>
   <trkpt lat="41.1167710766" lon="70.1930018631"><ele>1799.184</ele></trkpt>
   <trkpt lat="41.1167804643" lon="70.1930558425"><ele>1798.307</ele></trkpt>
   <trkpt lat="41.1167490741" lon="70.1931069721"><ele>1798.023</ele></trkpt>
   <trkpt lat="41.1167572883" lon="70.1930577704"><ele>1798.492</ele></trkpt>
   <trkpt lat="41.11675096" lon="70.193077384"><ele>1798.006</ele></trkpt>
   <trkpt lat="41.116882975" lon="70.1930761267"><ele>1802.88</ele></trkpt>
   <trkpt lat="41.1170054765" lon="70.1931047928"><ele>1806.573</ele></trkpt>
   <trkpt lat="41.1170824643" lon="70.1931821578"><ele>1806.296</ele></trkpt>
   <trkpt lat="41.1172107912" lon="70.1932300185"><ele>1811.593</ele></trkpt>
   <trkpt lat="41.1172582747" lon="70.1932301861"><ele>1812.556</ele></trkpt>
   <trkpt lat="41.1173114998" lon="70.1931888633"><ele>1811.882</ele></trkpt>
   <trkpt lat="41.1173899963" lon="70.1931843371"><ele>1814.052</ele></trkpt>
   <trkpt lat="41.1175405772" lon="70.193255248"><ele>1818.201</ele></trkpt>
   <trkpt lat="41.1176304731" lon="70.1932723471"><ele>1818.359</ele></trkpt>
   <trkpt lat="41.1176934631" lon="70.1933772885"><ele>1821.119</ele></trkpt>
   <trkpt lat="41.1177812635" lon="70.1933500473"><ele>1820.286</ele></trkpt>
   <trkpt lat="41.1178565749" lon="70.1933890232"><ele>1824.442</ele></trkpt>
   <trkpt lat="41.1179112668" lon="70.1934412424"><ele>1827.117</ele></trkpt>
   <trkpt lat="41.1179768971" lon="70.1934361295"><ele>1829.511</ele></trkpt>
   <trkpt lat="41.1180781924" lon="70.1934719202"><ele>1833.62</ele></trkpt>
   <trkpt lat="41.118155767" lon="70.1933945552"><ele>1838.354</ele></trkpt>
   <trkpt lat="41.1181870734" lon="70.1933893585"><ele>1838.271</ele></trkpt>
   <trkpt lat="41.1182481774" lon="70.1934706629"><ele>1842.508</ele></trkpt>
   <trkpt lat="41.1182877819" lon="70.1934846607"><ele>1841.49</ele></trkpt>
   <trkpt lat="41.1183684997" lon="70.1934484509"><ele>1846.588</ele></trkpt>
   <trkpt lat="41.1184296876" lon="70.1933912863"><ele>1848.634</ele></trkpt>
   <trkpt lat="41.1184955693" lon="70.1934663881"><ele>1852.57</ele></trkpt>
   <trkpt lat="41.1185161888" lon="70.1934693218"><ele>1852.036</ele></trkpt>
   <trkpt lat="41.1185633789" lon="70.1933637937"><ele>1856.028</ele></trkpt>
   <trkpt lat="41.118653191" lon="70.1932626241"><ele>1858.438</ele></trkpt>
   <trkpt lat="41.118713876" lon="70.1933024381"><ele>1862.587</ele></trkpt>
   <trkpt lat="41.1187813922" lon="70.1934167673"><ele>1864.56</ele></trkpt>
   <trkpt lat="41.118804191" lon="70.1934140851"><ele>1867.647</ele></trkpt>
   <trkpt lat="41.118862068" lon="70.1932690781"><ele>1870.429</ele></trkpt>
   <trkpt lat="41.1188889739" lon="70.193276538"><ele>1873.452</ele></trkpt>
   <trkpt lat="41.1189356611" lon="70.1933309366"><ele>1875.129</ele></trkpt>
   <trkpt lat="41.1189650816" lon="70.1933254884"><ele>1875.422</ele></trkpt>
   <trkpt lat="41.1190081646" lon="70.193185762"><ele>1879.596</ele></trkpt>
   <trkpt lat="41.1190375851" lon="70.1931636338"><ele>1882.406</ele></trkpt>
   <trkpt lat="41.1190942887" lon="70.1932032802"><ele>1882.626</ele></trkpt>
   <trkpt lat="41.1191083703" lon="70.1931969938"><ele>1882.941</ele></trkpt>
   <trkpt lat="41.1191506989" lon="70.1931388234"><ele>1887.57</ele></trkpt>
   <trkpt lat="41.1191565662" lon="70.1931005181"><ele>1888.331</ele></trkpt>
   <trkpt lat="41.1191934885" lon="70.1930563454"><ele>1893.113</ele></trkpt>
   <trkpt lat="41.1192105876" lon="70.1930054673"><ele>1895.342</ele></trkpt>
   <trkpt lat="41.1192866952" lon="70.1929187984"><ele>1899.901</ele></trkpt>
   <trkpt lat="41.1193272637" lon="70.192843948"><ele>1901.061</ele></trkpt>
   <trkpt lat="41.1194255834" lon="70.1930339658"><ele>1905.704</ele></trkpt>
   <trkpt lat="41.1195084804" lon="70.1930875261"><ele>1912.334</ele></trkpt>
   <trkpt lat="41.1195240707" lon="70.1931152702"><ele>1910.764</ele></trkpt>
   <trkpt lat="41.1195159822" lon="70.1930948184"><ele>1910.533</ele></trkpt>
   <trkpt lat="41.119560071" lon="70.1931124204"><ele>1908.819</ele></trkpt>
   <trkpt lat="41.1196027768" lon="70.193053328"><ele>1913.142</ele></trkpt>
   <trkpt lat="41.1196213846" lon="70.1929294434"><ele>1916.746</ele></trkpt>
   <trkpt lat="41.1196578878" lon="70.1928534196"><ele>1918.619</ele></trkpt>
   <trkpt lat="41.1197243982" lon="70.1928320457"><ele>1921.462</ele></trkpt>
   <trkpt lat="41.1197458978" lon="70.1928973407"><ele>1923.809</ele></trkpt>
   <trkpt lat="41.1197775814" lon="70.1929237437"><ele>1922.956</ele></trkpt>
   <trkpt lat="41.119810187" lon="70.1928734523"><ele>1927.531</ele></trkpt>
   <trkpt lat="41.1198712911" lon="70.1928813313"><ele>1929.952</ele></trkpt>
   <trkpt lat="41.1199142902" lon="70.19286155"><ele>1927.37</ele></trkpt>
   <trkpt lat="41.1199218759" lon="70.1928382483"><ele>1933.57</ele></trkpt>
   <trkpt lat="41.1199904817" lon="70.1928589516"><ele>1934.679</ele></trkpt>
   <trkpt lat="41.120063991" lon="70.192849061"><ele>1938.929</ele></trkpt>
   <trkpt lat="41.1202223671" lon="70.1927741268"><ele>1944.581</ele></trkpt>
   <trkpt lat="41.1203283982" lon="70.1927527529"><ele>1948.363</ele></trkpt>
   <trkpt lat="41.120393777" lon="70.1927129389"><ele>1950.41</ele></trkpt>
   <trkpt lat="41.120406769" lon="70.1927408506"><ele>1952.168</ele></trkpt>
   <trkpt lat="41.1204477984" lon="70.1926807524"><ele>1957.408</ele></trkpt>
   <trkpt lat="41.1205147698" lon="70.192660552"><ele>1957.595</ele></trkpt>
   <trkpt lat="41.1205525722" lon="70.1926221629"><ele>1957.68</ele></trkpt>
   <trkpt lat="41.1206388639" lon="70.1926213247"><ele>1965.093</ele></trkpt>
   <trkpt lat="41.1206690806" lon="70.1925986935"><ele>1965.182</ele></trkpt>
   <trkpt lat="41.1207097748" lon="70.1926360768"><ele>1969.674</ele></trkpt>
   <trkpt lat="41.1207090623" lon="70.1927047246"><ele>1967.746</ele></trkpt>
   <trkpt lat="41.1207484992" lon="70.1928144437"><ele>1972.21</ele></trkpt>
   <trkpt lat="41.120830097" lon="70.1928917249"><ele>1977.012</ele></trkpt>
   <trkpt lat="41.1208617806" lon="70.1928914734"><ele>1978.403</ele></trkpt>
   <trkpt lat="41.1209076715" lon="70.1928597898"><ele>1979.487</ele></trkpt>
   <trkpt lat="41.1210986951" lon="70.192832381"><ele>1986.057</ele></trkpt>
   <trkpt lat="41.1211558596" lon="70.1928917249"><ele>1987.433</ele></trkpt>
   <trkpt lat="41.1212155807" lon="70.1928623882"><ele>1989.875</ele></trkpt>
   <trkpt lat="41.1213038841" lon="70.1928843488"><ele>1992.978</ele></trkpt>
   <trkpt lat="41.1213782734" lon="70.1929431898"><ele>1995.539</ele></trkpt>
   <trkpt lat="41.121437282" lon="70.1929286891"><ele>1996.301</ele></trkpt>
   <trkpt lat="41.1214762998" lon="70.1929873624"><ele>1999.071</ele></trkpt>
   <trkpt lat="41.1214774733" lon="70.1930329599"><ele>1999.373</ele></trkpt>
   <trkpt lat="41.1215482584" lon="70.1929685869"><ele>2002.699</ele></trkpt>
   <trkpt lat="41.121670299" lon="70.1929552597"><ele>2008.193</ele></trkpt>
   <trkpt lat="41.1217889867" lon="70.1930619613"><ele>2013.843</ele></trkpt>
   <trkpt lat="41.1218503841" lon="70.1930783899"><ele>2016.962</ele></trkpt>
   <trkpt lat="41.1219740591" lon="70.192975963"><ele>2020.187</ele></trkpt>
   <trkpt lat="41.1221631968" lon="70.1929341373"><ele>2028.271</ele></trkpt>
   <trkpt lat="41.1222426991" lon="70.1929374901"><ele>2030.278</ele></trkpt>
   <trkpt lat="41.1223447907" lon="70.1928797387"><ele>2032.05</ele></trkpt>
   <trkpt lat="41.1223332656" lon="70.1928992686"><ele>2036.933</ele></trkpt>
   <trkpt lat="41.1223516639" lon="70.1928822533"><ele>2033.963</ele></trkpt>
   <trkpt lat="41.1223359897" lon="70.1928919763"><ele>2033.923</ele></trkpt>
   <trkpt lat="41.1223912684" lon="70.1929278509"><ele>2037.912</ele></trkpt>
   <trkpt lat="41.1224416855" lon="70.1929104165"><ele>2038.663</ele></trkpt>
   <trkpt lat="41.1224522886" lon="70.1930267573"><ele>2044.618</ele></trkpt>
   <trkpt lat="41.1224750874" lon="70.193074618"><ele>2043.29</ele></trkpt>
   <trkpt lat="41.122537784" lon="70.1930572675"><ele>2049.889</ele></trkpt>
   <trkpt lat="41.1226452819" lon="70.1930780546"><ele>2054.255</ele></trkpt>
   <trkpt lat="41.1227317832" lon="70.1930414257"><ele>2057.475</ele></trkpt>
   <trkpt lat="41.1227384887" lon="70.1930283499"><ele>2058.171</ele></trkpt>
   <trkpt lat="41.122721683" lon="70.1930265897"><ele>2058.253</ele></trkpt>
   <trkpt lat="41.1227468706" lon="70.1930172858"><ele>2056.912</ele></trkpt>
   <trkpt lat="41.1227865589" lon="70.19309222"><ele>2063.108</ele></trkpt>
   <trkpt lat="41.1227968687" lon="70.1931677409"><ele>2061.287</ele></trkpt>
   <trkpt lat="41.1228643849" lon="70.1932350476"><ele>2064.713</ele></trkpt>
   <trkpt lat="41.1228996727" lon="70.1932248217"><ele>2067.634</ele></trkpt>
   <trkpt lat="41.1229072583" lon="70.1931972452"><ele>2072.361</ele></trkpt>
   <trkpt lat="41.1229602739" lon="70.1931571797"><ele>2074.182</ele></trkpt>
   <trkpt lat="41.1229942625" lon="70.1931507257"><ele>2072.829</ele></trkpt>
   <trkpt lat="41.1230213779" lon="70.1931089838"><ele>2077.034</ele></trkpt>
   <trkpt lat="41.1231262774" lon="70.1930661523"><ele>2079.51</ele></trkpt>
   <trkpt lat="41.1231472741" lon="70.1931063854"><ele>2083.568</ele></trkpt>
   <trkpt lat="41.1232208672" lon="70.1931206346"><ele>2087.84</ele></trkpt>
   <trkpt lat="41.1232480665" lon="70.19314687"><ele>2088.888</ele></trkpt>
   <trkpt lat="41.1233153732" lon="70.1931322855"><ele>2090.176</ele></trkpt>
   <trkpt lat="41.1233210729" lon="70.1931122527"><ele>2092.126</ele></trkpt>
   <trkpt lat="41.1233567798" lon="70.193093142"><ele>2096.847</ele></trkpt>
   <trkpt lat="41.1234090829" lon="70.1931035356"><ele>2097.754</ele></trkpt>
   <trkpt lat="41.1234403893" lon="70.1931699202"><ele>2103.046</ele></trkpt>
   <trkpt lat="41.1234485616" lon="70.1932903682"><ele>2102.817</ele></trkpt>
   <trkpt lat="41.1234692649" lon="70.1933116582"><ele>2104.375</ele></trkpt>
   <trkpt lat="41.1235712727" lon="70.1932243188"><ele>2106.185</ele></trkpt>
   <trkpt lat="41.1236624678" lon="70.1932168589"><ele>2113.165</ele></trkpt>
   <trkpt lat="41.1236689638" lon="70.193331691"><ele>2118.575</ele></trkpt>
   <trkpt lat="41.1236978813" lon="70.1934132469"><ele>2115.621</ele></trkpt>
   <trkpt lat="41.1238008949" lon="70.19334418"><ele>2121.154</ele></trkpt>
   <trkpt lat="41.1239072613" lon="70.193316855"><ele>2124.941</ele></trkpt>
   <trkpt lat="41.1239265816" lon="70.1933542383"><ele>2128.76</ele></trkpt>
   <trkpt lat="41.1239243604" lon="70.1933901966"><ele>2126.957</ele></trkpt>
   <trkpt lat="41.1238912937" lon="70.1935679768"><ele>2132.652</ele></trkpt>
   <trkpt lat="41.1239191636" lon="70.1936757681"><ele>2135.615</ele></trkpt>
   <trkpt lat="41.1239368913" lon="70.1936839824"><ele>2138.979</ele></trkpt>
   <trkpt lat="41.124081563" lon="70.1935992413"><ele>2143.589</ele></trkpt>
   <trkpt lat="41.124145475" lon="70.1936046896"><ele>2144.782</ele></trkpt>
   <trkpt lat="41.1241242687" lon="70.193816165"><ele>2151.629</ele></trkpt>
   <trkpt lat="41.1241436729" lon="70.1939755888"><ele>2149.276</ele></trkpt>
   <trkpt lat="41.1242117758" lon="70.1941954461"><ele>2155.535</ele></trkpt>
   <trkpt lat="41.1242705749" lon="70.1942124614"><ele>2160.493</ele></trkpt>
   <trkpt lat="41.1243239676" lon="70.1941194222"><ele>2159.662</ele></trkpt>
   <trkpt lat="41.1243782823" lon="70.1941152313"><ele>2164.25</ele></trkpt>
   <trkpt lat="41.124401584" lon="70.1941413828"><ele>2168.155</ele></trkpt>
   <trkpt lat="41.1243974769" lon="70.1942404569"><ele>2169.599</ele></trkpt>
   <trkpt lat="41.1244144921" lon="70.1942710509"><ele>2166.515</ele></trkpt>
   <trkpt lat="41.1244851935" lon="70.1942523592"><ele>2170.982</ele></trkpt>
   <trkpt lat="41.1245438668" lon="70.1943240245"><ele>2175.927</ele></trkpt>
   <trkpt lat="41.1246388757" lon="70.1942979568"><ele>2179.12</ele></trkpt>
   <trkpt lat="41.1246833836" lon="70.1942504314"><ele>2181.19</ele></trkpt>
   <trkpt lat="41.124681791" lon="70.1942676981"><ele>2182.003</ele></trkpt>
   <trkpt lat="41.1247210603" lon="70.1942666923"><ele>2183.833</ele></trkpt>
   <trkpt lat="41.1247721899" lon="70.1942972862"><ele>2184.916</ele></trkpt>
   <trkpt lat="41.124844861" lon="70.1942983759"><ele>2187.872</ele></trkpt>
   <trkpt lat="41.1250355912" lon="70.1944656786"><ele>2204.07</ele></trkpt>
   <trkpt lat="41.1250584738" lon="70.194408095"><ele>2202.264</ele></trkpt>
   <trkpt lat="41.1250326994" lon="70.1945125335"><ele>2203.137</ele></trkpt>
   <trkpt lat="41.1251017663" lon="70.1945638307"><ele>2206.243</ele></trkpt>
   <trkpt lat="41.1251388981" lon="70.1946715382"><ele>2209.081</ele></trkpt>
   <trkpt lat="41.1252321887" lon="70.1946763997"><ele>2215.288</ele></trkpt>
   <trkpt lat="41.1253194862" lon="70.1946497452"><ele>2219.478</ele></trkpt>
   <trkpt lat="41.125409466" lon="70.1947452989"><ele>2227.012</ele></trkpt>
   <trkpt lat="41.1254854898" lon="70.1947164652"><ele>2229.002</ele></trkpt>
   <trkpt lat="41.1255323866" lon="70.1948403497"><ele>2232.966</ele></trkpt>
   <trkpt lat="41.1256083685" lon="70.1949197263"><ele>2237.106</ele></trkpt>
   <trkpt lat="41.1256424829" lon="70.1950453711"><ele>2240.546</ele></trkpt>
   <trkpt lat="41.1256991864" lon="70.1950689242"><ele>2244.321</ele></trkpt>
   <trkpt lat="41.1257673732" lon="70.1951642265"><ele>2248.008</ele></trkpt>
   <trkpt lat="41.1258104981" lon="70.1951891207"><ele>2249.611</ele></trkpt>
   <trkpt lat="41.1258331712" lon="70.1951862709"><ele>2249.467</ele></trkpt>
   <trkpt lat="41.1259139727" lon="70.1950602909"><ele>2254.247</ele></trkpt>
   <trkpt lat="41.125943477" lon="70.1950511546"><ele>2255.588</ele></trkpt>
   <trkpt lat="41.1260009769" lon="70.1951980893"><ele>2258.897</ele></trkpt>
   <trkpt lat="41.1260655594" lon="70.1952552539"><ele>2260.296</ele></trkpt>
   <trkpt lat="41.1260880648" lon="70.1953105745"><ele>2261.614</ele></trkpt>
   <trkpt lat="41.1261766616" lon="70.1954305195"><ele>2266.63</ele></trkpt>
   <trkpt lat="41.1262433815" lon="70.1954744407"><ele>2270.266</ele></trkpt>
   <trkpt lat="41.1262636657" lon="70.1955068787"><ele>2269.772</ele></trkpt>
   <trkpt lat="41.1262815611" lon="70.1955069625"><ele>2270.31</ele></trkpt>
   <trkpt lat="41.1263451797" lon="70.1954138395"><ele>2273.658</ele></trkpt>
   <trkpt lat="41.1263678947" lon="70.1954137557"><ele>2274.144</ele></trkpt>
   <trkpt lat="41.1263708703" lon="70.1954439306"><ele>2275.622</ele></trkpt>
   <trkpt lat="41.1264735905" lon="70.195513668"><ele>2279.722</ele></trkpt>
   <trkpt lat="41.1265125663" lon="70.1956083835"><ele>2282.2</ele></trkpt>
   <trkpt lat="41.1265292882" lon="70.1956156758"><ele>2283.621</ele></trkpt>
   <trkpt lat="41.1266494847" lon="70.1955034421"><ele>2288.71</ele></trkpt>
   <trkpt lat="41.1267278974" lon="70.1954828226"><ele>2287.615</ele></trkpt>
   <trkpt lat="41.1267579885" lon="70.1954950602"><ele>2290.178</ele></trkpt>
   <trkpt lat="41.1268457889" lon="70.1954829902"><ele>2298.228</ele></trkpt>
   <trkpt lat="41.1268632652" lon="70.1955025201"><ele>2296.41</ele></trkpt>
   <trkpt lat="41.1268808672" lon="70.195653059"><ele>2300.294</ele></trkpt>
   <trkpt lat="41.126920765" lon="70.1956973993"><ele>2299.61</ele></trkpt>
   <trkpt lat="41.127107891" lon="70.1956499577"><ele>2306.297</ele></trkpt>
   <trkpt lat="41.1272264949" lon="70.1956587587"><ele>2309.506</ele></trkpt>
   <trkpt lat="41.1272953942" lon="70.1957103913"><ele>2310.939</ele></trkpt>
   <trkpt lat="41.127284372" lon="70.1957118162"><ele>2310.726</ele></trkpt>
   <trkpt lat="41.1274099748" lon="70.1957247243"><ele>2313.45</ele></trkpt>
   <trkpt lat="41.1274939615" lon="70.195688766"><ele>2316.427</ele></trkpt>
   <trkpt lat="41.1275555684" lon="70.1956380554"><ele>2319.768</ele></trkpt>
   <trkpt lat="41.1276367891" lon="70.195622046"><ele>2322.918</ele></trkpt>
   <trkpt lat="41.1277152856" lon="70.1956324396"><ele>2322.509</ele></trkpt>
   <trkpt lat="41.1277623919" lon="70.1956101437"><ele>2328.052</ele></trkpt>
   <trkpt lat="41.1278721948" lon="70.195617436"><ele>2329.771</ele></trkpt>
   <trkpt lat="41.1279365679" lon="70.1955909491"><ele>2330.26</ele></trkpt>
   <trkpt lat="41.1280114602" lon="70.195606288"><ele>2335.381</ele></trkpt>
   <trkpt lat="41.1280798984" lon="70.1955834893"><ele>2338.576</ele></trkpt>
   <trkpt lat="41.1281275914" lon="70.1955427532"><ele>2338.512</ele></trkpt>
   <trkpt lat="41.1281823672" lon="70.1955681504"><ele>2339.842</ele></trkpt>
   <trkpt lat="41.1282268751" lon="70.1955473633"><ele>2342.748</ele></trkpt>
   <trkpt lat="41.1282406633" lon="70.195579885"><ele>2343.744</ele></trkpt>
   <trkpt lat="41.1282266655" lon="70.1956011751"><ele>2343.151</ele></trkpt>
   <trkpt lat="41.128414965" lon="70.1954846666"><ele>2351.686</ele></trkpt>
   <trkpt lat="41.1285206608" lon="70.1954788831"><ele>2357.03</ele></trkpt>
   <trkpt lat="41.128703973" lon="70.1953978301"><ele>2361.605</ele></trkpt>
   <trkpt lat="41.1288550987" lon="70.1954189525"><ele>2369.474</ele></trkpt>
   <trkpt lat="41.1289601659" lon="70.1953671523"><ele>2370.439</ele></trkpt>
   <trkpt lat="41.1290501875" lon="70.1954087266"><ele>2377.321</ele></trkpt>
   <trkpt lat="41.1293265808" lon="70.1954186172"><ele>2380.991</ele></trkpt>
   <trkpt lat="41.1294120762" lon="70.1954013505"><ele>2384.758</ele></trkpt>
   <trkpt lat="41.1294127886" lon="70.195368242"><ele>2386.018</ele></trkpt>
   <trkpt lat="41.1293924625" lon="70.1953458623"><ele>2384.983</ele></trkpt>
   <trkpt lat="41.1294080948" lon="70.1953803957"><ele>2386.485</ele></trkpt>
   <trkpt lat="41.129547863" lon="70.1953776297"><ele>2387.869</ele></trkpt>
   <trkpt lat="41.1295818935" lon="70.1953989197"><ele>2391.53</ele></trkpt>
   <trkpt lat="41.1299253839" lon="70.1953526516"><ele>2403.04</ele></trkpt>
   <trkpt lat="41.1299990609" lon="70.195380731"><ele>2407.613</ele></trkpt>
   <trkpt lat="41.1300399646" lon="70.1954175276"><ele>2410.385</ele></trkpt>
   <trkpt lat="41.1302033698" lon="70.1954102353"><ele>2419.069</ele></trkpt>
   <trkpt lat="41.1302585646" lon="70.1954459422"><ele>2424.814</ele></trkpt>
   <trkpt lat="41.1303598599" lon="70.195374277"><ele>2424.631</ele></trkpt>
   <trkpt lat="41.1304040744" lon="70.1953753666"><ele>2428.894</ele></trkpt>
   <trkpt lat="41.1305596845" lon="70.1953086466"><ele>2429.238</ele></trkpt>
   <trkpt lat="41.1305795915" lon="70.1953268354"><ele>2430.482</ele></trkpt>
   <trkpt lat="41.1305826928" lon="70.1953138434"><ele>2430.371</ele></trkpt>
   <trkpt lat="41.1306678948" lon="70.1953380671"><ele>2432.281</ele></trkpt>
   <trkpt lat="41.1307044818" lon="70.1953167771"><ele>2437.489</ele></trkpt>
   <trkpt lat="41.1307306753" lon="70.1953395759"><ele>2436.614</ele></trkpt>
   <trkpt lat="41.1307675976" lon="70.1954343752"><ele>2442.316</ele></trkpt>
   <trkpt lat="41.1307534741" lon="70.1955474471"><ele>2444.213</ele></trkpt>
   <trkpt lat="41.1307704893" lon="70.1955663902"><ele>2446.685</ele></trkpt>
   <trkpt lat="41.1307806733" lon="70.1955512189"><ele>2447.726</ele></trkpt>
   <trkpt lat="41.1307853672" lon="70.1955647976"><ele>2447.734</ele></trkpt>
   <trkpt lat="41.1307684777" lon="70.1955586788"><ele>2448.012</ele></trkpt>
   <trkpt lat="41.1309087907" lon="70.1956087188"><ele>2454.607</ele></trkpt>
   <trkpt lat="41.1309571962" lon="70.1956000854"><ele>2453.603</ele></trkpt>
   <trkpt lat="41.1311123872" lon="70.1956248959"><ele>2452.459</ele></trkpt>
   <trkpt lat="41.1312412589" lon="70.1956911967"><ele>2462.764</ele></trkpt>
   <trkpt lat="41.1313928875" lon="70.1957344473"><ele>2469.758</ele></trkpt>
   <trkpt lat="41.1313986711" lon="70.1957065356"><ele>2467.788</ele></trkpt>
   <trkpt lat="41.1315477851" lon="70.1957339444"><ele>2473.706</ele></trkpt>
   <trkpt lat="41.1316873857" lon="70.1957034343"><ele>2475.243</ele></trkpt>
   <trkpt lat="41.1317896868" lon="70.1957339444"><ele>2476.744</ele></trkpt>
   <trkpt lat="41.1321460854" lon="70.195757749"><ele>2485.628</ele></trkpt>
   <trkpt lat="41.1322676649" lon="70.1956589264"><ele>2483.813</ele></trkpt>
   <trkpt lat="41.1323232788" lon="70.1956813899"><ele>2488.171</ele></trkpt>
   <trkpt lat="41.1324620831" lon="70.1956205373"><ele>2485.314</ele></trkpt>
   <trkpt lat="41.1324896596" lon="70.1956293383"><ele>2484.03</ele></trkpt>
   <trkpt lat="41.1325631689" lon="70.1955794659"><ele>2487.417</ele></trkpt>
   <trkpt lat="41.1326647994" lon="70.1955833216"><ele>2489.917</ele></trkpt>
   <trkpt lat="41.1326854608" lon="70.1955597685"><ele>2490.868</ele></trkpt>
   <trkpt lat="41.1327476965" lon="70.1955508837"><ele>2491.252</ele></trkpt>
   <trkpt lat="41.1328106865" lon="70.1955759455"><ele>2497.138</ele></trkpt>
   <trkpt lat="41.1327964791" lon="70.1955797174"><ele>2496.2</ele></trkpt>
   <trkpt lat="41.132864163" lon="70.195555829"><ele>2499.931</ele></trkpt>
   <trkpt lat="41.1328796695" lon="70.1955774543"><ele>2498.999</ele></trkpt>
   <trkpt lat="41.1328565774" lon="70.1955543202"><ele>2498.17</ele></trkpt>
   <trkpt lat="41.1328754786" lon="70.1955542364"><ele>2499.427</ele></trkpt>
   <trkpt lat="41.1329112693" lon="70.1955986605"><ele>2501.305</ele></trkpt>
   <trkpt lat="41.1329358702" lon="70.1955964812"><ele>2502.195</ele></trkpt>
   <trkpt lat="41.1328644983" lon="70.1956897718"><ele>2505.611</ele></trkpt>
   <trkpt lat="41.1328880933" lon="70.1957184379"><ele>2506.794</ele></trkpt>
   <trkpt lat="41.1329463895" lon="70.1956849941"><ele>2508.459</ele></trkpt>
   <trkpt lat="41.1329415699" lon="70.1957351179"><ele>2509.408</ele></trkpt>
   <trkpt lat="41.1329597586" lon="70.195746182"><ele>2510.873</ele></trkpt>
   <trkpt lat="41.1330527977" lon="70.1957090502"><ele>2513.514</ele></trkpt>
   <trkpt lat="41.1331170869" lon="70.1957088825"><ele>2515.451</ele></trkpt>
   <trkpt lat="41.1331461721" lon="70.1956775342"><ele>2516.293</ele></trkpt>
   <trkpt lat="41.1332312904" lon="70.1956348703"><ele>2519.584</ele></trkpt>
   <trkpt lat="41.1332243753" lon="70.1956446771"><ele>2518.98</ele></trkpt>
   <trkpt lat="41.1332444919" lon="70.1956427493"><ele>2521.342</ele></trkpt>
   <trkpt lat="41.1332739962" lon="70.1956100599"><ele>2521.392</ele></trkpt>
   <trkpt lat="41.1333164924" lon="70.1955184457"><ele>2519.609</ele></trkpt>
   <trkpt lat="41.1333257963" lon="70.1954449364"><ele>2519.784</ele></trkpt>
   <trkpt lat="41.1333691727" lon="70.1953727682"><ele>2522.895</ele></trkpt>
   <trkpt lat="41.1333687955" lon="70.1952691679"><ele>2525.861</ele></trkpt>
   <trkpt lat="41.1334175782" lon="70.1951955748"><ele>2529.403</ele></trkpt>
   <trkpt lat="41.1334093639" lon="70.195162131"><ele>2526.756</ele></trkpt>
   <trkpt lat="41.133433378" lon="70.1951462892"><ele>2531.922</ele></trkpt>
   <trkpt lat="41.1334474596" lon="70.1950198901"><ele>2526.333</ele></trkpt>
   <trkpt lat="41.1335290994" lon="70.1947964285"><ele>2538.747</ele></trkpt>
   <trkpt lat="41.1336264971" lon="70.1945925807"><ele>2543.09</ele></trkpt>
   <trkpt lat="41.1336812728" lon="70.1945206639"><ele>2545.985</ele></trkpt>
   <trkpt lat="41.1337774971" lon="70.1944834483"><ele>2546.413</ele></trkpt>
   <trkpt lat="41.1338894793" lon="70.194527118"><ele>2550.006</ele></trkpt>
   <trkpt lat="41.1339344901" lon="70.1945087616"><ele>2550.988</ele></trkpt>
   <trkpt lat="41.1339940855" lon="70.1945415349"><ele>2555.044</ele></trkpt>
   <trkpt lat="41.1341507851" lon="70.1945100189"><ele>2557.977</ele></trkpt>
   <trkpt lat="41.1342091651" lon="70.1945129526"><ele>2559.101</ele></trkpt>
   <trkpt lat="41.1342611748" lon="70.1945566223"><ele>2563.592</ele></trkpt>
   <trkpt lat="41.1344958681" lon="70.1945341588"><ele>2566.971</ele></trkpt>
   <trkpt lat="41.1346040785" lon="70.1944716298"><ele>2569.542</ele></trkpt>
   <trkpt lat="41.1346619974" lon="70.1944707916"><ele>2568.298</ele></trkpt>
   <trkpt lat="41.1346863888" lon="70.1944413711"><ele>2568.743</ele></trkpt>
   <trkpt lat="41.1346837904" lon="70.1944103581"><ele>2570.006</ele></trkpt>
   <trkpt lat="41.1347092714" lon="70.1943882299"><ele>2568.156</ele></trkpt>
   <trkpt lat="41.1348102733" lon="70.1943790936"><ele>2567.922</ele></trkpt>
   <trkpt lat="41.1348760712" lon="70.1943265391"><ele>2571.067</ele></trkpt>
   <trkpt lat="41.1349262788" lon="70.1943183248"><ele>2574.429</ele></trkpt>
   <trkpt lat="41.1349659671" lon="70.194369622"><ele>2575.845</ele></trkpt>
   <trkpt lat="41.1350036857" lon="70.1943655987"><ele>2576.151</ele></trkpt>
   <trkpt lat="41.1349878858" lon="70.1944311452"><ele>2579.332</ele></trkpt>
   <trkpt lat="41.1350347826" lon="70.1944989548"><ele>2582.461</ele></trkpt>
   <trkpt lat="41.1349940884" lon="70.1945731346"><ele>2585.039</ele></trkpt>
   <trkpt lat="41.1350596768" lon="70.1946267788"><ele>2587.281</ele></trkpt>
   <trkpt lat="41.1351002871" lon="70.1947282837"><ele>2591.424</ele></trkpt>
   <trkpt lat="41.1350457629" lon="70.1947504957"><ele>2593.381</ele></trkpt>
   <trkpt lat="41.1350334834" lon="70.1947759767"><ele>2593.812</ele></trkpt>
   <trkpt lat="41.1350556954" lon="70.1947685168"><ele>2594.573</ele></trkpt>
   <trkpt lat="41.1351046876" lon="70.1948145335"><ele>2595.501</ele></trkpt>
   <trkpt lat="41.1351559849" lon="70.1949233306"><ele>2604.345</ele></trkpt>
   <trkpt lat="41.1351476868" lon="70.1949612168"><ele>2602.631</ele></trkpt>
   <trkpt lat="41.1351080823" lon="70.195015783"><ele>2604.949</ele></trkpt>
   <trkpt lat="41.1351286599" lon="70.1950570219"><ele>2606.505</ele></trkpt>
   <trkpt lat="41.1351817592" lon="70.1950913877"><ele>2607.933</ele></trkpt>
   <trkpt lat="41.135230961" lon="70.1952323713"><ele>2615.333</ele></trkpt>
   <trkpt lat="41.1352229982" lon="70.1952566788"><ele>2619.556</ele></trkpt>
   <trkpt lat="41.1351608883" lon="70.1952520688"><ele>2614.066</ele></trkpt>
   <trkpt lat="41.1351458847" lon="70.1952769631"><ele>2617.827</ele></trkpt>
   <trkpt lat="41.1351511653" lon="70.1953005162"><ele>2620.086</ele></trkpt>
   <trkpt lat="41.1351207809" lon="70.1953479578"><ele>2619.131</ele></trkpt>
   <trkpt lat="41.1350204914" lon="70.1953891967"><ele>2625.027</ele></trkpt>
   <trkpt lat="41.1349629916" lon="70.1954416675"><ele>2626.339</ele></trkpt>
   <trkpt lat="41.1348612772" lon="70.1955891889"><ele>2629.892</ele></trkpt>
   <trkpt lat="41.1348242711" lon="70.195668817"><ele>2628.298</ele></trkpt>
   <trkpt lat="41.1348211698" lon="70.1957077929"><ele>2631.701</ele></trkpt>
   <trkpt lat="41.13485256" lon="70.1957718306"><ele>2631.898</ele></trkpt>
   <trkpt lat="41.1349135802" lon="70.1957961381"><ele>2637.159</ele></trkpt>
   <trkpt lat="41.1350316813" lon="70.1957775303"><ele>2639.479</ele></trkpt>
   <trkpt lat="41.1350440865" lon="70.1958602597"><ele>2644.943</ele></trkpt>
   <trkpt lat="41.1350696932" lon="70.1959033427"><ele>2641.871</ele></trkpt>
   <trkpt lat="41.13507116" lon="70.1959724934"><ele>2649.216</ele></trkpt>
   <trkpt lat="41.1351584995" lon="70.1960222819"><ele>2649.934</ele></trkpt>
   <trkpt lat="41.1352197712" lon="70.1960831345"><ele>2655.358</ele></trkpt>
   <trkpt lat="41.1352440787" lon="70.1961220265"><ele>2654.144</ele></trkpt>
   <trkpt lat="41.1352398877" lon="70.1962018223"><ele>2658.077</ele></trkpt>
   <trkpt lat="41.1353081583" lon="70.1962699671"><ele>2661.188</ele></trkpt>
   <trkpt lat="41.1353089965" lon="70.1962462463"><ele>2661.255</ele></trkpt>
   <trkpt lat="41.1353026682" lon="70.196259825"><ele>2660.683</ele></trkpt>
   <trkpt lat="41.1353651972" lon="70.1963172411"><ele>2662.878</ele></trkpt>
   <trkpt lat="41.1354014908" lon="70.1963914209"><ele>2667.321</ele></trkpt>
   <trkpt lat="41.1354023709" lon="70.1964184944"><ele>2670.167</ele></trkpt>
   <trkpt lat="41.1353233715" lon="70.1964880642"><ele>2672.23</ele></trkpt>
   <trkpt lat="41.1352597948" lon="70.1964962785"><ele>2675.463</ele></trkpt>
   <trkpt lat="41.13522216" lon="70.1965897367"><ele>2676.763</ele></trkpt>
   <trkpt lat="41.1352262671" lon="70.1966188219"><ele>2675.819</ele></trkpt>
   <trkpt lat="41.1352583698" lon="70.1967418683"><ele>2678.205</ele></trkpt>
   <trkpt lat="41.1352813782" lon="70.1967504178"><ele>2681.874</ele></trkpt>
   <trkpt lat="41.1353083679" lon="70.1967292954"><ele>2681.848</ele></trkpt>
   <trkpt lat="41.1353132713" lon="70.1967888907"><ele>2683.324</ele></trkpt>
   <trkpt lat="41.1353714836" lon="70.1967889746"><ele>2689.1</ele></trkpt>
   <trkpt lat="41.1353793626" lon="70.1968397689"><ele>2687.247</ele></trkpt>
   <trkpt lat="41.1353599585" lon="70.19685779"><ele>2688.032</ele></trkpt>
   <trkpt lat="41.1353575697" lon="70.1968975202"><ele>2689.164</ele></trkpt>
   <trkpt lat="41.135414399" lon="70.1968904794"><ele>2691.686</ele></trkpt>
   <trkpt lat="41.135439377" lon="70.196951332"><ele>2692.708</ele></trkpt>
   <trkpt lat="41.1354476751" lon="70.1969882962"><ele>2694.652</ele></trkpt>
   <trkpt lat="41.1354160753" lon="70.1970894658"><ele>2696.954</ele></trkpt>
   <trkpt lat="41.1354350603" lon="70.1971391705"><ele>2701.809</ele></trkpt>
   <trkpt lat="41.1354192605" lon="70.1972684194"><ele>2702.36</ele></trkpt>
   <trkpt lat="41.1354723598" lon="70.1973309484"><ele>2708.01</ele></trkpt>
   <trkpt lat="41.1354971702" lon="70.197332541"><ele>2709.907</ele></trkpt>
   <trkpt lat="41.1355263812" lon="70.1973880292"><ele>2711.397</ele></trkpt>
   <trkpt lat="41.1355894969" lon="70.1974060503"><ele>2711.822</ele></trkpt>
   <trkpt lat="41.1355936879" lon="70.1974332915"><ele>2713.835</ele></trkpt>
   <trkpt lat="41.1355701766" lon="70.197486768"><ele>2713.988</ele></trkpt>
   <trkpt lat="41.1356463681" lon="70.1975426753"><ele>2717.341</ele></trkpt>
   <trkpt lat="41.1356463681" lon="70.1975890272"><ele>2722.128</ele></trkpt>
   <trkpt lat="41.1355758763" lon="70.1976411627"><ele>2723.892</ele></trkpt>
   <trkpt lat="41.1355891616" lon="70.1977208746"><ele>2725.213</ele></trkpt>
   <trkpt lat="41.1355627586" lon="70.1978069567"><ele>2727.868</ele></trkpt>
   <trkpt lat="41.1355710986" lon="70.1978547336"><ele>2724.76</ele></trkpt>
   <trkpt lat="41.1356356812" lon="70.1978807175"><ele>2729.525</ele></trkpt>
   <trkpt lat="41.1356500981" lon="70.1979082939"><ele>2729.32</ele></trkpt>
   <trkpt lat="41.1357034908" lon="70.1978975651"><ele>2730.537</ele></trkpt>
   <trkpt lat="41.1358199992" lon="70.1979361218"><ele>2734.053</ele></trkpt>
   <trkpt lat="41.1358944725" lon="70.1979346969"><ele>2735.655</ele></trkpt>
   <trkpt lat="41.1359092665" lon="70.197997645"><ele>2737.579</ele></trkpt>
   <trkpt lat="41.1359713764" lon="70.1980200247"><ele>2739.535</ele></trkpt>
   <trkpt lat="41.1360052812" lon="70.1980683883"><ele>2740.313</ele></trkpt>
   <trkpt lat="41.1360008807" lon="70.1980244671"><ele>2740.769</ele></trkpt>
   <trkpt lat="41.1360136631" lon="70.1980270655"><ele>2740.592</ele></trkpt>
   <trkpt lat="41.1360091788" lon="70.1980445837"><ele>2740.778</ele></trkpt>
   <trkpt lat="41.1360157586" lon="70.1980270655"><ele>2740.015</ele></trkpt>
   <trkpt lat="41.1360006712" lon="70.1980347768"><ele>2742.389</ele></trkpt>
   <trkpt lat="41.1359810994" lon="70.197975433"><ele>2741.157</ele></trkpt>
   <trkpt lat="41.1359865896" lon="70.1980288257"><ele>2740.996</ele></trkpt>
   <trkpt lat="41.135972969" lon="70.1979971421"><ele>2741.414</ele></trkpt>
   <trkpt lat="41.1359839912" lon="70.198006446"><ele>2741.174</ele></trkpt>
   <trkpt lat="41.1359697839" lon="70.1980225393"><ele>2741.076</ele></trkpt>
   <trkpt lat="41.1359821891" lon="70.1980486908"><ele>2740.937</ele></trkpt>
   <trkpt lat="41.1359582587" lon="70.1980320946"><ele>2740.755</ele></trkpt>
   <trkpt lat="41.1359686942" lon="70.1980314241"><ele>2740.728</ele></trkpt>
   <trkpt lat="41.1359710831" lon="70.1979884249"><ele>2741.112</ele></trkpt>
   <trkpt lat="41.1359713764" lon="70.1980377943"><ele>2741.032</ele></trkpt>
   <trkpt lat="41.1359714602" lon="70.1980221202"><ele>2741.022</ele></trkpt>
   <trkpt lat="41.1359830692" lon="70.1980485232"><ele>2740.938</ele></trkpt>
   <trkpt lat="41.1359674788" lon="70.1980487746"><ele>2741.173</ele></trkpt>
   <trkpt lat="41.1360247691" lon="70.1980450866"><ele>2741.192</ele></trkpt>
   <trkpt lat="41.1360305946" lon="70.1980242995"><ele>2741.621</ele></trkpt>
   <trkpt lat="41.1360255654" lon="70.1980545581"><ele>2741.468</ele></trkpt>
   <trkpt lat="41.1360259845" lon="70.1980364532"><ele>2741.743</ele></trkpt>
   <trkpt lat="41.1360408624" lon="70.1980383811"><ele>2741.646</ele></trkpt>
   <trkpt lat="41.1360177703" lon="70.1980323461"><ele>2741.163</ele></trkpt>
   <trkpt lat="41.1360186923" lon="70.1980528817"><ele>2741.347</ele></trkpt>
   <trkpt lat="41.1360216678" lon="70.1979928673"><ele>2740.386</ele></trkpt>
   <trkpt lat="41.1360140822" lon="70.1980141574"><ele>2740.427</ele></trkpt>
   <trkpt lat="41.1360471907" lon="70.1980186836"><ele>2740.726</ele></trkpt>
   <trkpt lat="41.1359969831" lon="70.1980197732"><ele>2740.684</ele></trkpt>
   <trkpt lat="41.1359904872" lon="70.1980445837"><ele>2740.474</ele></trkpt>
   <trkpt lat="41.1360065804" lon="70.1980351959"><ele>2740.744</ele></trkpt>
   <trkpt lat="41.1360115676" lon="70.1980584976"><ele>2740.715</ele></trkpt>
   <trkpt lat="41.1360511721" lon="70.1980724954"><ele>2740.368</ele></trkpt>
   <trkpt lat="41.1360912795" lon="70.1981220324"><ele>2739.067</ele></trkpt>
   <trkpt lat="41.1361881743" lon="70.1981628523"><ele>2738.112</ele></trkpt>
   <trkpt lat="41.1362581632" lon="70.1982174185"><ele>2738.826</ele></trkpt>
   <trkpt lat="41.1363694749" lon="70.1981865731"><ele>2740.832</ele></trkpt>
   <trkpt lat="41.1364227838" lon="70.1981907641"><ele>2741.39</ele></trkpt>
   <trkpt lat="41.1365002745" lon="70.1982535445"><ele>2741.925</ele></trkpt>
   <trkpt lat="41.1365276833" lon="70.1983531215"><ele>2742.452</ele></trkpt>
   <trkpt lat="41.1366294815" lon="70.1983858948"><ele>2744.412</ele></trkpt>
   <trkpt lat="41.1366876939" lon="70.1983703882"><ele>2745.655</ele></trkpt>
   <trkpt lat="41.1367836667" lon="70.1983907563"><ele>2748.563</ele></trkpt>
   <trkpt lat="41.1368576789" lon="70.1983698853"><ele>2749.131</ele></trkpt>
   <trkpt lat="41.1370254846" lon="70.1983945281"><ele>2750.802</ele></trkpt>
   <trkpt lat="41.1370732614" lon="70.1983373635"><ele>2749.038</ele></trkpt>
   <trkpt lat="41.1371321862" lon="70.1983039197"><ele>2747.589</ele></trkpt>
   <trkpt lat="41.1373342739" lon="70.1982887485"><ele>2747.38</ele></trkpt>
   <trkpt lat="41.1374761795" lon="70.1981634391"><ele>2751.415</ele></trkpt>
   <trkpt lat="41.137552371" lon="70.1981836394"><ele>2753.234</ele></trkpt>
   <trkpt lat="41.1375888742" lon="70.1981253852"><ele>2751.9</ele></trkpt>
   <trkpt lat="41.1376848889" lon="70.1981237926"><ele>2754.159</ele></trkpt>
   <trkpt lat="41.1376951986" lon="70.1980756805"><ele>2754.643</ele></trkpt>
   <trkpt lat="41.1377258764" lon="70.1980597549"><ele>2755.132</ele></trkpt>
   <trkpt lat="41.1378454862" lon="70.1981220324"><ele>2760.079</ele></trkpt>
   <trkpt lat="41.1379253657" lon="70.1980618504"><ele>2760.766</ele></trkpt>
   <trkpt lat="41.138006293" lon="70.1979580824"><ele>2761.269</ele></trkpt>
   <trkpt lat="41.1381005894" lon="70.197916592"><ele>2763.216</ele></trkpt>
   <trkpt lat="41.1381504617" lon="70.1978703239"><ele>2762.531</ele></trkpt>
   <trkpt lat="41.1383153756" lon="70.1978646242"><ele>2764.543</ele></trkpt>
   <trkpt lat="41.1383937883" lon="70.1978250616"><ele>2766.283</ele></trkpt>
   <trkpt lat="41.1384706923" lon="70.1978935418"><ele>2767.176</ele></trkpt>
   <trkpt lat="41.1384947903" lon="70.1977425837"><ele>2769.218</ele></trkpt>
   <trkpt lat="41.1385134819" lon="70.1977121574"><ele>2770.148</ele></trkpt>
   <trkpt lat="41.1385315868" lon="70.1977347885"><ele>2771.391</ele></trkpt>
   <trkpt lat="41.1385489793" lon="70.1977288374"><ele>2772.077</ele></trkpt>
   <trkpt lat="41.1385579898" lon="70.1976810605"><ele>2772.52</ele></trkpt>
   <trkpt lat="41.1385881647" lon="70.1976333675"><ele>2773.921</ele></trkpt>
   <trkpt lat="41.1386359834" lon="70.1976980758"><ele>2775.948</ele></trkpt>
   <trkpt lat="41.1387356862" lon="70.1976583456"><ele>2774.658</ele></trkpt>
   <trkpt lat="41.1387984666" lon="70.1976705831"><ele>2772.5</ele></trkpt>
   <trkpt lat="41.1388593612" lon="70.1976300986"><ele>2773.904</ele></trkpt>
   <trkpt lat="41.1389016898" lon="70.1976274163"><ele>2773.012</ele></trkpt>
   <trkpt lat="41.138955292" lon="70.1976542384"><ele>2772.388</ele></trkpt>
   <trkpt lat="41.1390147616" lon="70.1976207946"><ele>2773.227</ele></trkpt>
   <trkpt lat="41.1390633767" lon="70.1975197927"><ele>2777.005</ele></trkpt>
   <trkpt lat="41.1391733892" lon="70.1974658971"><ele>2780.353</ele></trkpt>
   <trkpt lat="41.139218861" lon="70.197461287"><ele>2781.253</ele></trkpt>
   <trkpt lat="41.1392287935" lon="70.197480733"><ele>2781.374</ele></trkpt>
   <trkpt lat="41.1393271971" lon="70.1975061302"><ele>2782.582</ele></trkpt>
   <trkpt lat="41.1393722917" lon="70.1974887797"><ele>2783.677</ele></trkpt>
   <trkpt lat="41.1393562823" lon="70.1974885282"><ele>2783.508</ele></trkpt>
   <trkpt lat="41.1393468946" lon="70.1975111593"><ele>2784.146</ele></trkpt>
   <trkpt lat="41.139369861" lon="70.197474279"><ele>2784.071</ele></trkpt>
   <trkpt lat="41.1394534705" lon="70.1974342973"><ele>2784.756</ele></trkpt>
   <trkpt lat="41.1395366608" lon="70.1973617938"><ele>2787.533</ele></trkpt>
   <trkpt lat="41.1395194779" lon="70.1972969179"><ele>2789.211</ele></trkpt>
   <trkpt lat="41.1394702762" lon="70.197251488"><ele>2791.628</ele></trkpt>
   <trkpt lat="41.1395438693" lon="70.1972002746"><ele>2793.1</ele></trkpt>
   <trkpt lat="41.1395563583" lon="70.1971557667"><ele>2794.683</ele></trkpt>
   <trkpt lat="41.1395959628" lon="70.1971751288"><ele>2795.191</ele></trkpt>
   <trkpt lat="41.1396610902" lon="70.1971683395"><ele>2796.29</ele></trkpt>
   <trkpt lat="41.1397524949" lon="70.1971259271"><ele>2797.817</ele></trkpt>
   <trkpt lat="41.1398357691" lon="70.1971289446"><ele>2800.254</ele></trkpt>
   <trkpt lat="41.1399045845" lon="70.1970843528"><ele>2802.17</ele></trkpt>
   <trkpt lat="41.1400663971" lon="70.1970841852"><ele>2805.652</ele></trkpt>
   <trkpt lat="41.1401106955" lon="70.1970676728"><ele>2807.184</ele></trkpt>
   <trkpt lat="41.1403524715" lon="70.1971328841"><ele>2813.375</ele></trkpt>
   <trkpt lat="41.1404071634" lon="70.1971767214"><ele>2814.217</ele></trkpt>
   <trkpt lat="41.1404076663" lon="70.1972050522"><ele>2814.54</ele></trkpt>
   <trkpt lat="41.1404323929" lon="70.19723112"><ele>2814.259</ele></trkpt>
   <trkpt lat="41.1405897632" lon="70.1972789806"><ele>2816.039</ele></trkpt>
   <trkpt lat="41.1406545972" lon="70.1973670744"><ele>2816.892</ele></trkpt>
   <trkpt lat="41.1406572794" lon="70.197419629"><ele>2817.177</ele></trkpt>
   <trkpt lat="41.140833467" lon="70.1975126681"><ele>2815.438</ele></trkpt>
   <trkpt lat="41.140931661" lon="70.1976523944"><ele>2815.053</ele></trkpt>
   <trkpt lat="41.1409982971" lon="70.1977032726"><ele>2815.944</ele></trkpt>
   <trkpt lat="41.141053492" lon="70.1978058671"><ele>2815.933</ele></trkpt>
   <trkpt lat="41.1411582657" lon="70.1979343616"><ele>2816.924</ele></trkpt>
   <trkpt lat="41.1412244828" lon="70.1979200286"><ele>2818.232</ele></trkpt>
   <trkpt lat="41.1414376765" lon="70.1980069489"><ele>2821.441</ele></trkpt>
   <trkpt lat="41.1416356989" lon="70.1981205237"><ele>2823.349</ele></trkpt>
   <trkpt lat="41.1417177997" lon="70.1982094557"><ele>2823.578</ele></trkpt>
   <trkpt lat="41.1417887944" lon="70.1982320868"><ele>2825.308</ele></trkpt>
   <trkpt lat="41.1418474677" lon="70.1982263871"><ele>2826.362</ele></trkpt>
   <trkpt lat="41.1419623836" lon="70.198303333"><ele>2829.665</ele></trkpt>
   <trkpt lat="41.1419938996" lon="70.1983967912"><ele>2831.274</ele></trkpt>
   <trkpt lat="41.1420503936" lon="70.1984770899"><ele>2833.311</ele></trkpt>
   <trkpt lat="41.1420976675" lon="70.1984812808"><ele>2834.909</ele></trkpt>
   <trkpt lat="41.1421527786" lon="70.1985150599"><ele>2838.53</ele></trkpt>
   <trkpt lat="41.1421544968" lon="70.1985569694"><ele>2839.534</ele></trkpt>
   <trkpt lat="41.1421768765" lon="70.1985748229"><ele>2840.298</ele></trkpt>
   <trkpt lat="41.1422035729" lon="70.1985620824"><ele>2840.918</ele></trkpt>
   <trkpt lat="41.1422552892" lon="70.1985829533"><ele>2842.139</ele></trkpt>
   <trkpt lat="41.1422877691" lon="70.198681273"><ele>2841.875</ele></trkpt>
   <trkpt lat="41.1423713786" lon="70.1987837837"><ele>2844.758</ele></trkpt>
   <trkpt lat="41.1423661818" lon="70.1988489949"><ele>2845.424</ele></trkpt>
   <trkpt lat="41.1424023916" lon="70.1989172236"><ele>2846.634</ele></trkpt>
   <trkpt lat="41.1424163894" lon="70.1989890565"><ele>2846.516</ele></trkpt>
   <trkpt lat="41.1423956861" lon="70.1990287867"><ele>2846.876</ele></trkpt>
   <trkpt lat="41.1424014696" lon="70.1990544354"><ele>2846.397</ele></trkpt>
   <trkpt lat="41.1424287946" lon="70.1990876277"><ele>2847.66</ele></trkpt>
   <trkpt lat="41.1424511743" lon="70.1991643221"><ele>2848.243</ele></trkpt>
   <trkpt lat="41.1424682734" lon="70.1992947445"><ele>2852.715</ele></trkpt>
   <trkpt lat="41.142485582" lon="70.1993293618"><ele>2853.891</ele></trkpt>
   <trkpt lat="41.1425083808" lon="70.199323243"><ele>2854.836</ele></trkpt>
   <trkpt lat="41.1425040641" lon="70.199370936"><ele>2856.196</ele></trkpt>
   <trkpt lat="41.1425178943" lon="70.1994073973"><ele>2856.53</ele></trkpt>
   <trkpt lat="41.1425026811" lon="70.1995216426"><ele>2859.087</ele></trkpt>
   <trkpt lat="41.1425172656" lon="70.1996187889"><ele>2861.782</ele></trkpt>
   <trkpt lat="41.1425061596" lon="70.1997327828"><ele>2865.502</ele></trkpt>
   <trkpt lat="41.1425283716" lon="70.199770669"><ele>2866.906</ele></trkpt>
   <trkpt lat="41.1425507932" lon="70.1997764525"><ele>2867.045</ele></trkpt>
   <trkpt lat="41.1425428723" lon="70.1999261533"><ele>2870.607</ele></trkpt>
   <trkpt lat="41.1425219595" lon="70.1999713317"><ele>2871.69</ele></trkpt>
   <trkpt lat="41.1425311796" lon="70.2000589226"><ele>2874.593</ele></trkpt>
   <trkpt lat="41.1425100991" lon="70.2001135726"><ele>2875.992</ele></trkpt>
   <trkpt lat="41.1425016753" lon="70.2002227888"><ele>2876.246</ele></trkpt>
   <trkpt lat="41.1425251865" lon="70.2002777741"><ele>2875.781</ele></trkpt>
   <trkpt lat="41.1425427885" lon="70.2002804563"><ele>2874.528</ele></trkpt>
   <trkpt lat="41.1425304671" lon="70.2002632734"><ele>2874.676</ele></trkpt>
   <trkpt lat="41.1425447583" lon="70.2002740861"><ele>2873.826</ele></trkpt>
   <trkpt lat="41.1425464765" lon="70.2002608427"><ele>2873.899</ele></trkpt>
   <trkpt lat="41.1425515895" lon="70.2002941188"><ele>2874.368</ele></trkpt>
   <trkpt lat="41.1425682695" lon="70.2003063564"><ele>2874.841</ele></trkpt>
   <trkpt lat="41.1425691915" lon="70.2002783609"><ele>2874.574</ele></trkpt>
   <trkpt lat="41.1425520924" lon="70.2002643631"><ele>2874.21</ele></trkpt>
   <trkpt lat="41.1425504999" lon="70.2002826356"><ele>2873.697</ele></trkpt>
   <trkpt lat="41.1425716642" lon="70.2002929454"><ele>2873.48</ele></trkpt>
   <trkpt lat="41.1425880927" lon="70.2002459229"><ele>2874.72</ele></trkpt>
   <trkpt lat="41.1426067843" lon="70.2002432407"><ele>2874.689</ele></trkpt>
   <trkpt lat="41.1425646653" lon="70.2002842282"><ele>2874.14</ele></trkpt>
   <trkpt lat="41.1425603905" lon="70.2003241261"><ele>2874.695</ele></trkpt>
   <trkpt lat="41.1425811776" lon="70.2003696398"><ele>2875.136</ele></trkpt>
   <trkpt lat="41.1426522981" lon="70.2004378685"><ele>2876.699</ele></trkpt>
   <trkpt lat="41.1426871668" lon="70.2005309914"><ele>2876.462</ele></trkpt>
   <trkpt lat="41.1427283638" lon="70.2005662792"><ele>2877.403</ele></trkpt>
   <trkpt lat="41.1427868695" lon="70.2006654371"><ele>2878.23</ele></trkpt>
   <trkpt lat="41.1430277654" lon="70.2008514316"><ele>2882.579</ele></trkpt>
   <trkpt lat="41.143085391" lon="70.201017058"><ele>2882.881</ele></trkpt>
   <trkpt lat="41.1431717665" lon="70.2010474843"><ele>2884.011</ele></trkpt>
   <trkpt lat="41.1432537834" lon="70.2009907388"><ele>2883.989</ele></trkpt>
   <trkpt lat="41.1433022728" lon="70.2010240988"><ele>2882.035</ele></trkpt>
   <trkpt lat="41.1435111917" lon="70.2010829397"><ele>2883.839</ele></trkpt>
   <trkpt lat="41.1436120679" lon="70.2011790802"><ele>2883.063</ele></trkpt>
   <trkpt lat="41.1437375869" lon="70.2012242586"><ele>2884.078</ele></trkpt>
   <trkpt lat="41.1437716593" lon="70.2012672578"><ele>2884.952</ele></trkpt>
   <trkpt lat="41.1438192685" lon="70.2013993566"><ele>2888.256</ele></trkpt>
   <trkpt lat="41.143807492" lon="70.2014306211"><ele>2888.074</ele></trkpt>
   <trkpt lat="41.1438103837" lon="70.2015164518"><ele>2889.256</ele></trkpt>
   <trkpt lat="41.1437792869" lon="70.2015217324"><ele>2890.159</ele></trkpt>
   <trkpt lat="41.1438154967" lon="70.2015114226"><ele>2890.364</ele></trkpt>
   <trkpt lat="41.1438458811" lon="70.2016069763"><ele>2891.58</ele></trkpt>
   <trkpt lat="41.1438770618" lon="70.2016531606"><ele>2893.105</ele></trkpt>
   <trkpt lat="41.1439784828" lon="70.2016917174"><ele>2898.057</ele></trkpt>
   <trkpt lat="41.1440311631" lon="70.2017781348"><ele>2899.713</ele></trkpt>
   <trkpt lat="41.144123364" lon="70.2017724351"><ele>2900.479</ele></trkpt>
   <trkpt lat="41.1441429776" lon="70.2017274243"><ele>2901.868</ele></trkpt>
   <trkpt lat="41.1442723942" lon="70.2017946471"><ele>2901.399</ele></trkpt>
   <trkpt lat="41.1444013917" lon="70.201917442"><ele>2904.701</ele></trkpt>
   <trkpt lat="41.144460568" lon="70.2020108164"><ele>2905.791</ele></trkpt>
   <trkpt lat="41.1444677764" lon="70.2021403168"><ele>2906.481</ele></trkpt>
   <trkpt lat="41.1444198738" lon="70.2022493654"><ele>2907.962</ele></trkpt>
   <trkpt lat="41.1443735638" lon="70.2024235413"><ele>2911.651</ele></trkpt>
   <trkpt lat="41.1443763717" lon="70.2024757606"><ele>2913.656</ele></trkpt>
   <trkpt lat="41.1443566743" lon="70.2025173348"><ele>2915.764</ele></trkpt>
   <trkpt lat="41.1443778805" lon="70.2025860664"><ele>2917.694</ele></trkpt>
   <trkpt lat="41.144369289" lon="70.2027064306"><ele>2920.727</ele></trkpt>
   <trkpt lat="41.1443977875" lon="70.2027332527"><ele>2922.056</ele></trkpt>
   <trkpt lat="41.1443920878" lon="70.202788657"><ele>2925.196</ele></trkpt>
   <trkpt lat="41.1444104861" lon="70.2028612443"><ele>2928.897</ele></trkpt>
   <trkpt lat="41.1444487914" lon="70.2028682851"><ele>2927.447</ele></trkpt>
   <trkpt lat="41.1444467797" lon="70.2027911716"><ele>2926.76</ele></trkpt>
   <trkpt lat="41.1444376854" lon="70.2028401219"><ele>2927.623</ele></trkpt>
   <trkpt lat="41.1444098994" lon="70.2028637589"><ele>2926.261</ele></trkpt>
   <trkpt lat="41.144446193" lon="70.2028804389"><ele>2926.49</ele></trkpt>
   <trkpt lat="41.1444311894" lon="70.20283174"><ele>2927.382</ele></trkpt>
   <trkpt lat="41.1444206701" lon="70.2028622502"><ele>2925.825</ele></trkpt>
   <trkpt lat="41.1444304769" lon="70.202901226"><ele>2923.238</ele></trkpt>
   <trkpt lat="41.1444117853" lon="70.2028814447"><ele>2925.072</ele></trkpt>
   <trkpt lat="41.144460065" lon="70.2029354242"><ele>2925.105</ele></trkpt>
   <trkpt lat="41.1444830734" lon="70.2030043234"><ele>2925.007</ele></trkpt>
   <trkpt lat="41.1445149665" lon="70.2031333209"><ele>2925.568</ele></trkpt>
   <trkpt lat="41.1445325685" lon="70.2032918227"><ele>2924.441</ele></trkpt>
   <trkpt lat="41.1445815607" lon="70.2034532581"><ele>2924.13</ele></trkpt>
   <trkpt lat="41.1445865899" lon="70.2037391649"><ele>2927.092</ele></trkpt>
   <trkpt lat="41.1446004619" lon="70.2038131771"><ele>2924.348</ele></trkpt>
   <trkpt lat="41.1445913676" lon="70.2038964932"><ele>2928.598</ele></trkpt>
   <trkpt lat="41.1446564949" lon="70.2040530671"><ele>2924.414</ele></trkpt>
   <trkpt lat="41.1446627814" lon="70.2041212958"><ele>2926.763</ele></trkpt>
   <trkpt lat="41.1446687744" lon="70.2042536461"><ele>2925.216</ele></trkpt>
   <trkpt lat="41.1446539804" lon="70.2042758581"><ele>2925.529</ele></trkpt>
   <trkpt lat="41.1446326903" lon="70.2044343599"><ele>2928.53</ele></trkpt>
   <trkpt lat="41.1446433773" lon="70.2045096294"><ele>2932.589</ele></trkpt>
   <trkpt lat="41.144618483" lon="70.2045621839"><ele>2936.461</ele></trkpt>
   <trkpt lat="41.1446254819" lon="70.204595041"><ele>2937.558</ele></trkpt>
   <trkpt lat="41.1446730911" lon="70.2046152414"><ele>2939.842</ele></trkpt>
   <trkpt lat="41.1446426648" lon="70.2046646946"><ele>2939.297</ele></trkpt>
   <trkpt lat="41.1446508791" lon="70.2046866552"><ele>2942.124</ele></trkpt>
   <trkpt lat="41.1446677686" lon="70.2046897565"><ele>2939.592</ele></trkpt>
   <trkpt lat="41.1446656731" lon="70.2046723221"><ele>2940.987</ele></trkpt>
   <trkpt lat="41.1446775754" lon="70.2046961267"><ele>2940.016</ele></trkpt>
   <trkpt lat="41.1446843648" lon="70.2046690532"><ele>2939.583</ele></trkpt>
   <trkpt lat="41.1446715824" lon="70.2046488528"><ele>2939.61</ele></trkpt>
   <trkpt lat="41.1447099715" lon="70.2046292392"><ele>2938.236</ele></trkpt>
   <trkpt lat="41.1447007933" lon="70.2046219469"><ele>2940.272</ele></trkpt>
   <trkpt lat="41.1447151683" lon="70.2046006569"><ele>2944.402</ele></trkpt>
   <trkpt lat="41.1447735901" lon="70.2045837254"><ele>2943.144</ele></trkpt>
   <trkpt lat="41.1448082912" lon="70.204629323"><ele>2945.434</ele></trkpt>
   <trkpt lat="41.1448377955" lon="70.2046379563"><ele>2948.308</ele></trkpt>
   <trkpt lat="41.1448701916" lon="70.2047089511"><ele>2951.927</ele></trkpt>
   <trkpt lat="41.1449983928" lon="70.2048223582"><ele>2953.473</ele></trkpt>
   <trkpt lat="41.1450531685" lon="70.2049381961"><ele>2959.422</ele></trkpt>
   <trkpt lat="41.1450655737" lon="70.2051080973"><ele>2962.732</ele></trkpt>
   <trkpt lat="41.1451063936" lon="70.2051917487"><ele>2962.979</ele></trkpt>
   <trkpt lat="41.1450922701" lon="70.205241621"><ele>2964.433</ele></trkpt>
   <trkpt lat="41.1451540866" lon="70.2052767412"><ele>2968.984</ele></trkpt>
   <trkpt lat="41.1451156975" lon="70.205244387"><ele>2966.181</ele></trkpt>
   <trkpt lat="41.1451289828" lon="70.2052430459"><ele>2966.276</ele></trkpt>
   <trkpt lat="41.1452861854" lon="70.2053759829"><ele>2966.565</ele></trkpt>
   <trkpt lat="41.1453130913" lon="70.2054482349"><ele>2967.468</ele></trkpt>
   <trkpt lat="41.1453931804" lon="70.205559379"><ele>2966.634</ele></trkpt>
   <trkpt lat="41.1454228943" lon="70.2056387556"><ele>2966.234</ele></trkpt>
   <trkpt lat="41.1455027738" lon="70.2057269332"><ele>2965.259</ele></trkpt>
   <trkpt lat="41.1455133769" lon="70.2058689226"><ele>2965.442</ele></trkpt>
   <trkpt lat="41.1455583877" lon="70.2059722715"><ele>2967.204</ele></trkpt>
   <trkpt lat="41.1457106869" lon="70.2060852596"><ele>2966.208</ele></trkpt>
   <trkpt lat="41.1458068692" lon="70.2061995887"><ele>2968.486</ele></trkpt>
   <trkpt lat="41.1458052767" lon="70.2063248982"><ele>2968.264</ele></trkpt>
   <trkpt lat="41.1458225853" lon="70.2063987427"><ele>2966.566</ele></trkpt>
   <trkpt lat="41.1458327693" lon="70.2064377186"><ele>2969.694</ele></trkpt>
   <trkpt lat="41.145883396" lon="70.2065087971"><ele>2972.782</ele></trkpt>
   <trkpt lat="41.1458509581" lon="70.2066095476"><ele>2970.769</ele></trkpt>
   <trkpt lat="41.1458312606" lon="70.2067395509"><ele>2975.334</ele></trkpt>
   <trkpt lat="41.1458376727" lon="70.2067240444"><ele>2974.779</ele></trkpt>
   <trkpt lat="41.1458506647" lon="70.2069047582"><ele>2977.434</ele></trkpt>
   <trkpt lat="41.1457529736" lon="70.2070730668"><ele>2985.456</ele></trkpt>
   <trkpt lat="41.1457083819" lon="70.2070784313"><ele>2989.767</ele></trkpt>
   <trkpt lat="41.145714794" lon="70.2071119589"><ele>2987.888</ele></trkpt>
   <trkpt lat="41.1456721721" lon="70.2071441454"><ele>2989.598</ele></trkpt>
   <trkpt lat="41.1456429611" lon="70.2072025673"><ele>2989.657</ele></trkpt>
   <trkpt lat="41.1456557854" lon="70.207242046"><ele>2988.29</ele></trkpt>
   <trkpt lat="41.1456765726" lon="70.207223522"><ele>2992.639</ele></trkpt>
   <trkpt lat="41.1457025984" lon="70.2072378551"><ele>2993.528</ele></trkpt>
   <trkpt lat="41.1457241818" lon="70.2073664335"><ele>2994.938</ele></trkpt>
   <trkpt lat="41.1457941707" lon="70.2075437945"><ele>3004.618</ele></trkpt>
   <trkpt lat="41.1457829808" lon="70.2075538528"><ele>3001.778</ele></trkpt>
   <trkpt lat="41.1457891834" lon="70.2076286194"><ele>3006.41</ele></trkpt>
   <trkpt lat="41.1457688992" lon="70.2076458861"><ele>3004.876</ele></trkpt>
   <trkpt lat="41.1458064921" lon="70.2077446249"><ele>3006.178</ele></trkpt>
   <trkpt lat="41.1458000799" lon="70.2078447887"><ele>3010.676</ele></trkpt>
   <trkpt lat="41.1457088848" lon="70.2080173721"><ele>3016.905</ele></trkpt>
   <trkpt lat="41.1457246847" lon="70.208035477"><ele>3016.928</ele></trkpt>
   <trkpt lat="41.1457135787" lon="70.2081304439"><ele>3019.514</ele></trkpt>
   <trkpt lat="41.1455948909" lon="70.2082316973"><ele>3017.708</ele></trkpt>
   <trkpt lat="41.1455618662" lon="70.2082910412"><ele>3021.244</ele></trkpt>
   <trkpt lat="41.1455607766" lon="70.2083343756"><ele>3023.606</ele></trkpt>
   <trkpt lat="41.1456088887" lon="70.2083292627"><ele>3029.559</ele></trkpt>
   <trkpt lat="41.1456414943" lon="70.2082934719"><ele>3025.045</ele></trkpt>
   <trkpt lat="41.1456507982" lon="70.2083142591"><ele>3026.762</ele></trkpt>
   <trkpt lat="41.1456515945" lon="70.2083998383"><ele>3035.182</ele></trkpt>
   <trkpt lat="41.1456044882" lon="70.208468989"><ele>3034.599</ele></trkpt>
   <trkpt lat="41.1456000877" lon="70.2085330267"><ele>3039.568</ele></trkpt>
   <trkpt lat="41.1456488704" lon="70.2085675602"><ele>3041.848</ele></trkpt>
   <trkpt lat="41.1456235989" lon="70.2086743456"><ele>3047.106</ele></trkpt>
   <trkpt lat="41.1456605631" lon="70.2086543967"><ele>3043.477</ele></trkpt>
   <trkpt lat="41.1456628681" lon="70.2086836495"><ele>3048.974</ele></trkpt>
   <trkpt lat="41.1456246886" lon="70.2087300853"><ele>3044.642</ele></trkpt>
   <trkpt lat="41.1456496666" lon="70.2088012476"><ele>3047.889</ele></trkpt>
   <trkpt lat="41.1456668915" lon="70.2087918599"><ele>3047.447</ele></trkpt>
   <trkpt lat="41.1456568751" lon="70.2087749285"><ele>3049.58</ele></trkpt>
   <trkpt lat="41.1456764887" lon="70.2088377927"><ele>3047.294</ele></trkpt>
   <trkpt lat="41.1456950966" lon="70.2088541375"><ele>3049.122</ele></trkpt>
   <trkpt lat="41.1456701604" lon="70.2087852382"><ele>3052.051</ele></trkpt>
   <trkpt lat="41.1456451823" lon="70.2087844838"><ele>3052.351</ele></trkpt>
   <trkpt lat="41.1456009678" lon="70.2088230406"><ele>3054.134</ele></trkpt>
   <trkpt lat="41.145535086" lon="70.2089387947"><ele>3057.87</ele></trkpt>
   <trkpt lat="41.1454988762" lon="70.2090927702"><ele>3055.522</ele></trkpt>
   <trkpt lat="41.1453985867" lon="70.2092623361"><ele>3054.047</ele></trkpt>
   <trkpt lat="41.1452133886" lon="70.2094352548"><ele>3053.187</ele></trkpt>
   <trkpt lat="41.145169677" lon="70.2095021424"><ele>3053.087</ele></trkpt>
   <trkpt lat="41.1451762987" lon="70.209522259"><ele>3053.233</ele></trkpt>
   <trkpt lat="41.1451509853" lon="70.2095119492"><ele>3053.809</ele></trkpt>
   <trkpt lat="41.1451760891" lon="70.2095026453"><ele>3055.563</ele></trkpt>
   <trkpt lat="41.1452122989" lon="70.2094253642"><ele>3055.245</ele></trkpt>
   <trkpt lat="41.1452026598" lon="70.2094125398"><ele>3053.462</ele></trkpt>
   <trkpt lat="41.1451657794" lon="70.2094499231"><ele>3053.695</ele></trkpt>
   <trkpt lat="41.1451775979" lon="70.2094906592"><ele>3051.855</ele></trkpt>
   <trkpt lat="41.1451812859" lon="70.2094711293"><ele>3052.608</ele></trkpt>
   <trkpt lat="41.1452063897" lon="70.2094827802"><ele>3055.445</ele></trkpt>
   <trkpt lat="41.1451805734" lon="70.2094736439"><ele>3053.479</ele></trkpt>
   <trkpt lat="41.145179861" lon="70.2094361768"><ele>3052.451</ele></trkpt>
   <trkpt lat="41.1451612951" lon="70.2094347519"><ele>3052.327</ele></trkpt>
   <trkpt lat="41.145160876" lon="70.2094732248"><ele>3052.664</ele></trkpt>
   <trkpt lat="41.1451864827" lon="70.209477751"><ele>3053.521</ele></trkpt>
   <trkpt lat="41.145262297" lon="70.2094208379"><ele>3055.586</ele></trkpt>
   <trkpt lat="41.1453965751" lon="70.2092593187"><ele>3054.829</ele></trkpt>
   <trkpt lat="41.1454847946" lon="70.2091102884"><ele>3056.994</ele></trkpt>
   <trkpt lat="41.1455353794" lon="70.2089371183"><ele>3056.847</ele></trkpt>
   <trkpt lat="41.1455945975" lon="70.2088535507"><ele>3059.768</ele></trkpt>
   <trkpt lat="41.1455963997" lon="70.2088100486"><ele>3055.947</ele></trkpt>
   <trkpt lat="41.1454460702" lon="70.2091774275"><ele>3054.81</ele></trkpt>
   <trkpt lat="41.1453599881" lon="70.2092772559"><ele>3054.434</ele></trkpt>
   <trkpt lat="41.1453245745" lon="70.2092798543"><ele>3053.995</ele></trkpt>
   <trkpt lat="41.1452230697" lon="70.2094475762"><ele>3053.913</ele></trkpt>
   <trkpt lat="41.1451588643" lon="70.209500466"><ele>3054.366</ele></trkpt>
   <trkpt lat="41.1451790647" lon="70.2094901563"><ele>3052.043</ele></trkpt>
   <trkpt lat="41.1451778912" lon="70.2094583889"><ele>3054.123</ele></trkpt>
   <trkpt lat="41.1452198846" lon="70.2094330755"><ele>3054.151</ele></trkpt>
   <trkpt lat="41.1452330861" lon="70.2094330755"><ele>3053.49</ele></trkpt>
   <trkpt lat="41.1452185854" lon="70.2094487497"><ele>3051.516</ele></trkpt>
   <trkpt lat="41.1452144782" lon="70.209499544"><ele>3049.091</ele></trkpt>
   <trkpt lat="41.1452592795" lon="70.2095106919"><ele>3054.315</ele></trkpt>
   <trkpt lat="41.1452476706" lon="70.2094757394"><ele>3052.052</ele></trkpt>
   <trkpt lat="41.1452056772" lon="70.2094601491"><ele>3051.823</ele></trkpt>
   <trkpt lat="41.1451771788" lon="70.2094792598"><ele>3051.89</ele></trkpt>
   <trkpt lat="41.145198385" lon="70.2095336583"><ele>3051.759</ele></trkpt>
   <trkpt lat="41.1451945712" lon="70.2094924194"><ele>3052.838</ele></trkpt>
   <trkpt lat="41.1452356845" lon="70.2095175651"><ele>3054.795</ele></trkpt>
   <trkpt lat="41.1453166955" lon="70.2095016395"><ele>3057.994</ele></trkpt>
   <trkpt lat="41.1453549589" lon="70.2094636695"><ele>3057.521</ele></trkpt>
   <trkpt lat="41.1454437652" lon="70.2094790922"><ele>3061.821</ele></trkpt>
   <trkpt lat="41.1455180708" lon="70.2094260347"><ele>3065.141</ele></trkpt>
   <trkpt lat="41.1456404885" lon="70.209387478"><ele>3073.679</ele></trkpt>
   <trkpt lat="41.1456542767" lon="70.2094433852"><ele>3075.482</ele></trkpt>
   <trkpt lat="41.1456933783" lon="70.2094429662"><ele>3075.707</ele></trkpt>
   <trkpt lat="41.1457834837" lon="70.2096150466"><ele>3086.12</ele></trkpt>
   <trkpt lat="41.145814371" lon="70.2097755601"><ele>3090.676</ele></trkpt>
   <trkpt lat="41.1458066597" lon="70.2098616422"><ele>3095.521</ele></trkpt>
   <trkpt lat="41.1457772811" lon="70.2099110954"><ele>3094.528</ele></trkpt>
   <trkpt lat="41.1457908598" lon="70.2100070682"><ele>3097.567</ele></trkpt>
   <trkpt lat="41.1458280755" lon="70.2100491454"><ele>3099.114</ele></trkpt>
   <trkpt lat="41.1458944601" lon="70.210068759"><ele>3101.129</ele></trkpt>
   <trkpt lat="41.1459990663" lon="70.2101804898"><ele>3105.823</ele></trkpt>
   <trkpt lat="41.1460590807" lon="70.210187363"><ele>3107.386</ele></trkpt>
   <trkpt lat="41.1462731964" lon="70.2100672503"><ele>3114.246</ele></trkpt>
   <trkpt lat="41.1463741984" lon="70.2100723633"><ele>3118.883</ele></trkpt>
   <trkpt lat="41.1464281778" lon="70.2100961679"><ele>3120.488</ele></trkpt>
   <trkpt lat="41.1465164812" lon="70.2100706869"><ele>3122.903</ele></trkpt>
   <trkpt lat="41.1466337859" lon="70.2100035478"><ele>3129.697</ele></trkpt>
   <trkpt lat="41.1467078819" lon="70.2100020391"><ele>3129.391</ele></trkpt>
   <trkpt lat="41.1467569999" lon="70.2099421923"><ele>3130.401</ele></trkpt>
   <trkpt lat="41.1467486599" lon="70.2099580341"><ele>3135.521</ele></trkpt>
   <trkpt lat="41.146886165" lon="70.2099437849"><ele>3141.841</ele></trkpt>
   <trkpt lat="41.1470630651" lon="70.2101018676"><ele>3155.143</ele></trkpt>
   <trkpt lat="41.1470863668" lon="70.2100807452"><ele>3154.407</ele></trkpt>
   <trkpt lat="41.1470704831" lon="70.2100585331"><ele>3152.673</ele></trkpt>
   <trkpt lat="41.1471215708" lon="70.210069262"><ele>3153.524</ele></trkpt>
   <trkpt lat="41.1471587864" lon="70.2100420208"><ele>3158.998</ele></trkpt>
   <trkpt lat="41.1471729937" lon="70.2099709422"><ele>3158.499</ele></trkpt>
   <trkpt lat="41.147157571" lon="70.2099161246"><ele>3161.469</ele></trkpt>
   <trkpt lat="41.1472890831" lon="70.2099477244"><ele>3163.349</ele></trkpt>
   <trkpt lat="41.1473112951" lon="70.20992568"><ele>3166.072</ele></trkpt>
   <trkpt lat="41.1473231974" lon="70.2098545176"><ele>3173.036</ele></trkpt>
   <trkpt lat="41.1473409671" lon="70.2098456328"><ele>3171.658</ele></trkpt>
   <trkpt lat="41.1473265921" lon="70.2098213253"><ele>3170.277</ele></trkpt>
   <trkpt lat="41.1473023684" lon="70.2098766458"><ele>3169.876</ele></trkpt>
   <trkpt lat="41.1473221916" lon="70.209877484"><ele>3171.936</ele></trkpt>
   <trkpt lat="41.1473319984" lon="70.2098587924"><ele>3169.56</ele></trkpt>
   <trkpt lat="41.1473121752" lon="70.2098602173"><ele>3171.203</ele></trkpt>
   <trkpt lat="41.1473347645" lon="70.2098282822"><ele>3172.548</ele></trkpt>
   <trkpt lat="41.1474111655" lon="70.2098046453"><ele>3171.872</ele></trkpt>
   <trkpt lat="41.1474670728" lon="70.2098106802"><ele>3174.49</ele></trkpt>
   <trkpt lat="41.1475372712" lon="70.2098830999"><ele>3174.873</ele></trkpt>
   <trkpt lat="41.1476220961" lon="70.2099056472"><ele>3178.07</ele></trkpt>
   <trkpt lat="41.1477113634" lon="70.2098101773"><ele>3184.86</ele></trkpt>
   <trkpt lat="41.1476938871" lon="70.209782098"><ele>3184.587</ele></trkpt>
   <trkpt lat="41.1477145904" lon="70.2098127757"><ele>3182.037</ele></trkpt>
   <trkpt lat="41.1477542787" lon="70.2098013763"><ele>3187.813</ele></trkpt>
   <trkpt lat="41.1479845715" lon="70.2098424477"><ele>3195.636</ele></trkpt>
   <trkpt lat="41.1480360783" lon="70.2097895578"><ele>3198.566</ele></trkpt>
   <trkpt lat="41.1480713661" lon="70.2098304615"><ele>3197.285</ele></trkpt>
   <trkpt lat="41.1482939895" lon="70.2098743827"><ele>3212.252</ele></trkpt>
   <trkpt lat="41.1483095798" lon="70.2098427829"><ele>3211.847</ele></trkpt>
   <trkpt lat="41.1482982642" lon="70.209767262"><ele>3207.159</ele></trkpt>
   <trkpt lat="41.148356267" lon="70.2097600535"><ele>3214.608</ele></trkpt>
   <trkpt lat="41.1483742881" lon="70.2097745542"><ele>3214.145</ele></trkpt>
   <trkpt lat="41.1484753738" lon="70.2097390988"><ele>3220.587</ele></trkpt>
   <trkpt lat="41.1485538704" lon="70.2097749733"><ele>3219.906</ele></trkpt>
   <trkpt lat="41.1486172795" lon="70.2097606403"><ele>3228.225</ele></trkpt>
   <trkpt lat="41.1486539922" lon="70.2097761468"><ele>3227.175</ele></trkpt>
   <trkpt lat="41.148699464" lon="70.209726023"><ele>3229.685</ele></trkpt>
   <trkpt lat="41.148745774" lon="70.2097131987"><ele>3233.849</ele></trkpt>
   <trkpt lat="41.1487538626" lon="70.2096762345"><ele>3229.528</ele></trkpt>
   <trkpt lat="41.148871796" lon="70.2096912381"><ele>3236.79</ele></trkpt>
   <trkpt lat="41.1489365881" lon="70.2096639969"><ele>3240.791</ele></trkpt>
   <trkpt lat="41.1489385997" lon="70.2096379292"><ele>3239.394</ele></trkpt>
   <trkpt lat="41.1489371748" lon="70.2096532681"><ele>3238.762</ele></trkpt>
   <trkpt lat="41.1489718759" lon="70.2096368396"><ele>3241.691</ele></trkpt>
   <trkpt lat="41.1490275736" lon="70.2096511726"><ele>3245.699</ele></trkpt>
   <trkpt lat="41.1490728778" lon="70.2096075867"><ele>3246.881</ele></trkpt>
   <trkpt lat="41.1491168828" lon="70.2095998754"><ele>3248.786</ele></trkpt>
   <trkpt lat="41.1491522963" lon="70.2095542778"><ele>3249.656</ele></trkpt>
   <trkpt lat="41.1491838961" lon="70.2095737238"><ele>3251.933</ele></trkpt>
   <trkpt lat="41.1492135681" lon="70.2095498354"><ele>3250.406</ele></trkpt>
   <trkpt lat="41.1492564834" lon="70.2095484943"><ele>3257.49</ele></trkpt>
   <trkpt lat="41.1492484787" lon="70.2095339936"><ele>3255.603</ele></trkpt>
   <trkpt lat="41.149262686" lon="70.2095653419"><ele>3253.536</ele></trkpt>
   <trkpt lat="41.1493041764" lon="70.2095571277"><ele>3255.81</ele></trkpt>
   <trkpt lat="41.1493354828" lon="70.2095937566"><ele>3259.188</ele></trkpt>
   <trkpt lat="41.1493906777" lon="70.2095999592"><ele>3259.392</ele></trkpt>
   <trkpt lat="41.1495611656" lon="70.2096978598"><ele>3269.631</ele></trkpt>
   <trkpt lat="41.1496381953" lon="70.2097634901"><ele>3268.901</ele></trkpt>
   <trkpt lat="41.1496835833" lon="70.2098386758"><ele>3273.037</ele></trkpt>
   <trkpt lat="41.1497440587" lon="70.2098651626"><ele>3278.132</ele></trkpt>
   <trkpt lat="41.1497812744" lon="70.2099090838"><ele>3279.622</ele></trkpt>
   <trkpt lat="41.1498043665" lon="70.2099093352"><ele>3282.443</ele></trkpt>
   <trkpt lat="41.1499419974" lon="70.2100149472"><ele>3283.54</ele></trkpt>
   <trkpt lat="41.1500545663" lon="70.2100291965"><ele>3294.277</ele></trkpt>
   <trkpt lat="41.1501202804" lon="70.2100876183"><ele>3296.605</ele></trkpt>
   <trkpt lat="41.1501699851" lon="70.2100504865"><ele>3299.327</ele></trkpt>
   <trkpt lat="41.1502520859" lon="70.21005166"><ele>3305.062</ele></trkpt>
   <trkpt lat="41.1502956718" lon="70.2101933979"><ele>3306.815</ele></trkpt>
   <trkpt lat="41.150315495" lon="70.2101944876"><ele>3306.771</ele></trkpt>
   <trkpt lat="41.1503045985" lon="70.2102116705"><ele>3306.906</ele></trkpt>
   <trkpt lat="41.1504078635" lon="70.2103456971"><ele>3309.957</ele></trkpt>
   <trkpt lat="41.150407193" lon="70.2103641373"><ele>3311.668</ele></trkpt>
   <trkpt lat="41.1503913931" lon="70.2103687474"><ele>3311.534</ele></trkpt>
   <trkpt lat="41.1504000684" lon="70.2104228945"><ele>3314.183</ele></trkpt>
   <trkpt lat="41.1504266809" lon="70.2104582661"><ele>3312.444</ele></trkpt>
   <trkpt lat="41.150459999" lon="70.2104399935"><ele>3314.009</ele></trkpt>
   <trkpt lat="41.1504791935" lon="70.2105336194"><ele>3315.5</ele></trkpt>
   <trkpt lat="41.1504597894" lon="70.2105716732"><ele>3316.033</ele></trkpt>
   <trkpt lat="41.1505212707" lon="70.2105795522"><ele>3317.431</ele></trkpt>
   <trkpt lat="41.150524372" lon="70.2105666441"><ele>3316.907</ele></trkpt>
   <trkpt lat="41.1505145652" lon="70.2105771215"><ele>3317.199</ele></trkpt>
   <trkpt lat="41.1505330892" lon="70.2106212941"><ele>3318.887</ele></trkpt>
   <trkpt lat="41.1505582768" lon="70.2106364653"><ele>3318.73</ele></trkpt>
   <trkpt lat="41.1505534991" lon="70.2106672269"><ele>3319.307</ele></trkpt>
   <trkpt lat="41.1505754597" lon="70.2107533929"><ele>3322.01</ele></trkpt>
   <trkpt lat="41.1505679998" lon="70.2108459291"><ele>3325.168</ele></trkpt>
   <trkpt lat="41.1505047583" lon="70.2108923648"><ele>3321.032</ele></trkpt>
   <trkpt lat="41.1504622621" lon="70.211019686"><ele>3321.008</ele></trkpt>
   <trkpt lat="41.1504998968" lon="70.2111012419"><ele>3322.018</ele></trkpt>
   <trkpt lat="41.1504959992" lon="70.2111728233"><ele>3325.646</ele></trkpt>
   <trkpt lat="41.150509997" lon="70.2112093684"><ele>3326.626</ele></trkpt>
   <trkpt lat="41.1505517808" lon="70.2112426446"><ele>3329.24</ele></trkpt>
   <trkpt lat="41.1505952829" lon="70.2112232824"><ele>3330.318</ele></trkpt>
   <trkpt lat="41.1506030781" lon="70.2112876554"><ele>3331.481</ele></trkpt>
   <trkpt lat="41.1506260864" lon="70.2112973784"><ele>3335.11</ele></trkpt>
   <trkpt lat="41.1506388688" lon="70.2113269665"><ele>3335.396</ele></trkpt>
   <trkpt lat="41.1506350969" lon="70.2114257892"><ele>3336.47</ele></trkpt>
   <trkpt lat="41.1506107894" lon="70.2114436426"><ele>3341.282</ele></trkpt>
   <trkpt lat="41.1505989709" lon="70.2115020645"><ele>3340.79</ele></trkpt>
   <trkpt lat="41.1506159862" lon="70.2114581433"><ele>3339.341</ele></trkpt>
   <trkpt lat="41.1506340911" lon="70.2114838758"><ele>3341.519</ele></trkpt>
   <trkpt lat="41.1507434749" lon="70.2114637592"><ele>3341.898</ele></trkpt>
   <trkpt lat="41.1507283875" lon="70.2116106939"><ele>3348.875</ele></trkpt>
   <trkpt lat="41.1507562992" lon="70.2116392762"><ele>3349.544</ele></trkpt>
   <trkpt lat="41.1508038665" lon="70.2116397792"><ele>3351.246</ele></trkpt>
   <trkpt lat="41.1508152659" lon="70.2117143781"><ele>3352.535</ele></trkpt>
   <trkpt lat="41.1508174871" lon="70.2116952674"><ele>3354.928</ele></trkpt>
   <trkpt lat="41.1508407888" lon="70.2116874722"><ele>3353.755</ele></trkpt>
   <trkpt lat="41.1508379809" lon="70.2116625779"><ele>3353.313</ele></trkpt>
   <trkpt lat="41.1508532779" lon="70.2116773301"><ele>3355.832</ele></trkpt>
   <trkpt lat="41.1508183672" lon="70.2117389371"><ele>3354.977</ele></trkpt>
   <trkpt lat="41.1508520625" lon="70.2118471474"><ele>3358.527</ele></trkpt>
   <trkpt lat="41.1508880628" lon="70.2118958463"><ele>3363.398</ele></trkpt>
   <trkpt lat="41.1509018929" lon="70.2119820961"><ele>3365.473</ele></trkpt>
   <trkpt lat="41.1509718818" lon="70.2121189726"><ele>3369.936</ele></trkpt>
   <trkpt lat="41.1509843708" lon="70.2121378318"><ele>3368.865</ele></trkpt>
   <trkpt lat="41.1510703692" lon="70.2121564397"><ele>3370.569</ele></trkpt>
   <trkpt lat="41.151165378" lon="70.2123293583"><ele>3376.955</ele></trkpt>
   <trkpt lat="41.1512045634" lon="70.2123344713"><ele>3376.958</ele></trkpt>
   <trkpt lat="41.1512608898" lon="70.2123812423"><ele>3379.971</ele></trkpt>
   <trkpt lat="41.1512512925" lon="70.2124512312"><ele>3379.673</ele></trkpt>
   <trkpt lat="41.1512749714" lon="70.2125211363"><ele>3383.666</ele></trkpt>
   <trkpt lat="41.1512634882" lon="70.2125925501"><ele>3384.119</ele></trkpt>
   <trkpt lat="41.151325179" lon="70.2127392334"><ele>3386.468</ele></trkpt>
   <trkpt lat="41.151345589" lon="70.2129705739"><ele>3395.861</ele></trkpt>
   <trkpt lat="41.1513743808" lon="70.2130085439"><ele>3394.324</ele></trkpt>
   <trkpt lat="41.1513585809" lon="70.2130789519"><ele>3398.024</ele></trkpt>
   <trkpt lat="41.151317761" lon="70.2131034271"><ele>3400.465</ele></trkpt>
   <trkpt lat="41.1513141987" lon="70.2131335181"><ele>3398.3</ele></trkpt>
   <trkpt lat="41.1512911904" lon="70.2131588315"><ele>3404.541</ele></trkpt>
   <trkpt lat="41.1512955909" lon="70.2132058539"><ele>3402.074</ele></trkpt>
   <trkpt lat="41.1512783661" lon="70.2132354421"><ele>3405.161</ele></trkpt>
   <trkpt lat="41.15122929" lon="70.2134930179"><ele>3413.785</ele></trkpt>
   <trkpt lat="41.1512782823" lon="70.2135118772"><ele>3413.989</ele></trkpt>
   <trkpt lat="41.1513355726" lon="70.2135875658"><ele>3413.42</ele></trkpt>
   <trkpt lat="41.151377063" lon="70.2137098578"><ele>3413.189</ele></trkpt>
   <trkpt lat="41.1514267677" lon="70.2137718839"><ele>3413.448</ele></trkpt>
   <trkpt lat="41.1514148654" lon="70.2138294675"><ele>3416.394</ele></trkpt>
   <trkpt lat="41.151436365" lon="70.213885291"><ele>3419.534</ele></trkpt>
   <trkpt lat="41.1515096647" lon="70.2139868797"><ele>3427.514</ele></trkpt>
   <trkpt lat="41.1516278914" lon="70.2140526776"><ele>3424.431</ele></trkpt>
   <trkpt lat="41.1517160691" lon="70.2141879615"><ele>3421.74</ele></trkpt>
   <trkpt lat="41.151725373" lon="70.2142668352"><ele>3426.171</ele></trkpt>
   <trkpt lat="41.1517051726" lon="70.2142951661"><ele>3427.811</ele></trkpt>
   <trkpt lat="41.1517521951" lon="70.2143497323"><ele>3428.723</ele></trkpt>
   <trkpt lat="41.1517820766" lon="70.2144581941"><ele>3432.736</ele></trkpt>
   <trkpt lat="41.1518792647" lon="70.2146125888"><ele>3430.07</ele></trkpt>
   <trkpt lat="41.151883288" lon="70.2147075557"><ele>3437.026</ele></trkpt>
   <trkpt lat="41.1518598606" lon="70.2147532371"><ele>3436.705</ele></trkpt>
   <trkpt lat="41.1518474973" lon="70.2148396545"><ele>3439.92</ele></trkpt>
   <trkpt lat="41.1519135886" lon="70.2149029379"><ele>3440.898</ele></trkpt>
   <trkpt lat="41.1519301848" lon="70.2150019282"><ele>3441.098</ele></trkpt>
   <trkpt lat="41.1519769977" lon="70.2150468552"><ele>3440.153</ele></trkpt>
   <trkpt lat="41.1519876846" lon="70.2150982362"><ele>3441.503</ele></trkpt>
   <trkpt lat="41.1519405783" lon="70.2152211987"><ele>3443.123</ele></trkpt>
   <trkpt lat="41.1518709666" lon="70.2153116395"><ele>3442.197</ele></trkpt>
   <trkpt lat="41.1518282608" lon="70.2154681296"><ele>3445.115</ele></trkpt>
   <trkpt lat="41.1518516883" lon="70.2155287308"><ele>3442.668</ele></trkpt>
   <trkpt lat="41.1518945617" lon="70.2155331732"><ele>3442.653</ele></trkpt>
   <trkpt lat="41.1519201684" lon="70.2155560558"><ele>3440.257</ele></trkpt>
   <trkpt lat="41.1519284665" lon="70.2156666969"><ele>3440.858</ele></trkpt>
   <trkpt lat="41.1519171928" lon="70.2156873164"><ele>3440.31</ele></trkpt>
   <trkpt lat="41.1519368903" lon="70.2157816966"><ele>3440.357</ele></trkpt>
   <trkpt lat="41.1519238984" lon="70.2158370172"><ele>3439.436</ele></trkpt>
   <trkpt lat="41.1519577612" lon="70.2158703771"><ele>3438.765</ele></trkpt>
   <trkpt lat="41.1519498823" lon="70.2159792581"><ele>3438.621</ele></trkpt>
   <trkpt lat="41.1519283827" lon="70.2160434634"><ele>3439.3</ele></trkpt>
   <trkpt lat="41.1519365969" lon="70.2163257659"><ele>3435.176</ele></trkpt>
   <trkpt lat="41.1519086852" lon="70.216417464"><ele>3436.222</ele></trkpt>
   <trkpt lat="41.1519407879" lon="70.2165134368"><ele>3433.301</ele></trkpt>
   <trkpt lat="41.1519896963" lon="70.2165965852"><ele>3433.362</ele></trkpt>
   <trkpt lat="41.1519823621" lon="70.2166865231"><ele>3434.068</ele></trkpt>
   <trkpt lat="41.152006963" lon="70.2167954878"><ele>3430.53</ele></trkpt>
   <trkpt lat="41.1519956894" lon="70.2169115772"><ele>3427.588</ele></trkpt>
   <trkpt lat="41.1520488725" lon="70.2170945541"><ele>3422.987</ele></trkpt>
   <trkpt lat="41.1520503813" lon="70.2171534789"><ele>3422.869</ele></trkpt>
   <trkpt lat="41.1520647982" lon="70.2171637886"><ele>3425.912</ele></trkpt>
   <trkpt lat="41.1520445978" lon="70.2171789599"><ele>3425.197</ele></trkpt>
   <trkpt lat="41.1520314801" lon="70.2172217914"><ele>3425.639</ele></trkpt>
   <trkpt lat="41.1520426699" lon="70.217376689"><ele>3429.301</ele></trkpt>
   <trkpt lat="41.1520862977" lon="70.2174423193"><ele>3428.074</ele></trkpt>
   <trkpt lat="41.1521240582" lon="70.2175751724"><ele>3427.45</ele></trkpt>
   <trkpt lat="41.1521407801" lon="70.2175770164"><ele>3426.41</ele></trkpt>
   <trkpt lat="41.1521380979" lon="70.2175543853"><ele>3426.878</ele></trkpt>
   <trkpt lat="41.1521635789" lon="70.2176142321"><ele>3421.705</ele></trkpt>
   <trkpt lat="41.152200585" lon="70.2176313312"><ele>3420.652</ele></trkpt>
   <trkpt lat="41.1522160915" lon="70.2177071874"><ele>3422.363</ele></trkpt>
   <trkpt lat="41.1522722922" lon="70.2178310719"><ele>3426.399</ele></trkpt>
   <trkpt lat="41.152304772" lon="70.2178635937"><ele>3422.256</ele></trkpt>
   <trkpt lat="41.1523286605" lon="70.2180469898"><ele>3424.053</ele></trkpt>
   <trkpt lat="41.1523686841" lon="70.2181037352"><ele>3423.009</ele></trkpt>
   <trkpt lat="41.1523739647" lon="70.2181641688"><ele>3426.547</ele></trkpt>
   <trkpt lat="41.1525443687" lon="70.2184824296"><ele>3425.29</ele></trkpt>
   <trkpt lat="41.1525741664" lon="70.2186095831"><ele>3425.913</ele></trkpt>
   <trkpt lat="41.152619261" lon="70.2186682564"><ele>3425.495</ele></trkpt>
   <trkpt lat="41.1526800718" lon="70.2188147721"><ele>3428.564</ele></trkpt>
   <trkpt lat="41.1527162816" lon="70.2189809852"><ele>3429.895</ele></trkpt>
   <trkpt lat="41.1528118772" lon="70.2191620343"><ele>3427.573</ele></trkpt>
   <trkpt lat="41.1528658985" lon="70.219326152"><ele>3437.348</ele></trkpt>
   <trkpt lat="41.1529758691" lon="70.2195695625"><ele>3437.433</ele></trkpt>
   <trkpt lat="41.1529951894" lon="70.219692525"><ele>3441.04</ele></trkpt>
   <trkpt lat="41.1530792599" lon="70.2198682935"><ele>3440.708</ele></trkpt>
   <trkpt lat="41.1530965685" lon="70.2198686288"><ele>3439.218</ele></trkpt>
   <trkpt lat="41.1531711675" lon="70.2201235225"><ele>3441.805</ele></trkpt>
   <trkpt lat="41.1533775718" lon="70.2204224211"><ele>3449.112</ele></trkpt>
   <trkpt lat="41.1534264802" lon="70.2206354891"><ele>3452.655</ele></trkpt>
   <trkpt lat="41.1535493589" lon="70.2207866986"><ele>3450.42</ele></trkpt>
   <trkpt lat="41.153602584" lon="70.2209098288"><ele>3452.734</ele></trkpt>
   <trkpt lat="41.1537364849" lon="70.2211126708"><ele>3459.002</ele></trkpt>
   <trkpt lat="41.1537802804" lon="70.2211541613"><ele>3459.754</ele></trkpt>
   <trkpt lat="41.153786483" lon="70.2212096495"><ele>3461.989</ele></trkpt>
   <trkpt lat="41.1538035821" lon="70.2212238987"><ele>3460.887</ele></trkpt>
   <trkpt lat="41.1537964993" lon="70.2212601923"><ele>3463.058</ele></trkpt>
   <trkpt lat="41.1538534963" lon="70.2213399881"><ele>3464.302</ele></trkpt>
   <trkpt lat="41.1539327891" lon="70.221408552"><ele>3469.044</ele></trkpt>
   <trkpt lat="41.1540207991" lon="70.2216193569"><ele>3473.934</ele></trkpt>
   <trkpt lat="41.1541287999" lon="70.2217705664"><ele>3477.94</ele></trkpt>
   <trkpt lat="41.1541397802" lon="70.2217565686"><ele>3475.879</ele></trkpt>
   <trkpt lat="41.1542080927" lon="70.2218290721"><ele>3478.381</ele></trkpt>
   <trkpt lat="41.1542563725" lon="70.2219280624"><ele>3480.17</ele></trkpt>
   <trkpt lat="41.1544027624" lon="70.2221170743"><ele>3490.969</ele></trkpt>
   <trkpt lat="41.1544268604" lon="70.2221951936"><ele>3488.234</ele></trkpt>
   <trkpt lat="41.1544546883" lon="70.2222081856"><ele>3487.932</ele></trkpt>
   <trkpt lat="41.1544775709" lon="70.2222652663"><ele>3493.564</ele></trkpt>
   <trkpt lat="41.1545031776" lon="70.2222861373"><ele>3493.012</ele></trkpt>
   <trkpt lat="41.1545239647" lon="70.2223705431"><ele>3496.411</ele></trkpt>
   <trkpt lat="41.1546031737" lon="70.2224353352"><ele>3494.536</ele></trkpt>
   <trkpt lat="41.1545985637" lon="70.2224952658"><ele>3499.012</ele></trkpt>
   <trkpt lat="41.1546328876" lon="70.2225831919"><ele>3503.525</ele></trkpt>
   <trkpt lat="41.1546662894" lon="70.2225863771"><ele>3502.528</ele></trkpt>
   <trkpt lat="41.1547098753" lon="70.2226940845"><ele>3505.616</ele></trkpt>
   <trkpt lat="41.1548568939" lon="70.2228453779"><ele>3508.625</ele></trkpt>
   <trkpt lat="41.1548442792" lon="70.2229077392"><ele>3509.213</ele></trkpt>
   <trkpt lat="41.1548532897" lon="70.2228477248"><ele>3508.983</ele></trkpt>
   <trkpt lat="41.1548923913" lon="70.2229589527"><ele>3511.949</ele></trkpt>
   <trkpt lat="41.1548842608" lon="70.222987032"><ele>3511.468</ele></trkpt>
   <trkpt lat="41.1549159863" lon="70.2230488905"><ele>3512.75</ele></trkpt>
   <trkpt lat="41.1549077721" lon="70.2230773889"><ele>3513.985</ele></trkpt>
   <trkpt lat="41.1549227757" lon="70.2230919735"><ele>3516.859</ele></trkpt>
   <trkpt lat="41.1549310738" lon="70.2230667439"><ele>3514.515</ele></trkpt>
   <trkpt lat="41.1549269666" lon="70.223091722"><ele>3513.124</ele></trkpt>
   <trkpt lat="41.1548735739" lon="70.2231022832"><ele>3515.145</ele></trkpt>
   <trkpt lat="41.1548844704" lon="70.2231141855"><ele>3515.524</ele></trkpt>
   <trkpt lat="41.1549051737" lon="70.2230908838"><ele>3514.155</ele></trkpt>
   <trkpt lat="41.1548946963" lon="70.223081077"><ele>3515.835</ele></trkpt>
   <trkpt lat="41.15490597" lon="70.223119047"><ele>3515.512</ele></trkpt>
   <trkpt lat="41.154879567" lon="70.2230686718"><ele>3512.852</ele></trkpt>
   <trkpt lat="41.154892978" lon="70.2230875311"><ele>3515.123</ele></trkpt>
   <trkpt lat="41.154895283" lon="70.2230735333"><ele>3514.671</ele></trkpt>
   <trkpt lat="41.154908275" lon="70.2231258363"><ele>3516.639</ele></trkpt>
   <trkpt lat="41.1549182914" lon="70.2231202205"><ele>3516.96</ele></trkpt>
   <trkpt lat="41.1549006894" lon="70.2231031214"><ele>3515.834</ele></trkpt>
   <trkpt lat="41.1548761723" lon="70.2231311169"><ele>3515.929</ele></trkpt>
   <trkpt lat="41.154881872" lon="70.2231058874"><ele>3516.458</ele></trkpt>
   <trkpt lat="41.1549227757" lon="70.2231092402"><ele>3514.268</ele></trkpt>
   <trkpt lat="41.1549120888" lon="70.2230708511"><ele>3515.126</ele></trkpt>
   <trkpt lat="41.1548832969" lon="70.2230775566"><ele>3515.768</ele></trkpt>
   <trkpt lat="41.1549043774" lon="70.2230858547"><ele>3513.948</ele></trkpt>
   <trkpt lat="41.1548829616" lon="70.2231179574"><ele>3515.522</ele></trkpt>
   <trkpt lat="41.1548798603" lon="70.2230990981"><ele>3516.043</ele></trkpt>
   <trkpt lat="41.1549200935" lon="70.2231094916"><ele>3517.681</ele></trkpt>
   <trkpt lat="41.1549322891" lon="70.2230760478"><ele>3516.274</ele></trkpt>
   <trkpt lat="41.1548670779" lon="70.2230830886"><ele>3514.452</ele></trkpt>
   <trkpt lat="41.1549376955" lon="70.2230791491"><ele>3514.038</ele></trkpt>
   <trkpt lat="41.1549113763" lon="70.2230684203"><ele>3513.247</ele></trkpt>
   <trkpt lat="41.1549076883" lon="70.2231078991"><ele>3514.728</ele></trkpt>
   <trkpt lat="41.1548944868" lon="70.2231049654"><ele>3514.191</ele></trkpt>
   <trkpt lat="41.1548974623" lon="70.2230886207"><ele>3515.206</ele></trkpt>
   <trkpt lat="41.1548836741" lon="70.2231119224"><ele>3516.069</ele></trkpt>
   <trkpt lat="41.1548702631" lon="70.2231068932"><ele>3516.511</ele></trkpt>
   <trkpt lat="41.1548921817" lon="70.2231565979"><ele>3515.338</ele></trkpt>
   <trkpt lat="41.1548820815" lon="70.2231519879"><ele>3515.673</ele></trkpt>
   <trkpt lat="41.1548918884" lon="70.2231564303"><ele>3515.671</ele></trkpt>
   <trkpt lat="41.1548715622" lon="70.2231028699"><ele>3515.988</ele></trkpt>
   <trkpt lat="41.1548936905" lon="70.2230869443"><ele>3515.788</ele></trkpt>
   <trkpt lat="41.1548708917" lon="70.2231006906"><ele>3515.249</ele></trkpt>
   <trkpt lat="41.1549004798" lon="70.2231057198"><ele>3515.269</ele></trkpt>
   <trkpt lat="41.154906892" lon="70.2230676659"><ele>3514.404</ele></trkpt>
   <trkpt lat="41.1549324987" lon="70.2230721922"><ele>3513.155</ele></trkpt>
   <trkpt lat="41.1548867754" lon="70.2231021994"><ele>3515.69</ele></trkpt>
   <trkpt lat="41.154851278" lon="70.2229658258"><ele>3513.225</ele></trkpt>
   <trkpt lat="41.1548621745" lon="70.2230062266"><ele>3512.513</ele></trkpt>
   <trkpt lat="41.1549011923" lon="70.2230196376"><ele>3513.435</ele></trkpt>
   <trkpt lat="41.1549251645" lon="70.2230937337"><ele>3516.306</ele></trkpt>
   <trkpt lat="41.154911963" lon="70.2230923926"><ele>3513.915</ele></trkpt>
   <trkpt lat="41.1549132622" lon="70.2231377387"><ele>3512.038</ele></trkpt>
   <trkpt lat="41.154923572" lon="70.2231292729"><ele>3513.632</ele></trkpt>
   <trkpt lat="41.1549097837" lon="70.2231002715"><ele>3512.659</ele></trkpt>
   <trkpt lat="41.1549173693" lon="70.2230667439"><ele>3512.668</ele></trkpt>
   <trkpt lat="41.1548874879" lon="70.2230544225"><ele>3514.78</ele></trkpt>
   <trkpt lat="41.1548785611" lon="70.2230654866"><ele>3513.748</ele></trkpt>
   <trkpt lat="41.154897169" lon="70.2230798197"><ele>3513.099</ele></trkpt>
   <trkpt lat="41.1548741606" lon="70.2230811608"><ele>3513.831</ele></trkpt>
   <trkpt lat="41.1548863982" lon="70.2230525785"><ele>3513.407</ele></trkpt>
   <trkpt lat="41.1548991806" lon="70.2230736171"><ele>3513.621</ele></trkpt>
   <trkpt lat="41.1548844704" lon="70.2230070648"><ele>3515.667</ele></trkpt>
   <trkpt lat="41.154886482" lon="70.2230484714"><ele>3514.378</ele></trkpt>
   <trkpt lat="41.1549065986" lon="70.2230762993"><ele>3514.325</ele></trkpt>
   <trkpt lat="41.1548917626" lon="70.2230763831"><ele>3515.562</ele></trkpt>
   <trkpt lat="41.1549278886" lon="70.2230955777"><ele>3514.651</ele></trkpt>
   <trkpt lat="41.1548926846" lon="70.2230811608"><ele>3514.623</ele></trkpt>
   <trkpt lat="41.1549171598" lon="70.2230897942"><ele>3513.962</ele></trkpt>
   <trkpt lat="41.1549038745" lon="70.2230812446"><ele>3514.614</ele></trkpt>
   <trkpt lat="41.154895283" lon="70.2230973379"><ele>3513.027</ele></trkpt>
   <trkpt lat="41.1548970851" lon="70.223075964"><ele>3514.143</ele></trkpt>
   <trkpt lat="41.1549183752" lon="70.2230906324"><ele>3513.828</ele></trkpt>
   <trkpt lat="41.1549413835" lon="70.2230799873"><ele>3516.833</ele></trkpt>
   <trkpt lat="41.1549270924" lon="70.2231220645"><ele>3516.792</ele></trkpt>
   <trkpt lat="41.1549010665" lon="70.223122735"><ele>3514.822</ele></trkpt>
   <trkpt lat="41.1549073949" lon="70.2231012774"><ele>3514.562</ele></trkpt>
   <trkpt lat="41.15490597" lon="70.2231367328"><ele>3515.215</ele></trkpt>
   <trkpt lat="41.1549073949" lon="70.2230865252"><ele>3514.228</ele></trkpt>
   <trkpt lat="41.1549249969" lon="70.2230800712"><ele>3515.088</ele></trkpt>
   <trkpt lat="41.1548960793" lon="70.2230805741"><ele>3514.961</ele></trkpt>
   <trkpt lat="41.1549078978" lon="70.2230995172"><ele>3516.563</ele></trkpt>
   <trkpt lat="41.1549169922" lon="70.2230814961"><ele>3513.404</ele></trkpt>
   <trkpt lat="41.1548992644" lon="70.2230813284"><ele>3514.392</ele></trkpt>
   <trkpt lat="41.1549355581" lon="70.2230891236"><ele>3512.862</ele></trkpt>
   <trkpt lat="41.1549469994" lon="70.2230726951"><ele>3514.779</ele></trkpt>
   <trkpt lat="41.1549051737" lon="70.2229896304"><ele>3512.106</ele></trkpt>
   <trkpt lat="41.1548703888" lon="70.2229731181"><ele>3512.73</ele></trkpt>
   <trkpt lat="41.1548760885" lon="70.2229535882"><ele>3512.471</ele></trkpt>
   <trkpt lat="41.1548523677" lon="70.2229424403"><ele>3510.943</ele></trkpt>
   <trkpt lat="41.1548740768" lon="70.223008825"><ele>3510.777</ele></trkpt>
   <trkpt lat="41.1549202611" lon="70.2230630559"><ele>3514.663</ele></trkpt>
   <trkpt lat="41.1548655692" lon="70.2230658219"><ele>3511.761</ele></trkpt>
   <trkpt lat="41.1549083588" lon="70.2230987628"><ele>3512.49</ele></trkpt>
   <trkpt lat="41.1549124659" lon="70.2230740362"><ele>3514.085</ele></trkpt>
   <trkpt lat="41.1549220632" lon="70.2230923926"><ele>3512.583</ele></trkpt>
   <trkpt lat="41.1549268828" lon="70.2230724436"><ele>3511.791</ele></trkpt>
   <trkpt lat="41.1549227757" lon="70.2230907162"><ele>3514.989</ele></trkpt>
   <trkpt lat="41.1549393718" lon="70.2230780595"><ele>3513.177</ele></trkpt>
   <trkpt lat="41.1548914693" lon="70.2230431908"><ele>3511.315</ele></trkpt>
   <trkpt lat="41.1548649825" lon="70.2230508183"><ele>3514.724</ele></trkpt>
   <trkpt lat="41.1548609591" lon="70.2230752935"><ele>3514.521</ele></trkpt>
   <trkpt lat="41.1548807823" lon="70.2230934822"><ele>3513.817</ele></trkpt>
   <trkpt lat="41.1548843866" lon="70.223075042"><ele>3515.198</ele></trkpt>
   <trkpt lat="41.1548891642" lon="70.223093566"><ele>3513.52</ele></trkpt>
   <trkpt lat="41.1548461651" lon="70.2230493934"><ele>3514.528</ele></trkpt>
   <trkpt lat="41.1548449916" lon="70.222993989"><ele>3515.416</ele></trkpt>
   <trkpt lat="41.1548460813" lon="70.2230304503"><ele>3511.793</ele></trkpt>
   <trkpt lat="41.1548809919" lon="70.2230251697"><ele>3512.31</ele></trkpt>
   <trkpt lat="41.1549486758" lon="70.2230858547"><ele>3512.814</ele></trkpt>
   </trkseg>
 </trk>
</gpx>