<?xml version='1.0' encoding='utf-8'?>
<gpx xmlns="http://www.topografix.com/GPX/1/1" xmlns:ns2="https://gurumaps.app/gpx/v3" xmlns:xsi="http://www.w3.org/2001/XMLSchema-instance" version="1.1" creator="com.bodunov.galileo/v5.7.3" xsi:schemaLocation="http://www.topografix.com/GPX/1/1 http://www.topografix.com/GPX/1/1/gpx.xsd https://gurumaps.app/gpx/v3 https://gurumaps.app/gpx/v3/schema.xsd">
 <trk>
  <name>Temirtosh | Темирташ</name>
  <type>TrackStyle_E53935C8</type>
  <extensions>
   <ns2:time>2025-06-21T01:20:32.408Z</ns2:time>
  </extensions>
  <trkseg>
   <trkpt lat="42.1519651618" lon="70.8733641288"><ele>2184.843</ele></trkpt>
   <trkpt lat="42.1518605975" lon="70.873510393"><ele>2184.891</ele></trkpt>
   <trkpt lat="42.1517230924" lon="70.8735836508"><ele>2186.597</ele></trkpt>
   <trkpt lat="42.1515779598" lon="70.8735854949"><ele>2188.695</ele></trkpt>
   <trkpt lat="42.1514323661" lon="70.8735049448"><ele>2188.573</ele></trkpt>
   <trkpt lat="42.1512922626" lon="70.8735629475"><ele>2189.553</ele></trkpt>
   <trkpt lat="42.1510275621" lon="70.8737205273"><ele>2188.281</ele></trkpt>
   <trkpt lat="42.1508790767" lon="70.8737409792"><ele>2188.476</ele></trkpt>
   <trkpt lat="42.1507219998" lon="70.8737204435"><ele>2188.715</ele></trkpt>
   <trkpt lat="42.1505805971" lon="70.8736535559"><ele>2192.294</ele></trkpt>
   <trkpt lat="42.1504325727" lon="70.8736473533"><ele>2192.305</ele></trkpt>
   <trkpt lat="42.1501382841" lon="70.8736890952"><ele>2191.805</ele></trkpt>
   <trkpt lat="42.1495657582" lon="70.8738995648"><ele>2191.094</ele></trkpt>
   <trkpt lat="42.1494148839" lon="70.8738950385"><ele>2186.147</ele></trkpt>
   <trkpt lat="42.1492699608" lon="70.8738447471"><ele>2180.264</ele></trkpt>
   <trkpt lat="42.1491319947" lon="70.8739167477"><ele>2178.38</ele></trkpt>
   <trkpt lat="42.1489910949" lon="70.8738658695"><ele>2179.36</ele></trkpt>
   <trkpt lat="42.1485484885" lon="70.8739366966"><ele>2187.794</ele></trkpt>
   <trkpt lat="42.1482549962" lon="70.8739139816"><ele>2195.2</ele></trkpt>
   <trkpt lat="42.1481147669" lon="70.8739636863"><ele>2200.909</ele></trkpt>
   <trkpt lat="42.1480297744" lon="70.8738042625"><ele>2202.755</ele></trkpt>
   <trkpt lat="42.1477582846" lon="70.8736524663"><ele>2198.564</ele></trkpt>
   <trkpt lat="42.147378291" lon="70.8733481194"><ele>2201.506</ele></trkpt>
   <trkpt lat="42.1472394867" lon="70.8732756997"><ele>2202.61</ele></trkpt>
   <trkpt lat="42.1471161889" lon="70.873171345"><ele>2203.352</ele></trkpt>
   <trkpt lat="42.1470101997" lon="70.8730361449"><ele>2203.72</ele></trkpt>
   <trkpt lat="42.146758575" lon="70.8728262621"><ele>2205.578</ele></trkpt>
   <trkpt lat="42.1466254704" lon="70.8727397608"><ele>2205.341</ele></trkpt>
   <trkpt lat="42.1464845706" lon="70.8726796626"><ele>2207.929</ele></trkpt>
   <trkpt lat="42.146347275" lon="70.8725931613"><ele>2206.253</ele></trkpt>
   <trkpt lat="42.145912799" lon="70.8724379285"><ele>2208.583</ele></trkpt>
   <trkpt lat="42.1457577757" lon="70.8724380961"><ele>2207.237</ele></trkpt>
   <trkpt lat="42.1456161635" lon="70.8723912413"><ele>2207.695</ele></trkpt>
   <trkpt lat="42.1453189831" lon="70.8723638325"><ele>2209.043</ele></trkpt>
   <trkpt lat="42.1450211741" lon="70.8723871342"><ele>2210.376</ele></trkpt>
   <trkpt lat="42.1448723953" lon="70.8724396887"><ele>2210.063</ele></trkpt>
   <trkpt lat="42.1447268855" lon="70.8724371741"><ele>2209.82</ele></trkpt>
   <trkpt lat="42.1445990614" lon="70.8725453845"><ele>2211.146</ele></trkpt>
   <trkpt lat="42.144319064" lon="70.8726934927"><ele>2212.078</ele></trkpt>
   <trkpt lat="42.1441739732" lon="70.8727448738"><ele>2212.488</ele></trkpt>
   <trkpt lat="42.1440213807" lon="70.8727402637"><ele>2213.303</ele></trkpt>
   <trkpt lat="42.1438945625" lon="70.8728389187"><ele>2213.31</ele></trkpt>
   <trkpt lat="42.143752573" lon="70.8729120928"><ele>2213.404</ele></trkpt>
   <trkpt lat="42.1434554765" lon="70.8728687583"><ele>2217.216</ele></trkpt>
   <trkpt lat="42.1431508781" lon="70.8728876176"><ele>2216.824</ele></trkpt>
   <trkpt lat="42.1425619656" lon="70.8730676609"><ele>2219.659</ele></trkpt>
   <trkpt lat="42.1422660844" lon="70.8731062176"><ele>2216.759</ele></trkpt>
   <trkpt lat="42.1420978596" lon="70.8734536475"><ele>2209.274</ele></trkpt>
   <trkpt lat="42.1419840753" lon="70.8736200283"><ele>2207.729</ele></trkpt>
   <trkpt lat="42.141854994" lon="70.8737082897"><ele>2205.013</ele></trkpt>
   <trkpt lat="42.1417441852" lon="70.8738493572"><ele>2202.111</ele></trkpt>
   <trkpt lat="42.141593772" lon="70.8738448309"><ele>2199.793</ele></trkpt>
   <trkpt lat="42.1414767606" lon="70.8737242992"><ele>2199.836</ele></trkpt>
   <trkpt lat="42.141433971" lon="70.8735390591"><ele>2209.458</ele></trkpt>
   <trkpt lat="42.1414923929" lon="70.8729519906"><ele>2218.004</ele></trkpt>
   <trkpt lat="42.1414160756" lon="70.8727806645"><ele>2218.927</ele></trkpt>
   <trkpt lat="42.1413150737" lon="70.8726228333"><ele>2224.63</ele></trkpt>
   <trkpt lat="42.141245462" lon="70.8724361683"><ele>2228.692</ele></trkpt>
   <trkpt lat="42.1411396824" lon="70.8722967772"><ele>2230.255</ele></trkpt>
   <trkpt lat="42.1409916999" lon="70.8719363554"><ele>2242.99</ele></trkpt>
   <trkpt lat="42.1408852916" lon="70.8718052624"><ele>2239.748</ele></trkpt>
   <trkpt lat="42.1407425897" lon="70.8717735788"><ele>2236.675</ele></trkpt>
   <trkpt lat="42.140598882" lon="70.8716985608"><ele>2236.719</ele></trkpt>
   <trkpt lat="42.1405061781" lon="70.8715436632"><ele>2237.106</ele></trkpt>
   <trkpt lat="42.1402225764" lon="70.8714348661"><ele>2236.41</ele></trkpt>
   <trkpt lat="42.1401062775" lon="70.8713077965"><ele>2236.223</ele></trkpt>
   <trkpt lat="42.1400378812" lon="70.8711371409"><ele>2238.489</ele></trkpt>
   <trkpt lat="42.1398249809" lon="70.8708756256"><ele>2240.905</ele></trkpt>
   <trkpt lat="42.1397443889" lon="70.8706990189"><ele>2241.877</ele></trkpt>
   <trkpt lat="42.1396297663" lon="70.8705667524"><ele>2241.416</ele></trkpt>
   <trkpt lat="42.1394863939" lon="70.8705006192"><ele>2242.928</ele></trkpt>
   <trkpt lat="42.1392688835" lon="70.8702319792"><ele>2243.573</ele></trkpt>
   <trkpt lat="42.1390157919" lon="70.8700081824"><ele>2241.721</ele></trkpt>
   <trkpt lat="42.1388415741" lon="70.8696838866"><ele>2246.667</ele></trkpt>
   <trkpt lat="42.1387675619" lon="70.869506777"><ele>2244.078</ele></trkpt>
   <trkpt lat="42.1385144703" lon="70.8692817229"><ele>2243.302</ele></trkpt>
   <trkpt lat="42.1384030748" lon="70.8691515519"><ele>2243.102</ele></trkpt>
   <trkpt lat="42.1382979657" lon="70.8689979954"><ele>2242.978</ele></trkpt>
   <trkpt lat="42.1381270587" lon="70.8686455364"><ele>2240.266</ele></trkpt>
   <trkpt lat="42.1380294934" lon="70.8684924828"><ele>2239.148</ele></trkpt>
   <trkpt lat="42.1379114762" lon="70.8683800815"><ele>2240.667</ele></trkpt>
   <trkpt lat="42.1378380926" lon="70.8681993677"><ele>2237.546</ele></trkpt>
   <trkpt lat="42.1377420779" lon="70.868050086"><ele>2234.776</ele></trkpt>
   <trkpt lat="42.1376669761" lon="70.8678832861"><ele>2233.892</ele></trkpt>
   <trkpt lat="42.1374841668" lon="70.8673401388"><ele>2234.604</ele></trkpt>
   <trkpt lat="42.1372956997" lon="70.8670378874"><ele>2230.594</ele></trkpt>
   <trkpt lat="42.1372410916" lon="70.8668510547"><ele>2231.708</ele></trkpt>
   <trkpt lat="42.1371448673" lon="70.8666905413"><ele>2231.092</ele></trkpt>
   <trkpt lat="42.1368653728" lon="70.8665125935"><ele>2232.501</ele></trkpt>
   <trkpt lat="42.1367482776" lon="70.8663913912"><ele>2229.068</ele></trkpt>
   <trkpt lat="42.1365976967" lon="70.8663640662"><ele>2226.42</ele></trkpt>
   <trkpt lat="42.1363248657" lon="70.8662036365"><ele>2224.694</ele></trkpt>
   <trkpt lat="42.1362044597" lon="70.8660850326"><ele>2224.989</ele></trkpt>
   <trkpt lat="42.1359288627" lon="70.8659233457"><ele>2221.416</ele></trkpt>
   <trkpt lat="42.1356904814" lon="70.8656918375"><ele>2227.524</ele></trkpt>
   <trkpt lat="42.1354335761" lon="70.8655030771"><ele>2227.649</ele></trkpt>
   <trkpt lat="42.1351833762" lon="70.8650040186"><ele>2226.002</ele></trkpt>
   <trkpt lat="42.1350620901" lon="70.8646431776"><ele>2226.409</ele></trkpt>
   <trkpt lat="42.1348214876" lon="70.864121488"><ele>2227.724</ele></trkpt>
   <trkpt lat="42.1347637782" lon="70.863939433"><ele>2226.323</ele></trkpt>
   <trkpt lat="42.1346758939" lon="70.8637770756"><ele>2228.055</ele></trkpt>
   <trkpt lat="42.1345316833" lon="70.8637424583"><ele>2228.732</ele></trkpt>
   <trkpt lat="42.134397489" lon="70.8636714636"><ele>2228.379</ele></trkpt>
   <trkpt lat="42.1342515601" lon="70.863625866"><ele>2228.876</ele></trkpt>
   <trkpt lat="42.1339769689" lon="70.8637619882"><ele>2229.128</ele></trkpt>
   <trkpt lat="42.1338275615" lon="70.8638073343"><ele>2230.838</ele></trkpt>
   <trkpt lat="42.1333953906" lon="70.8636784206"><ele>2230.824</ele></trkpt>
   <trkpt lat="42.1332513895" lon="70.863659226"><ele>2230.898</ele></trkpt>
   <trkpt lat="42.1331099868" lon="70.8635770834"><ele>2232.222</ele></trkpt>
   <trkpt lat="42.1328790653" lon="70.8633278894"><ele>2230.747</ele></trkpt>
   <trkpt lat="42.1327381655" lon="70.8632821242"><ele>2232.839</ele></trkpt>
   <trkpt lat="42.1326301647" lon="70.8631511989"><ele>2232.383</ele></trkpt>
   <trkpt lat="42.1325364969" lon="70.8629924456"><ele>2230.853</ele></trkpt>
   <trkpt lat="42.132411397" lon="70.8628944612"><ele>2233.127</ele></trkpt>
   <trkpt lat="42.1322620734" lon="70.8628676391"><ele>2234.638</ele></trkpt>
   <trkpt lat="42.1321745664" lon="70.8627043596"><ele>2234.64</ele></trkpt>
   <trkpt lat="42.1320211775" lon="70.8627051978"><ele>2238.971</ele></trkpt>
   <trkpt lat="42.1318757934" lon="70.8626675631"><ele>2238.092</ele></trkpt>
   <trkpt lat="42.131747676" lon="70.8625752783"><ele>2240.179</ele></trkpt>
   <trkpt lat="42.1314619789" lon="70.8625040321"><ele>2241.3</ele></trkpt>
   <trkpt lat="42.1310668979" lon="70.8622266749"><ele>2242.52</ele></trkpt>
   <trkpt lat="42.1307869842" lon="70.8620921454"><ele>2244.691</ele></trkpt>
   <trkpt lat="42.1306446595" lon="70.8620601265"><ele>2242.589</ele></trkpt>
   <trkpt lat="42.1304111816" lon="70.8618180572"><ele>2246.022</ele></trkpt>
   <trkpt lat="42.130197485" lon="70.8615222598"><ele>2247.285</ele></trkpt>
   <trkpt lat="42.1299370592" lon="70.8613304819"><ele>2244.483</ele></trkpt>
   <trkpt lat="42.1295789843" lon="70.8609990614"><ele>2242.347</ele></trkpt>
   <trkpt lat="42.1293708617" lon="70.8607265657"><ele>2237.967</ele></trkpt>
   <trkpt lat="42.1293237973" lon="70.8605329438"><ele>2241.278</ele></trkpt>
   <trkpt lat="42.1292464742" lon="70.8603573429"><ele>2237.399</ele></trkpt>
   <trkpt lat="42.1291143754" lon="70.8601763776"><ele>2241.203</ele></trkpt>
   <trkpt lat="42.1290432969" lon="70.8600036266"><ele>2240.268</ele></trkpt>
   <trkpt lat="42.1285250857" lon="70.8596276982"><ele>2241.876</ele></trkpt>
   <trkpt lat="42.1282506622" lon="70.8594984493"><ele>2240.409</ele></trkpt>
   <trkpt lat="42.1279687788" lon="70.8593924182"><ele>2243.643</ele></trkpt>
   <trkpt lat="42.1278210897" lon="70.8593706253"><ele>2242.92</ele></trkpt>
   <trkpt lat="42.1276937686" lon="70.8592690366"><ele>2244.948</ele></trkpt>
   <trkpt lat="42.127552282" lon="70.8592224332"><ele>2244.056</ele></trkpt>
   <trkpt lat="42.1274298643" lon="70.8591127979"><ele>2246.15</ele></trkpt>
   <trkpt lat="42.1273524994" lon="70.858943232"><ele>2244.102</ele></trkpt>
   <trkpt lat="42.1272430736" lon="70.8585783678"><ele>2246.335</ele></trkpt>
   <trkpt lat="42.1273722807" lon="70.858484239"><ele>2243.037</ele></trkpt>
   <trkpt lat="42.1274890825" lon="70.8586033458"><ele>2242.237</ele></trkpt>
   <trkpt lat="42.1276311977" lon="70.8586511227"><ele>2241.907</ele></trkpt>
   <trkpt lat="42.1277699601" lon="70.8587237938"><ele>2241.244</ele></trkpt>
   <trkpt lat="42.127923768" lon="70.8587609256"><ele>2237.606</ele></trkpt>
   <trkpt lat="42.1279412862" lon="70.8585674713"><ele>2238.003</ele></trkpt>
   <trkpt lat="42.1279152604" lon="70.8583763639"><ele>2240.718</ele></trkpt>
   <trkpt lat="42.1277660625" lon="70.8583568341"><ele>2244.134</ele></trkpt>
   <trkpt lat="42.1276434772" lon="70.8582464444"><ele>2242.449</ele></trkpt>
   <trkpt lat="42.1275103725" lon="70.8581615357"><ele>2242.524</ele></trkpt>
   <trkpt lat="42.1274015754" lon="70.8580130922"><ele>2238.655</ele></trkpt>
   <trkpt lat="42.1272642799" lon="70.857916868"><ele>2244.918</ele></trkpt>
   <trkpt lat="42.127199362" lon="70.8577297839"><ele>2244.179</ele></trkpt>
   <trkpt lat="42.1269281655" lon="70.8575784905"><ele>2247.43</ele></trkpt>
   <trkpt lat="42.1268281694" lon="70.8574331483"><ele>2243.551</ele></trkpt>
   <trkpt lat="42.1266867667" lon="70.8573790851"><ele>2250.182</ele></trkpt>
   <trkpt lat="42.1265354734" lon="70.857350419"><ele>2249.907</ele></trkpt>
   <trkpt lat="42.1260959683" lon="70.8572185716"><ele>2251.908</ele></trkpt>
   <trkpt lat="42.1259834831" lon="70.8570918372"><ele>2251.791</ele></trkpt>
   <trkpt lat="42.1259179786" lon="70.8569087765"><ele>2252.237</ele></trkpt>
   <trkpt lat="42.1259093871" lon="70.856695038"><ele>2252.012</ele></trkpt>
   <trkpt lat="42.1257833652" lon="70.8563354543"><ele>2252.098</ele></trkpt>
   <trkpt lat="42.1257949741" lon="70.8561381443"><ele>2254.16</ele></trkpt>
   <trkpt lat="42.1257570879" lon="70.8559447738"><ele>2255.647</ele></trkpt>
   <trkpt lat="42.1256841654" lon="70.8557754594"><ele>2259.353</ele></trkpt>
   <trkpt lat="42.1255642623" lon="70.8556611302"><ele>2259.319</ele></trkpt>
   <trkpt lat="42.1254748693" lon="70.8554896365"><ele>2259.586</ele></trkpt>
   <trkpt lat="42.1254971651" lon="70.8552927455"><ele>2258.824</ele></trkpt>
   <trkpt lat="42.1254299842" lon="70.8551046556"><ele>2257.05</ele></trkpt>
   <trkpt lat="42.12527538" lon="70.8547632607"><ele>2259.607</ele></trkpt>
   <trkpt lat="42.1251563988" lon="70.854646417"><ele>2258.054</ele></trkpt>
   <trkpt lat="42.1249948796" lon="70.8540726757"><ele>2261.094</ele></trkpt>
   <trkpt lat="42.1249164669" lon="70.8539004276"><ele>2257.851</ele></trkpt>
   <trkpt lat="42.1248009642" lon="70.8537687479"><ele>2263.417</ele></trkpt>
   <trkpt lat="42.1247298857" lon="70.8535912192"><ele>2258.695</ele></trkpt>
   <trkpt lat="42.1247128704" lon="70.8533915623"><ele>2266.182</ele></trkpt>
   <trkpt lat="42.1246036961" lon="70.8532593797"><ele>2267.495</ele></trkpt>
   <trkpt lat="42.1244745729" lon="70.8531507502"><ele>2267.743</ele></trkpt>
   <trkpt lat="42.1243699668" lon="70.8530134546"><ele>2270.069</ele></trkpt>
   <trkpt lat="42.1243484672" lon="70.8528194974"><ele>2268.056</ele></trkpt>
   <trkpt lat="42.1242857706" lon="70.8526324971"><ele>2270.081</ele></trkpt>
   <trkpt lat="42.1240746723" lon="70.8523583251"><ele>2273.186</ele></trkpt>
   <trkpt lat="42.1239770651" lon="70.8522049362"><ele>2270.15</ele></trkpt>
   <trkpt lat="42.1238611853" lon="70.8520728374"><ele>2274.466</ele></trkpt>
   <trkpt lat="42.1237754803" lon="70.8519152577"><ele>2275.37</ele></trkpt>
   <trkpt lat="42.1236642943" lon="70.8517849191"><ele>2277.68</ele></trkpt>
   <trkpt lat="42.1235345844" lon="70.8516848391"><ele>2277.174</ele></trkpt>
   <trkpt lat="42.1232871925" lon="70.8511841881"><ele>2280.51</ele></trkpt>
   <trkpt lat="42.1230560615" lon="70.8509298811"><ele>2292.336</ele></trkpt>
   <trkpt lat="42.122957197" lon="70.8507854609"><ele>2290.006</ele></trkpt>
   <trkpt lat="42.1229313807" lon="70.8503934393"><ele>2296.671</ele></trkpt>
   <trkpt lat="42.1227967674" lon="70.850288917"><ele>2295.476</ele></trkpt>
   <trkpt lat="42.122701968" lon="70.8501321754"><ele>2299.077</ele></trkpt>
   <trkpt lat="42.1226467732" lon="70.8499458457"><ele>2298.562</ele></trkpt>
   <trkpt lat="42.1223456953" lon="70.8492392513"><ele>2297.196</ele></trkpt>
   <trkpt lat="42.1223053783" lon="70.8490498202"><ele>2299.752</ele></trkpt>
   <trkpt lat="42.1221644785" lon="70.8486314795"><ele>2303.231</ele></trkpt>
   <trkpt lat="42.1221542945" lon="70.8484370193"><ele>2305.258</ele></trkpt>
   <trkpt lat="42.1219601696" lon="70.848146754"><ele>2297.42</ele></trkpt>
   <trkpt lat="42.1218550605" lon="70.8477707418"><ele>2295.618</ele></trkpt>
   <trkpt lat="42.1217652904" lon="70.8476174368"><ele>2288.326</ele></trkpt>
   <trkpt lat="42.1216542721" lon="70.8474915406"><ele>2295.109</ele></trkpt>
   <trkpt lat="42.1215175632" lon="70.847425575"><ele>2290.117</ele></trkpt>
   <trkpt lat="42.1213690778" lon="70.8474142595"><ele>2291.185</ele></trkpt>
   <trkpt lat="42.1212673634" lon="70.8472672409"><ele>2296.085</ele></trkpt>
   <trkpt lat="42.1211189618" lon="70.847236647"><ele>2294.607</ele></trkpt>
   <trkpt lat="42.1208091667" lon="70.846811433"><ele>2298.045</ele></trkpt>
   <trkpt lat="42.1206808816" lon="70.8466937511"><ele>2296.958</ele></trkpt>
   <trkpt lat="42.1205397723" lon="70.8466464771"><ele>2301.72</ele></trkpt>
   <trkpt lat="42.1204098947" lon="70.8465607303"><ele>2296.72</ele></trkpt>
   <trkpt lat="42.1202677795" lon="70.8465306392"><ele>2298.437</ele></trkpt>
   <trkpt lat="42.1200087787" lon="70.8467235907"><ele>2300.727</ele></trkpt>
   <trkpt lat="42.1198922703" lon="70.846855438"><ele>2304.663</ele></trkpt>
   <trkpt lat="42.1197479758" lon="70.8468656639"><ele>2304.871</ele></trkpt>
   <trkpt lat="42.1196971815" lon="70.8466667614"><ele>2297.24</ele></trkpt>
   <trkpt lat="42.1197148673" lon="70.8464741452"><ele>2298.052</ele></trkpt>
   <trkpt lat="42.1197071979" lon="70.8462745721"><ele>2297.129</ele></trkpt>
   <trkpt lat="42.1195813855" lon="70.8461748275"><ele>2292.43</ele></trkpt>
   <trkpt lat="42.1193030644" lon="70.84605044"><ele>2298.323</ele></trkpt>
   <trkpt lat="42.1191576803" lon="70.8460801958"><ele>2295.809</ele></trkpt>
   <trkpt lat="42.1190528646" lon="70.8459437384"><ele>2303.556</ele></trkpt>
   <trkpt lat="42.1189113781" lon="70.8458923573"><ele>2307.12</ele></trkpt>
   <trkpt lat="42.1187655749" lon="70.8459090373"><ele>2306.323</ele></trkpt>
   <trkpt lat="42.1186175924" lon="70.8458630207"><ele>2300.487</ele></trkpt>
   <trkpt lat="42.1184726693" lon="70.8458521242"><ele>2305.6</ele></trkpt>
   <trkpt lat="42.1183408638" lon="70.8457675508"><ele>2302.709</ele></trkpt>
   <trkpt lat="42.1181255746" lon="70.8454910318"><ele>2306.778</ele></trkpt>
   <trkpt lat="42.1179988822" lon="70.845394137"><ele>2308.868</ele></trkpt>
   <trkpt lat="42.1175812958" lon="70.8451947315"><ele>2319.936</ele></trkpt>
   <trkpt lat="42.1174291642" lon="70.8452099866"><ele>2321.314</ele></trkpt>
   <trkpt lat="42.1172861689" lon="70.8452511417"><ele>2319.995</ele></trkpt>
   <trkpt lat="42.1171474904" lon="70.8453247348"><ele>2321.333</ele></trkpt>
   <trkpt lat="42.1167135592" lon="70.8453981603"><ele>2325.463</ele></trkpt>
   <trkpt lat="42.1164169656" lon="70.8453670634"><ele>2324.24</ele></trkpt>
   <trkpt lat="42.1159764966" lon="70.8453622858"><ele>2326.776</ele></trkpt>
   <trkpt lat="42.1158319926" lon="70.8454268264"><ele>2327.919</ele></trkpt>
   <trkpt lat="42.1156772626" lon="70.8454592644"><ele>2327.944</ele></trkpt>
   <trkpt lat="42.1153927808" lon="70.8453704162"><ele>2330.601</ele></trkpt>
   <trkpt lat="42.1151326904" lon="70.8451821587"><ele>2331.803</ele></trkpt>
   <trkpt lat="42.1150279585" lon="70.8450400854"><ele>2327.843</ele></trkpt>
   <trkpt lat="42.1148833707" lon="70.8446986905"><ele>2332.104</ele></trkpt>
   <trkpt lat="42.1147783873" lon="70.8445403563"><ele>2332.42</ele></trkpt>
   <trkpt lat="42.1146509824" lon="70.8444494965"><ele>2334.823</ele></trkpt>
   <trkpt lat="42.1145082805" lon="70.8443905717"><ele>2329.778</ele></trkpt>
   <trkpt lat="42.1143923588" lon="70.8445089242"><ele>2333.78</ele></trkpt>
   <trkpt lat="42.1142467651" lon="70.8445084213"><ele>2330.982</ele></trkpt>
   <trkpt lat="42.1141007943" lon="70.8444769892"><ele>2335.487</ele></trkpt>
   <trkpt lat="42.1139826933" lon="70.8443631629"><ele>2341.187</ele></trkpt>
   <trkpt lat="42.1138445595" lon="70.8442933417"><ele>2346.591</ele></trkpt>
   <trkpt lat="42.1137035759" lon="70.8442380211"><ele>2346.942</ele></trkpt>
   <trkpt lat="42.1135575631" lon="70.8442493367"><ele>2354.011</ele></trkpt>
   <trkpt lat="42.1134088682" lon="70.8442204191"><ele>2355.564</ele></trkpt>
   <trkpt lat="42.1132753864" lon="70.8441434732"><ele>2353.056</ele></trkpt>
   <trkpt lat="42.1131614763" lon="70.8440170741"><ele>2351.134</ele></trkpt>
   <trkpt lat="42.113011566" lon="70.8439853905"><ele>2349.783</ele></trkpt>
   <trkpt lat="42.1128801796" lon="70.8438953689"><ele>2351.101</ele></trkpt>
   <trkpt lat="42.112731778" lon="70.8438634338"><ele>2356.171</ele></trkpt>
   <trkpt lat="42.1126056723" lon="70.8437576542"><ele>2358.177</ele></trkpt>
   <trkpt lat="42.1124864816" lon="70.8435712407"><ele>2359.571</ele></trkpt>
   <trkpt lat="42.1122350665" lon="70.8430942266"><ele>2368.161</ele></trkpt>
   <trkpt lat="42.1121302927" lon="70.8429563443"><ele>2375.473</ele></trkpt>
   <trkpt lat="42.1120612677" lon="70.8427839285"><ele>2378.891</ele></trkpt>
   <trkpt lat="42.1118124928" lon="70.8425704415"><ele>2385.826</ele></trkpt>
   <trkpt lat="42.1114071859" lon="70.8423505841"><ele>2383.647</ele></trkpt>
   <trkpt lat="42.1112663699" lon="70.8423014662"><ele>2377.349</ele></trkpt>
   <trkpt lat="42.1111359894" lon="70.8422004642"><ele>2374.463</ele></trkpt>
   <trkpt lat="42.1111149927" lon="70.842002819"><ele>2371.573</ele></trkpt>
   <trkpt lat="42.1109705725" lon="70.8419750749"><ele>2368.494</ele></trkpt>
   <trkpt lat="42.1108347857" lon="70.8420399508"><ele>2368.386</ele></trkpt>
   <trkpt lat="42.110704489" lon="70.8419453191"><ele>2370.101</ele></trkpt>
   <trkpt lat="42.1104947738" lon="70.8416613402"><ele>2377.42</ele></trkpt>
   <trkpt lat="42.1102553867" lon="70.8414297483"><ele>2383.55</ele></trkpt>
   <trkpt lat="42.1101594977" lon="70.841274683"><ele>2384.98</ele></trkpt>
   <trkpt lat="42.1100491918" lon="70.8411443444"><ele>2391.061</ele></trkpt>
   <trkpt lat="42.1097766962" lon="70.8409974935"><ele>2388.979</ele></trkpt>
   <trkpt lat="42.109337694" lon="70.840836561"><ele>2385.653</ele></trkpt>
   <trkpt lat="42.1090656593" lon="70.840690632"><ele>2379.785</ele></trkpt>
   <trkpt lat="42.1089227898" lon="70.8407574358"><ele>2377.924</ele></trkpt>
   <trkpt lat="42.1087891822" lon="70.8406731977"><ele>2378.478</ele></trkpt>
   <trkpt lat="42.1086847856" lon="70.8403040587"><ele>2383.397</ele></trkpt>
   <trkpt lat="42.1085629966" lon="70.8401952616"><ele>2385.212</ele></trkpt>
   <trkpt lat="42.1084227673" lon="70.8401503346"><ele>2383.373</ele></trkpt>
   <trkpt lat="42.1082854718" lon="70.8400757356"><ele>2385.97</ele></trkpt>
   <trkpt lat="42.1081386627" lon="70.8400476562"><ele>2382.785</ele></trkpt>
   <trkpt lat="42.108042187" lon="70.8399001347"><ele>2384.466</ele></trkpt>
   <trkpt lat="42.1079209847" lon="70.8397909185"><ele>2385.029</ele></trkpt>
   <trkpt lat="42.1076326892" lon="70.8398474964"><ele>2395.038</ele></trkpt>
   <trkpt lat="42.1075003808" lon="70.8397608275"><ele>2395.481</ele></trkpt>
   <trkpt lat="42.1072167791" lon="70.8396506893"><ele>2398.753</ele></trkpt>
   <trkpt lat="42.1070744963" lon="70.8396152339"><ele>2398.636</ele></trkpt>
   <trkpt lat="42.1069339737" lon="70.8396586521"><ele>2400.123</ele></trkpt>
   <trkpt lat="42.1067122724" lon="70.8393973882"><ele>2390.866</ele></trkpt>
   <trkpt lat="42.1065758988" lon="70.8393165866"><ele>2391.083</ele></trkpt>
   <trkpt lat="42.1064179837" lon="70.839323376"><ele>2399.649</ele></trkpt>
   <trkpt lat="42.1062697917" lon="70.8392989846"><ele>2395.51</ele></trkpt>
   <trkpt lat="42.1061302749" lon="70.839242323"><ele>2391.653</ele></trkpt>
   <trkpt lat="42.1058436976" lon="70.8391196957"><ele>2390.275</ele></trkpt>
   <trkpt lat="42.1057525864" lon="70.8389677318"><ele>2388.83</ele></trkpt>
   <trkpt lat="42.1056119799" lon="70.8389079689"><ele>2392.332</ele></trkpt>
   <trkpt lat="42.1054664701" lon="70.8388883552"><ele>2393.327</ele></trkpt>
   <trkpt lat="42.105321086" lon="70.8389244812"><ele>2393.503</ele></trkpt>
   <trkpt lat="42.1050328742" lon="70.8388943902"><ele>2391.006</ele></trkpt>
   <trkpt lat="42.1047389628" lon="70.8388116608"><ele>2383.761</ele></trkpt>
   <trkpt lat="42.1044807583" lon="70.8386272589"><ele>2382.163</ele></trkpt>
   <trkpt lat="42.1043350808" lon="70.8385640594"><ele>2380.056</ele></trkpt>
   <trkpt lat="42.1041899901" lon="70.8385407577"><ele>2379.59</ele></trkpt>
   <trkpt lat="42.1039353898" lon="70.8383341438"><ele>2374.939</ele></trkpt>
   <trkpt lat="42.1038539596" lon="70.838172373"><ele>2375.68</ele></trkpt>
   <trkpt lat="42.1038002735" lon="70.8379918268"><ele>2373.569</ele></trkpt>
   <trkpt lat="42.1038598688" lon="70.8378151363"><ele>2374.945</ele></trkpt>
   <trkpt lat="42.1039738627" lon="70.8376850492"><ele>2376.656</ele></trkpt>
   <trkpt lat="42.1042589731" lon="70.8375842987"><ele>2377.431</ele></trkpt>
   <trkpt lat="42.1043800916" lon="70.8374716459"><ele>2377.179</ele></trkpt>
   <trkpt lat="42.1045113941" lon="70.8373843903"><ele>2379.648</ele></trkpt>
   <trkpt lat="42.1046335604" lon="70.837258578"><ele>2376.697</ele></trkpt>
   <trkpt lat="42.1047783997" lon="70.8372250503"><ele>2372.872</ele></trkpt>
   <trkpt lat="42.1046251785" lon="70.837212226"><ele>2378.162</ele></trkpt>
   <trkpt lat="42.1041500922" lon="70.837671722"><ele>2372.142</ele></trkpt>
   <trkpt lat="42.1039999723" lon="70.8377048305"><ele>2372.289</ele></trkpt>
   <trkpt lat="42.1038609585" lon="70.8377936787"><ele>2374.412</ele></trkpt>
   </trkseg>
 </trk>
</gpx>