<?xml version='1.0' encoding='utf-8'?>
<gpx xmlns="http://www.topografix.com/GPX/1/1" xmlns:ns2="https://gurumaps.app/gpx/v3" xmlns:xsi="http://www.w3.org/2001/XMLSchema-instance" version="1.1" creator="Guru Maps/5.7.5" xsi:schemaLocation="http://www.topografix.com/GPX/1/1 http://www.topografix.com/GPX/1/1/gpx.xsd https://gurumaps.app/gpx/v3 https://gurumaps.app/gpx/v3/schema.xsd">
 <trk>
  <desc>Черный водопад</desc>
  <type>TrackStyle_2196F3C8</type>
  <extensions>
   <ns2:time>2025-04-14T12:33:54.946Z</ns2:time>
  </extensions>
  <trkseg>
   <trkpt lat="41.5180779927" lon="70.0251731113"><ele>1763.824</ele></trkpt>
   <trkpt lat="41.5180710776" lon="70.0252068066"><ele>1763.152</ele></trkpt>
   <trkpt lat="41.5179890188" lon="70.0253262487"><ele>1763.925</ele></trkpt>
   <trkpt lat="41.5178804312" lon="70.0255671446"><ele>1766.853</ele></trkpt>
   <trkpt lat="41.5178968597" lon="70.0255758618"><ele>1767.601</ele></trkpt>
   <trkpt lat="41.5178720074" lon="70.0256160111"><ele>1768.379</ele></trkpt>
   <trkpt lat="41.5178409525" lon="70.025820781"><ele>1770.689</ele></trkpt>
   <trkpt lat="41.5178496277" lon="70.0258081243"><ele>1770.773</ele></trkpt>
   <trkpt lat="41.5178174831" lon="70.0258487765"><ele>1770.439</ele></trkpt>
   <trkpt lat="41.517801348" lon="70.0259333499"><ele>1771.162</ele></trkpt>
   <trkpt lat="41.5177662278" lon="70.0259874132"><ele>1772.475</ele></trkpt>
   <trkpt lat="41.5176922994" lon="70.0261756707"><ele>1774.202</ele></trkpt>
   <trkpt lat="41.5176685786" lon="70.0263012317"><ele>1775.475</ele></trkpt>
   <trkpt lat="41.5176527787" lon="70.0263297301"><ele>1775.343</ele></trkpt>
   <trkpt lat="41.5176039122" lon="70.0263563846"><ele>1778.13</ele></trkpt>
   <trkpt lat="41.5175051315" lon="70.026518742"><ele>1781.439</ele></trkpt>
   <trkpt lat="41.5174674129" lon="70.0265531917"><ele>1782.924</ele></trkpt>
   <trkpt lat="41.5173708953" lon="70.0267478195"><ele>1784.363</ele></trkpt>
   <trkpt lat="41.5173158681" lon="70.0269854464"><ele>1787.808</ele></trkpt>
   <trkpt lat="41.5171827635" lon="70.0274004344"><ele>1791.411</ele></trkpt>
   <trkpt lat="41.5170501618" lon="70.0276540708"><ele>1795.674</ele></trkpt>
   <trkpt lat="41.5169969786" lon="70.0278315995"><ele>1796.455</ele></trkpt>
   <trkpt lat="41.516827748" lon="70.0280957971"><ele>1800.126</ele></trkpt>
   <trkpt lat="41.5167716731" lon="70.0281449989"><ele>1801.66</ele></trkpt>
   <trkpt lat="41.5166039931" lon="70.0283677061"><ele>1805.492</ele></trkpt>
   <trkpt lat="41.5165074336" lon="70.0285551254"><ele>1808.46</ele></trkpt>
   <trkpt lat="41.5164709304" lon="70.028584965"><ele>1809.46</ele></trkpt>
   <trkpt lat="41.5164860178" lon="70.0286236894"><ele>1809.639</ele></trkpt>
   <trkpt lat="41.5163290248" lon="70.028781353"><ele>1812.658</ele></trkpt>
   <trkpt lat="41.5161159149" lon="70.0289417826"><ele>1817.904</ele></trkpt>
   <trkpt lat="41.5160452135" lon="70.0289789983"><ele>1820.123</ele></trkpt>
   <trkpt lat="41.5159931619" lon="70.0289829378"><ele>1821.234</ele></trkpt>
   <trkpt lat="41.5158056168" lon="70.0290855323"><ele>1825.104</ele></trkpt>
   <trkpt lat="41.5157675211" lon="70.0291406014"><ele>1825.135</ele></trkpt>
   <trkpt lat="41.5157301378" lon="70.0291488156"><ele>1827.625</ele></trkpt>
   <trkpt lat="41.5156168564" lon="70.0292534218"><ele>1830.962</ele></trkpt>
   <trkpt lat="41.5155618292" lon="70.0292609655"><ele>1831.314</ele></trkpt>
   <trkpt lat="41.5155039102" lon="70.0293125142"><ele>1832.214</ele></trkpt>
   <trkpt lat="41.5154694606" lon="70.0293050543"><ele>1834.305</ele></trkpt>
   <trkpt lat="41.5154368969" lon="70.0293275178"><ele>1834.927</ele></trkpt>
   <trkpt lat="41.5153585261" lon="70.0293099158"><ele>1836.403</ele></trkpt>
   <trkpt lat="41.5152571051" lon="70.0293472153"><ele>1838.255</ele></trkpt>
   <trkpt lat="41.5150976813" lon="70.0293299485"><ele>1843.391</ele></trkpt>
   <trkpt lat="41.5148471881" lon="70.0294645619"><ele>1848.017</ele></trkpt>
   <trkpt lat="41.5147612317" lon="70.0294723571"><ele>1850.313</ele></trkpt>
   <trkpt lat="41.5145340402" lon="70.0296078086"><ele>1855.452</ele></trkpt>
   <trkpt lat="41.5145076372" lon="70.0296493829"><ele>1857.408</ele></trkpt>
   <trkpt lat="41.5144259136" lon="70.0296842516"><ele>1859.537</ele></trkpt>
   <trkpt lat="41.5144106586" lon="70.029711409"><ele>1861.794</ele></trkpt>
   <trkpt lat="41.5143342156" lon="70.0297385663"><ele>1862.377</ele></trkpt>
   <trkpt lat="41.5142783921" lon="70.0299777858"><ele>1865.316</ele></trkpt>
   <trkpt lat="41.5140522903" lon="70.0302282371"><ele>1876.6</ele></trkpt>
   <trkpt lat="41.5140594987" lon="70.030246342"><ele>1876.182</ele></trkpt>
   <trkpt lat="41.5140466325" lon="70.0302621838"><ele>1877.512</ele></trkpt>
   <trkpt lat="41.5140642764" lon="70.0303044286"><ele>1876.769</ele></trkpt>
   <trkpt lat="41.5140534638" lon="70.0302908499"><ele>1879.279</ele></trkpt>
   <trkpt lat="41.5140427768" lon="70.0303020817"><ele>1879.756</ele></trkpt>
   <trkpt lat="41.5140266417" lon="70.0303962943"><ele>1882.594</ele></trkpt>
   <trkpt lat="41.5139937846" lon="70.0304155726"><ele>1882.647</ele></trkpt>
   <trkpt lat="41.5139977241" lon="70.030434851"><ele>1883.457</ele></trkpt>
   <trkpt lat="41.5139893003" lon="70.0304209371"><ele>1884.77</ele></trkpt>
   <trkpt lat="41.5139239215" lon="70.0304766767"><ele>1885.328</ele></trkpt>
   <trkpt lat="41.513896345" lon="70.0304707256"><ele>1885.79</ele></trkpt>
   <trkpt lat="41.5137822673" lon="70.0305843842"><ele>1887.37</ele></trkpt>
   <trkpt lat="41.5137197383" lon="70.0306157325"><ele>1889.741</ele></trkpt>
   <trkpt lat="41.5136655912" lon="70.0306091946"><ele>1890.761</ele></trkpt>
   <trkpt lat="41.5136369251" lon="70.0306490087"><ele>1889.39</ele></trkpt>
   <trkpt lat="41.5135383958" lon="70.0306677841"><ele>1891.74</ele></trkpt>
   <trkpt lat="41.5134401599" lon="70.0307334144"><ele>1893.697</ele></trkpt>
   <trkpt lat="41.5132847594" lon="70.030773899"><ele>1898.882</ele></trkpt>
   <trkpt lat="41.513178896" lon="70.0308542815"><ele>1901.617</ele></trkpt>
   <trkpt lat="41.5130046781" lon="70.0309291319"><ele>1907.179</ele></trkpt>
   <trkpt lat="41.5129276484" lon="70.0309903197"><ele>1908.771</ele></trkpt>
   <trkpt lat="41.512860216" lon="70.0310069997"><ele>1910.072</ele></trkpt>
   <trkpt lat="41.5128291611" lon="70.0310456403"><ele>1910.18</ele></trkpt>
   <trkpt lat="41.5127346551" lon="70.0310834427"><ele>1912.806</ele></trkpt>
   <trkpt lat="41.5126574159" lon="70.0311378412"><ele>1915.238</ele></trkpt>
   <trkpt lat="41.5126530154" lon="70.0311249331"><ele>1916.91</ele></trkpt>
   <trkpt lat="41.512645765" lon="70.0311468099"><ele>1916.612</ele></trkpt>
   <trkpt lat="41.5125903607" lon="70.0311571196"><ele>1918.994</ele></trkpt>
   <trkpt lat="41.5124311464" lon="70.0312505778"><ele>1923.096</ele></trkpt>
   <trkpt lat="41.512401684" lon="70.0312503264"><ele>1923.195</ele></trkpt>
   <trkpt lat="41.512376706" lon="70.0313006178"><ele>1925.752</ele></trkpt>
   <trkpt lat="41.512199764" lon="70.0313933217"><ele>1928.428</ele></trkpt>
   <trkpt lat="41.5121447787" lon="70.0313866161"><ele>1930.259</ele></trkpt>
   <trkpt lat="41.5121134723" lon="70.0314278551"><ele>1930.721</ele></trkpt>
   <trkpt lat="41.5120934395" lon="70.0314127677"><ele>1931.959</ele></trkpt>
   <trkpt lat="41.512027935" lon="70.0314172101"><ele>1935.846</ele></trkpt>
   <trkpt lat="41.511869056" lon="70.0314831757"><ele>1941.101</ele></trkpt>
   <trkpt lat="41.5117647013" lon="70.0314631429"><ele>1945.062</ele></trkpt>
   <trkpt lat="41.5117502006" lon="70.0314664118"><ele>1944.695</ele></trkpt>
   <trkpt lat="41.5117435789" lon="70.0314958323"><ele>1943.7</ele></trkpt>
   <trkpt lat="41.5117446266" lon="70.0314721115"><ele>1944.491</ele></trkpt>
   <trkpt lat="41.5117310899" lon="70.0314913061"><ele>1944.887</ele></trkpt>
   <trkpt lat="41.511727779" lon="70.0314612989"><ele>1945.183</ele></trkpt>
   <trkpt lat="41.5117143261" lon="70.0314593711"><ele>1945.903</ele></trkpt>
   <trkpt lat="41.5116377993" lon="70.031476973"><ele>1948.404</ele></trkpt>
   <trkpt lat="41.5115841132" lon="70.0315476325"><ele>1950.786</ele></trkpt>
   <trkpt lat="41.5115668046" lon="70.0315495603"><ele>1951.985</ele></trkpt>
   <trkpt lat="41.511570786" lon="70.0315381609"><ele>1951.611</ele></trkpt>
   <trkpt lat="41.5115313491" lon="70.0315703474"><ele>1950.683</ele></trkpt>
   <trkpt lat="41.5115073769" lon="70.0315458723"><ele>1952.234</ele></trkpt>
   <trkpt lat="41.5114667246" lon="70.0315796514"><ele>1954.809</ele></trkpt>
   <trkpt lat="41.5114440097" lon="70.0315782264"><ele>1955.516</ele></trkpt>
   <trkpt lat="41.5114241446" lon="70.0315939844"><ele>1958.858</ele></trkpt>
   <trkpt lat="41.5114340352" lon="70.0316179567"><ele>1959.396</ele></trkpt>
   <trkpt lat="41.511370668" lon="70.0316762947"><ele>1960.829</ele></trkpt>
   <trkpt lat="41.5113814807" lon="70.0316778873"><ele>1960.332</ele></trkpt>
   <trkpt lat="41.5113010982" lon="70.0317409192"><ele>1960.57</ele></trkpt>
   <trkpt lat="41.511291962" lon="70.0317150191"><ele>1963.15</ele></trkpt>
   <trkpt lat="41.5113300577" lon="70.0317141809"><ele>1967.0</ele></trkpt>
   <trkpt lat="41.5111869786" lon="70.031724323"><ele>1970.207</ele></trkpt>
   <trkpt lat="41.5110707216" lon="70.0317917135"><ele>1970.491</ele></trkpt>
   <trkpt lat="41.510991345" lon="70.031804454"><ele>1974.244</ele></trkpt>
   <trkpt lat="41.510856564" lon="70.0318647199"><ele>1982.871</ele></trkpt>
   <trkpt lat="41.5107674225" lon="70.0319409952"><ele>1979.987</ele></trkpt>
   <trkpt lat="41.5107633572" lon="70.031924902"><ele>1981.491</ele></trkpt>
   <trkpt lat="41.5106964696" lon="70.0319589325"><ele>1982.06</ele></trkpt>
   <trkpt lat="41.5105961802" lon="70.0319646322"><ele>1991.505</ele></trkpt>
   <trkpt lat="41.5105906062" lon="70.0319826533"><ele>1991.173</ele></trkpt>
   <trkpt lat="41.5105595093" lon="70.0319652189"><ele>1994.87</ele></trkpt>
   <trkpt lat="41.5105488643" lon="70.0319843296"><ele>1994.812</ele></trkpt>
   <trkpt lat="41.5104529334" lon="70.0319928792"><ele>1999.364</ele></trkpt>
   <trkpt lat="41.5104180647" lon="70.0320548215"><ele>2000.618</ele></trkpt>
   <trkpt lat="41.5104291288" lon="70.0320505467"><ele>2000.556</ele></trkpt>
   <trkpt lat="41.5104487425" lon="70.0321044423"><ele>2001.863</ele></trkpt>
   <trkpt lat="41.5104603933" lon="70.0321104773"><ele>2001.6</ele></trkpt>
   <trkpt lat="41.5104611058" lon="70.0320901093"><ele>2003.626</ele></trkpt>
   <trkpt lat="41.5104951782" lon="70.0321111478"><ele>2006.873</ele></trkpt>
   <trkpt lat="41.5105034344" lon="70.0321243912"><ele>2006.514</ele></trkpt>
   <trkpt lat="41.510480468" lon="70.0321279116"><ele>2007.31</ele></trkpt>
   <trkpt lat="41.5104947591" lon="70.0321588409"><ele>2006.473</ele></trkpt>
   <trkpt lat="41.5104388099" lon="70.0321404007"><ele>2008.386</ele></trkpt>
   <trkpt lat="41.5104370078" lon="70.0321527221"><ele>2008.84</ele></trkpt>
   <trkpt lat="41.5104316015" lon="70.0321371317"><ele>2008.082</ele></trkpt>
   <trkpt lat="41.5104299251" lon="70.0321510457"><ele>2007.045</ele></trkpt>
   <trkpt lat="41.5103922904" lon="70.0321427476"><ele>2012.217</ele></trkpt>
   <trkpt lat="41.5103752332" lon="70.0321591761"><ele>2011.811</ele></trkpt>
   <trkpt lat="41.5103782088" lon="70.0321442564"><ele>2012.264</ele></trkpt>
   <trkpt lat="41.5103718804" lon="70.0321564939"><ele>2012.016</ele></trkpt>
   <trkpt lat="41.5103862554" lon="70.0321603496"><ele>2013.912</ele></trkpt>
   <trkpt lat="41.5103729282" lon="70.0321683962"><ele>2014.262</ele></trkpt>
   <trkpt lat="41.510378125" lon="70.0321538117"><ele>2014.358</ele></trkpt>
   <trkpt lat="41.5103754428" lon="70.0321720005"><ele>2015.226</ele></trkpt>
   <trkpt lat="41.5103857525" lon="70.0321669713"><ele>2015.379</ele></trkpt>
   <trkpt lat="41.5103565416" lon="70.0321797118"><ele>2015.042</ele></trkpt>
   <trkpt lat="41.5103440525" lon="70.0321943801"><ele>2016.684</ele></trkpt>
   <trkpt lat="41.5103542784" lon="70.0322044384"><ele>2014.625</ele></trkpt>
   <trkpt lat="41.5103065854" lon="70.0322550651"><ele>2015.131</ele></trkpt>
   <trkpt lat="41.5102566293" lon="70.0322683923"><ele>2018.21</ele></trkpt>
   <trkpt lat="41.5102582218" lon="70.032287084"><ele>2018.22</ele></trkpt>
   <trkpt lat="41.5102399493" lon="70.0322699849"><ele>2017.604</ele></trkpt>
   <trkpt lat="41.5102460681" lon="70.0322788697"><ele>2018.472</ele></trkpt>
   <trkpt lat="41.510208601" lon="70.0322732538"><ele>2019.188</ele></trkpt>
   <trkpt lat="41.5102042005" lon="70.0322939571"><ele>2019.475</ele></trkpt>
   <trkpt lat="41.5101599859" lon="70.0322938733"><ele>2019.976</ele></trkpt>
   <trkpt lat="41.5101451081" lon="70.0323198572"><ele>2019.967</ele></trkpt>
   <trkpt lat="41.510148377" lon="70.0323491939"><ele>2020.973</ele></trkpt>
   <trkpt lat="41.5101355527" lon="70.0323659577"><ele>2021.328</ele></trkpt>
   <trkpt lat="41.5101246143" lon="70.0323506188"><ele>2021.763</ele></trkpt>
   <trkpt lat="41.5101552082" lon="70.0323660415"><ele>2024.978</ele></trkpt>
   <trkpt lat="41.5101490475" lon="70.0323819671"><ele>2026.075</ele></trkpt>
   <trkpt lat="41.510135888" lon="70.0323946238"><ele>2026.396</ele></trkpt>
   <trkpt lat="41.5101291405" lon="70.0323744234"><ele>2025.385</ele></trkpt>
   <trkpt lat="41.5101275061" lon="70.0324072805"><ele>2029.383</ele></trkpt>
   <trkpt lat="41.5100950262" lon="70.0324196019"><ele>2029.999</ele></trkpt>
   <trkpt lat="41.5100686232" lon="70.0324859866"><ele>2028.29</ele></trkpt>
   <trkpt lat="41.5100644322" lon="70.0324630201"><ele>2027.222</ele></trkpt>
   <trkpt lat="41.5100440642" lon="70.0324633554"><ele>2028.071</ele></trkpt>
   <trkpt lat="41.5100626301" lon="70.0324565661"><ele>2029.963</ele></trkpt>
   <trkpt lat="41.5100533681" lon="70.0324624334"><ele>2028.835</ele></trkpt>
   <trkpt lat="41.5100510212" lon="70.0324332644"><ele>2028.903</ele></trkpt>
   <trkpt lat="41.5100656476" lon="70.0324700609"><ele>2029.347</ele></trkpt>
   <trkpt lat="41.5100456149" lon="70.0324713182"><ele>2028.366</ele></trkpt>
   <trkpt lat="41.5100417592" lon="70.0324404728"><ele>2028.619</ele></trkpt>
   <trkpt lat="41.5100427231" lon="70.0324579072"><ele>2027.277</ele></trkpt>
   <trkpt lat="41.5100564275" lon="70.0324515369"><ele>2028.463</ele></trkpt>
   <trkpt lat="41.5100489676" lon="70.0324675464"><ele>2028.997</ele></trkpt>
   <trkpt lat="41.5100703415" lon="70.0324692227"><ele>2028.649</ele></trkpt>
   <trkpt lat="41.5100516917" lon="70.0324610085"><ele>2028.562</ele></trkpt>
   <trkpt lat="41.510071012" lon="70.0325190951"><ele>2029.457</ele></trkpt>
   <trkpt lat="41.5100536615" lon="70.0325119705"><ele>2029.993</ele></trkpt>
   <trkpt lat="41.5100524042" lon="70.032532087"><ele>2029.848</ele></trkpt>
   <trkpt lat="41.5100340478" lon="70.0325341825"><ele>2030.01</ele></trkpt>
   <trkpt lat="41.5100130931" lon="70.0325206038"><ele>2030.272</ele></trkpt>
   </trkseg>
 </trk>
</gpx>