<?xml version='1.0' encoding='utf-8'?>
<gpx xmlns="http://www.topografix.com/GPX/1/1" version="1.1" creator="Sayr">
<trk><name>От верхней точки к подножью каскада</name><trkseg>
<trkpt lat="41.269780" lon="70.540396"><ele>2103.4</ele></trkpt>
<trkpt lat="41.269834" lon="70.540477"><ele>2103.9</ele></trkpt>
<trkpt lat="41.269915" lon="70.540654"><ele>2104.6</ele></trkpt>
<trkpt lat="41.269933" lon="70.540707"><ele>2104.8</ele></trkpt>
<trkpt lat="41.269949" lon="70.540859"><ele>2105.1</ele></trkpt>
<trkpt lat="41.269927" lon="70.540909"><ele>2104.8</ele></trkpt>
<trkpt lat="41.269771" lon="70.541108"><ele>2102.6</ele></trkpt>
<trkpt lat="41.269702" lon="70.541402"><ele>2102.4</ele></trkpt>
<trkpt lat="41.269701" lon="70.541500"><ele>2102.6</ele></trkpt>
<trkpt lat="41.269732" lon="70.541713"><ele>2103.2</ele></trkpt>
<trkpt lat="41.269794" lon="70.542012"><ele>2103.7</ele></trkpt>
<trkpt lat="41.269787" lon="70.542106"><ele>2103.5</ele></trkpt>
<trkpt lat="41.269541" lon="70.542607"><ele>2103.0</ele></trkpt>
<trkpt lat="41.269435" lon="70.542708"><ele>2103.4</ele></trkpt>
<trkpt lat="41.269366" lon="70.542819"><ele>2103.9</ele></trkpt>
<trkpt lat="41.269247" lon="70.542962"><ele>2104.7</ele></trkpt>
<trkpt lat="41.269131" lon="70.543033"><ele>2105.4</ele></trkpt>
<trkpt lat="41.268959" lon="70.543106"><ele>2106.5</ele></trkpt>
<trkpt lat="41.268816" lon="70.543250"><ele>2108.2</ele></trkpt>
<trkpt lat="41.268787" lon="70.543260"><ele>2108.4</ele></trkpt>
<trkpt lat="41.268769" lon="70.543300"><ele>2108.8</ele></trkpt>
<trkpt lat="41.268469" lon="70.543548"><ele>2111.9</ele></trkpt>
<trkpt lat="41.268381" lon="70.543643"><ele>2112.7</ele></trkpt>
<trkpt lat="41.268022" lon="70.543926"><ele>2114.6</ele></trkpt>
<trkpt lat="41.267811" lon="70.544140"><ele>2116.0</ele></trkpt>
<trkpt lat="41.267646" lon="70.544253"><ele>2117.0</ele></trkpt>
<trkpt lat="41.267571" lon="70.544287"><ele>2117.3</ele></trkpt>
<trkpt lat="41.267463" lon="70.544298"><ele>2117.4</ele></trkpt>
<trkpt lat="41.267443" lon="70.544284"><ele>2117.2</ele></trkpt>
<trkpt lat="41.267359" lon="70.544316"><ele>2117.6</ele></trkpt>
<trkpt lat="41.267318" lon="70.544352"><ele>2118.1</ele></trkpt>
<trkpt lat="41.267054" lon="70.544472"><ele>2119.4</ele></trkpt>
<trkpt lat="41.267010" lon="70.544507"><ele>2119.7</ele></trkpt>
<trkpt lat="41.266715" lon="70.544639"><ele>2118.4</ele></trkpt>
<trkpt lat="41.266514" lon="70.544705"><ele>2115.7</ele></trkpt>
<trkpt lat="41.266458" lon="70.544754"><ele>2114.8</ele></trkpt>
<trkpt lat="41.266388" lon="70.544774"><ele>2113.5</ele></trkpt>
<trkpt lat="41.266319" lon="70.544841"><ele>2112.1</ele></trkpt>
<trkpt lat="41.266233" lon="70.544868"><ele>2110.0</ele></trkpt>
<trkpt lat="41.266175" lon="70.544853"><ele>2108.6</ele></trkpt>
<trkpt lat="41.266142" lon="70.544887"><ele>2107.6</ele></trkpt>
<trkpt lat="41.266048" lon="70.544888"><ele>2104.8</ele></trkpt>
<trkpt lat="41.265957" lon="70.544842"><ele>2102.0</ele></trkpt>
<trkpt lat="41.265936" lon="70.544770"><ele>2101.6</ele></trkpt>
<trkpt lat="41.265909" lon="70.544778"><ele>2100.6</ele></trkpt>
<trkpt lat="41.265877" lon="70.544743"><ele>2099.5</ele></trkpt>
<trkpt lat="41.265842" lon="70.544735"><ele>2098.2</ele></trkpt>
<trkpt lat="41.265822" lon="70.544750"><ele>2097.4</ele></trkpt>
<trkpt lat="41.265754" lon="70.544743"><ele>2094.4</ele></trkpt>
<trkpt lat="41.265750" lon="70.544768"><ele>2094.2</ele></trkpt>
<trkpt lat="41.265736" lon="70.544764"><ele>2093.5</ele></trkpt>
<trkpt lat="41.265739" lon="70.544823"><ele>2093.4</ele></trkpt>
<trkpt lat="41.265795" lon="70.544928"><ele>2095.2</ele></trkpt>
<trkpt lat="41.265776" lon="70.544968"><ele>2093.9</ele></trkpt>
<trkpt lat="41.265792" lon="70.545002"><ele>2094.2</ele></trkpt>
<trkpt lat="41.265787" lon="70.545036"><ele>2093.4</ele></trkpt>
<trkpt lat="41.265814" lon="70.545055"><ele>2094.3</ele></trkpt>
<trkpt lat="41.265831" lon="70.545115"><ele>2094.0</ele></trkpt>
<trkpt lat="41.265819" lon="70.545157"><ele>2092.7</ele></trkpt>
<trkpt lat="41.265838" lon="70.545222"><ele>2092.1</ele></trkpt>
<trkpt lat="41.265823" lon="70.545332"><ele>2088.6</ele></trkpt>
<trkpt lat="41.265826" lon="70.545393"><ele>2086.9</ele></trkpt>
<trkpt lat="41.265846" lon="70.545410"><ele>2087.4</ele></trkpt>
<trkpt lat="41.265836" lon="70.545454"><ele>2085.5</ele></trkpt>
<trkpt lat="41.265827" lon="70.545468"><ele>2084.6</ele></trkpt>
<trkpt lat="41.265803" lon="70.545452"><ele>2083.9</ele></trkpt>
<trkpt lat="41.265792" lon="70.545501"><ele>2081.6</ele></trkpt>
<trkpt lat="41.265761" lon="70.545511"><ele>2079.5</ele></trkpt>
<trkpt lat="41.265734" lon="70.545561"><ele>2076.0</ele></trkpt>
<trkpt lat="41.265710" lon="70.545570"><ele>2074.3</ele></trkpt>
<trkpt lat="41.265710" lon="70.545589"><ele>2073.5</ele></trkpt>
<trkpt lat="41.265657" lon="70.545587"><ele>2070.3</ele></trkpt>
<trkpt lat="41.265600" lon="70.545656"><ele>2063.7</ele></trkpt>
<trkpt lat="41.265584" lon="70.545722"><ele>2059.9</ele></trkpt>
<trkpt lat="41.265562" lon="70.545730"><ele>2058.0</ele></trkpt>
<trkpt lat="41.265543" lon="70.545771"><ele>2055.0</ele></trkpt>
<trkpt lat="41.265493" lon="70.545717"><ele>2053.9</ele></trkpt>
<trkpt lat="41.265403" lon="70.545725"><ele>2047.4</ele></trkpt>
<trkpt lat="41.265342" lon="70.545698"><ele>2044.3</ele></trkpt>
<trkpt lat="41.265338" lon="70.545675"><ele>2045.0</ele></trkpt>
<trkpt lat="41.265288" lon="70.545704"><ele>2040.3</ele></trkpt>
<trkpt lat="41.265273" lon="70.545683"><ele>2040.2</ele></trkpt>
<trkpt lat="41.265253" lon="70.545698"><ele>2038.2</ele></trkpt>
<trkpt lat="41.265239" lon="70.545781"><ele>2033.5</ele></trkpt>
<trkpt lat="41.265250" lon="70.545808"><ele>2033.1</ele></trkpt>
<trkpt lat="41.265223" lon="70.545863"><ele>2028.9</ele></trkpt>
<trkpt lat="41.265218" lon="70.545928"><ele>2025.5</ele></trkpt>
<trkpt lat="41.265248" lon="70.546050"><ele>2021.0</ele></trkpt>
<trkpt lat="41.265232" lon="70.546125"><ele>2015.7</ele></trkpt>
<trkpt lat="41.265311" lon="70.546142"><ele>2019.6</ele></trkpt>
<trkpt lat="41.265305" lon="70.546171"><ele>2017.5</ele></trkpt>
<trkpt lat="41.265283" lon="70.546170"><ele>2016.2</ele></trkpt>
<trkpt lat="41.265274" lon="70.546195"><ele>2014.2</ele></trkpt>
<trkpt lat="41.265260" lon="70.546316"><ele>2006.5</ele></trkpt>
<trkpt lat="41.265217" lon="70.546396"><ele>2000.0</ele></trkpt>
<trkpt lat="41.265176" lon="70.546526"><ele>1992.4</ele></trkpt>
<trkpt lat="41.265186" lon="70.546551"><ele>1991.9</ele></trkpt>
<trkpt lat="41.265171" lon="70.546590"><ele>1990.0</ele></trkpt>
<trkpt lat="41.265192" lon="70.546633"><ele>1989.7</ele></trkpt>
<trkpt lat="41.265174" lon="70.546677"><ele>1987.9</ele></trkpt>
<trkpt lat="41.265204" lon="70.546709"><ele>1988.6</ele></trkpt>
<trkpt lat="41.265215" lon="70.546762"><ele>1988.2</ele></trkpt>
</trkseg></trk>
</gpx>