<?xml version='1.0' encoding='utf-8'?>
<gpx xmlns="http://www.topografix.com/GPX/1/1" xmlns:ns2="http://www.topografix.com/GPX/gpx_style/0/2" xmlns:xsi="http://www.w3.org/2001/XMLSchema-instance" creator="GaiaGPS" version="1.1" xsi:schemaLocation="http://www.topografix.com/GPX/1/1 http://www.topografix.com/GPX/1/1/gpx.xsd"><wpt lat="41.135877554372115" lon="70.24249021463369"><ele>2167</ele><name>Мои фото — 20/09/24, 19:33:25</name><sym>camera-24</sym></wpt><trk><name>Boboytog'dan tushish yangi yo'l</name><desc /><extensions><ns2:line><ns2:color>00A478</ns2:color></ns2:line></extensions><trkseg><trkpt lat="41.153698" lon="70.221773"><ele>3511.1</ele></trkpt><trkpt lat="41.15381" lon="70.221759"><ele>3515.6</ele></trkpt><trkpt lat="41.153827" lon="70.221709"><ele>3513.4</ele></trkpt><trkpt lat="41.153801" lon="70.221622"><ele>3508.0</ele></trkpt><trkpt lat="41.153738" lon="70.221514"><ele>3508.0</ele></trkpt><trkpt lat="41.153682" lon="70.221498"><ele>3507.0</ele></trkpt><trkpt lat="41.153534" lon="70.221364"><ele>3504.0</ele></trkpt><trkpt lat="41.153493" lon="70.221245"><ele>3503.0</ele></trkpt><trkpt lat="41.153448" lon="70.221171"><ele>3503.0</ele></trkpt><trkpt lat="41.153417" lon="70.221151"><ele>3502.0</ele></trkpt><trkpt lat="41.153337" lon="70.221196"><ele>3501.0</ele></trkpt><trkpt lat="41.153088" lon="70.220894"><ele>3497.0</ele></trkpt><trkpt lat="41.15295" lon="70.220895"><ele>3492.0</ele></trkpt><trkpt lat="41.152952" lon="70.220927"><ele>3496.0</ele></trkpt><trkpt lat="41.15292" lon="70.220932"><ele>3494.0</ele></trkpt><trkpt lat="41.15286" lon="70.220914"><ele>3492.6</ele></trkpt><trkpt lat="41.152792" lon="70.220978"><ele>3486.0</ele></trkpt><trkpt lat="41.15269" lon="70.221146"><ele>3471.0</ele></trkpt><trkpt lat="41.152633" lon="70.221189"><ele>3469.0</ele></trkpt><trkpt lat="41.152601" lon="70.221192"><ele>3465.0</ele></trkpt><trkpt lat="41.152455" lon="70.221305"><ele>3454.0</ele></trkpt><trkpt lat="41.152438" lon="70.221373"><ele>3450.0</ele></trkpt><trkpt lat="41.152409" lon="70.221408"><ele>3450.0</ele></trkpt><trkpt lat="41.152423" lon="70.22149"><ele>3445.0</ele></trkpt><trkpt lat="41.152318" lon="70.221583"><ele>3437.0</ele></trkpt><trkpt lat="41.152308" lon="70.221632"><ele>3438.0</ele></trkpt><trkpt lat="41.152246" lon="70.221645"><ele>3432.0</ele></trkpt><trkpt lat="41.152173" lon="70.221704"><ele>3428.0</ele></trkpt><trkpt lat="41.152082" lon="70.221828"><ele>3417.0</ele></trkpt><trkpt lat="41.152038" lon="70.221852"><ele>3406.0</ele></trkpt><trkpt lat="41.151981" lon="70.221847"><ele>3412.0</ele></trkpt><trkpt lat="41.151957" lon="70.221885"><ele>3408.7</ele></trkpt><trkpt lat="41.15191" lon="70.221854"><ele>3408.8</ele></trkpt><trkpt lat="41.151914" lon="70.221907"><ele>3403.0</ele></trkpt><trkpt lat="41.151859" lon="70.222009"><ele>3395.0</ele></trkpt><trkpt lat="41.151803" lon="70.221995"><ele>3393.0</ele></trkpt><trkpt lat="41.151779" lon="70.222014"><ele>3392.0</ele></trkpt><trkpt lat="41.151782" lon="70.22204"><ele>3391.0</ele></trkpt><trkpt lat="41.15161" lon="70.222066"><ele>3380.0</ele></trkpt><trkpt lat="41.151575" lon="70.22212"><ele>3375.0</ele></trkpt><trkpt lat="41.151562" lon="70.222198"><ele>3350.0</ele></trkpt><trkpt lat="41.151537" lon="70.22218"><ele>3365.0</ele></trkpt><trkpt lat="41.151496" lon="70.222247"><ele>3357.0</ele></trkpt><trkpt lat="41.151497" lon="70.222284"><ele>3360.0</ele></trkpt><trkpt lat="41.151464" lon="70.222297"><ele>3355.0</ele></trkpt><trkpt lat="41.151409" lon="70.222371"><ele>3348.0</ele></trkpt><trkpt lat="41.151431" lon="70.222475"><ele>3349.0</ele></trkpt><trkpt lat="41.151397" lon="70.222514"><ele>3348.0</ele></trkpt><trkpt lat="41.151403" lon="70.222484"><ele>3350.0</ele></trkpt><trkpt lat="41.151377" lon="70.222552"><ele>3355.0</ele></trkpt><trkpt lat="41.151329" lon="70.222604"><ele>3345.0</ele></trkpt><trkpt lat="41.151319" lon="70.222645"><ele>3343.0</ele></trkpt><trkpt lat="41.151274" lon="70.22267"><ele>3342.0</ele></trkpt><trkpt lat="41.151191" lon="70.222758"><ele>3333.0</ele></trkpt><trkpt lat="41.151169" lon="70.222834"><ele>3312.0</ele></trkpt><trkpt lat="41.151073" lon="70.22288"><ele>3321.0</ele></trkpt><trkpt lat="41.151042" lon="70.222848"><ele>3320.0</ele></trkpt><trkpt lat="41.150929" lon="70.222832"><ele>3321.0</ele></trkpt><trkpt lat="41.15084" lon="70.222791"><ele>3318.0</ele></trkpt><trkpt lat="41.150766" lon="70.222809"><ele>3315.0</ele></trkpt><trkpt lat="41.150777" lon="70.22293"><ele>3309.0</ele></trkpt><trkpt lat="41.150747" lon="70.222916"><ele>3306.0</ele></trkpt><trkpt lat="41.150569" lon="70.222965"><ele>3302.0</ele></trkpt><trkpt lat="41.150554" lon="70.222992"><ele>3297.0</ele></trkpt><trkpt lat="41.150572" lon="70.223044"><ele>3294.0</ele></trkpt><trkpt lat="41.15057" lon="70.223089"><ele>3291.0</ele></trkpt><trkpt lat="41.150479" lon="70.223039"><ele>3295.0</ele></trkpt><trkpt lat="41.150369" lon="70.223055"><ele>3294.0</ele></trkpt><trkpt lat="41.150318" lon="70.22313"><ele>3280.0</ele></trkpt><trkpt lat="41.150251" lon="70.223141"><ele>3282.0</ele></trkpt><trkpt lat="41.150243" lon="70.223185"><ele>3278.0</ele></trkpt><trkpt lat="41.1502" lon="70.223196"><ele>3276.0</ele></trkpt><trkpt lat="41.150214" lon="70.223267"><ele>3275.0</ele></trkpt><trkpt lat="41.150187" lon="70.223259"><ele>3276.0</ele></trkpt><trkpt lat="41.150179" lon="70.22331"><ele>3276.0</ele></trkpt><trkpt lat="41.150206" lon="70.223331"><ele>3276.0</ele></trkpt><trkpt lat="41.150196" lon="70.223385"><ele>3265.0</ele></trkpt><trkpt lat="41.150136" lon="70.223355"><ele>3264.4</ele></trkpt><trkpt lat="41.150141" lon="70.223379"><ele>3263.0</ele></trkpt><trkpt lat="41.150103" lon="70.223425"><ele>3257.0</ele></trkpt><trkpt lat="41.149991" lon="70.223446"><ele>3259.0</ele></trkpt><trkpt lat="41.149778" lon="70.223334"><ele>3255.0</ele></trkpt><trkpt lat="41.149744" lon="70.223566"><ele>3245.0</ele></trkpt><trkpt lat="41.149757" lon="70.223519"><ele>3246.0</ele></trkpt><trkpt lat="41.149771" lon="70.223555"><ele>3250.0</ele></trkpt><trkpt lat="41.149763" lon="70.223591"><ele>3252.0</ele></trkpt><trkpt lat="41.149751" lon="70.22357"><ele>3246.0</ele></trkpt><trkpt lat="41.14971" lon="70.223675"><ele>3240.0</ele></trkpt><trkpt lat="41.14978" lon="70.223946"><ele>3236.0</ele></trkpt><trkpt lat="41.149781" lon="70.22404"><ele>3223.0</ele></trkpt><trkpt lat="41.149758" lon="70.22404"><ele>3227.0</ele></trkpt><trkpt lat="41.149805" lon="70.224105"><ele>3230.0</ele></trkpt><trkpt lat="41.149812" lon="70.224211"><ele>3225.3</ele></trkpt><trkpt lat="41.149792" lon="70.224236"><ele>3220.0</ele></trkpt><trkpt lat="41.149814" lon="70.224385"><ele>3216.0</ele></trkpt><trkpt lat="41.14973" lon="70.224373"><ele>3210.0</ele></trkpt><trkpt lat="41.149712" lon="70.224467"><ele>3207.0</ele></trkpt><trkpt lat="41.149755" lon="70.224651"><ele>3209.1</ele></trkpt><trkpt lat="41.149726" lon="70.224778"><ele>3202.0</ele></trkpt><trkpt lat="41.149667" lon="70.224805"><ele>3195.0</ele></trkpt><trkpt lat="41.149656" lon="70.224895"><ele>3194.0</ele></trkpt><trkpt lat="41.149675" lon="70.225013"><ele>3191.0</ele></trkpt><trkpt lat="41.149644" lon="70.225084"><ele>3186.0</ele></trkpt><trkpt lat="41.149651" lon="70.225152"><ele>3188.7</ele></trkpt><trkpt lat="41.149625" lon="70.225126"><ele>3179.0</ele></trkpt><trkpt lat="41.149594" lon="70.225216"><ele>3180.0</ele></trkpt><trkpt lat="41.149598" lon="70.225253"><ele>3179.0</ele></trkpt><trkpt lat="41.149622" lon="70.225219"><ele>3175.0</ele></trkpt><trkpt lat="41.149519" lon="70.225212"><ele>3174.3</ele></trkpt><trkpt lat="41.149504" lon="70.225179"><ele>3172.0</ele></trkpt><trkpt lat="41.149464" lon="70.225295"><ele>3166.3</ele></trkpt><trkpt lat="41.149468" lon="70.225324"><ele>3164.0</ele></trkpt><trkpt lat="41.149379" lon="70.225216"><ele>3159.0</ele></trkpt><trkpt lat="41.149287" lon="70.225278"><ele>3155.0</ele></trkpt><trkpt lat="41.149256" lon="70.225313"><ele>3151.0</ele></trkpt><trkpt lat="41.149193" lon="70.22548"><ele>3142.0</ele></trkpt><trkpt lat="41.149158" lon="70.225479"><ele>3139.0</ele></trkpt><trkpt lat="41.149148" lon="70.22553"><ele>3132.0</ele></trkpt><trkpt lat="41.149124" lon="70.225505"><ele>3134.0</ele></trkpt><trkpt lat="41.149033" lon="70.225542"><ele>3124.0</ele></trkpt><trkpt lat="41.149025" lon="70.225677"><ele>3124.0</ele></trkpt><trkpt lat="41.149" lon="70.225699"><ele>3119.0</ele></trkpt><trkpt lat="41.14895" lon="70.22567"><ele>3119.0</ele></trkpt><trkpt lat="41.148935" lon="70.225725"><ele>3122.4</ele></trkpt><trkpt lat="41.148939" lon="70.225781"><ele>3120.0</ele></trkpt><trkpt lat="41.148892" lon="70.225769"><ele>3116.0</ele></trkpt><trkpt lat="41.148862" lon="70.22579"><ele>3114.0</ele></trkpt><trkpt lat="41.148874" lon="70.225892"><ele>3114.0</ele></trkpt><trkpt lat="41.148794" lon="70.225851"><ele>3114.0</ele></trkpt><trkpt lat="41.148751" lon="70.225898"><ele>3112.0</ele></trkpt><trkpt lat="41.148728" lon="70.226114"><ele>3105.0</ele></trkpt><trkpt lat="41.148664" lon="70.226144"><ele>3101.0</ele></trkpt><trkpt lat="41.148683" lon="70.226183"><ele>3102.0</ele></trkpt><trkpt lat="41.14863" lon="70.226251"><ele>3099.0</ele></trkpt><trkpt lat="41.1486" lon="70.22622"><ele>3097.6</ele></trkpt><trkpt lat="41.148616" lon="70.226336"><ele>3093.0</ele></trkpt><trkpt lat="41.148581" lon="70.226412"><ele>3092.6</ele></trkpt><trkpt lat="41.148565" lon="70.226401"><ele>3092.0</ele></trkpt><trkpt lat="41.148553" lon="70.22643"><ele>3084.0</ele></trkpt><trkpt lat="41.148521" lon="70.226417"><ele>3087.0</ele></trkpt><trkpt lat="41.148509" lon="70.226448"><ele>3090.0</ele></trkpt><trkpt lat="41.148516" lon="70.226528"><ele>3086.0</ele></trkpt><trkpt lat="41.148474" lon="70.226513"><ele>3084.0</ele></trkpt><trkpt lat="41.148461" lon="70.226624"><ele>3073.0</ele></trkpt><trkpt lat="41.148439" lon="70.226649"><ele>3076.0</ele></trkpt><trkpt lat="41.148445" lon="70.226692"><ele>3075.0</ele></trkpt><trkpt lat="41.148421" lon="70.226738"><ele>3071.0</ele></trkpt><trkpt lat="41.148407" lon="70.22689"><ele>3072.0</ele></trkpt><trkpt lat="41.148392" lon="70.226865"><ele>3072.0</ele></trkpt><trkpt lat="41.148428" lon="70.226956"><ele>3068.0</ele></trkpt><trkpt lat="41.14844" lon="70.226909"><ele>3071.7</ele></trkpt><trkpt lat="41.148425" lon="70.226929"><ele>3069.0</ele></trkpt><trkpt lat="41.148417" lon="70.22702"><ele>3069.0</ele></trkpt><trkpt lat="41.148356" lon="70.227073"><ele>3062.0</ele></trkpt><trkpt lat="41.14835" lon="70.227215"><ele>3059.0</ele></trkpt><trkpt lat="41.148362" lon="70.227278"><ele>3056.0</ele></trkpt><trkpt lat="41.148395" lon="70.227209"><ele>3056.0</ele></trkpt><trkpt lat="41.148286" lon="70.227172"><ele>3053.0</ele></trkpt><trkpt lat="41.148239" lon="70.227323"><ele>3050.0</ele></trkpt><trkpt lat="41.148254" lon="70.227357"><ele>3051.0</ele></trkpt><trkpt lat="41.148253" lon="70.227465"><ele>3049.0</ele></trkpt><trkpt lat="41.148209" lon="70.227471"><ele>3044.0</ele></trkpt><trkpt lat="41.148178" lon="70.227504"><ele>3040.0</ele></trkpt><trkpt lat="41.148139" lon="70.227501"><ele>3041.0</ele></trkpt><trkpt lat="41.14812" lon="70.227468"><ele>3041.0</ele></trkpt><trkpt lat="41.148153" lon="70.227502"><ele>3043.0</ele></trkpt><trkpt lat="41.148155" lon="70.227556"><ele>3037.0</ele></trkpt><trkpt lat="41.148058" lon="70.227842"><ele>3028.0</ele></trkpt><trkpt lat="41.148032" lon="70.22784"><ele>3026.0</ele></trkpt><trkpt lat="41.147925" lon="70.228128"><ele>3012.0</ele></trkpt><trkpt lat="41.14782" lon="70.22822"><ele>3003.0</ele></trkpt><trkpt lat="41.147797" lon="70.228306"><ele>3000.0</ele></trkpt><trkpt lat="41.147713" lon="70.22845"><ele>2996.0</ele></trkpt><trkpt lat="41.14761" lon="70.228586"><ele>2988.0</ele></trkpt><trkpt lat="41.147588" lon="70.228649"><ele>2984.0</ele></trkpt><trkpt lat="41.14751" lon="70.228741"><ele>2964.0</ele></trkpt><trkpt lat="41.147456" lon="70.228766"><ele>2984.0</ele></trkpt><trkpt lat="41.147424" lon="70.228836"><ele>2985.6</ele></trkpt><trkpt lat="41.14736" lon="70.228862"><ele>2982.0</ele></trkpt><trkpt lat="41.147378" lon="70.228901"><ele>2980.0</ele></trkpt><trkpt lat="41.147376" lon="70.228946"><ele>2976.0</ele></trkpt><trkpt lat="41.147181" lon="70.229162"><ele>2952.0</ele></trkpt><trkpt lat="41.147156" lon="70.229225"><ele>2958.0</ele></trkpt><trkpt lat="41.147152" lon="70.229336"><ele>2956.0</ele></trkpt><trkpt lat="41.147067" lon="70.229386"><ele>2948.0</ele></trkpt><trkpt lat="41.147079" lon="70.229471"><ele>2949.0</ele></trkpt><trkpt lat="41.147027" lon="70.229546"><ele>2946.0</ele></trkpt><trkpt lat="41.146985" lon="70.229689"><ele>2941.2</ele></trkpt><trkpt lat="41.146978" lon="70.229768"><ele>2939.5</ele></trkpt><trkpt lat="41.146981" lon="70.229666"><ele>2934.0</ele></trkpt><trkpt lat="41.146957" lon="70.229742"><ele>2934.0</ele></trkpt><trkpt lat="41.146968" lon="70.229723"><ele>2940.1</ele></trkpt><trkpt lat="41.14699" lon="70.229758"><ele>2940.7</ele></trkpt><trkpt lat="41.146968" lon="70.229731"><ele>2940.0</ele></trkpt><trkpt lat="41.146942" lon="70.229821"><ele>2938.1</ele></trkpt><trkpt lat="41.146912" lon="70.229837"><ele>2937.2</ele></trkpt><trkpt lat="41.146876" lon="70.230003"><ele>2926.0</ele></trkpt><trkpt lat="41.146793" lon="70.230133"><ele>2912.0</ele></trkpt><trkpt lat="41.146762" lon="70.230121"><ele>2910.0</ele></trkpt><trkpt lat="41.146656" lon="70.230144"><ele>2912.9</ele></trkpt><trkpt lat="41.14661" lon="70.230246"><ele>2908.0</ele></trkpt><trkpt lat="41.146566" lon="70.230246"><ele>2911.0</ele></trkpt><trkpt lat="41.146462" lon="70.230293"><ele>2906.0</ele></trkpt><trkpt lat="41.146398" lon="70.230459"><ele>2901.0</ele></trkpt><trkpt lat="41.146412" lon="70.230517"><ele>2898.0</ele></trkpt><trkpt lat="41.146406" lon="70.230559"><ele>2898.0</ele></trkpt><trkpt lat="41.146374" lon="70.230543"><ele>2899.3</ele></trkpt><trkpt lat="41.146344" lon="70.230665"><ele>2891.0</ele></trkpt><trkpt lat="41.146316" lon="70.230683"><ele>2891.0</ele></trkpt><trkpt lat="41.146298" lon="70.230722"><ele>2889.0</ele></trkpt><trkpt lat="41.146341" lon="70.230798"><ele>2887.0</ele></trkpt><trkpt lat="41.146294" lon="70.230862"><ele>2888.0</ele></trkpt><trkpt lat="41.146271" lon="70.231086"><ele>2880.0</ele></trkpt><trkpt lat="41.146227" lon="70.231004"><ele>2879.0</ele></trkpt><trkpt lat="41.146243" lon="70.231072"><ele>2879.0</ele></trkpt><trkpt lat="41.146262" lon="70.231012"><ele>2882.0</ele></trkpt><trkpt lat="41.146206" lon="70.230947"><ele>2887.0</ele></trkpt><trkpt lat="41.146211" lon="70.23098"><ele>2889.0</ele></trkpt><trkpt lat="41.146064" lon="70.231069"><ele>2878.0</ele></trkpt><trkpt lat="41.14599" lon="70.231204"><ele>2871.0</ele></trkpt><trkpt lat="41.145925" lon="70.23115"><ele>2872.0</ele></trkpt><trkpt lat="41.145824" lon="70.231258"><ele>2847.0</ele></trkpt><trkpt lat="41.145819" lon="70.231225"><ele>2860.0</ele></trkpt><trkpt lat="41.145784" lon="70.231216"><ele>2861.0</ele></trkpt><trkpt lat="41.145658" lon="70.231442"><ele>2853.0</ele></trkpt><trkpt lat="41.145594" lon="70.23146"><ele>2852.0</ele></trkpt><trkpt lat="41.145573" lon="70.23152"><ele>2851.0</ele></trkpt><trkpt lat="41.145541" lon="70.231499"><ele>2848.0</ele></trkpt><trkpt lat="41.145457" lon="70.231538"><ele>2844.0</ele></trkpt><trkpt lat="41.145412" lon="70.231528"><ele>2843.0</ele></trkpt><trkpt lat="41.145419" lon="70.23159"><ele>2844.0</ele></trkpt><trkpt lat="41.145239" lon="70.231606"><ele>2832.0</ele></trkpt><trkpt lat="41.145224" lon="70.231671"><ele>2826.0</ele></trkpt><trkpt lat="41.145196" lon="70.23169"><ele>2825.0</ele></trkpt><trkpt lat="41.14517" lon="70.231747"><ele>2824.0</ele></trkpt><trkpt lat="41.145144" lon="70.231773"><ele>2823.0</ele></trkpt><trkpt lat="41.145108" lon="70.231776"><ele>2820.0</ele></trkpt><trkpt lat="41.145083" lon="70.231756"><ele>2822.0</ele></trkpt><trkpt lat="41.145066" lon="70.231808"><ele>2820.0</ele></trkpt><trkpt lat="41.144976" lon="70.231712"><ele>2820.0</ele></trkpt><trkpt lat="41.144857" lon="70.231781"><ele>2817.9</ele></trkpt><trkpt lat="41.14487" lon="70.231821"><ele>2815.0</ele></trkpt><trkpt lat="41.144844" lon="70.231859"><ele>2814.0</ele></trkpt><trkpt lat="41.144823" lon="70.23194"><ele>2810.0</ele></trkpt><trkpt lat="41.144518" lon="70.232035"><ele>2796.0</ele></trkpt><trkpt lat="41.144501" lon="70.232133"><ele>2787.0</ele></trkpt><trkpt lat="41.144469" lon="70.232109"><ele>2786.0</ele></trkpt><trkpt lat="41.144362" lon="70.232178"><ele>2786.0</ele></trkpt><trkpt lat="41.144324" lon="70.232179"><ele>2785.3</ele></trkpt><trkpt lat="41.144305" lon="70.232147"><ele>2772.0</ele></trkpt><trkpt lat="41.144289" lon="70.232183"><ele>2772.0</ele></trkpt><trkpt lat="41.144255" lon="70.232161"><ele>2772.0</ele></trkpt><trkpt lat="41.144252" lon="70.232226"><ele>2772.0</ele></trkpt><trkpt lat="41.144223" lon="70.23222"><ele>2770.0</ele></trkpt><trkpt lat="41.144205" lon="70.232254"><ele>2768.0</ele></trkpt><trkpt lat="41.144173" lon="70.232269"><ele>2765.0</ele></trkpt><trkpt lat="41.144127" lon="70.232354"><ele>2764.0</ele></trkpt><trkpt lat="41.14408" lon="70.232349"><ele>2765.0</ele></trkpt><trkpt lat="41.144052" lon="70.232382"><ele>2762.0</ele></trkpt><trkpt lat="41.143918" lon="70.232377"><ele>2755.0</ele></trkpt><trkpt lat="41.14389" lon="70.232408"><ele>2757.0</ele></trkpt><trkpt lat="41.143791" lon="70.232422"><ele>2751.0</ele></trkpt><trkpt lat="41.143735" lon="70.232409"><ele>2748.0</ele></trkpt><trkpt lat="41.143701" lon="70.232446"><ele>2744.0</ele></trkpt><trkpt lat="41.143635" lon="70.232476"><ele>2737.0</ele></trkpt><trkpt lat="41.14353" lon="70.232581"><ele>2734.0</ele></trkpt><trkpt lat="41.143483" lon="70.232606"><ele>2732.0</ele></trkpt><trkpt lat="41.143468" lon="70.232592"><ele>2730.0</ele></trkpt><trkpt lat="41.1436" lon="70.232593"><ele>2732.0</ele></trkpt><trkpt lat="41.14365" lon="70.232624"><ele>2732.0</ele></trkpt><trkpt lat="41.143631" lon="70.232692"><ele>2736.0</ele></trkpt><trkpt lat="41.14359" lon="70.23275"><ele>2736.0</ele></trkpt><trkpt lat="41.143517" lon="70.232748"><ele>2740.0</ele></trkpt><trkpt lat="41.143464" lon="70.232833"><ele>2736.5</ele></trkpt><trkpt lat="41.143413" lon="70.232796"><ele>2728.0</ele></trkpt><trkpt lat="41.143246" lon="70.232891"><ele>2712.0</ele></trkpt><trkpt lat="41.143203" lon="70.232875"><ele>2708.0</ele></trkpt><trkpt lat="41.143197" lon="70.23281"><ele>2712.0</ele></trkpt><trkpt lat="41.143126" lon="70.232655"><ele>2710.0</ele></trkpt><trkpt lat="41.143123" lon="70.232608"><ele>2711.3</ele></trkpt><trkpt lat="41.14305" lon="70.232501"><ele>2708.0</ele></trkpt><trkpt lat="41.142972" lon="70.232478"><ele>2701.0</ele></trkpt><trkpt lat="41.142994" lon="70.232441"><ele>2698.0</ele></trkpt><trkpt lat="41.142933" lon="70.232472"><ele>2697.1</ele></trkpt><trkpt lat="41.142975" lon="70.232324"><ele>2698.8</ele></trkpt><trkpt lat="41.142847" lon="70.232316"><ele>2694.0</ele></trkpt><trkpt lat="41.142821" lon="70.232344"><ele>2691.0</ele></trkpt><trkpt lat="41.142789" lon="70.232425"><ele>2693.0</ele></trkpt><trkpt lat="41.142758" lon="70.232363"><ele>2690.0</ele></trkpt><trkpt lat="41.142737" lon="70.232419"><ele>2685.0</ele></trkpt><trkpt lat="41.142743" lon="70.232459"><ele>2682.8</ele></trkpt><trkpt lat="41.142635" lon="70.232466"><ele>2677.0</ele></trkpt><trkpt lat="41.142609" lon="70.232493"><ele>2677.0</ele></trkpt><trkpt lat="41.142594" lon="70.232568"><ele>2676.5</ele></trkpt><trkpt lat="41.142552" lon="70.23262"><ele>2670.0</ele></trkpt><trkpt lat="41.142525" lon="70.232624"><ele>2670.0</ele></trkpt><trkpt lat="41.142519" lon="70.232716"><ele>2662.0</ele></trkpt><trkpt lat="41.142421" lon="70.232747"><ele>2658.0</ele></trkpt><trkpt lat="41.142341" lon="70.232831"><ele>2648.0</ele></trkpt><trkpt lat="41.142269" lon="70.232817"><ele>2647.0</ele></trkpt><trkpt lat="41.142221" lon="70.232946"><ele>2652.0</ele></trkpt><trkpt lat="41.142315" lon="70.232932"><ele>2649.0</ele></trkpt><trkpt lat="41.142341" lon="70.23299"><ele>2648.0</ele></trkpt><trkpt lat="41.142341" lon="70.232953"><ele>2647.0</ele></trkpt><trkpt lat="41.142251" lon="70.23294"><ele>2642.0</ele></trkpt><trkpt lat="41.142216" lon="70.232969"><ele>2640.5</ele></trkpt><trkpt lat="41.142178" lon="70.232932"><ele>2634.0</ele></trkpt><trkpt lat="41.14214" lon="70.23296"><ele>2633.0</ele></trkpt><trkpt lat="41.142095" lon="70.232922"><ele>2630.0</ele></trkpt><trkpt lat="41.142041" lon="70.232958"><ele>2625.0</ele></trkpt><trkpt lat="41.141887" lon="70.232879"><ele>2618.0</ele></trkpt><trkpt lat="41.141854" lon="70.232897"><ele>2616.0</ele></trkpt><trkpt lat="41.141806" lon="70.232845"><ele>2613.0</ele></trkpt><trkpt lat="41.141733" lon="70.232866"><ele>2610.0</ele></trkpt><trkpt lat="41.141704" lon="70.232892"><ele>2611.0</ele></trkpt><trkpt lat="41.141619" lon="70.232905"><ele>2601.0</ele></trkpt><trkpt lat="41.141579" lon="70.232825"><ele>2600.0</ele></trkpt><trkpt lat="41.141511" lon="70.232787"><ele>2600.0</ele></trkpt><trkpt lat="41.141415" lon="70.232762"><ele>2592.0</ele></trkpt><trkpt lat="41.141382" lon="70.232781"><ele>2592.0</ele></trkpt><trkpt lat="41.141347" lon="70.232775"><ele>2592.0</ele></trkpt><trkpt lat="41.141295" lon="70.232789"><ele>2591.0</ele></trkpt><trkpt lat="41.141283" lon="70.232822"><ele>2588.0</ele></trkpt><trkpt lat="41.141232" lon="70.232823"><ele>2585.0</ele></trkpt><trkpt lat="41.141162" lon="70.232951"><ele>2585.0</ele></trkpt><trkpt lat="41.141113" lon="70.232945"><ele>2582.0</ele></trkpt><trkpt lat="41.141092" lon="70.232981"><ele>2576.0</ele></trkpt><trkpt lat="41.141021" lon="70.232944"><ele>2574.0</ele></trkpt><trkpt lat="41.140928" lon="70.233086"><ele>2564.0</ele></trkpt><trkpt lat="41.140833" lon="70.23309"><ele>2560.0</ele></trkpt><trkpt lat="41.140761" lon="70.233125"><ele>2556.0</ele></trkpt><trkpt lat="41.140604" lon="70.233243"><ele>2549.0</ele></trkpt><trkpt lat="41.140465" lon="70.233285"><ele>2540.0</ele></trkpt><trkpt lat="41.140317" lon="70.233412"><ele>2528.0</ele></trkpt><trkpt lat="41.140225" lon="70.233535"><ele>2520.0</ele></trkpt><trkpt lat="41.140223" lon="70.233587"><ele>2520.0</ele></trkpt><trkpt lat="41.140133" lon="70.233658"><ele>2520.0</ele></trkpt><trkpt lat="41.140055" lon="70.233801"><ele>2509.0</ele></trkpt><trkpt lat="41.140067" lon="70.233854"><ele>2506.0</ele></trkpt><trkpt lat="41.139972" lon="70.234024"><ele>2501.0</ele></trkpt><trkpt lat="41.139964" lon="70.234109"><ele>2499.0</ele></trkpt><trkpt lat="41.139914" lon="70.234163"><ele>2487.0</ele></trkpt><trkpt lat="41.139908" lon="70.234208"><ele>2482.0</ele></trkpt><trkpt lat="41.13986" lon="70.234239"><ele>2482.0</ele></trkpt><trkpt lat="41.139719" lon="70.234411"><ele>2472.0</ele></trkpt><trkpt lat="41.139623" lon="70.234486"><ele>2470.0</ele></trkpt><trkpt lat="41.139528" lon="70.234703"><ele>2462.0</ele></trkpt><trkpt lat="41.139455" lon="70.234788"><ele>2455.0</ele></trkpt><trkpt lat="41.139429" lon="70.23489"><ele>2450.0</ele></trkpt><trkpt lat="41.139417" lon="70.235011"><ele>2448.0</ele></trkpt><trkpt lat="41.139425" lon="70.235094"><ele>2442.0</ele></trkpt><trkpt lat="41.139399" lon="70.235195"><ele>2441.0</ele></trkpt><trkpt lat="41.139365" lon="70.235628"><ele>2425.0</ele></trkpt><trkpt lat="41.139325" lon="70.235731"><ele>2423.0</ele></trkpt><trkpt lat="41.139331" lon="70.235765"><ele>2418.0</ele></trkpt><trkpt lat="41.139301" lon="70.235928"><ele>2414.0</ele></trkpt><trkpt lat="41.139247" lon="70.236077"><ele>2407.0</ele></trkpt><trkpt lat="41.139261" lon="70.236109"><ele>2408.0</ele></trkpt><trkpt lat="41.13916" lon="70.236376"><ele>2400.0</ele></trkpt><trkpt lat="41.139128" lon="70.236401"><ele>2400.0</ele></trkpt><trkpt lat="41.139032" lon="70.236772"><ele>2387.0</ele></trkpt><trkpt lat="41.139032" lon="70.236887"><ele>2388.2</ele></trkpt><trkpt lat="41.139023" lon="70.236843"><ele>2387.3</ele></trkpt><trkpt lat="41.138986" lon="70.237012"><ele>2375.0</ele></trkpt><trkpt lat="41.138983" lon="70.237093"><ele>2372.0</ele></trkpt><trkpt lat="41.139043" lon="70.237099"><ele>2371.0</ele></trkpt><trkpt lat="41.139058" lon="70.23713"><ele>2370.0</ele></trkpt><trkpt lat="41.139042" lon="70.237181"><ele>2370.0</ele></trkpt><trkpt lat="41.139047" lon="70.237233"><ele>2370.0</ele></trkpt><trkpt lat="41.139023" lon="70.237334"><ele>2369.0</ele></trkpt><trkpt lat="41.138964" lon="70.237465"><ele>2365.0</ele></trkpt><trkpt lat="41.138951" lon="70.237558"><ele>2361.7</ele></trkpt><trkpt lat="41.138885" lon="70.237656"><ele>2360.0</ele></trkpt><trkpt lat="41.138884" lon="70.237764"><ele>2349.0</ele></trkpt><trkpt lat="41.138849" lon="70.237821"><ele>2348.0</ele></trkpt><trkpt lat="41.138784" lon="70.238055"><ele>2344.0</ele></trkpt><trkpt lat="41.138837" lon="70.238093"><ele>2333.0</ele></trkpt><trkpt lat="41.138796" lon="70.238119"><ele>2338.0</ele></trkpt><trkpt lat="41.138739" lon="70.238274"><ele>2334.0</ele></trkpt><trkpt lat="41.138746" lon="70.238333"><ele>2328.0</ele></trkpt><trkpt lat="41.138727" lon="70.238404"><ele>2328.0</ele></trkpt><trkpt lat="41.138704" lon="70.238433"><ele>2325.0</ele></trkpt><trkpt lat="41.138639" lon="70.238622"><ele>2320.0</ele></trkpt><trkpt lat="41.138577" lon="70.238723"><ele>2319.0</ele></trkpt><trkpt lat="41.138572" lon="70.238771"><ele>2320.0</ele></trkpt><trkpt lat="41.138514" lon="70.238926"><ele>2314.0</ele></trkpt><trkpt lat="41.138441" lon="70.239018"><ele>2310.0</ele></trkpt><trkpt lat="41.138421" lon="70.239083"><ele>2308.0</ele></trkpt><trkpt lat="41.138332" lon="70.239213"><ele>2301.0</ele></trkpt><trkpt lat="41.138213" lon="70.239328"><ele>2296.0</ele></trkpt><trkpt lat="41.138213" lon="70.239364"><ele>2296.0</ele></trkpt><trkpt lat="41.138102" lon="70.23954"><ele>2289.0</ele></trkpt><trkpt lat="41.13808" lon="70.239606"><ele>2287.0</ele></trkpt><trkpt lat="41.138047" lon="70.239653"><ele>2286.0</ele></trkpt><trkpt lat="41.138003" lon="70.23967"><ele>2287.1</ele></trkpt><trkpt lat="41.137908" lon="70.239867"><ele>2280.0</ele></trkpt><trkpt lat="41.137854" lon="70.240038"><ele>2272.0</ele></trkpt><trkpt lat="41.13782" lon="70.240062"><ele>2270.0</ele></trkpt><trkpt lat="41.137639" lon="70.240372"><ele>2263.0</ele></trkpt><trkpt lat="41.137547" lon="70.240488"><ele>2260.0</ele></trkpt><trkpt lat="41.137306" lon="70.240737"><ele>2248.0</ele></trkpt><trkpt lat="41.137197" lon="70.240777"><ele>2246.5</ele></trkpt><trkpt lat="41.137156" lon="70.240874"><ele>2242.0</ele></trkpt><trkpt lat="41.137088" lon="70.240963"><ele>2240.0</ele></trkpt><trkpt lat="41.13701" lon="70.241026"><ele>2236.0</ele></trkpt><trkpt lat="41.136972" lon="70.241035"><ele>2236.0</ele></trkpt><trkpt lat="41.136937" lon="70.241077"><ele>2236.0</ele></trkpt><trkpt lat="41.136743" lon="70.241146"><ele>2227.0</ele></trkpt><trkpt lat="41.136604" lon="70.241322"><ele>2222.0</ele></trkpt><trkpt lat="41.136635" lon="70.241322"><ele>2220.5</ele></trkpt><trkpt lat="41.136601" lon="70.241375"><ele>2213.0</ele></trkpt><trkpt lat="41.136506" lon="70.241483"><ele>2210.0</ele></trkpt><trkpt lat="41.136471" lon="70.241491"><ele>2212.0</ele></trkpt><trkpt lat="41.136423" lon="70.241551"><ele>2208.0</ele></trkpt><trkpt lat="41.136386" lon="70.241548"><ele>2206.0</ele></trkpt><trkpt lat="41.136321" lon="70.241608"><ele>2204.0</ele></trkpt><trkpt lat="41.136292" lon="70.24165"><ele>2202.0</ele></trkpt><trkpt lat="41.136301" lon="70.241715"><ele>2198.0</ele></trkpt><trkpt lat="41.136343" lon="70.241748"><ele>2200.0</ele></trkpt><trkpt lat="41.136339" lon="70.241825"><ele>2192.0</ele></trkpt><trkpt lat="41.136263" lon="70.241793"><ele>2195.0</ele></trkpt><trkpt lat="41.136253" lon="70.241861"><ele>2190.0</ele></trkpt><trkpt lat="41.136263" lon="70.241958"><ele>2187.0</ele></trkpt><trkpt lat="41.136122" lon="70.241985"><ele>2179.0</ele></trkpt><trkpt lat="41.136054" lon="70.242091"><ele>2178.0</ele></trkpt><trkpt lat="41.135943" lon="70.24238"><ele>2167.0</ele></trkpt><trkpt lat="41.135894" lon="70.242438"><ele>2165.0</ele></trkpt><trkpt lat="41.135821" lon="70.242586"><ele>2162.3</ele></trkpt><trkpt lat="41.135725" lon="70.24262"><ele>2160.0</ele></trkpt><trkpt lat="41.135529" lon="70.24274"><ele>2156.0</ele></trkpt><trkpt lat="41.135402" lon="70.242849"><ele>2150.0</ele></trkpt><trkpt lat="41.135396" lon="70.242904"><ele>2148.0</ele></trkpt><trkpt lat="41.135352" lon="70.243002"><ele>2144.0</ele></trkpt><trkpt lat="41.13531" lon="70.243004"><ele>2145.0</ele></trkpt><trkpt lat="41.135278" lon="70.243108"><ele>2142.0</ele></trkpt><trkpt lat="41.135247" lon="70.243149"><ele>2140.0</ele></trkpt><trkpt lat="41.135187" lon="70.243183"><ele>2140.0</ele></trkpt><trkpt lat="41.135144" lon="70.243312"><ele>2139.0</ele></trkpt><trkpt lat="41.135061" lon="70.243386"><ele>2136.0</ele></trkpt><trkpt lat="41.135033" lon="70.243471"><ele>2134.0</ele></trkpt><trkpt lat="41.135007" lon="70.243499"><ele>2131.0</ele></trkpt><trkpt lat="41.134962" lon="70.243679"><ele>2128.0</ele></trkpt><trkpt lat="41.134867" lon="70.24386"><ele>2124.0</ele></trkpt><trkpt lat="41.13474" lon="70.244026"><ele>2118.0</ele></trkpt><trkpt lat="41.134616" lon="70.24412"><ele>2113.0</ele></trkpt><trkpt lat="41.134301" lon="70.244464"><ele>2101.0</ele></trkpt><trkpt lat="41.13422" lon="70.244523"><ele>2100.0</ele></trkpt><trkpt lat="41.134035" lon="70.244535"><ele>2100.0</ele></trkpt><trkpt lat="41.133915" lon="70.244593"><ele>2094.0</ele></trkpt><trkpt lat="41.133806" lon="70.244685"><ele>2088.0</ele></trkpt><trkpt lat="41.13379" lon="70.24474"><ele>2085.0</ele></trkpt><trkpt lat="41.133623" lon="70.244866"><ele>2084.0</ele></trkpt><trkpt lat="41.133507" lon="70.244891"><ele>2077.0</ele></trkpt><trkpt lat="41.13347" lon="70.244947"><ele>2077.0</ele></trkpt><trkpt lat="41.133377" lon="70.244963"><ele>2074.0</ele></trkpt><trkpt lat="41.133291" lon="70.245047"><ele>2068.0</ele></trkpt><trkpt lat="41.133242" lon="70.245065"><ele>2057.0</ele></trkpt><trkpt lat="41.133168" lon="70.24517"><ele>2064.0</ele></trkpt><trkpt lat="41.133163" lon="70.245207"><ele>2058.0</ele></trkpt><trkpt lat="41.133196" lon="70.245262"><ele>2060.0</ele></trkpt><trkpt lat="41.133179" lon="70.245468"><ele>2058.0</ele></trkpt><trkpt lat="41.133201" lon="70.245513"><ele>2052.0</ele></trkpt><trkpt lat="41.133184" lon="70.245559"><ele>2052.0</ele></trkpt><trkpt lat="41.133186" lon="70.245605"><ele>2044.0</ele></trkpt><trkpt lat="41.133161" lon="70.245617"><ele>2051.0</ele></trkpt><trkpt lat="41.133131" lon="70.245737"><ele>2046.0</ele></trkpt><trkpt lat="41.133186" lon="70.245838"><ele>2043.0</ele></trkpt><trkpt lat="41.133124" lon="70.245851"><ele>2040.0</ele></trkpt><trkpt lat="41.133069" lon="70.245939"><ele>2030.0</ele></trkpt><trkpt lat="41.133072" lon="70.245976"><ele>2036.0</ele></trkpt><trkpt lat="41.132996" lon="70.24613"><ele>2034.0</ele></trkpt><trkpt lat="41.13297" lon="70.246227"><ele>2032.0</ele></trkpt><trkpt lat="41.132905" lon="70.246299"><ele>2029.0</ele></trkpt><trkpt lat="41.132872" lon="70.246459"><ele>2029.2</ele></trkpt><trkpt lat="41.132828" lon="70.24648"><ele>2027.0</ele></trkpt><trkpt lat="41.132784" lon="70.246536"><ele>2025.0</ele></trkpt><trkpt lat="41.132688" lon="70.246689"><ele>2018.0</ele></trkpt><trkpt lat="41.132673" lon="70.246769"><ele>2018.0</ele></trkpt><trkpt lat="41.132595" lon="70.24685"><ele>2016.0</ele></trkpt><trkpt lat="41.132565" lon="70.246945"><ele>2012.0</ele></trkpt><trkpt lat="41.13252" lon="70.247025"><ele>2012.0</ele></trkpt><trkpt lat="41.132507" lon="70.247108"><ele>2005.0</ele></trkpt><trkpt lat="41.132399" lon="70.247178"><ele>2006.0</ele></trkpt><trkpt lat="41.132373" lon="70.247411"><ele>2004.0</ele></trkpt><trkpt lat="41.132328" lon="70.247479"><ele>2001.0</ele></trkpt><trkpt lat="41.132283" lon="70.247655"><ele>2000.0</ele></trkpt><trkpt lat="41.132179" lon="70.24789"><ele>1995.0</ele></trkpt><trkpt lat="41.132184" lon="70.248079"><ele>1992.0</ele></trkpt><trkpt lat="41.132109" lon="70.248317"><ele>1989.0</ele></trkpt><trkpt lat="41.132128" lon="70.248375"><ele>1986.0</ele></trkpt><trkpt lat="41.132109" lon="70.248447"><ele>1984.0</ele></trkpt><trkpt lat="41.132128" lon="70.248571"><ele>1982.0</ele></trkpt><trkpt lat="41.132124" lon="70.248638"><ele>1980.0</ele></trkpt><trkpt lat="41.132204" lon="70.248802"><ele>1980.0</ele></trkpt><trkpt lat="41.132182" lon="70.248954"><ele>1976.0</ele></trkpt><trkpt lat="41.132086" lon="70.249113"><ele>1971.0</ele></trkpt><trkpt lat="41.131946" lon="70.249278"><ele>1965.0</ele></trkpt><trkpt lat="41.131928" lon="70.249406"><ele>1960.0</ele></trkpt><trkpt lat="41.131947" lon="70.24954"><ele>1960.0</ele></trkpt><trkpt lat="41.131867" lon="70.24961"><ele>1956.0</ele></trkpt><trkpt lat="41.131792" lon="70.249731"><ele>1952.0</ele></trkpt><trkpt lat="41.131775" lon="70.249809"><ele>1952.0</ele></trkpt><trkpt lat="41.131751" lon="70.24983"><ele>1952.0</ele></trkpt><trkpt lat="41.131714" lon="70.249979"><ele>1950.0</ele></trkpt><trkpt lat="41.131739" lon="70.250014"><ele>1953.6</ele></trkpt><trkpt lat="41.131666" lon="70.25013"><ele>1954.0</ele></trkpt><trkpt lat="41.131544" lon="70.250186"><ele>1953.0</ele></trkpt><trkpt lat="41.131343" lon="70.250429"><ele>1948.0</ele></trkpt><trkpt lat="41.131285" lon="70.250463"><ele>1944.0</ele></trkpt><trkpt lat="41.131167" lon="70.250601"><ele>1941.0</ele></trkpt><trkpt lat="41.130921" lon="70.25072"><ele>1934.0</ele></trkpt><trkpt lat="41.130823" lon="70.250837"><ele>1932.0</ele></trkpt><trkpt lat="41.13075" lon="70.250944"><ele>1930.0</ele></trkpt><trkpt lat="41.130686" lon="70.251076"><ele>1927.0</ele></trkpt><trkpt lat="41.130585" lon="70.25121"><ele>1924.0</ele></trkpt><trkpt lat="41.130491" lon="70.251279"><ele>1921.0</ele></trkpt><trkpt lat="41.130375" lon="70.251437"><ele>1920.0</ele></trkpt><trkpt lat="41.130095" lon="70.251622"><ele>1916.0</ele></trkpt><trkpt lat="41.129913" lon="70.251674"><ele>1908.0</ele></trkpt><trkpt lat="41.129891" lon="70.251702"><ele>1911.0</ele></trkpt><trkpt lat="41.129905" lon="70.251781"><ele>1915.0</ele></trkpt><trkpt lat="41.129848" lon="70.251808"><ele>1912.0</ele></trkpt><trkpt lat="41.129725" lon="70.25182"><ele>1910.0</ele></trkpt><trkpt lat="41.129621" lon="70.251867"><ele>1908.0</ele></trkpt><trkpt lat="41.129593" lon="70.25186"><ele>1905.0</ele></trkpt><trkpt lat="41.12933" lon="70.251961"><ele>1900.0</ele></trkpt><trkpt lat="41.129219" lon="70.252092"><ele>1898.0</ele></trkpt><trkpt lat="41.129196" lon="70.252197"><ele>1896.0</ele></trkpt><trkpt lat="41.129171" lon="70.252228"><ele>1895.0</ele></trkpt><trkpt lat="41.129185" lon="70.252186"><ele>1894.0</ele></trkpt><trkpt lat="41.129123" lon="70.2523"><ele>1896.0</ele></trkpt><trkpt lat="41.129069" lon="70.25246"><ele>1896.0</ele></trkpt><trkpt lat="41.128979" lon="70.252522"><ele>1898.0</ele></trkpt><trkpt lat="41.128873" lon="70.252561"><ele>1896.0</ele></trkpt><trkpt lat="41.128821" lon="70.252606"><ele>1898.0</ele></trkpt><trkpt lat="41.128704" lon="70.25273"><ele>1896.8</ele></trkpt><trkpt lat="41.128677" lon="70.252823"><ele>1895.0</ele></trkpt><trkpt lat="41.12861" lon="70.25287"><ele>1896.0</ele></trkpt><trkpt lat="41.128558" lon="70.252875"><ele>1894.0</ele></trkpt><trkpt lat="41.128424" lon="70.25295"><ele>1897.0</ele></trkpt><trkpt lat="41.128363" lon="70.253007"><ele>1899.0</ele></trkpt><trkpt lat="41.127964" lon="70.253243"><ele>1883.0</ele></trkpt><trkpt lat="41.127877" lon="70.253375"><ele>1878.0</ele></trkpt><trkpt lat="41.127856" lon="70.253444"><ele>1877.0</ele></trkpt><trkpt lat="41.127804" lon="70.253532"><ele>1875.0</ele></trkpt><trkpt lat="41.127774" lon="70.253558"><ele>1875.0</ele></trkpt><trkpt lat="41.127546" lon="70.253566"><ele>1869.0</ele></trkpt><trkpt lat="41.127511" lon="70.253551"><ele>1868.0</ele></trkpt><trkpt lat="41.127475" lon="70.253572"><ele>1868.0</ele></trkpt><trkpt lat="41.12741" lon="70.253558"><ele>1868.0</ele></trkpt><trkpt lat="41.127326" lon="70.253623"><ele>1868.0</ele></trkpt><trkpt lat="41.127167" lon="70.253659"><ele>1863.0</ele></trkpt><trkpt lat="41.126928" lon="70.253791"><ele>1854.0</ele></trkpt><trkpt lat="41.126812" lon="70.253792"><ele>1848.0</ele></trkpt><trkpt lat="41.12674" lon="70.253854"><ele>1846.0</ele></trkpt><trkpt lat="41.12669" lon="70.253857"><ele>1846.0</ele></trkpt><trkpt lat="41.126539" lon="70.253992"><ele>1844.5</ele></trkpt><trkpt lat="41.126527" lon="70.253982"><ele>1842.0</ele></trkpt><trkpt lat="41.126426" lon="70.254131"><ele>1838.0</ele></trkpt><trkpt lat="41.126379" lon="70.254413"><ele>1836.0</ele></trkpt><trkpt lat="41.126326" lon="70.254501"><ele>1834.0</ele></trkpt><trkpt lat="41.126302" lon="70.254629"><ele>1834.0</ele></trkpt><trkpt lat="41.126245" lon="70.254806"><ele>1832.0</ele></trkpt><trkpt lat="41.126186" lon="70.254905"><ele>1832.0</ele></trkpt><trkpt lat="41.126177" lon="70.254978"><ele>1832.0</ele></trkpt><trkpt lat="41.126132" lon="70.255082"><ele>1830.0</ele></trkpt><trkpt lat="41.126117" lon="70.255184"><ele>1830.0</ele></trkpt><trkpt lat="41.126088" lon="70.255214"><ele>1829.8</ele></trkpt><trkpt lat="41.126059" lon="70.255359"><ele>1827.0</ele></trkpt><trkpt lat="41.125895" lon="70.255316"><ele>1820.0</ele></trkpt><trkpt lat="41.125852" lon="70.255324"><ele>1818.0</ele></trkpt><trkpt lat="41.125808" lon="70.255295"><ele>1817.6</ele></trkpt><trkpt lat="41.125688" lon="70.255321"><ele>1812.0</ele></trkpt><trkpt lat="41.125542" lon="70.255278"><ele>1808.0</ele></trkpt><trkpt lat="41.125339" lon="70.255287"><ele>1804.0</ele></trkpt><trkpt lat="41.125199" lon="70.255264"><ele>1801.0</ele></trkpt><trkpt lat="41.124873" lon="70.255379"><ele>1797.0</ele></trkpt><trkpt lat="41.124785" lon="70.255377"><ele>1794.0</ele></trkpt><trkpt lat="41.12469" lon="70.255435"><ele>1793.0</ele></trkpt><trkpt lat="41.124633" lon="70.255397"><ele>1790.0</ele></trkpt><trkpt lat="41.124527" lon="70.255415"><ele>1791.0</ele></trkpt><trkpt lat="41.124155" lon="70.255288"><ele>1783.0</ele></trkpt><trkpt lat="41.124023" lon="70.255286"><ele>1780.0</ele></trkpt><trkpt lat="41.124" lon="70.25526"><ele>1778.0</ele></trkpt><trkpt lat="41.123646" lon="70.255265"><ele>1772.0</ele></trkpt><trkpt lat="41.123617" lon="70.255252"><ele>1772.0</ele></trkpt><trkpt lat="41.123586" lon="70.255258"><ele>1773.0</ele></trkpt><trkpt lat="41.123555" lon="70.255293"><ele>1770.0</ele></trkpt><trkpt lat="41.123445" lon="70.255328"><ele>1769.5</ele></trkpt><trkpt lat="41.123393" lon="70.255375"><ele>1764.0</ele></trkpt><trkpt lat="41.123285" lon="70.255304"><ele>1761.0</ele></trkpt><trkpt lat="41.122873" lon="70.255378"><ele>1751.0</ele></trkpt><trkpt lat="41.122665" lon="70.255348"><ele>1749.0</ele></trkpt><trkpt lat="41.1225" lon="70.255404"><ele>1748.0</ele></trkpt><trkpt lat="41.122482" lon="70.255383"><ele>1750.0</ele></trkpt><trkpt lat="41.122417" lon="70.255382"><ele>1746.0</ele></trkpt><trkpt lat="41.122383" lon="70.255404"><ele>1745.0</ele></trkpt><trkpt lat="41.122244" lon="70.255402"><ele>1740.0</ele></trkpt><trkpt lat="41.122072" lon="70.255471"><ele>1740.0</ele></trkpt><trkpt lat="41.121975" lon="70.255472"><ele>1737.0</ele></trkpt><trkpt lat="41.121826" lon="70.255511"><ele>1736.0</ele></trkpt><trkpt lat="41.12177" lon="70.255552"><ele>1734.0</ele></trkpt><trkpt lat="41.121717" lon="70.255653"><ele>1734.0</ele></trkpt><trkpt lat="41.121683" lon="70.255614"><ele>1734.0</ele></trkpt><trkpt lat="41.121647" lon="70.255614"><ele>1732.0</ele></trkpt><trkpt lat="41.121448" lon="70.255688"><ele>1731.2</ele></trkpt><trkpt lat="41.12136" lon="70.255643"><ele>1728.0</ele></trkpt><trkpt lat="41.121295" lon="70.255668"><ele>1725.0</ele></trkpt><trkpt lat="41.121262" lon="70.255662"><ele>1724.0</ele></trkpt><trkpt lat="41.120996" lon="70.255855"><ele>1720.4</ele></trkpt><trkpt lat="41.120903" lon="70.255842"><ele>1716.0</ele></trkpt><trkpt lat="41.120708" lon="70.25588"><ele>1713.0</ele></trkpt><trkpt lat="41.120599" lon="70.255881"><ele>1713.0</ele></trkpt><trkpt lat="41.120537" lon="70.255904"><ele>1712.0</ele></trkpt><trkpt lat="41.120487" lon="70.255898"><ele>1712.0</ele></trkpt><trkpt lat="41.120358" lon="70.255957"><ele>1709.0</ele></trkpt><trkpt lat="41.120255" lon="70.255967"><ele>1707.0</ele></trkpt><trkpt lat="41.12016" lon="70.256021"><ele>1705.0</ele></trkpt><trkpt lat="41.120104" lon="70.256015"><ele>1704.0</ele></trkpt><trkpt lat="41.119917" lon="70.256047"><ele>1701.0</ele></trkpt><trkpt lat="41.11988" lon="70.256057"><ele>1700.0</ele></trkpt><trkpt lat="41.119824" lon="70.256107"><ele>1700.0</ele></trkpt><trkpt lat="41.119752" lon="70.256099"><ele>1701.0</ele></trkpt><trkpt lat="41.119642" lon="70.256118"><ele>1700.0</ele></trkpt><trkpt lat="41.119356" lon="70.256314"><ele>1695.0</ele></trkpt><trkpt lat="41.119229" lon="70.256455"><ele>1694.0</ele></trkpt><trkpt lat="41.119142" lon="70.256497"><ele>1694.0</ele></trkpt><trkpt lat="41.119021" lon="70.256602"><ele>1692.0</ele></trkpt><trkpt lat="41.118944" lon="70.256768"><ele>1690.0</ele></trkpt><trkpt lat="41.118778" lon="70.257057"><ele>1689.0</ele></trkpt><trkpt lat="41.118761" lon="70.257144"><ele>1690.0</ele></trkpt><trkpt lat="41.118741" lon="70.257175"><ele>1686.0</ele></trkpt><trkpt lat="41.118708" lon="70.257154"><ele>1688.0</ele></trkpt><trkpt lat="41.118689" lon="70.257217"><ele>1679.0</ele></trkpt><trkpt lat="41.118578" lon="70.257271"><ele>1686.0</ele></trkpt><trkpt lat="41.118423" lon="70.257314"><ele>1683.0</ele></trkpt><trkpt lat="41.118083" lon="70.25733"><ele>1682.0</ele></trkpt><trkpt lat="41.117672" lon="70.25739"><ele>1677.0</ele></trkpt><trkpt lat="41.117194" lon="70.257486"><ele>1668.0</ele></trkpt><trkpt lat="41.11691" lon="70.257511"><ele>1662.0</ele></trkpt><trkpt lat="41.116181" lon="70.257467"><ele>1653.0</ele></trkpt><trkpt lat="41.115917" lon="70.257504"><ele>1650.0</ele></trkpt><trkpt lat="41.115792" lon="70.257554"><ele>1649.0</ele></trkpt><trkpt lat="41.11549" lon="70.25761"><ele>1641.0</ele></trkpt><trkpt lat="41.115384" lon="70.257604"><ele>1641.0</ele></trkpt><trkpt lat="41.115124" lon="70.257632"><ele>1636.0</ele></trkpt><trkpt lat="41.114998" lon="70.257689"><ele>1632.0</ele></trkpt><trkpt lat="41.114916" lon="70.257756"><ele>1632.0</ele></trkpt><trkpt lat="41.11461" lon="70.258058"><ele>1626.0</ele></trkpt><trkpt lat="41.114331" lon="70.258235"><ele>1622.0</ele></trkpt><trkpt lat="41.11402" lon="70.25849"><ele>1616.0</ele></trkpt><trkpt lat="41.113798" lon="70.25863"><ele>1613.0</ele></trkpt><trkpt lat="41.113439" lon="70.259011"><ele>1602.0</ele></trkpt><trkpt lat="41.113213" lon="70.259187"><ele>1596.0</ele></trkpt><trkpt lat="41.113088" lon="70.259247"><ele>1592.0</ele></trkpt><trkpt lat="41.112985" lon="70.259245"><ele>1588.0</ele></trkpt><trkpt lat="41.112935" lon="70.259285"><ele>1590.0</ele></trkpt><trkpt lat="41.112817" lon="70.259293"><ele>1590.0</ele></trkpt><trkpt lat="41.112067" lon="70.25898"><ele>1587.0</ele></trkpt><trkpt lat="41.111719" lon="70.258881"><ele>1584.0</ele></trkpt><trkpt lat="41.111301" lon="70.258627"><ele>1578.0</ele></trkpt><trkpt lat="41.11114" lon="70.258414"><ele>1578.0</ele></trkpt><trkpt lat="41.110997" lon="70.258287"><ele>1577.0</ele></trkpt><trkpt lat="41.110929" lon="70.25826"><ele>1575.0</ele></trkpt><trkpt lat="41.110864" lon="70.258259"><ele>1575.0</ele></trkpt><trkpt lat="41.110762" lon="70.258299"><ele>1575.0</ele></trkpt><trkpt lat="41.110739" lon="70.25832"><ele>1573.0</ele></trkpt><trkpt lat="41.110701" lon="70.258411"><ele>1573.0</ele></trkpt><trkpt lat="41.110701" lon="70.258518"><ele>1572.0</ele></trkpt><trkpt lat="41.110756" lon="70.258601"><ele>1572.0</ele></trkpt><trkpt lat="41.110843" lon="70.25868"><ele>1569.0</ele></trkpt><trkpt lat="41.110918" lon="70.258806"><ele>1569.0</ele></trkpt><trkpt lat="41.110966" lon="70.258952"><ele>1566.0</ele></trkpt><trkpt lat="41.111062" lon="70.259125"><ele>1566.0</ele></trkpt><trkpt lat="41.111282" lon="70.259417"><ele>1560.0</ele></trkpt><trkpt lat="41.111523" lon="70.259589"><ele>1557.0</ele></trkpt><trkpt lat="41.111709" lon="70.259788"><ele>1557.0</ele></trkpt><trkpt lat="41.111787" lon="70.259937"><ele>1561.0</ele></trkpt><trkpt lat="41.111867" lon="70.260146"><ele>1564.0</ele></trkpt><trkpt lat="41.111876" lon="70.260211"><ele>1564.0</ele></trkpt><trkpt lat="41.111867" lon="70.260276"><ele>1566.0</ele></trkpt><trkpt lat="41.111825" lon="70.260395"><ele>1566.0</ele></trkpt><trkpt lat="41.11146" lon="70.260837"><ele>1563.0</ele></trkpt><trkpt lat="41.11145" lon="70.260906"><ele>1564.0</ele></trkpt><trkpt lat="41.11149" lon="70.260959"><ele>1564.0</ele></trkpt><trkpt lat="41.111499" lon="70.260996"><ele>1563.0</ele></trkpt><trkpt lat="41.111471" lon="70.261038"><ele>1564.0</ele></trkpt><trkpt lat="41.111422" lon="70.261031"><ele>1563.0</ele></trkpt><trkpt lat="41.111403" lon="70.260988"><ele>1562.0</ele></trkpt><trkpt lat="41.111356" lon="70.260991"><ele>1562.0</ele></trkpt><trkpt lat="41.111277" lon="70.261046"><ele>1560.0</ele></trkpt><trkpt lat="41.111168" lon="70.261156"><ele>1563.0</ele></trkpt><trkpt lat="41.111065" lon="70.261187"><ele>1560.0</ele></trkpt><trkpt lat="41.110991" lon="70.261173"><ele>1560.0</ele></trkpt><trkpt lat="41.110785" lon="70.261334"><ele>1557.0</ele></trkpt><trkpt lat="41.11062" lon="70.26143"><ele>1553.0</ele></trkpt><trkpt lat="41.110441" lon="70.261571"><ele>1551.0</ele></trkpt><trkpt lat="41.109636" lon="70.262387"><ele>1536.0</ele></trkpt><trkpt lat="41.109513" lon="70.262474"><ele>1536.0</ele></trkpt><trkpt lat="41.10943" lon="70.262561"><ele>1536.0</ele></trkpt><trkpt lat="41.109189" lon="70.262743"><ele>1533.0</ele></trkpt><trkpt lat="41.108736" lon="70.262999"><ele>1530.0</ele></trkpt><trkpt lat="41.10842" lon="70.263348"><ele>1526.0</ele></trkpt><trkpt lat="41.108356" lon="70.263464"><ele>1524.0</ele></trkpt><trkpt lat="41.108327" lon="70.263675"><ele>1524.0</ele></trkpt><trkpt lat="41.108266" lon="70.263819"><ele>1521.0</ele></trkpt><trkpt lat="41.108164" lon="70.26397"><ele>1521.0</ele></trkpt><trkpt lat="41.108013" lon="70.264023"><ele>1515.0</ele></trkpt><trkpt lat="41.107529" lon="70.264038"><ele>1504.0</ele></trkpt><trkpt lat="41.107419" lon="70.264061"><ele>1503.0</ele></trkpt><trkpt lat="41.107173" lon="70.264175"><ele>1497.0</ele></trkpt><trkpt lat="41.106919" lon="70.2642"><ele>1494.0</ele></trkpt><trkpt lat="41.106699" lon="70.264293"><ele>1494.0</ele></trkpt><trkpt lat="41.106564" lon="70.264473"><ele>1494.0</ele></trkpt><trkpt lat="41.106451" lon="70.264572"><ele>1494.0</ele></trkpt><trkpt lat="41.106378" lon="70.264609"><ele>1491.0</ele></trkpt><trkpt lat="41.105523" lon="70.264802"><ele>1479.0</ele></trkpt><trkpt lat="41.105432" lon="70.264837"><ele>1478.0</ele></trkpt><trkpt lat="41.104671" lon="70.264992"><ele>1464.0</ele></trkpt><trkpt lat="41.104385" lon="70.264954"><ele>1461.0</ele></trkpt><trkpt lat="41.103959" lon="70.264949"><ele>1458.0</ele></trkpt><trkpt lat="41.103633" lon="70.265067"><ele>1455.0</ele></trkpt><trkpt lat="41.10349" lon="70.265082"><ele>1452.0</ele></trkpt><trkpt lat="41.103298" lon="70.265069"><ele>1452.0</ele></trkpt><trkpt lat="41.102937" lon="70.265119"><ele>1449.0</ele></trkpt><trkpt lat="41.102834" lon="70.265109"><ele>1447.0</ele></trkpt><trkpt lat="41.102594" lon="70.264895"><ele>1446.0</ele></trkpt><trkpt lat="41.102121" lon="70.264757"><ele>1434.0</ele></trkpt><trkpt lat="41.101912" lon="70.264639"><ele>1425.0</ele></trkpt><trkpt lat="41.101482" lon="70.264567"><ele>1419.0</ele></trkpt><trkpt lat="41.101377" lon="70.264571"><ele>1416.0</ele></trkpt><trkpt lat="41.101206" lon="70.264629"><ele>1413.0</ele></trkpt><trkpt lat="41.101061" lon="70.264599"><ele>1413.0</ele></trkpt><trkpt lat="41.100973" lon="70.264552"><ele>1413.0</ele></trkpt><trkpt lat="41.100978" lon="70.264466"><ele>1410.0</ele></trkpt><trkpt lat="41.100967" lon="70.264511"><ele>1410.0</ele></trkpt><trkpt lat="41.100925" lon="70.264535"><ele>1408.0</ele></trkpt><trkpt lat="41.10095" lon="70.264474"><ele>1410.0</ele></trkpt><trkpt lat="41.100935" lon="70.264409"><ele>1410.0</ele></trkpt><trkpt lat="41.100853" lon="70.264286"><ele>1413.0</ele></trkpt><trkpt lat="41.100712" lon="70.263909"><ele>1419.0</ele></trkpt><trkpt lat="41.10066" lon="70.263575"><ele>1422.0</ele></trkpt><trkpt lat="41.100623" lon="70.263511"><ele>1420.0</ele></trkpt><trkpt lat="41.100555" lon="70.263499"><ele>1420.0</ele></trkpt><trkpt lat="41.100518" lon="70.263418"><ele>1417.0</ele></trkpt><trkpt lat="41.100541" lon="70.263491"><ele>1417.0</ele></trkpt><trkpt lat="41.100514" lon="70.263529"><ele>1420.1</ele></trkpt><trkpt lat="41.100328" lon="70.263584"><ele>1418.0</ele></trkpt><trkpt lat="41.100055" lon="70.263768"><ele>1410.0</ele></trkpt><trkpt lat="41.099613" lon="70.263821"><ele>1407.0</ele></trkpt><trkpt lat="41.099082" lon="70.263802"><ele>1404.0</ele></trkpt><trkpt lat="41.098802" lon="70.263841"><ele>1403.0</ele></trkpt><trkpt lat="41.098642" lon="70.263832"><ele>1400.0</ele></trkpt><trkpt lat="41.098252" lon="70.263921"><ele>1395.0</ele></trkpt><trkpt lat="41.098042" lon="70.263897"><ele>1392.0</ele></trkpt><trkpt lat="41.097748" lon="70.2637"><ele>1388.0</ele></trkpt><trkpt lat="41.097471" lon="70.263544"><ele>1386.0</ele></trkpt><trkpt lat="41.097306" lon="70.263483"><ele>1384.0</ele></trkpt><trkpt lat="41.097139" lon="70.263394"><ele>1383.0</ele></trkpt><trkpt lat="41.09686" lon="70.26331"><ele>1380.0</ele></trkpt><trkpt lat="41.096735" lon="70.263237"><ele>1378.0</ele></trkpt><trkpt lat="41.096443" lon="70.263132"><ele>1374.0</ele></trkpt><trkpt lat="41.096083" lon="70.263116"><ele>1368.0</ele></trkpt><trkpt lat="41.09525" lon="70.262868"><ele>1361.0</ele></trkpt><trkpt lat="41.094982" lon="70.262766"><ele>1360.0</ele></trkpt><trkpt lat="41.094867" lon="70.262739"><ele>1359.0</ele></trkpt><trkpt lat="41.094584" lon="70.262716"><ele>1356.0</ele></trkpt><trkpt lat="41.094455" lon="70.262672"><ele>1354.0</ele></trkpt><trkpt lat="41.094263" lon="70.262544"><ele>1352.0</ele></trkpt><trkpt lat="41.094119" lon="70.262393"><ele>1350.0</ele></trkpt><trkpt lat="41.094037" lon="70.262277"><ele>1348.8</ele></trkpt><trkpt lat="41.093879" lon="70.262192"><ele>1344.0</ele></trkpt><trkpt lat="41.093771" lon="70.26218"><ele>1344.0</ele></trkpt><trkpt lat="41.093745" lon="70.262157"><ele>1344.0</ele></trkpt><trkpt lat="41.093599" lon="70.262111"><ele>1342.0</ele></trkpt><trkpt lat="41.09332" lon="70.262078"><ele>1338.0</ele></trkpt><trkpt lat="41.092847" lon="70.262139"><ele>1333.0</ele></trkpt><trkpt lat="41.092528" lon="70.262094"><ele>1328.0</ele></trkpt><trkpt lat="41.092263" lon="70.262021"><ele>1326.0</ele></trkpt><trkpt lat="41.091966" lon="70.261908"><ele>1321.0</ele></trkpt><trkpt lat="41.091356" lon="70.261759"><ele>1314.0</ele></trkpt><trkpt lat="41.091043" lon="70.261633"><ele>1312.0</ele></trkpt><trkpt lat="41.090378" lon="70.261417"><ele>1304.0</ele></trkpt><trkpt lat="41.090038" lon="70.26121"><ele>1298.0</ele></trkpt><trkpt lat="41.089763" lon="70.261162"><ele>1293.0</ele></trkpt><trkpt lat="41.089296" lon="70.261169"><ele>1286.0</ele></trkpt><trkpt lat="41.089067" lon="70.26114"><ele>1281.0</ele></trkpt><trkpt lat="41.088896" lon="70.261155"><ele>1278.0</ele></trkpt><trkpt lat="41.088836" lon="70.261193"><ele>1278.0</ele></trkpt><trkpt lat="41.088827" lon="70.261222"><ele>1277.0</ele></trkpt><trkpt lat="41.088864" lon="70.261407"><ele>1275.0</ele></trkpt><trkpt lat="41.088916" lon="70.261505"><ele>1275.0</ele></trkpt><trkpt lat="41.089069" lon="70.261726"><ele>1272.0</ele></trkpt><trkpt lat="41.089247" lon="70.261927"><ele>1272.0</ele></trkpt><trkpt lat="41.089311" lon="70.262043"><ele>1272.0</ele></trkpt><trkpt lat="41.089319" lon="70.262144"><ele>1272.0</ele></trkpt><trkpt lat="41.089288" lon="70.262271"><ele>1270.0</ele></trkpt><trkpt lat="41.08918" lon="70.262527"><ele>1272.0</ele></trkpt><trkpt lat="41.089131" lon="70.26261"><ele>1272.0</ele></trkpt><trkpt lat="41.089053" lon="70.262694"><ele>1276.0</ele></trkpt><trkpt lat="41.088996" lon="70.262735"><ele>1276.0</ele></trkpt><trkpt lat="41.088812" lon="70.262801"><ele>1278.0</ele></trkpt><trkpt lat="41.088603" lon="70.262789"><ele>1281.0</ele></trkpt><trkpt lat="41.08848" lon="70.26285"><ele>1282.0</ele></trkpt><trkpt lat="41.088428" lon="70.262904"><ele>1281.0</ele></trkpt><trkpt lat="41.088284" lon="70.263188"><ele>1280.0</ele></trkpt><trkpt lat="41.088147" lon="70.2634"><ele>1280.0</ele></trkpt><trkpt lat="41.088102" lon="70.263442"><ele>1280.0</ele></trkpt><trkpt lat="41.088009" lon="70.263467"><ele>1278.0</ele></trkpt><trkpt lat="41.087678" lon="70.263333"><ele>1276.0</ele></trkpt><trkpt lat="41.08748" lon="70.263304"><ele>1271.0</ele></trkpt><trkpt lat="41.087041" lon="70.263188"><ele>1266.0</ele></trkpt><trkpt lat="41.085884" lon="70.262639"><ele>1258.0</ele></trkpt><trkpt lat="41.085717" lon="70.262516"><ele>1254.0</ele></trkpt><trkpt lat="41.085585" lon="70.26245"><ele>1254.0</ele></trkpt><trkpt lat="41.085331" lon="70.262457"><ele>1254.1</ele></trkpt><trkpt lat="41.084974" lon="70.262266"><ele>1254.0</ele></trkpt><trkpt lat="41.084883" lon="70.262205"><ele>1254.0</ele></trkpt><trkpt lat="41.084803" lon="70.262122"><ele>1255.0</ele></trkpt><trkpt lat="41.08467" lon="70.261943"><ele>1251.0</ele></trkpt><trkpt lat="41.084301" lon="70.261649"><ele>1248.0</ele></trkpt><trkpt lat="41.084032" lon="70.261477"><ele>1248.0</ele></trkpt><trkpt lat="41.083667" lon="70.261286"><ele>1245.0</ele></trkpt><trkpt lat="41.083269" lon="70.261008"><ele>1245.0</ele></trkpt><trkpt lat="41.083131" lon="70.260872"><ele>1244.0</ele></trkpt><trkpt lat="41.083167" lon="70.260805"><ele>1242.0</ele></trkpt><trkpt lat="41.082869" lon="70.260531"><ele>1242.0</ele></trkpt><trkpt lat="41.082787" lon="70.260471"><ele>1240.0</ele></trkpt><trkpt lat="41.082114" lon="70.260168"><ele>1239.0</ele></trkpt><trkpt lat="41.081916" lon="70.260051"><ele>1239.2</ele></trkpt><trkpt lat="41.081704" lon="70.259906"><ele>1237.0</ele></trkpt><trkpt lat="41.081342" lon="70.259544"><ele>1236.0</ele></trkpt><trkpt lat="41.081096" lon="70.259387"><ele>1236.0</ele></trkpt><trkpt lat="41.080689" lon="70.259248"><ele>1236.0</ele></trkpt><trkpt lat="41.080557" lon="70.259229"><ele>1236.0</ele></trkpt><trkpt lat="41.080052" lon="70.259032"><ele>1236.0</ele></trkpt><trkpt lat="41.079716" lon="70.258958"><ele>1236.0</ele></trkpt><trkpt lat="41.079592" lon="70.258876"><ele>1236.0</ele></trkpt><trkpt lat="41.079403" lon="70.258797"><ele>1234.0</ele></trkpt><trkpt lat="41.07932" lon="70.258744"><ele>1236.5</ele></trkpt><trkpt lat="41.079115" lon="70.25877"><ele>1236.0</ele></trkpt><trkpt lat="41.078979" lon="70.258759"><ele>1236.0</ele></trkpt><trkpt lat="41.078857" lon="70.258793"><ele>1233.0</ele></trkpt><trkpt lat="41.078463" lon="70.258717"><ele>1232.0</ele></trkpt><trkpt lat="41.078323" lon="70.258727"><ele>1232.0</ele></trkpt><trkpt lat="41.078183" lon="70.258706"><ele>1233.0</ele></trkpt><trkpt lat="41.078046" lon="70.258662"><ele>1230.0</ele></trkpt><trkpt lat="41.077736" lon="70.258657"><ele>1228.0</ele></trkpt><trkpt lat="41.077652" lon="70.258571"><ele>1227.0</ele></trkpt><trkpt lat="41.077374" lon="70.258451"><ele>1223.0</ele></trkpt><trkpt lat="41.077295" lon="70.258443"><ele>1222.0</ele></trkpt><trkpt lat="41.077079" lon="70.258497"><ele>1220.0</ele></trkpt><trkpt lat="41.077044" lon="70.258471"><ele>1221.0</ele></trkpt><trkpt lat="41.076927" lon="70.258494"><ele>1218.0</ele></trkpt><trkpt lat="41.076829" lon="70.258469"><ele>1216.0</ele></trkpt><trkpt lat="41.076557" lon="70.258461"><ele>1212.0</ele></trkpt><trkpt lat="41.076523" lon="70.258476"><ele>1212.0</ele></trkpt><trkpt lat="41.07637" lon="70.258451"><ele>1209.0</ele></trkpt><trkpt lat="41.076074" lon="70.258507"><ele>1206.0</ele></trkpt><trkpt lat="41.075982" lon="70.258547"><ele>1204.0</ele></trkpt><trkpt lat="41.075915" lon="70.258527"><ele>1203.0</ele></trkpt><trkpt lat="41.075818" lon="70.258562"><ele>1197.0</ele></trkpt><trkpt lat="41.075747" lon="70.258536"><ele>1198.5</ele></trkpt><trkpt lat="41.075737" lon="70.258572"><ele>1198.0</ele></trkpt><trkpt lat="41.075578" lon="70.258582"><ele>1195.0</ele></trkpt><trkpt lat="41.075478" lon="70.258641"><ele>1192.0</ele></trkpt><trkpt lat="41.07525" lon="70.258882"><ele>1191.0</ele></trkpt><trkpt lat="41.07523" lon="70.258957"><ele>1191.0</ele></trkpt><trkpt lat="41.075233" lon="70.259057"><ele>1192.0</ele></trkpt><trkpt lat="41.075269" lon="70.25917"><ele>1191.6</ele></trkpt><trkpt lat="41.075276" lon="70.259282"><ele>1192.0</ele></trkpt><trkpt lat="41.0753" lon="70.259327"><ele>1190.0</ele></trkpt><trkpt lat="41.075282" lon="70.259414"><ele>1192.0</ele></trkpt><trkpt lat="41.075293" lon="70.259805"><ele>1190.0</ele></trkpt><trkpt lat="41.075248" lon="70.259879"><ele>1190.0</ele></trkpt><trkpt lat="41.075215" lon="70.25989"><ele>1192.0</ele></trkpt><trkpt lat="41.075207" lon="70.259758"><ele>1190.0</ele></trkpt><trkpt lat="41.075152" lon="70.259709"><ele>1188.0</ele></trkpt><trkpt lat="41.075118" lon="70.25979"><ele>1188.0</ele></trkpt><trkpt lat="41.075118" lon="70.259994"><ele>1184.0</ele></trkpt><trkpt lat="41.075088" lon="70.260099"><ele>1182.0</ele></trkpt><trkpt lat="41.075093" lon="70.260288"><ele>1180.0</ele></trkpt><trkpt lat="41.075008" lon="70.260621"><ele>1170.0</ele></trkpt><trkpt lat="41.074964" lon="70.260666"><ele>1170.0</ele></trkpt><trkpt lat="41.074967" lon="70.26073"><ele>1168.0</ele></trkpt><trkpt lat="41.074843" lon="70.260781"><ele>1160.0</ele></trkpt><trkpt lat="41.074825" lon="70.260807"><ele>1160.0</ele></trkpt><trkpt lat="41.074817" lon="70.260912"><ele>1162.0</ele></trkpt><trkpt lat="41.074829" lon="70.260995"><ele>1161.0</ele></trkpt><trkpt lat="41.074804" lon="70.261046"><ele>1159.0</ele></trkpt><trkpt lat="41.074806" lon="70.261145"><ele>1160.0</ele></trkpt><trkpt lat="41.074798" lon="70.261054"><ele>1160.0</ele></trkpt><trkpt lat="41.074793" lon="70.261082"><ele>1159.0</ele></trkpt><trkpt lat="41.07486" lon="70.261471"><ele>1163.7</ele></trkpt></trkseg></trk></gpx>