<?xml version='1.0' encoding='utf-8'?>
<gpx xmlns="http://www.topografix.com/GPX/1/1" xmlns:ns2="https://gurumaps.app/gpx/v3" xmlns:xsi="http://www.w3.org/2001/XMLSchema-instance" version="1.1" creator="com.bodunov.galileo/v5.5.1" xsi:schemaLocation="http://www.topografix.com/GPX/1/1 http://www.topografix.com/GPX/1/1/gpx.xsd https://gurumaps.app/gpx/v3 https://gurumaps.app/gpx/v3/schema.xsd">
 <trk>
  <name>Бадак Озеро&amp;Водопад</name>
  <type>TrackStyle_E53935C8</type>
  <extensions>
   <ns2:time>2024-06-08T03:02:01.166Z</ns2:time>
  </extensions>
  <trkseg>
   <trkpt lat="41.8870726721" lon="70.3503246536"><ele>1091.126</ele></trkpt>
   <trkpt lat="41.8871421999" lon="70.3504978237"><ele>1092.163</ele></trkpt>
   <trkpt lat="41.8870589676" lon="70.3506607679"><ele>1087.209</ele></trkpt>
   <trkpt lat="41.8869555769" lon="70.3510440723"><ele>1083.502</ele></trkpt>
   <trkpt lat="41.8869825666" lon="70.3512410471"><ele>1081.764</ele></trkpt>
   <trkpt lat="41.8870862927" lon="70.3513943521"><ele>1082.191</ele></trkpt>
   <trkpt lat="41.8872291622" lon="70.3514480801"><ele>1077.683</ele></trkpt>
   <trkpt lat="41.8873648652" lon="70.3515260318"><ele>1075.201</ele></trkpt>
   <trkpt lat="41.8874600836" lon="70.3516857908"><ele>1072.97</ele></trkpt>
   <trkpt lat="41.8875641869" lon="70.3518208233"><ele>1066.146</ele></trkpt>
   <trkpt lat="41.8877068888" lon="70.3518671752"><ele>1063.134</ele></trkpt>
   <trkpt lat="41.8876268835" lon="70.352033556"><ele>1057.237</ele></trkpt>
   <trkpt lat="41.8875251691" lon="70.3521792335"><ele>1055.043</ele></trkpt>
   <trkpt lat="41.8874453734" lon="70.3523442732"><ele>1053.337</ele></trkpt>
   <trkpt lat="41.8873276915" lon="70.3524676548"><ele>1053.183</ele></trkpt>
   <trkpt lat="41.8873196867" lon="70.3526613606"><ele>1050.51</ele></trkpt>
   <trkpt lat="41.8868833668" lon="70.3525815648"><ele>1061.107</ele></trkpt>
   <trkpt lat="41.8866032855" lon="70.3524713428"><ele>1070.821</ele></trkpt>
   <trkpt lat="41.8864688817" lon="70.3523807344"><ele>1073.757</ele></trkpt>
   <trkpt lat="41.886325593" lon="70.3523373162"><ele>1074.549</ele></trkpt>
   <trkpt lat="41.8861804604" lon="70.3523265873"><ele>1077.145</ele></trkpt>
   <trkpt lat="41.8861443763" lon="70.3525241488"><ele>1078.169</ele></trkpt>
   <trkpt lat="41.8861632775" lon="70.3527189442"><ele>1079.567</ele></trkpt>
   <trkpt lat="41.8862539697" lon="70.3528694832"><ele>1086.079</ele></trkpt>
   <trkpt lat="41.886323288" lon="70.3530427371"><ele>1086.367</ele></trkpt>
   <trkpt lat="41.8865240765" lon="70.3533379478"><ele>1090.601</ele></trkpt>
   <trkpt lat="41.8866003937" lon="70.3535106988"><ele>1092.007</ele></trkpt>
   <trkpt lat="41.88670588" lon="70.3536539455"><ele>1089.993</ele></trkpt>
   <trkpt lat="41.8869728855" lon="70.3541250923"><ele>1096.434</ele></trkpt>
   <trkpt lat="41.8870502924" lon="70.3542899643"><ele>1100.506</ele></trkpt>
   <trkpt lat="41.8874424816" lon="70.3545726859"><ele>1096.015</ele></trkpt>
   <trkpt lat="41.8875865665" lon="70.3546104883"><ele>1099.228</ele></trkpt>
   <trkpt lat="41.8876952798" lon="70.3547473648"><ele>1101.499</ele></trkpt>
   <trkpt lat="41.8879711702" lon="70.3548918688"><ele>1108.454</ele></trkpt>
   <trkpt lat="41.8882159637" lon="70.3551031766"><ele>1116.256</ele></trkpt>
   <trkpt lat="41.8884735814" lon="70.3552850639"><ele>1123.029</ele></trkpt>
   <trkpt lat="41.8887546686" lon="70.3553843894"><ele>1128.665</ele></trkpt>
   <trkpt lat="41.8888713866" lon="70.355509196"><ele>1131.962</ele></trkpt>
   <trkpt lat="41.8888931795" lon="70.3557007225"><ele>1133.586</ele></trkpt>
   <trkpt lat="41.8888836661" lon="70.355900547"><ele>1131.982</ele></trkpt>
   <trkpt lat="41.8888550838" lon="70.3560947557"><ele>1138.845</ele></trkpt>
   <trkpt lat="41.8887704685" lon="70.3562527546"><ele>1142.237</ele></trkpt>
   <trkpt lat="41.888630784" lon="70.3562987713"><ele>1142.488</ele></trkpt>
   <trkpt lat="41.8884872859" lon="70.3562585381"><ele>1143.943</ele></trkpt>
   <trkpt lat="41.8883379623" lon="70.3562477255"><ele>1145.713</ele></trkpt>
   <trkpt lat="41.8882153769" lon="70.3561423649"><ele>1142.334</ele></trkpt>
   <trkpt lat="41.8880781652" lon="70.3560785787"><ele>1150.618</ele></trkpt>
   <trkpt lat="41.8879345832" lon="70.3560554446"><ele>1153.983</ele></trkpt>
   <trkpt lat="41.8878389876" lon="70.3562028823"><ele>1156.998</ele></trkpt>
   <trkpt lat="41.8879038635" lon="70.3563846858"><ele>1158.789</ele></trkpt>
   <trkpt lat="41.8878575954" lon="70.3565732786"><ele>1162.242</ele></trkpt>
   <trkpt lat="41.88783509" lon="70.3567757854"><ele>1161.129</ele></trkpt>
   <trkpt lat="41.8879207949" lon="70.3573503648"><ele>1165.585</ele></trkpt>
   <trkpt lat="41.8879547835" lon="70.3579435521"><ele>1163.548</ele></trkpt>
   <trkpt lat="41.8880120739" lon="70.3583496553"><ele>1168.054</ele></trkpt>
   <trkpt lat="41.8880908637" lon="70.3587321216"><ele>1169.223</ele></trkpt>
   <trkpt lat="41.8881376767" lon="70.3593326849"><ele>1171.236</ele></trkpt>
   <trkpt lat="41.8881420772" lon="70.3595269774"><ele>1172.261</ele></trkpt>
   <trkpt lat="41.8881122795" lon="70.3597178334"><ele>1173.256</ele></trkpt>
   <trkpt lat="41.8881061607" lon="70.3599153948"><ele>1177.457</ele></trkpt>
   <trkpt lat="41.8882410675" lon="70.3604801675"><ele>1182.884</ele></trkpt>
   <trkpt lat="41.8884346894" lon="70.3607799881"><ele>1180.753</ele></trkpt>
   <trkpt lat="41.8884445801" lon="70.3609772981"><ele>1185.85</ele></trkpt>
   <trkpt lat="41.8884152853" lon="70.3611672321"><ele>1184.423</ele></trkpt>
   <trkpt lat="41.8884134832" lon="70.3613739298"><ele>1187.059</ele></trkpt>
   <trkpt lat="41.888447388" lon="70.3615738382"><ele>1186.485</ele></trkpt>
   <trkpt lat="41.8884572786" lon="70.3617718188"><ele>1184.023</ele></trkpt>
   <trkpt lat="41.8885562689" lon="70.3619174962"><ele>1185.41</ele></trkpt>
   <trkpt lat="41.8886405909" lon="70.3620802728"><ele>1184.872</ele></trkpt>
   <trkpt lat="41.8887495975" lon="70.3622205858"><ele>1191.388</ele></trkpt>
   <trkpt lat="41.889401961" lon="70.3626766452"><ele>1194.03</ele></trkpt>
   <trkpt lat="41.88950619" lon="70.3628292797"><ele>1194.629</ele></trkpt>
   <trkpt lat="41.8898741975" lon="70.3631715966"><ele>1190.72</ele></trkpt>
   <trkpt lat="41.8899808991" lon="70.3633162682"><ele>1192.43</ele></trkpt>
   <trkpt lat="41.890233362" lon="70.3635583376"><ele>1191.526</ele></trkpt>
   <trkpt lat="41.8903390997" lon="70.3636900173"><ele>1191.965</ele></trkpt>
   <trkpt lat="41.8907444905" lon="70.3639316676"><ele>1192.033</ele></trkpt>
   <trkpt lat="41.8908648965" lon="70.3640456614"><ele>1192.326</ele></trkpt>
   <trkpt lat="41.8909925948" lon="70.3641369404"><ele>1192.027</ele></trkpt>
   <trkpt lat="41.8914358718" lon="70.3646513378"><ele>1196.292</ele></trkpt>
   <trkpt lat="41.891540897" lon="70.364804559"><ele>1197.881</ele></trkpt>
   <trkpt lat="41.8916712775" lon="70.3651603707"><ele>1195.92</ele></trkpt>
   <trkpt lat="41.8916896758" lon="70.365356172"><ele>1197.008</ele></trkpt>
   <trkpt lat="41.8916695592" lon="70.3657646221"><ele>1196.142</ele></trkpt>
   <trkpt lat="41.8915719939" lon="70.3659135686"><ele>1198.067</ele></trkpt>
   <trkpt lat="41.8915206966" lon="70.3661028319"><ele>1201.826</ele></trkpt>
   <trkpt lat="41.8914397693" lon="70.3662628425"><ele>1201.219</ele></trkpt>
   <trkpt lat="41.8911237716" lon="70.3666802612"><ele>1202.841</ele></trkpt>
   <trkpt lat="41.8909372742" lon="70.3670005338"><ele>1204.337</ele></trkpt>
   <trkpt lat="41.8908353922" lon="70.3671425232"><ele>1205.463</ele></trkpt>
   <trkpt lat="41.8907806584" lon="70.3673278471"><ele>1208.091</ele></trkpt>
   <trkpt lat="41.8906176723" lon="70.3676571721"><ele>1211.878</ele></trkpt>
   <trkpt lat="41.890595083" lon="70.3678508778"><ele>1212.863</ele></trkpt>
   <trkpt lat="41.89054278" lon="70.3680359503"><ele>1216.624</ele></trkpt>
   <trkpt lat="41.8905299976" lon="70.3682295722"><ele>1216.732</ele></trkpt>
   <trkpt lat="41.8904666723" lon="70.3686175705"><ele>1220.713</ele></trkpt>
   <trkpt lat="41.8904587933" lon="70.3688133718"><ele>1226.56</ele></trkpt>
   <trkpt lat="41.890386667" lon="70.3689820995"><ele>1228.818</ele></trkpt>
   <trkpt lat="41.8903409857" lon="70.3691748833"><ele>1230.84</ele></trkpt>
   <trkpt lat="41.8902749782" lon="70.3695787234"><ele>1235.453</ele></trkpt>
   <trkpt lat="41.8902221722" lon="70.3697690764"><ele>1237.512</ele></trkpt>
   <trkpt lat="41.8900932585" lon="70.3701397241"><ele>1234.776</ele></trkpt>
   <trkpt lat="41.8899444797" lon="70.3704908421"><ele>1237.314</ele></trkpt>
   <trkpt lat="41.8898993851" lon="70.3706755792"><ele>1232.531</ele></trkpt>
   <trkpt lat="41.8898193798" lon="70.3708538623"><ele>1239.943</ele></trkpt>
   <trkpt lat="41.8896401747" lon="70.3711722908"><ele>1241.344</ele></trkpt>
   <trkpt lat="41.8894222872" lon="70.3714431939"><ele>1242.136</ele></trkpt>
   <trkpt lat="41.8893313854" lon="70.3715979238"><ele>1244.985</ele></trkpt>
   <trkpt lat="41.8891799663" lon="70.3719386482"><ele>1244.055</ele></trkpt>
   <trkpt lat="41.8890921659" lon="70.3720990778"><ele>1246.856</ele></trkpt>
   <trkpt lat="41.8889789683" lon="70.3722309252"><ele>1246.686</ele></trkpt>
   <trkpt lat="41.8888784693" lon="70.372381548"><ele>1250.411</ele></trkpt>
   <trkpt lat="41.8887985897" lon="70.3725433187"><ele>1248.558</ele></trkpt>
   <trkpt lat="41.8888093605" lon="70.3727394552"><ele>1250.094</ele></trkpt>
   <trkpt lat="41.8887591948" lon="70.3729232704"><ele>1251.8</ele></trkpt>
   <trkpt lat="41.8886815784" lon="70.3730883939"><ele>1251.323</ele></trkpt>
   <trkpt lat="41.8885632678" lon="70.3732116917"><ele>1256.752</ele></trkpt>
   <trkpt lat="41.8884943686" lon="70.3733867896"><ele>1256.972</ele></trkpt>
   <trkpt lat="41.8884045984" lon="70.3735405975"><ele>1256.758</ele></trkpt>
   <trkpt lat="41.8883480624" lon="70.3737224848"><ele>1252.548</ele></trkpt>
   <trkpt lat="41.8883776925" lon="70.3739180346"><ele>1255.013</ele></trkpt>
   <trkpt lat="41.888394582" lon="70.3743169294"><ele>1256.938</ele></trkpt>
   <trkpt lat="41.8884321748" lon="70.3745094617"><ele>1263.334</ele></trkpt>
   <trkpt lat="41.8885570652" lon="70.374861334"><ele>1268.79</ele></trkpt>
   <trkpt lat="41.8885298659" lon="70.3750541178"><ele>1266.381</ele></trkpt>
   <trkpt lat="41.8885150719" lon="70.375459299"><ele>1269.593</ele></trkpt>
   <trkpt lat="41.8884740844" lon="70.3756469698"><ele>1269.286</ele></trkpt>
   <trkpt lat="41.8884159978" lon="70.3762509697"><ele>1268.174</ele></trkpt>
   <trkpt lat="41.8884553927" lon="70.3766392195"><ele>1269.829</ele></trkpt>
   <trkpt lat="41.8884102981" lon="70.3770407965"><ele>1271.21</ele></trkpt>
   <trkpt lat="41.8884199792" lon="70.3772337479"><ele>1271.755</ele></trkpt>
   <trkpt lat="41.8884081607" lon="70.377624596"><ele>1270.223</ele></trkpt>
   <trkpt lat="41.8884505731" lon="70.3784167697"><ele>1271.834</ele></trkpt>
   <trkpt lat="41.8885753797" lon="70.3787712404"><ele>1270.114</ele></trkpt>
   <trkpt lat="41.8886624676" lon="70.3791534552"><ele>1270.7</ele></trkpt>
   <trkpt lat="41.8887749947" lon="70.3795232647"><ele>1271.36</ele></trkpt>
   <trkpt lat="41.8889383999" lon="70.3798615584"><ele>1270.091</ele></trkpt>
   <trkpt lat="41.8889853805" lon="70.3800472175"><ele>1268.671</ele></trkpt>
   <trkpt lat="41.8889288864" lon="70.3802294401"><ele>1262.734</ele></trkpt>
   <trkpt lat="41.8889673594" lon="70.3804169433"><ele>1256.804</ele></trkpt>
   <trkpt lat="41.888779479" lon="70.3807147523"><ele>1249.749</ele></trkpt>
   <trkpt lat="41.8887622961" lon="70.3809082904"><ele>1243.329</ele></trkpt>
   <trkpt lat="41.8886344721" lon="70.3812601627"><ele>1236.683</ele></trkpt>
   <trkpt lat="41.8885985975" lon="70.3814490908"><ele>1235.794</ele></trkpt>
   <trkpt lat="41.8885873658" lon="70.3816493345"><ele>1231.635</ele></trkpt>
   <trkpt lat="41.8884845617" lon="70.3824238223"><ele>1215.526</ele></trkpt>
   <trkpt lat="41.8884512856" lon="70.382820454"><ele>1203.943</ele></trkpt>
   <trkpt lat="41.888379788" lon="70.3829931212"><ele>1210.134</ele></trkpt>
   <trkpt lat="41.8883313825" lon="70.3831768525"><ele>1209.779</ele></trkpt>
   <trkpt lat="41.888050463" lon="70.3836200876"><ele>1211.651</ele></trkpt>
   <trkpt lat="41.8877959884" lon="70.3841180564"><ele>1211.846</ele></trkpt>
   <trkpt lat="41.8876131791" lon="70.3844308691"><ele>1210.853</ele></trkpt>
   <trkpt lat="41.8874974669" lon="70.384561962"><ele>1208.731</ele></trkpt>
   <trkpt lat="41.8874122649" lon="70.3847353836"><ele>1210.544</ele></trkpt>
   <trkpt lat="41.8873097961" lon="70.3848746908"><ele>1213.237</ele></trkpt>
   <trkpt lat="41.8871784936" lon="70.384985751"><ele>1212.88</ele></trkpt>
   <trkpt lat="41.8869479913" lon="70.3852419858"><ele>1216.629</ele></trkpt>
   <trkpt lat="41.8868606937" lon="70.385411887"><ele>1214.417</ele></trkpt>
   <trkpt lat="41.8867523995" lon="70.3855414712"><ele>1212.371</ele></trkpt>
   <trkpt lat="41.8866085661" lon="70.3856028268"><ele>1215.678</ele></trkpt>
   <trkpt lat="41.8864843882" lon="70.3857037449"><ele>1215.052</ele></trkpt>
   <trkpt lat="41.8863377887" lon="70.38576158"><ele>1219.736</ele></trkpt>
   <trkpt lat="41.8861915664" lon="70.3857505997"><ele>1219.509</ele></trkpt>
   <trkpt lat="41.8861254751" lon="70.3859270388"><ele>1224.932</ele></trkpt>
   <trkpt lat="41.8859770735" lon="70.3859501728"><ele>1217.294</ele></trkpt>
   <trkpt lat="41.8858366766" lon="70.3858952714"><ele>1219.33</ele></trkpt>
   <trkpt lat="41.8857338726" lon="70.3860313935"><ele>1224.295</ele></trkpt>
   <trkpt lat="41.8856772947" lon="70.3862148733"><ele>1228.395</ele></trkpt>
   <trkpt lat="41.8858134587" lon="70.3863064875"><ele>1225.669</ele></trkpt>
   <trkpt lat="41.8856839583" lon="70.3864079924"><ele>1226.313</ele></trkpt>
   <trkpt lat="41.8853562678" lon="70.3865241656"><ele>1228.596</ele></trkpt>
   <trkpt lat="41.8852628934" lon="70.3866754589"><ele>1219.374</ele></trkpt>
   <trkpt lat="41.8851485643" lon="70.3867955716"><ele>1228.132</ele></trkpt>
   <trkpt lat="41.8851318843" lon="70.3869881877"><ele>1225.205</ele></trkpt>
   <trkpt lat="41.8850666731" lon="70.3871606873"><ele>1222.464</ele></trkpt>
   <trkpt lat="41.8850757674" lon="70.3873568238"><ele>1222.281</ele></trkpt>
   <trkpt lat="41.885131088" lon="70.3875378729"><ele>1222.2</ele></trkpt>
   <trkpt lat="41.8852177988" lon="70.3876972967"><ele>1222.52</ele></trkpt>
   <trkpt lat="41.8851581616" lon="70.3878822853"><ele>1222.115</ele></trkpt>
   <trkpt lat="41.8851960897" lon="70.388073728"><ele>1218.875</ele></trkpt>
   <trkpt lat="41.885111181" lon="70.3882324812"><ele>1225.53</ele></trkpt>
   <trkpt lat="41.8851282801" lon="70.3884248459"><ele>1230.457</ele></trkpt>
   <trkpt lat="41.8850326845" lon="70.3885744629"><ele>1229.691</ele></trkpt>
   <trkpt lat="41.8848098935" lon="70.3888275964"><ele>1236.445</ele></trkpt>
   <trkpt lat="41.8846689937" lon="70.3891700809"><ele>1241.801</ele></trkpt>
   <trkpt lat="41.8844457836" lon="70.3894267348"><ele>1244.702</ele></trkpt>
   <trkpt lat="41.8843513615" lon="70.3895753459"><ele>1243.36</ele></trkpt>
   <trkpt lat="41.8842639801" lon="70.3897385416"><ele>1252.086</ele></trkpt>
   <trkpt lat="41.8841992718" lon="70.3899148968"><ele>1255.626</ele></trkpt>
   <trkpt lat="41.8839750978" lon="70.390158894"><ele>1250.588</ele></trkpt>
   <trkpt lat="41.8838145844" lon="70.3905007919"><ele>1248.562</ele></trkpt>
   <trkpt lat="41.8837109841" lon="70.3906392609"><ele>1255.846</ele></trkpt>
   <trkpt lat="41.8834741953" lon="70.390876385"><ele>1256.472</ele></trkpt>
   <trkpt lat="41.8834033682" lon="70.3910457832"><ele>1260.809</ele></trkpt>
   <trkpt lat="41.8833512747" lon="70.3912310233"><ele>1260.975</ele></trkpt>
   <trkpt lat="41.8832615883" lon="70.3913831548"><ele>1263.57</ele></trkpt>
   <trkpt lat="41.8831191798" lon="70.3914371343"><ele>1263.007</ele></trkpt>
   <trkpt lat="41.8829910624" lon="70.3915454285"><ele>1265.935</ele></trkpt>
   <trkpt lat="41.8828958859" lon="70.3917061934"><ele>1265.326</ele></trkpt>
   <trkpt lat="41.8826753999" lon="70.39223023"><ele>1267.604</ele></trkpt>
   <trkpt lat="41.8825813969" lon="70.3923896538"><ele>1267.668</ele></trkpt>
   <trkpt lat="41.8821668699" lon="70.392698946"><ele>1271.483</ele></trkpt>
   <trkpt lat="41.881919478" lon="70.3929119301"><ele>1269.146</ele></trkpt>
   <trkpt lat="41.8818406881" lon="70.3930749582"><ele>1272.842</ele></trkpt>
   <trkpt lat="41.8818660853" lon="70.3932771297"><ele>1273.828</ele></trkpt>
   <trkpt lat="41.8816979862" lon="70.3932355554"><ele>1275.632</ele></trkpt>
   <trkpt lat="41.8813063837" lon="70.3935338674"><ele>1274.94</ele></trkpt>
   <trkpt lat="41.8811955749" lon="70.3936675587"><ele>1277.64</ele></trkpt>
   <trkpt lat="41.8810589918" lon="70.3937357874"><ele>1279.992</ele></trkpt>
   <trkpt lat="41.8809165833" lon="70.3937661299"><ele>1283.826</ele></trkpt>
   <trkpt lat="41.8808172996" lon="70.394147255"><ele>1289.065</ele></trkpt>
   <trkpt lat="41.8807328939" lon="70.3943082714"><ele>1293.649</ele></trkpt>
   <trkpt lat="41.8806132841" lon="70.3944164818"><ele>1292.569</ele></trkpt>
   <trkpt lat="41.8803370585" lon="70.3945490835"><ele>1294.732</ele></trkpt>
   <trkpt lat="41.880033466" lon="70.3949829308"><ele>1304.513</ele></trkpt>
   <trkpt lat="41.8799129761" lon="70.3951032949"><ele>1307.681</ele></trkpt>
   <trkpt lat="41.8798340605" lon="70.39526582"><ele>1307.459</ele></trkpt>
   <trkpt lat="41.8797139897" lon="70.3953822446"><ele>1311.653</ele></trkpt>
   <trkpt lat="41.8795695695" lon="70.3954530717"><ele>1313.057</ele></trkpt>
   <trkpt lat="41.8794170608" lon="70.3954909579"><ele>1313.576</ele></trkpt>
   <trkpt lat="41.8793135862" lon="70.3956331988"><ele>1312.552</ele></trkpt>
   <trkpt lat="41.8792603611" lon="70.3960233764"><ele>1317.94</ele></trkpt>
   <trkpt lat="41.8791262926" lon="70.3963738238"><ele>1323.088</ele></trkpt>
   <trkpt lat="41.879038576" lon="70.3965379415"><ele>1328.654</ele></trkpt>
   <trkpt lat="41.8788340994" lon="70.3968363372"><ele>1331.884</ele></trkpt>
   <trkpt lat="41.8786933673" lon="70.3969131993"><ele>1333.752</ele></trkpt>
   <trkpt lat="41.8785870847" lon="70.3970516683"><ele>1334.678</ele></trkpt>
   <trkpt lat="41.8784712888" lon="70.3971678415"><ele>1332.652</ele></trkpt>
   <trkpt lat="41.8783260723" lon="70.3971487307"><ele>1331.93</ele></trkpt>
   <trkpt lat="41.8781957756" lon="70.3972302867"><ele>1328.895</ele></trkpt>
   <trkpt lat="41.8783412854" lon="70.397198184"><ele>1334.231</ele></trkpt>
   <trkpt lat="41.8781924647" lon="70.397226431"><ele>1332.809</ele></trkpt>
   <trkpt lat="41.8780611622" lon="70.3973137704"><ele>1413.469</ele></trkpt>
   <trkpt lat="41.8782011819" lon="70.3972423566"><ele>1421.864</ele></trkpt>
   <trkpt lat="41.8783447639" lon="70.397223665"><ele>1433.551</ele></trkpt>
   <trkpt lat="41.8780530737" lon="70.3972359864"><ele>1309.645</ele></trkpt>
   <trkpt lat="41.8779432708" lon="70.3973651515"><ele>1294.07</ele></trkpt>
   <trkpt lat="41.8779367748" lon="70.3975642217"><ele>1300.701</ele></trkpt>
   <trkpt lat="41.8778119682" lon="70.3979223804"><ele>1321.763</ele></trkpt>
   <trkpt lat="41.8778200987" lon="70.3981234623"><ele>1292.29</ele></trkpt>
   <trkpt lat="41.8777873674" lon="70.3983167489"><ele>1343.393</ele></trkpt>
   <trkpt lat="41.8777448711" lon="70.3985040845"><ele>1340.918</ele></trkpt>
   <trkpt lat="41.8776748822" lon="70.3986796854"><ele>1341.355</ele></trkpt>
   <trkpt lat="41.8775852797" lon="70.3988411208"><ele>1335.679</ele></trkpt>
   <trkpt lat="41.8773733852" lon="70.3991086712"><ele>1336.554</ele></trkpt>
   <trkpt lat="41.8772833635" lon="70.3992638202"><ele>1313.962</ele></trkpt>
   <trkpt lat="41.8772357962" lon="70.3994480544"><ele>1312.577</ele></trkpt>
   <trkpt lat="41.8769566788" lon="70.3999092267"><ele>1327.859</ele></trkpt>
   <trkpt lat="41.8767429822" lon="70.400179124"><ele>1341.382</ele></trkpt>
   <trkpt lat="41.8766023758" lon="70.4002539744"><ele>1341.6</ele></trkpt>
   <trkpt lat="41.8764774854" lon="70.4003674654"><ele>1326.527</ele></trkpt>
   <trkpt lat="41.8763735918" lon="70.4005049286"><ele>1330.629</ele></trkpt>
   <trkpt lat="41.8762001702" lon="70.4008383607"><ele>1333.094</ele></trkpt>
   <trkpt lat="41.8761332826" lon="70.4010119499"><ele>1336.449</ele></trkpt>
   <trkpt lat="41.8760303947" lon="70.4011512571"><ele>1334.015</ele></trkpt>
   <trkpt lat="41.8759591905" lon="70.4013252655"><ele>1330.231</ele></trkpt>
   <trkpt lat="41.8759499704" lon="70.4015183845"><ele>1340.663</ele></trkpt>
   <trkpt lat="41.8757703881" lon="70.4018223961"><ele>1334.254</ele></trkpt>
   <trkpt lat="41.8756925621" lon="70.401988274"><ele>1345.367</ele></trkpt>
   <trkpt lat="41.8755889618" lon="70.4021235579"><ele>1327.478</ele></trkpt>
   <trkpt lat="41.8755376646" lon="70.4023132404"><ele>1336.731</ele></trkpt>
   <trkpt lat="41.8752429987" lon="70.4023578321"><ele>1336.713</ele></trkpt>
   <trkpt lat="41.8751061642" lon="70.4024522962"><ele>1323.579</ele></trkpt>
   <trkpt lat="41.8749290965" lon="70.4027833813"><ele>1330.952</ele></trkpt>
   <trkpt lat="41.8747839638" lon="70.4028640991"><ele>1319.421</ele></trkpt>
   <trkpt lat="41.8745501925" lon="70.4031103594"><ele>1366.099</ele></trkpt>
   <trkpt lat="41.8744096699" lon="70.4031709605"><ele>1374.27</ele></trkpt>
   <trkpt lat="41.8742741765" lon="70.4032762372"><ele>1370.357</ele></trkpt>
   <trkpt lat="41.8740355856" lon="70.4035317176"><ele>1376.459</ele></trkpt>
   <trkpt lat="41.8739315662" lon="70.4036683427"><ele>1372.421</ele></trkpt>
   <trkpt lat="41.8738074721" lon="70.4037860246"><ele>1374.94</ele></trkpt>
   <trkpt lat="41.8737053805" lon="70.4039268406"><ele>1366.309</ele></trkpt>
   <trkpt lat="41.8736420971" lon="70.4041060457"><ele>1374.546</ele></trkpt>
   <trkpt lat="41.873497677" lon="70.4041034473"><ele>1369.212</ele></trkpt>
   <trkpt lat="41.8732098843" lon="70.4040416726"><ele>1376.158</ele></trkpt>
   <trkpt lat="41.8730770731" lon="70.4041400762"><ele>1363.432</ele></trkpt>
   <trkpt lat="41.8728914977" lon="70.4042037786"><ele>1372.563</ele></trkpt>
   <trkpt lat="41.8727376898" lon="70.4042280862"><ele>1369.514</ele></trkpt>
   <trkpt lat="41.8725933953" lon="70.4042061256"><ele>1368.065</ele></trkpt>
   <trkpt lat="41.8724830895" lon="70.4043381406"><ele>1373.082</ele></trkpt>
   <trkpt lat="41.8725125938" lon="70.404528745"><ele>1366.411</ele></trkpt>
   <trkpt lat="41.8726031602" lon="70.4046944553"><ele>1340.568</ele></trkpt>
   <trkpt lat="41.8727067606" lon="70.4048308288"><ele>1338.069</ele></trkpt>
   <trkpt lat="41.8726979596" lon="70.4050300667"><ele>1339.801</ele></trkpt>
   <trkpt lat="41.8728027753" lon="70.4051691224"><ele>1353.117</ele></trkpt>
   <trkpt lat="41.8726625879" lon="70.4051220161"><ele>1349.061</ele></trkpt>
   <trkpt lat="41.8725820798" lon="70.40528605"><ele>1352.972</ele></trkpt>
   <trkpt lat="41.8724745819" lon="70.4054281232"><ele>1355.231</ele></trkpt>
   <trkpt lat="41.8722400981" lon="70.4056734615"><ele>1349.433</ele></trkpt>
   <trkpt lat="41.8721651639" lon="70.4058422731"><ele>1358.496</ele></trkpt>
   <trkpt lat="41.8720745974" lon="70.4059928959"><ele>1361.842</ele></trkpt>
   <trkpt lat="41.8719511739" lon="70.4060979211"><ele>1363.573</ele></trkpt>
   <trkpt lat="41.8718137945" lon="70.4061680777"><ele>1370.382</ele></trkpt>
   <trkpt lat="41.8715208889" lon="70.4061661498"><ele>1360.855</ele></trkpt>
   <trkpt lat="41.8713898798" lon="70.4062515614"><ele>1383.86</ele></trkpt>
   <trkpt lat="41.8711889655" lon="70.4065385578"><ele>1382.106</ele></trkpt>
   <trkpt lat="41.8711423622" lon="70.4067274859"><ele>1353.942</ele></trkpt>
   <trkpt lat="41.8710351995" lon="70.4068670446"><ele>1406.679</ele></trkpt>
   <trkpt lat="41.8708347882" lon="70.4073965294"><ele>1419.384</ele></trkpt>
   <trkpt lat="41.8707429645" lon="70.4075499182"><ele>1417.63</ele></trkpt>
   <trkpt lat="41.8706761607" lon="70.4077319731"><ele>1420.543</ele></trkpt>
   <trkpt lat="41.8705604904" lon="70.4078471405"><ele>1426.004</ele></trkpt>
   <trkpt lat="41.8704747855" lon="70.4080064805"><ele>1425.527</ele></trkpt>
   <trkpt lat="41.8704137652" lon="70.4081856856"><ele>1426.715</ele></trkpt>
   <trkpt lat="41.8703173733" lon="70.408329519"><ele>1422.688</ele></trkpt>
   <trkpt lat="41.870457896" lon="70.4082808202"><ele>1385.313</ele></trkpt>
   <trkpt lat="41.8703445726" lon="70.4084076384"><ele>1395.631</ele></trkpt>
   <trkpt lat="41.8702441993" lon="70.4085544893"><ele>1399.304</ele></trkpt>
   <trkpt lat="41.8701858613" lon="70.408739897"><ele>1412.521</ele></trkpt>
   <trkpt lat="41.8698876751" lon="70.4088807968"><ele>1411.705</ele></trkpt>
   <trkpt lat="41.8697794647" lon="70.4090084532"><ele>1419.025</ele></trkpt>
   <trkpt lat="41.869704279" lon="70.4091901728"><ele>1442.048</ele></trkpt>
   <trkpt lat="41.8696076776" lon="70.40934155"><ele>1450.085</ele></trkpt>
   <trkpt lat="41.8694623773" lon="70.4093871476"><ele>1450.446</ele></trkpt>
   <trkpt lat="41.8693011933" lon="70.409561575"><ele>1446.095</ele></trkpt>
   <trkpt lat="41.86907857" lon="70.4100749665"><ele>1425.084</ele></trkpt>
   <trkpt lat="41.8688873788" lon="70.4103861866"><ele>1421.651</ele></trkpt>
   <trkpt lat="41.868657086" lon="70.410622221"><ele>1413.646</ele></trkpt>
   <trkpt lat="41.8685561678" lon="70.4107672279"><ele>1429.736</ele></trkpt>
   <trkpt lat="41.8684351751" lon="70.4108806351"><ele>1428.396</ele></trkpt>
   <trkpt lat="41.8683616658" lon="70.4110558168"><ele>1433.599</ele></trkpt>
   <trkpt lat="41.8683963669" lon="70.4112491874"><ele>1436.928</ele></trkpt>
   <trkpt lat="41.8683570976" lon="70.4114396242"><ele>1438.583</ele></trkpt>
   <trkpt lat="41.8680606716" lon="70.4118784168"><ele>1436.199</ele></trkpt>
   <trkpt lat="41.8679203586" lon="70.4119356652"><ele>1445.005</ele></trkpt>
   <trkpt lat="41.8677942948" lon="70.4120306322"><ele>1446.468</ele></trkpt>
   <trkpt lat="41.8676911974" lon="70.412165497"><ele>1446.816</ele></trkpt>
   <trkpt lat="41.8676104796" lon="70.4123295309"><ele>1449.12</ele></trkpt>
   <trkpt lat="41.8674844996" lon="70.4124232405"><ele>1448.395</ele></trkpt>
   <trkpt lat="41.8674278799" lon="70.4126146832"><ele>1459.134</ele></trkpt>
   <trkpt lat="41.8673059651" lon="70.4127348797"><ele>1463.758</ele></trkpt>
   <trkpt lat="41.8670490597" lon="70.4129257356"><ele>1463.762</ele></trkpt>
   <trkpt lat="41.8669408913" lon="70.413056158"><ele>1464.007</ele></trkpt>
   <trkpt lat="41.8667982732" lon="70.4131195252"><ele>1465.761</ele></trkpt>
   <trkpt lat="41.8667175974" lon="70.4134946992"><ele>1504.466</ele></trkpt>
   <trkpt lat="41.8665860853" lon="70.4135850561"><ele>1479.935</ele></trkpt>
   <trkpt lat="41.8664702893" lon="70.4137049173"><ele>1478.496</ele></trkpt>
   <trkpt lat="41.8661845922" lon="70.4137630878"><ele>1493.665</ele></trkpt>
   <trkpt lat="41.8659092886" lon="70.4138977849"><ele>1509.034</ele></trkpt>
   <trkpt lat="41.8657666705" lon="70.4139275407"><ele>1546.34</ele></trkpt>
   <trkpt lat="41.8656204901" lon="70.4138757405"><ele>1523.251</ele></trkpt>
   <trkpt lat="41.8654966894" lon="70.4137691227"><ele>1520.206</ele></trkpt>
   <trkpt lat="41.8653440968" lon="70.4137786781"><ele>1547.791</ele></trkpt>
   <trkpt lat="41.8652178654" lon="70.4138775846"><ele>1593.016</ele></trkpt>
   <trkpt lat="41.8650810727" lon="70.4142261879"><ele>1588.151</ele></trkpt>
   <trkpt lat="41.8649978823" lon="70.414385947"><ele>1585.575</ele></trkpt>
   <trkpt lat="41.8649624688" lon="70.4145765515"><ele>1581.911</ele></trkpt>
   <trkpt lat="41.8648380813" lon="70.4146933952"><ele>1587.934</ele></trkpt>
   <trkpt lat="41.8647777735" lon="70.4148708401"><ele>1592.334</ele></trkpt>
   <trkpt lat="41.8646827647" lon="70.415019535"><ele>1583.781</ele></trkpt>
   <trkpt lat="41.8646054835" lon="70.4151907773"><ele>1586.89</ele></trkpt>
   <trkpt lat="41.8644172679" lon="70.4154899274"><ele>1594.241</ele></trkpt>
   <trkpt lat="41.864299586" lon="70.4156039213"><ele>1576.704</ele></trkpt>
   <trkpt lat="41.8641460714" lon="70.4159445619"><ele>1586.92</ele></trkpt>
   <trkpt lat="41.8640506853" lon="70.4160917481"><ele>1594.709</ele></trkpt>
   <trkpt lat="41.8639767989" lon="70.4162586318"><ele>1599.437</ele></trkpt>
   <trkpt lat="41.8639312851" lon="70.4164490686"><ele>1599.848</ele></trkpt>
   <trkpt lat="41.8638490587" lon="70.416612851"><ele>1604.921</ele></trkpt>
   <trkpt lat="41.8638404672" lon="70.416809239"><ele>1604.637</ele></trkpt>
   <trkpt lat="41.8637736634" lon="70.4171891907"><ele>1616.119</ele></trkpt>
   <trkpt lat="41.8637430695" lon="70.4175876664"><ele>1626.776</ele></trkpt>
   <trkpt lat="41.8636465938" lon="70.417736948"><ele>1628.764</ele></trkpt>
   <trkpt lat="41.8635344858" lon="70.417863431"><ele>1630.606</ele></trkpt>
   <trkpt lat="41.8633966874" lon="70.4179275525"><ele>1636.144</ele></trkpt>
   <trkpt lat="41.8632756946" lon="70.4180327454"><ele>1637.373</ele></trkpt>
   <trkpt lat="41.863160192" lon="70.4181666882"><ele>1643.309</ele></trkpt>
   <trkpt lat="41.8630696674" lon="70.4183178978"><ele>1645.73</ele></trkpt>
   <trkpt lat="41.8626987682" lon="70.4186313809"><ele>1660.285</ele></trkpt>
   <trkpt lat="41.8626166674" lon="70.4187899665"><ele>1657.697</ele></trkpt>
   <trkpt lat="41.8624808806" lon="70.4188533337"><ele>1664.661</ele></trkpt>
   <trkpt lat="41.8621801798" lon="70.4192831577"><ele>1676.476</ele></trkpt>
   <trkpt lat="41.8620036989" lon="70.4195934558"><ele>1679.697</ele></trkpt>
   <trkpt lat="41.8617401718" lon="70.4197617644"><ele>1680.175</ele></trkpt>
   <trkpt lat="41.8616475937" lon="70.4199210206"><ele>1684.067</ele></trkpt>
   <trkpt lat="41.8614154988" lon="70.4201603239"><ele>1690.918</ele></trkpt>
   <trkpt lat="41.8611372615" lon="70.4206221668"><ele>1695.195</ele></trkpt>
   <trkpt lat="41.8609900753" lon="70.4205985298"><ele>1697.745</ele></trkpt>
   <trkpt lat="41.860853576" lon="70.4206605559"><ele>1694.504</ele></trkpt>
   <trkpt lat="41.8607620875" lon="70.4204992881"><ele>1693.977</ele></trkpt>
   <trkpt lat="41.8606498958" lon="70.4203713802"><ele>1685.138</ele></trkpt>
   <trkpt lat="41.860408497" lon="70.4201571388"><ele>1686.828</ele></trkpt>
   <trkpt lat="41.8602766915" lon="70.4202615773"><ele>1688.117</ele></trkpt>
   <trkpt lat="41.8601408628" lon="70.4203361762"><ele>1685.451</ele></trkpt>
   <trkpt lat="41.8599939699" lon="70.4203625792"><ele>1684.665</ele></trkpt>
   <trkpt lat="41.859568295" lon="70.4202101962"><ele>1684.377</ele></trkpt>
   <trkpt lat="41.8594195581" lon="70.4202227691"><ele>1684.48</ele></trkpt>
   <trkpt lat="41.8591303825" lon="70.4201678676"><ele>1685.669</ele></trkpt>
   <trkpt lat="41.8587442701" lon="70.4198995629"><ele>1686.794</ele></trkpt>
   <trkpt lat="41.8586010653" lon="70.4198600841"><ele>1685.02</ele></trkpt>
   <trkpt lat="41.8584614647" lon="70.420017161"><ele>1690.103</ele></trkpt>
   <trkpt lat="41.85833209" lon="70.4201014829"><ele>1689.145</ele></trkpt>
   <trkpt lat="41.8580862907" lon="70.4203174846"><ele>1687.144</ele></trkpt>
   <trkpt lat="41.857952767" lon="70.4203911615"><ele>1687.735</ele></trkpt>
   <trkpt lat="41.8577413754" lon="70.4206557782"><ele>1689.071</ele></trkpt>
   <trkpt lat="41.8576936823" lon="70.4208405992"><ele>1685.45</ele></trkpt>
   <trkpt lat="41.8575549618" lon="70.4208940757"><ele>1682.651</ele></trkpt>
   <trkpt lat="41.8573402594" lon="70.4211540823"><ele>1686.239</ele></trkpt>
   <trkpt lat="41.8572498606" lon="70.4213137576"><ele>1685.341</ele></trkpt>
   <trkpt lat="41.8571038897" lon="70.4213447706"><ele>1682.912</ele></trkpt>
   <trkpt lat="41.85698889" lon="70.4214614467"><ele>1687.803</ele></trkpt>
   <trkpt lat="41.8568454756" lon="70.4215026857"><ele>1682.608</ele></trkpt>
   <trkpt lat="41.8568011773" lon="70.4221044225"><ele>1682.176</ele></trkpt>
   <trkpt lat="41.8568041948" lon="70.422303828"><ele>1683.676</ele></trkpt>
   <trkpt lat="41.8567508859" lon="70.422494181"><ele>1683.138</ele></trkpt>
   <trkpt lat="41.8567048692" lon="70.4228848615"><ele>1683.4</ele></trkpt>
   <trkpt lat="41.8566982894" lon="70.4230859434"><ele>1683.511</ele></trkpt>
   <trkpt lat="41.8566467826" lon="70.4232670763"><ele>1685.126</ele></trkpt>
   <trkpt lat="41.8566200863" lon="70.4236586788"><ele>1683.164</ele></trkpt>
   <trkpt lat="41.856658182" lon="70.4240511195"><ele>1687.895</ele></trkpt>
   <trkpt lat="41.8566290968" lon="70.4244559655"><ele>1687.165</ele></trkpt>
   <trkpt lat="41.8566640913" lon="70.4246443906"><ele>1686.851</ele></trkpt>
   <trkpt lat="41.8566174879" lon="70.4248303851"><ele>1685.13</ele></trkpt>
   <trkpt lat="41.8566435975" lon="70.4250325566"><ele>1684.803</ele></trkpt>
   <trkpt lat="41.8565855947" lon="70.4252141924"><ele>1685.524</ele></trkpt>
   <trkpt lat="41.8565504746" lon="70.42540245"><ele>1681.245</ele></trkpt>
   <trkpt lat="41.8564841737" lon="70.4255863489"><ele>1689.378</ele></trkpt>
   <trkpt lat="41.8563663661" lon="70.4257134186"><ele>1689.693</ele></trkpt>
   <trkpt lat="41.8561657871" lon="70.4260058632"><ele>1690.077</ele></trkpt>
   <trkpt lat="41.8558261943" lon="70.4263724876"><ele>1691.65</ele></trkpt>
   <trkpt lat="41.8556872643" lon="70.4264275567"><ele>1692.801</ele></trkpt>
   <trkpt lat="41.8554367711" lon="70.42664557"><ele>1693.177</ele></trkpt>
   <trkpt lat="41.8553342604" lon="70.4267956899"><ele>1692.881</ele></trkpt>
   <trkpt lat="41.8552180872" lon="70.4269161379"><ele>1687.967</ele></trkpt>
   <trkpt lat="41.8549580806" lon="70.4271125258"><ele>1687.697</ele></trkpt>
   <trkpt lat="41.8549306718" lon="70.4273061478"><ele>1689.629</ele></trkpt>
   <trkpt lat="41.8549876687" lon="70.4274889571"><ele>1694.463</ele></trkpt>
   <trkpt lat="41.8549812985" lon="70.4276848422"><ele>1699.425</ele></trkpt>
   <trkpt lat="41.8549313842" lon="70.4278695793"><ele>1699.678</ele></trkpt>
   <trkpt lat="41.8547927895" lon="70.4279290909"><ele>1702.984</ele></trkpt>
   <trkpt lat="41.8546467767" lon="70.4279242293"><ele>1703.537</ele></trkpt>
   <trkpt lat="41.8545177792" lon="70.4280183581"><ele>1702.17</ele></trkpt>
   <trkpt lat="41.8544255783" lon="70.4281785363"><ele>1701.781</ele></trkpt>
   <trkpt lat="41.8543560923" lon="70.4283489404"><ele>1703.714</ele></trkpt>
   <trkpt lat="41.854098265" lon="70.4285336775"><ele>1706.151</ele></trkpt>
   <trkpt lat="41.854003298" lon="70.428682121"><ele>1704.544</ele></trkpt>
   <trkpt lat="41.8536696983" lon="70.4290844524"><ele>1700.198</ele></trkpt>
   <trkpt lat="41.8535949736" lon="70.4292530963"><ele>1698.149</ele></trkpt>
   <trkpt lat="41.8535589733" lon="70.4294405995"><ele>1697.361</ele></trkpt>
   <trkpt lat="41.8535444726" lon="70.430039235"><ele>1691.127</ele></trkpt>
   <trkpt lat="41.8534566722" lon="70.4301963957"><ele>1688.541</ele></trkpt>
   <trkpt lat="41.8534531937" lon="70.4303900176"><ele>1687.511</ele></trkpt>
   <trkpt lat="41.8533650999" lon="70.4305478489"><ele>1685.799</ele></trkpt>
   <trkpt lat="41.8532295645" lon="70.430637619"><ele>1686.261</ele></trkpt>
   <trkpt lat="41.8532759584" lon="70.4308433948"><ele>1684.411</ele></trkpt>
   <trkpt lat="41.8534190794" lon="70.4308640981"><ele>1685.544</ele></trkpt>
   <trkpt lat="41.8535604821" lon="70.4308194225"><ele>1685.553</ele></trkpt>
   <trkpt lat="41.8534139664" lon="70.4308216856"><ele>1682.82</ele></trkpt>
   <trkpt lat="41.8532667802" lon="70.4308871483"><ele>1684.654</ele></trkpt>
   <trkpt lat="41.8531222762" lon="70.4308942729"><ele>1684.02</ele></trkpt>
   <trkpt lat="41.8532415926" lon="70.4310298921"><ele>1683.339</ele></trkpt>
   <trkpt lat="41.8533593583" lon="70.4313963489"><ele>1684.26</ele></trkpt>
   <trkpt lat="41.853379391" lon="70.4315945809"><ele>1684.001</ele></trkpt>
   <trkpt lat="41.853192768" lon="70.4318958265"><ele>1683.356</ele></trkpt>
   <trkpt lat="41.8530524968" lon="70.4319691682"><ele>1690.399</ele></trkpt>
   <trkpt lat="41.8529697674" lon="70.4321487924"><ele>1687.398</ele></trkpt>
   <trkpt lat="41.8533153952" lon="70.4315137794"><ele>1683.701</ele></trkpt>
   <trkpt lat="41.8534158942" lon="70.4313738854"><ele>1680.114</ele></trkpt>
   <trkpt lat="41.8534482903" lon="70.4311713786"><ele>1688.193</ele></trkpt>
   <trkpt lat="41.8534004715" lon="70.4309826182"><ele>1680.81</ele></trkpt>
   <trkpt lat="41.8534635873" lon="70.43080576"><ele>1681.896</ele></trkpt>
   <trkpt lat="41.8535963985" lon="70.4307224439"><ele>1679.647</ele></trkpt>
   <trkpt lat="41.8534707957" lon="70.4308218533"><ele>1679.692</ele></trkpt>
   <trkpt lat="41.8534736875" lon="70.43101975"><ele>1682.151</ele></trkpt>
   <trkpt lat="41.8535527707" lon="70.4311825266"><ele>1680.272</ele></trkpt>
   <trkpt lat="41.8536769905" lon="70.4312904855"><ele>1675.186</ele></trkpt>
   <trkpt lat="41.8536587599" lon="70.4314913997"><ele>1676.657</ele></trkpt>
   <trkpt lat="41.8537394776" lon="70.4316652404"><ele>1677.959</ele></trkpt>
   <trkpt lat="41.8538427846" lon="70.4318021169"><ele>1680.689</ele></trkpt>
   <trkpt lat="41.8539735842" lon="70.4317146936"><ele>1679.401</ele></trkpt>
   <trkpt lat="41.8541212733" lon="70.4316979298"><ele>1680.315</ele></trkpt>
   <trkpt lat="41.8539767693" lon="70.4317454552"><ele>1677.633</ele></trkpt>
   <trkpt lat="41.853849993" lon="70.4318445293"><ele>1680.535</ele></trkpt>
   <trkpt lat="41.8537375917" lon="70.4319703416"><ele>1679.371</ele></trkpt>
   <trkpt lat="41.8536101868" lon="70.4320625426"><ele>1678.734</ele></trkpt>
   <trkpt lat="41.8533688718" lon="70.4322929611"><ele>1682.741</ele></trkpt>
   <trkpt lat="41.8531131818" lon="70.4324695678"><ele>1682.429</ele></trkpt>
  </trkseg>
  <trkseg>
   <trkpt lat="41.8532230686" lon="70.4323084676"><ele>1641.087</ele></trkpt>
   <trkpt lat="41.85312697" lon="70.432467137"><ele>1645.889</ele></trkpt>
   <trkpt lat="41.8530143592" lon="70.4325956316"><ele>1678.366</ele></trkpt>
   <trkpt lat="41.8529198951" lon="70.4328049277"><ele>1686.623</ele></trkpt>
   <trkpt lat="41.8528155823" lon="70.4329495994"><ele>1687.017</ele></trkpt>
   <trkpt lat="41.8526535601" lon="70.4332805169"><ele>1691.063</ele></trkpt>
   <trkpt lat="41.8525305976" lon="70.433394427"><ele>1693.822</ele></trkpt>
   <trkpt lat="41.8524423781" lon="70.433550498"><ele>1690.668</ele></trkpt>
   <trkpt lat="41.8522079782" lon="70.4337868677"><ele>1693.518</ele></trkpt>
   <trkpt lat="41.8520575649" lon="70.433852498"><ele>1691.734</ele></trkpt>
   <trkpt lat="41.8519373684" lon="70.4339666595"><ele>1696.61</ele></trkpt>
   <trkpt lat="41.851797684" lon="70.434025249"><ele>1699.41</ele></trkpt>
   <trkpt lat="41.8517144936" lon="70.4341842537"><ele>1707.17</ele></trkpt>
   <trkpt lat="41.8515917826" lon="70.4342858424"><ele>1711.346</ele></trkpt>
   <trkpt lat="41.8514496674" lon="70.4343407439"><ele>1711.977</ele></trkpt>
   <trkpt lat="41.8513657645" lon="70.434506957"><ele>1711.486</ele></trkpt>
   <trkpt lat="41.8513108631" lon="70.4347038479"><ele>1710.462</ele></trkpt>
   <trkpt lat="41.8510578972" lon="70.4348877469"><ele>1717.062</ele></trkpt>
   <trkpt lat="41.8504870896" lon="70.4351233622"><ele>1720.939</ele></trkpt>
   <trkpt lat="41.8502915817" lon="70.4354141304"><ele>1723.342</ele></trkpt>
   <trkpt lat="41.8501770849" lon="70.4355368414"><ele>1725.59</ele></trkpt>
   <trkpt lat="41.850027468" lon="70.4356162181"><ele>1722.59</ele></trkpt>
   <trkpt lat="41.8498962912" lon="70.4357119394"><ele>1724.96</ele></trkpt>
   <trkpt lat="41.8499960777" lon="70.4355725484"><ele>1726.261</ele></trkpt>
   <trkpt lat="41.850142761" lon="70.4355737218"><ele>1724.659</ele></trkpt>
   <trkpt lat="41.8502179886" lon="70.4353945167"><ele>1723.374</ele></trkpt>
   <trkpt lat="41.8503274982" lon="70.4352538684"><ele>1722.805</ele></trkpt>
   <trkpt lat="41.8501921724" lon="70.4353258689"><ele>1723.856</ele></trkpt>
   <trkpt lat="41.850068665" lon="70.4352197541"><ele>1724.484</ele></trkpt>
   <trkpt lat="41.8497991868" lon="70.4353748193"><ele>1731.033</ele></trkpt>
   <trkpt lat="41.8496452951" lon="70.4353933433"><ele>1734.82</ele></trkpt>
   <trkpt lat="41.8495142859" lon="70.4352811934"><ele>1731.897</ele></trkpt>
   <trkpt lat="41.8493297584" lon="70.4350749986"><ele>1736.671</ele></trkpt>
   <trkpt lat="41.8491905768" lon="70.4350189237"><ele>1737.192</ele></trkpt>
   <trkpt lat="41.8490432649" lon="70.435040549"><ele>1744.248</ele></trkpt>
   <trkpt lat="41.8488997667" lon="70.4350190913"><ele>1736.62</ele></trkpt>
   <trkpt lat="41.8490432649" lon="70.4349930236"><ele>1733.877</ele></trkpt>
   <trkpt lat="41.84932716" lon="70.4351464962"><ele>1733.092</ele></trkpt>
   <trkpt lat="41.8496107617" lon="70.4352638429"><ele>1727.169</ele></trkpt>
   <trkpt lat="41.8497575707" lon="70.4353028187"><ele>1732.133</ele></trkpt>
   <trkpt lat="41.8500465787" lon="70.4354377674"><ele>1726.702</ele></trkpt>
   <trkpt lat="41.8501708823" lon="70.4353398667"><ele>1724.291</ele></trkpt>
   <trkpt lat="41.8498901724" lon="70.4353584745"><ele>1727.706</ele></trkpt>
   <trkpt lat="41.849583269" lon="70.4351888248"><ele>1724.654</ele></trkpt>
   <trkpt lat="41.8493006731" lon="70.4350729869"><ele>1728.477</ele></trkpt>
   <trkpt lat="41.8491715918" lon="70.4349683808"><ele>1735.386</ele></trkpt>
   <trkpt lat="41.8490242799" lon="70.4349899223"><ele>1736.952</ele></trkpt>
   <trkpt lat="41.8488751658" lon="70.4349429836"><ele>1742.597</ele></trkpt>
   <trkpt lat="41.8487705597" lon="70.434794121"><ele>1746.227</ele></trkpt>
   <trkpt lat="41.8485184739" lon="70.434599577"><ele>1751.889</ele></trkpt>
   <trkpt lat="41.8484169691" lon="70.4344626167"><ele>1745.758</ele></trkpt>
   <trkpt lat="41.8482784581" lon="70.4344003392"><ele>1750.827</ele></trkpt>
   <trkpt lat="41.8481736844" lon="70.434262876"><ele>1755.186</ele></trkpt>
   <trkpt lat="41.848115975" lon="70.4340834194"><ele>1765.065</ele></trkpt>
   <trkpt lat="41.8479748656" lon="70.434027093"><ele>1767.836</ele></trkpt>
   <trkpt lat="41.8478268831" lon="70.4340128438"><ele>1768.735</ele></trkpt>
   <trkpt lat="41.8476741648" lon="70.4338353989"><ele>1770.082</ele></trkpt>
   <trkpt lat="41.8471579653" lon="70.4337110953"><ele>1774.794</ele></trkpt>
   <trkpt lat="41.8470156825" lon="70.433742276"><ele>1778.599</ele></trkpt>
   <trkpt lat="41.8468915884" lon="70.433844619"><ele>1793.56</ele></trkpt>
   <trkpt lat="41.8466877825" lon="70.4338363209"><ele>1797.764</ele></trkpt>
   <trkpt lat="41.8466191766" lon="70.4340123409"><ele>1804.089</ele></trkpt>
   <trkpt lat="41.8464383789" lon="70.4339719401"><ele>1804.965</ele></trkpt>
   <trkpt lat="41.8462417814" lon="70.434033128"><ele>1806.547</ele></trkpt>
   <trkpt lat="41.8461024742" lon="70.4339751252"><ele>1810.983</ele></trkpt>
   <trkpt lat="41.8460165597" lon="70.4338157853"><ele>1811.938</ele></trkpt>
   <trkpt lat="41.8457445669" lon="70.4336754722"><ele>1819.512</ele></trkpt>
   <trkpt lat="41.8456021584" lon="70.433645465"><ele>1826.613</ele></trkpt>
   <trkpt lat="41.8453191853" lon="70.4337780667"><ele>1832.465</ele></trkpt>
   <trkpt lat="41.8451734659" lon="70.4337851913"><ele>1828.319</ele></trkpt>
   <trkpt lat="41.8450467735" lon="70.4336915655"><ele>1838.622</ele></trkpt>
   <trkpt lat="41.8449699952" lon="70.433524598"><ele>1842.399</ele></trkpt>
   <trkpt lat="41.8448772914" lon="70.4333732208"><ele>1850.665</ele></trkpt>
   <trkpt lat="41.844742678" lon="70.4333034833"><ele>1851.341</ele></trkpt>
   <trkpt lat="41.8446125909" lon="70.4331995477"><ele>1854.823</ele></trkpt>
   <trkpt lat="41.8444693861" lon="70.4332172336"><ele>1857.244</ele></trkpt>
   <trkpt lat="41.8443389637" lon="70.4332997953"><ele>1853.784</ele></trkpt>
   <trkpt lat="41.8440419928" lon="70.4333762383"><ele>1870.963</ele></trkpt>
   <trkpt lat="41.843893675" lon="70.4333775794"><ele>1884.332</ele></trkpt>
   <trkpt lat="41.8437693714" lon="70.4334809282"><ele>1889.032</ele></trkpt>
   <trkpt lat="41.8436241969" lon="70.4334313912"><ele>1906.113</ele></trkpt>
   <trkpt lat="41.8434742865" lon="70.4334379291"><ele>1907.675</ele></trkpt>
   <trkpt lat="41.8433343926" lon="70.4334934173"><ele>1907.95</ele></trkpt>
   <trkpt lat="41.8432125616" lon="70.4333873862"><ele>1914.34</ele></trkpt>
   <trkpt lat="41.8430696921" lon="70.4333486618"><ele>1914.024</ele></trkpt>
   <trkpt lat="41.8429226735" lon="70.4333693651"><ele>1915.221</ele></trkpt>
   <trkpt lat="41.8427793848" lon="70.433322175"><ele>1918.399</ele></trkpt>
   <trkpt lat="41.8425667779" lon="70.4330774234"><ele>1930.854</ele></trkpt>
   <trkpt lat="41.8423043824" lon="70.4329157365"><ele>1936.254</ele></trkpt>
   <trkpt lat="41.8421605908" lon="70.43293359"><ele>1942.057</ele></trkpt>
   <trkpt lat="41.8417407832" lon="70.4331128789"><ele>1953.3</ele></trkpt>
   <trkpt lat="41.8418530588" lon="70.4329704703"><ele>1948.4</ele></trkpt>
   <trkpt lat="41.8420033882" lon="70.4329256272"><ele>1944.489</ele></trkpt>
   <trkpt lat="41.8421555617" lon="70.4329553829"><ele>1934.22</ele></trkpt>
   <trkpt lat="41.8422956652" lon="70.4328894173"><ele>1931.159</ele></trkpt>
   <trkpt lat="41.842425459" lon="70.4329857254"><ele>1931.271</ele></trkpt>
   <trkpt lat="41.8425126727" lon="70.4331506813"><ele>1926.303</ele></trkpt>
   <trkpt lat="41.8427504673" lon="70.4333694489"><ele>1921.15</ele></trkpt>
   <trkpt lat="41.8428629943" lon="70.4335052358"><ele>1919.566</ele></trkpt>
   <trkpt lat="41.8430098872" lon="70.4335058225"><ele>1918.315</ele></trkpt>
   <trkpt lat="41.8431550617" lon="70.4335488217"><ele>1914.833</ele></trkpt>
   <trkpt lat="41.8435482987" lon="70.4335890548"><ele>1910.817</ele></trkpt>
   <trkpt lat="41.8438319842" lon="70.4335174733"><ele>1900.626</ele></trkpt>
   <trkpt lat="41.843957168" lon="70.4334121966"><ele>1885.689</ele></trkpt>
   <trkpt lat="41.8441093833" lon="70.4333613185"><ele>1881.598</ele></trkpt>
   <trkpt lat="41.8442559828" lon="70.4333746457"><ele>1881.573</ele></trkpt>
   <trkpt lat="41.844392063" lon="70.4333119491"><ele>1873.991</ele></trkpt>
   <trkpt lat="41.8442977666" lon="70.4331626674"><ele>1868.783</ele></trkpt>
   <trkpt lat="41.8445525765" lon="70.4332949338"><ele>1867.155</ele></trkpt>
   <trkpt lat="41.8446989664" lon="70.4333119491"><ele>1866.758</ele></trkpt>
   <trkpt lat="41.844829766" lon="70.4333928344"><ele>1861.667</ele></trkpt>
   <trkpt lat="41.8449262836" lon="70.4335476482"><ele>1855.366</ele></trkpt>
   <trkpt lat="41.8450188617" lon="70.4337845208"><ele>1851.592</ele></trkpt>
   <trkpt lat="41.8453094623" lon="70.4338305374"><ele>1846.848</ele></trkpt>
   <trkpt lat="41.8456051759" lon="70.4337522504"><ele>1833.825</ele></trkpt>
   <trkpt lat="41.8458972852" lon="70.4337643204"><ele>1820.948</ele></trkpt>
   <trkpt lat="41.8460215888" lon="70.4338688427"><ele>1814.298</ele></trkpt>
   <trkpt lat="41.8461671825" lon="70.4338451219"><ele>1812.356</ele></trkpt>
   <trkpt lat="41.8462512949" lon="70.4340031208"><ele>1814.886</ele></trkpt>
   <trkpt lat="41.8464076593" lon="70.433956266"><ele>1804.571</ele></trkpt>
   <trkpt lat="41.8464483953" lon="70.4341417575"><ele>1820.544</ele></trkpt>
   <trkpt lat="41.8465977608" lon="70.4341284303"><ele>1820.905</ele></trkpt>
   <trkpt lat="41.8467429773" lon="70.4341617902"><ele>1807.091</ele></trkpt>
   <trkpt lat="41.8469204641" lon="70.4338884564"><ele>1792.863</ele></trkpt>
   <trkpt lat="41.847065471" lon="70.4339017836"><ele>1783.463</ele></trkpt>
   <trkpt lat="41.8475816705" lon="70.4338537553"><ele>1772.47</ele></trkpt>
   <trkpt lat="41.8476883722" lon="70.4339953256"><ele>1776.66</ele></trkpt>
   <trkpt lat="41.8477674973" lon="70.4341571802"><ele>1772.93</ele></trkpt>
   <trkpt lat="41.8480600677" lon="70.4341808172"><ele>1758.952</ele></trkpt>
   <trkpt lat="41.8481652605" lon="70.4343650514"><ele>1759.868</ele></trkpt>
   <trkpt lat="41.8482080921" lon="70.4345559911"><ele>1760.467</ele></trkpt>
   <trkpt lat="41.8483457648" lon="70.4346133234"><ele>1755.955</ele></trkpt>
   <trkpt lat="41.8484946693" lon="70.4346411513"><ele>1755.105</ele></trkpt>
   <trkpt lat="41.8486163746" lon="70.434758917"><ele>1750.309</ele></trkpt>
   <trkpt lat="41.8487059771" lon="70.4349268904"><ele>1746.869</ele></trkpt>
   <trkpt lat="41.8488400876" lon="70.4350086977"><ele>1744.877</ele></trkpt>
   <trkpt lat="41.8492788802" lon="70.4350867332"><ele>1735.3</ele></trkpt>
   <trkpt lat="41.8494232585" lon="70.4350948637"><ele>1737.21</ele></trkpt>
   <trkpt lat="41.8495644935" lon="70.4351398745"><ele>1731.322</ele></trkpt>
   <trkpt lat="41.8498201835" lon="70.4353500926"><ele>1732.311</ele></trkpt>
   <trkpt lat="41.8499552998" lon="70.4354216741"><ele>1730.272</ele></trkpt>
   <trkpt lat="41.8501039947" lon="70.4353575525"><ele>1728.585</ele></trkpt>
   <trkpt lat="41.8502435953" lon="70.4354127893"><ele>1723.33</ele></trkpt>
   <trkpt lat="41.8503877641" lon="70.4352858873"><ele>1725.369</ele></trkpt>
   <trkpt lat="41.8505251854" lon="70.4352125456"><ele>1723.711</ele></trkpt>
   <trkpt lat="41.8506403946" lon="70.4350913433"><ele>1721.525</ele></trkpt>
   <trkpt lat="41.8507812944" lon="70.4350225279"><ele>1721.379</ele></trkpt>
   <trkpt lat="41.8509248764" lon="70.4349978851"><ele>1718.437</ele></trkpt>
   <trkpt lat="41.851219668" lon="70.4348950391"><ele>1718.122</ele></trkpt>
   <trkpt lat="41.8514566663" lon="70.4346689792"><ele>1716.035</ele></trkpt>
   <trkpt lat="41.8514883918" lon="70.4344738485"><ele>1722.099</ele></trkpt>
   <trkpt lat="41.8515710793" lon="70.4343000916"><ele>1716.844</ele></trkpt>
   <trkpt lat="41.8517053993" lon="70.4342208826"><ele>1715.428</ele></trkpt>
   <trkpt lat="41.8518487717" lon="70.43418878"><ele>1711.17</ele></trkpt>
   <trkpt lat="41.8518644878" lon="70.4339962476"><ele>1703.829</ele></trkpt>
   <trkpt lat="41.8520097881" lon="70.433969677"><ele>1697.458</ele></trkpt>
   <trkpt lat="41.8522812779" lon="70.4337901366"><ele>1698.055</ele></trkpt>
   <trkpt lat="41.8524587647" lon="70.4337067367"><ele>1692.139</ele></trkpt>
   <trkpt lat="41.8525824816" lon="70.4335830198"><ele>1695.986</ele></trkpt>
   <trkpt lat="41.8526701982" lon="70.4334295472"><ele>1690.967</ele></trkpt>
   <trkpt lat="41.8527828929" lon="70.4333016393"><ele>1692.468</ele></trkpt>
   <trkpt lat="41.8529293667" lon="70.432966447"><ele>1688.346</ele></trkpt>
   <trkpt lat="41.8530254652" lon="70.4328056821"><ele>1689.099</ele></trkpt>
   <trkpt lat="41.853077894" lon="70.4326180951"><ele>1685.661</ele></trkpt>
   <trkpt lat="41.8532926803" lon="70.4320750316"><ele>1681.73</ele></trkpt>
   <trkpt lat="41.8533640941" lon="70.4318439425"><ele>1685.182</ele></trkpt>
   <trkpt lat="41.8534822789" lon="70.4317189684"><ele>1684.204</ele></trkpt>
   <trkpt lat="41.8536436725" lon="70.4313805909"><ele>1680.612</ele></trkpt>
   <trkpt lat="41.8535728873" lon="70.43121245"><ele>1683.029</ele></trkpt>
   <trkpt lat="41.8536853724" lon="70.431082279"><ele>1682.731</ele></trkpt>
   <trkpt lat="41.8536500846" lon="70.4308921774"><ele>1677.799</ele></trkpt>
   <trkpt lat="41.853513292" lon="70.430830319"><ele>1688.377</ele></trkpt>
   <trkpt lat="41.8536097677" lon="70.4309769185"><ele>1682.135</ele></trkpt>
   <trkpt lat="41.8536775773" lon="70.4311504239"><ele>1683.765</ele></trkpt>
   <trkpt lat="41.8536390624" lon="70.4309634236"><ele>1680.855</ele></trkpt>
   <trkpt lat="41.8535287985" lon="70.4308227753"><ele>1683.499</ele></trkpt>
   <trkpt lat="41.8536278726" lon="70.430681624"><ele>1681.541</ele></trkpt>
   <trkpt lat="41.8534833686" lon="70.4306961247"><ele>1678.921</ele></trkpt>
   <trkpt lat="41.8533442709" lon="70.4307544628"><ele>1679.596</ele></trkpt>
   <trkpt lat="41.8533780919" lon="70.430560757"><ele>1679.91</ele></trkpt>
   <trkpt lat="41.8534443927" lon="70.4303866649"><ele>1683.215</ele></trkpt>
   <trkpt lat="41.8534437641" lon="70.4301839904"><ele>1684.369</ele></trkpt>
   <trkpt lat="41.8535560816" lon="70.4298211379"><ele>1688.144</ele></trkpt>
   <trkpt lat="41.8535469872" lon="70.429625169"><ele>1689.936</ele></trkpt>
   <trkpt lat="41.8535758629" lon="70.4292302975"><ele>1695.452</ele></trkpt>
   <trkpt lat="41.8536498751" lon="70.4290621565"><ele>1698.179</ele></trkpt>
   <trkpt lat="41.8538848617" lon="70.4288284691"><ele>1701.846</ele></trkpt>
   <trkpt lat="41.8539933655" lon="70.4286992201"><ele>1704.294</ele></trkpt>
   <trkpt lat="41.8540841834" lon="70.4285446578"><ele>1705.668</ele></trkpt>
   <trkpt lat="41.8541975905" lon="70.4284248804"><ele>1706.023</ele></trkpt>
   <trkpt lat="41.8543361853" lon="70.4283646984"><ele>1703.15</ele></trkpt>
   <trkpt lat="41.8544952738" lon="70.4280292546"><ele>1700.927</ele></trkpt>
   <trkpt lat="41.854625361" lon="70.4279345391"><ele>1697.554</ele></trkpt>
   <trkpt lat="41.8547692782" lon="70.4279302643"><ele>1696.332</ele></trkpt>
   <trkpt lat="41.8549076635" lon="70.4278579285"><ele>1695.072</ele></trkpt>
   <trkpt lat="41.8550072824" lon="70.4277064675"><ele>1690.944</ele></trkpt>
   <trkpt lat="41.8550184722" lon="70.4275085708"><ele>1690.743</ele></trkpt>
   <trkpt lat="41.8549951705" lon="70.427311596"><ele>1687.794</ele></trkpt>
   <trkpt lat="41.854934276" lon="70.427136079"><ele>1685.374</ele></trkpt>
   <trkpt lat="41.8550587892" lon="70.4270262761"><ele>1687.507</ele></trkpt>
   <trkpt lat="41.8551649879" lon="70.426889651"><ele>1686.965</ele></trkpt>
   <trkpt lat="41.8552963742" lon="70.426798875"><ele>1686.881</ele></trkpt>
   <trkpt lat="41.8555161896" lon="70.4265388684"><ele>1690.499</ele></trkpt>
   <trkpt lat="41.85564108" lon="70.4264266347"><ele>1689.504</ele></trkpt>
   <trkpt lat="41.8557822731" lon="70.42636025"><ele>1689.553</ele></trkpt>
   <trkpt lat="41.855883778" lon="70.4262097949"><ele>1688.418</ele></trkpt>
   <trkpt lat="41.8560174693" lon="70.4261313403"><ele>1688.317</ele></trkpt>
   <trkpt lat="41.8561387974" lon="70.4260194419"><ele>1689.037</ele></trkpt>
   <trkpt lat="41.8563674976" lon="70.4257593514"><ele>1686.237</ele></trkpt>
   <trkpt lat="41.8564517777" lon="70.4255982512"><ele>1690.146</ele></trkpt>
   <trkpt lat="41.8565606586" lon="70.4254627997"><ele>1687.203</ele></trkpt>
   <trkpt lat="41.856589199" lon="70.4252656573"><ele>1684.407</ele></trkpt>
   <trkpt lat="41.8566538653" lon="70.4250926548"><ele>1683.105</ele></trkpt>
   <trkpt lat="41.8566899913" lon="70.4248965183"><ele>1684.975</ele></trkpt>
   <trkpt lat="41.8566425917" lon="70.4243092821"><ele>1682.871</ele></trkpt>
   <trkpt lat="41.8566584754" lon="70.4239145783"><ele>1686.35</ele></trkpt>
   <trkpt lat="41.85657759" lon="70.4237518856"><ele>1687.34</ele></trkpt>
   <trkpt lat="41.8565973713" lon="70.4235595209"><ele>1685.51</ele></trkpt>
   <trkpt lat="41.8566361795" lon="70.4233680782"><ele>1686.161</ele></trkpt>
   <trkpt lat="41.8566334973" lon="70.4231651524"><ele>1686.779</ele></trkpt>
   <trkpt lat="41.8566753649" lon="70.4229645734"><ele>1683.664</ele></trkpt>
   <trkpt lat="41.8567155981" lon="70.4225669359"><ele>1683.45</ele></trkpt>
   <trkpt lat="41.8568022669" lon="70.4221913429"><ele>1685.981</ele></trkpt>
   <trkpt lat="41.8567919991" lon="70.4217937892"><ele>1684.932</ele></trkpt>
   <trkpt lat="41.8568100621" lon="70.4215837387"><ele>1681.951</ele></trkpt>
   <trkpt lat="41.8569164704" lon="70.4214462755"><ele>1688.477</ele></trkpt>
   <trkpt lat="41.8571808775" lon="70.4212845886"><ele>1686.855</ele></trkpt>
   <trkpt lat="41.8573050973" lon="70.4211837543"><ele>1688.34</ele></trkpt>
   <trkpt lat="41.8575375694" lon="70.4209271842"><ele>1682.821</ele></trkpt>
   <trkpt lat="41.8576578916" lon="70.4208185548"><ele>1690.239</ele></trkpt>
   <trkpt lat="41.8577048722" lon="70.4206330632"><ele>1688.193</ele></trkpt>
   <trkpt lat="41.8578131664" lon="70.4205036466"><ele>1689.06</ele></trkpt>
   <trkpt lat="41.8579432954" lon="70.4204192409"><ele>1686.905</ele></trkpt>
   <trkpt lat="41.8580521763" lon="70.4202821968"><ele>1689.572</ele></trkpt>
   <trkpt lat="41.8583176731" lon="70.4200968729"><ele>1691.19</ele></trkpt>
   <trkpt lat="41.8584341816" lon="70.4199778499"><ele>1691.821</ele></trkpt>
   <trkpt lat="41.8585688788" lon="70.4198941985"><ele>1690.835</ele></trkpt>
   <trkpt lat="41.8587134666" lon="70.4198672926"><ele>1689.628</ele></trkpt>
   <trkpt lat="41.8589737666" lon="70.4200466653"><ele>1692.569</ele></trkpt>
   <trkpt lat="41.8591139958" lon="70.4201172409"><ele>1687.331</ele></trkpt>
   <trkpt lat="41.8592623974" lon="70.4201288918"><ele>1689.34</ele></trkpt>
   <trkpt lat="41.8593999864" lon="70.4201927619"><ele>1688.629</ele></trkpt>
   <trkpt lat="41.8596998909" lon="70.4202155606"><ele>1692.309</ele></trkpt>
   <trkpt lat="41.8598427604" lon="70.4202632537"><ele>1691.743</ele></trkpt>
   <trkpt lat="41.8600507992" lon="70.4205498309"><ele>1684.206</ele></trkpt>
   <trkpt lat="41.8601968958" lon="70.4205143755"><ele>1686.527</ele></trkpt>
   <trkpt lat="41.8601834848" lon="70.420318658"><ele>1691.945</ele></trkpt>
   <trkpt lat="41.8602683934" lon="70.4201511876"><ele>1695.117</ele></trkpt>
   <trkpt lat="41.8604179685" lon="70.4201350944"><ele>1692.35</ele></trkpt>
   <trkpt lat="41.8605493968" lon="70.4202156445"><ele>1695.612</ele></trkpt>
   <trkpt lat="41.8606611694" lon="70.420354365"><ele>1698.042</ele></trkpt>
   <trkpt lat="41.8608536598" lon="70.4206581251"><ele>1702.629</ele></trkpt>
   <trkpt lat="41.8609996726" lon="70.4206439597"><ele>1702.687</ele></trkpt>
   <trkpt lat="41.8611397761" lon="70.4205828556"><ele>1700.491</ele></trkpt>
   <trkpt lat="41.8613406903" lon="70.4202863877"><ele>1697.098</ele></trkpt>
   <trkpt lat="41.8614287841" lon="70.4201281374"><ele>1696.168</ele></trkpt>
  </trkseg>
 </trk>
</gpx>