<?xml version='1.0' encoding='utf-8'?>
<gpx xmlns="http://www.topografix.com/GPX/1/1" version="1.1"><trk><trkseg><trkpt lat="41.497713" lon="70.058159" /><trkpt lat="41.497794" lon="70.058148"><ele>3274</ele></trkpt><trkpt lat="41.497801" lon="70.057967"><ele>3271</ele></trkpt><trkpt lat="41.497866" lon="70.057931"><ele>3269</ele></trkpt><trkpt lat="41.498073" lon="70.057906"><ele>3258</ele></trkpt><trkpt lat="41.498099" lon="70.057826"><ele>3254</ele></trkpt><trkpt lat="41.49814" lon="70.05776"><ele>3252</ele></trkpt><trkpt lat="41.498094" lon="70.057697"><ele>3247</ele></trkpt><trkpt lat="41.49812" lon="70.057613"><ele>3245</ele></trkpt><trkpt lat="41.498126" lon="70.057525"><ele>3242</ele></trkpt><trkpt lat="41.498163" lon="70.057441"><ele>3238</ele></trkpt><trkpt lat="41.498168" lon="70.057263"><ele>3229</ele></trkpt><trkpt lat="41.498186" lon="70.057178"><ele>3227</ele></trkpt><trkpt lat="41.498131" lon="70.057012"><ele>3223</ele></trkpt><trkpt lat="41.498126" lon="70.056924"><ele>3218</ele></trkpt><trkpt lat="41.498204" lon="70.056772"><ele>3216</ele></trkpt><trkpt lat="41.498227" lon="70.056597"><ele>3216</ele></trkpt><trkpt lat="41.498176" lon="70.056524"><ele>3210</ele></trkpt><trkpt lat="41.498174" lon="70.056431"><ele>3204</ele></trkpt><trkpt lat="41.498131" lon="70.056367"><ele>3199</ele></trkpt><trkpt lat="41.498025" lon="70.056264"><ele>3189</ele></trkpt><trkpt lat="41.497953" lon="70.056058"><ele>3187</ele></trkpt><trkpt lat="41.497942" lon="70.055972"><ele>3187</ele></trkpt><trkpt lat="41.497988" lon="70.055782"><ele>3187</ele></trkpt><trkpt lat="41.498055" lon="70.055793"><ele>3186</ele></trkpt><trkpt lat="41.498148" lon="70.055653"><ele>3185</ele></trkpt><trkpt lat="41.498214" lon="70.055634"><ele>3183</ele></trkpt><trkpt lat="41.498219" lon="70.055545"><ele>3181</ele></trkpt><trkpt lat="41.498273" lon="70.055492"><ele>3176</ele></trkpt><trkpt lat="41.498312" lon="70.055419"><ele>3174</ele></trkpt><trkpt lat="41.498443" lon="70.055412"><ele>3171</ele></trkpt><trkpt lat="41.498425" lon="70.055319"><ele>3168</ele></trkpt><trkpt lat="41.498538" lon="70.05523"><ele>3160</ele></trkpt><trkpt lat="41.498496" lon="70.055164"><ele>3157</ele></trkpt><trkpt lat="41.498533" lon="70.055082"><ele>3154</ele></trkpt><trkpt lat="41.498494" lon="70.05501"><ele>3150</ele></trkpt><trkpt lat="41.498455" lon="70.054841"><ele>3146</ele></trkpt><trkpt lat="41.498472" lon="70.054751"><ele>3141</ele></trkpt><trkpt lat="41.498641" lon="70.054609"><ele>3126</ele></trkpt><trkpt lat="41.498685" lon="70.054544"><ele>3122</ele></trkpt><trkpt lat="41.498762" lon="70.054552"><ele>3121</ele></trkpt><trkpt lat="41.498721" lon="70.054478"><ele>3111</ele></trkpt><trkpt lat="41.498723" lon="70.054389"><ele>3107</ele></trkpt><trkpt lat="41.498834" lon="70.054063"><ele>3100</ele></trkpt><trkpt lat="41.498944" lon="70.053965"><ele>3095</ele></trkpt><trkpt lat="41.499014" lon="70.05397"><ele>3093</ele></trkpt><trkpt lat="41.499045" lon="70.053892"><ele>3091</ele></trkpt><trkpt lat="41.499044" lon="70.053805"><ele>3087</ele></trkpt><trkpt lat="41.499273" lon="70.053621"><ele>3073</ele></trkpt><trkpt lat="41.499396" lon="70.053562"><ele>3064</ele></trkpt><trkpt lat="41.499447" lon="70.053616"><ele>3062</ele></trkpt><trkpt lat="41.499513" lon="70.053621"><ele>3058</ele></trkpt><trkpt lat="41.499565" lon="70.053674"><ele>3041</ele></trkpt><trkpt lat="41.499636" lon="70.053524"><ele>3039</ele></trkpt><trkpt lat="41.499601" lon="70.053448"><ele>3040</ele></trkpt><trkpt lat="41.499636" lon="70.053368"><ele>3038</ele></trkpt><trkpt lat="41.499632" lon="70.053273"><ele>3035</ele></trkpt><trkpt lat="41.49968" lon="70.05311"><ele>3032</ele></trkpt><trkpt lat="41.499686" lon="70.052646"><ele>3019</ele></trkpt><trkpt lat="41.499737" lon="70.052477"><ele>3014</ele></trkpt><trkpt lat="41.499777" lon="70.0522"><ele>3010</ele></trkpt><trkpt lat="41.499831" lon="70.052041"><ele>3007</ele></trkpt><trkpt lat="41.499833" lon="70.051948"><ele>3005</ele></trkpt><trkpt lat="41.499817" lon="70.051862"><ele>3001</ele></trkpt><trkpt lat="41.499842" lon="70.051682"><ele>2996</ele></trkpt><trkpt lat="41.499877" lon="70.051606"><ele>2993</ele></trkpt><trkpt lat="41.499854" lon="70.05152"><ele>2990</ele></trkpt><trkpt lat="41.499898" lon="70.051352"><ele>2986</ele></trkpt><trkpt lat="41.499832" lon="70.051321"><ele>2985</ele></trkpt><trkpt lat="41.499786" lon="70.051253"><ele>2981</ele></trkpt><trkpt lat="41.49976" lon="70.051165"><ele>2971</ele></trkpt><trkpt lat="41.499754" lon="70.050985"><ele>2965</ele></trkpt><trkpt lat="41.499883" lon="70.050656"><ele>2968</ele></trkpt><trkpt lat="41.499897" lon="70.050569"><ele>2966</ele></trkpt><trkpt lat="41.499993" lon="70.050446"><ele>2967</ele></trkpt><trkpt lat="41.500121" lon="70.050387"><ele>2967</ele></trkpt><trkpt lat="41.500254" lon="70.050478"><ele>2966</ele></trkpt><trkpt lat="41.500326" lon="70.050485"><ele>2966</ele></trkpt><trkpt lat="41.500391" lon="70.050517"><ele>2967</ele></trkpt><trkpt lat="41.500459" lon="70.050511"><ele>2966</ele></trkpt><trkpt lat="41.500587" lon="70.050444"><ele>2964</ele></trkpt><trkpt lat="41.500603" lon="70.050262"><ele>2959</ele></trkpt><trkpt lat="41.50075" lon="70.04975"><ele>2952</ele></trkpt><trkpt lat="41.50078" lon="70.049572"><ele>2951</ele></trkpt><trkpt lat="41.500843" lon="70.049521"><ele>2951</ele></trkpt><trkpt lat="41.500879" lon="70.049443"><ele>2950</ele></trkpt><trkpt lat="41.500869" lon="70.049354"><ele>2944</ele></trkpt><trkpt lat="41.50088" lon="70.048983"><ele>2943</ele></trkpt><trkpt lat="41.500966" lon="70.048843"><ele>2943</ele></trkpt><trkpt lat="41.501028" lon="70.048785"><ele>2942</ele></trkpt><trkpt lat="41.500998" lon="70.048608"><ele>2936</ele></trkpt><trkpt lat="41.501007" lon="70.048512"><ele>2934</ele></trkpt><trkpt lat="41.501046" lon="70.048436"><ele>2934</ele></trkpt><trkpt lat="41.501057" lon="70.048349"><ele>2931</ele></trkpt><trkpt lat="41.5011" lon="70.048271"><ele>2929</ele></trkpt><trkpt lat="41.501166" lon="70.048249"><ele>2927</ele></trkpt><trkpt lat="41.501209" lon="70.048183"><ele>2924</ele></trkpt><trkpt lat="41.501275" lon="70.048152"><ele>2920</ele></trkpt><trkpt lat="41.501319" lon="70.048087"><ele>2920</ele></trkpt><trkpt lat="41.501337" lon="70.048001"><ele>2917</ele></trkpt><trkpt lat="41.501454" lon="70.047905"><ele>2901</ele></trkpt><trkpt lat="41.501579" lon="70.047695"><ele>2902</ele></trkpt><trkpt lat="41.501634" lon="70.047638"><ele>2900</ele></trkpt><trkpt lat="41.501694" lon="70.047675"><ele>2899</ele></trkpt><trkpt lat="41.501671" lon="70.047502"><ele>2896</ele></trkpt><trkpt lat="41.50169" lon="70.047411"><ele>2897</ele></trkpt><trkpt lat="41.501762" lon="70.047254"><ele>2893</ele></trkpt><trkpt lat="41.501856" lon="70.04712"><ele>2886</ele></trkpt><trkpt lat="41.50192" lon="70.047106"><ele>2885</ele></trkpt><trkpt lat="41.502079" lon="70.046913"><ele>2880</ele></trkpt><trkpt lat="41.502148" lon="70.04688"><ele>2877</ele></trkpt><trkpt lat="41.502199" lon="70.046822"><ele>2876</ele></trkpt><trkpt lat="41.502243" lon="70.046744"><ele>2877</ele></trkpt><trkpt lat="41.502508" lon="70.046436"><ele>2870</ele></trkpt><trkpt lat="41.502535" lon="70.046356"><ele>2869</ele></trkpt><trkpt lat="41.50253" lon="70.046268"><ele>2866</ele></trkpt><trkpt lat="41.502437" lon="70.046016"><ele>2859</ele></trkpt><trkpt lat="41.50248" lon="70.045944"><ele>2854</ele></trkpt><trkpt lat="41.502486" lon="70.045854"><ele>2852</ele></trkpt><trkpt lat="41.502652" lon="70.045701"><ele>2845</ele></trkpt><trkpt lat="41.502558" lon="70.045463"><ele>2834</ele></trkpt><trkpt lat="41.502547" lon="70.045375"><ele>2831</ele></trkpt><trkpt lat="41.502503" lon="70.045309"><ele>2830</ele></trkpt><trkpt lat="41.502393" lon="70.044988"><ele>2816</ele></trkpt><trkpt lat="41.502433" lon="70.044718"><ele>2805</ele></trkpt><trkpt lat="41.502395" lon="70.044644"><ele>2801</ele></trkpt><trkpt lat="41.502368" lon="70.044469"><ele>2791</ele></trkpt><trkpt lat="41.50231" lon="70.044307"><ele>2786</ele></trkpt><trkpt lat="41.502303" lon="70.044212"><ele>2782</ele></trkpt><trkpt lat="41.502233" lon="70.043962"><ele>2776</ele></trkpt><trkpt lat="41.502282" lon="70.043892"><ele>2776</ele></trkpt><trkpt lat="41.50221" lon="70.043635"><ele>2767</ele></trkpt><trkpt lat="41.502224" lon="70.043541"><ele>2766</ele></trkpt><trkpt lat="41.502209" lon="70.043346"><ele>2757</ele></trkpt><trkpt lat="41.502159" lon="70.043154"><ele>2757</ele></trkpt><trkpt lat="41.502052" lon="70.042915"><ele>2753</ele></trkpt><trkpt lat="41.502001" lon="70.042655"><ele>2742</ele></trkpt><trkpt lat="41.501836" lon="70.042045"><ele>2737</ele></trkpt><trkpt lat="41.501822" lon="70.04187"><ele>2730</ele></trkpt><trkpt lat="41.501771" lon="70.041698"><ele>2731</ele></trkpt><trkpt lat="41.501862" lon="70.041419"><ele>2724</ele></trkpt><trkpt lat="41.501858" lon="70.041238"><ele>2721</ele></trkpt><trkpt lat="41.501764" lon="70.040982"><ele>2717</ele></trkpt><trkpt lat="41.501497" lon="70.040563"><ele>2707</ele></trkpt><trkpt lat="41.501419" lon="70.040407"><ele>2701</ele></trkpt><trkpt lat="41.501402" lon="70.040049"><ele>2701</ele></trkpt><trkpt lat="41.50138" lon="70.039952"><ele>2698</ele></trkpt><trkpt lat="41.501354" lon="70.039678"><ele>2695</ele></trkpt><trkpt lat="41.501447" lon="70.039549"><ele>2687</ele></trkpt><trkpt lat="41.501483" lon="70.039469"><ele>2683</ele></trkpt><trkpt lat="41.50154" lon="70.039419"><ele>2681</ele></trkpt><trkpt lat="41.50159" lon="70.039241"><ele>2677</ele></trkpt><trkpt lat="41.501631" lon="70.039171"><ele>2675</ele></trkpt><trkpt lat="41.501641" lon="70.039078"><ele>2673</ele></trkpt><trkpt lat="41.501688" lon="70.039012"><ele>2671</ele></trkpt><trkpt lat="41.50175" lon="70.038984"><ele>2668</ele></trkpt><trkpt lat="41.501827" lon="70.038822"><ele>2660</ele></trkpt><trkpt lat="41.501849" lon="70.038638"><ele>2656</ele></trkpt><trkpt lat="41.501839" lon="70.038547"><ele>2653</ele></trkpt><trkpt lat="41.501919" lon="70.03827"><ele>2650</ele></trkpt><trkpt lat="41.501968" lon="70.037982"><ele>2641</ele></trkpt><trkpt lat="41.502015" lon="70.037791"><ele>2635</ele></trkpt><trkpt lat="41.502051" lon="70.037714"><ele>2636</ele></trkpt><trkpt lat="41.502089" lon="70.037525"><ele>2634</ele></trkpt><trkpt lat="41.502084" lon="70.037249"><ele>2630</ele></trkpt><trkpt lat="41.502103" lon="70.037161"><ele>2630</ele></trkpt><trkpt lat="41.502098" lon="70.036783"><ele>2625</ele></trkpt><trkpt lat="41.502128" lon="70.036697"><ele>2623</ele></trkpt><trkpt lat="41.502225" lon="70.03657"><ele>2618</ele></trkpt><trkpt lat="41.502339" lon="70.036337"><ele>2616</ele></trkpt><trkpt lat="41.502515" lon="70.036062"><ele>2614</ele></trkpt><trkpt lat="41.502504" lon="70.035972"><ele>2617</ele></trkpt><trkpt lat="41.502474" lon="70.035882"><ele>2614</ele></trkpt><trkpt lat="41.502431" lon="70.035816"><ele>2612</ele></trkpt><trkpt lat="41.502104" lon="70.035097"><ele>2592</ele></trkpt><trkpt lat="41.502087" lon="70.035006"><ele>2591</ele></trkpt><trkpt lat="41.501996" lon="70.034757"><ele>2588</ele></trkpt><trkpt lat="41.501976" lon="70.034665"><ele>2587</ele></trkpt><trkpt lat="41.501981" lon="70.034295"><ele>2582</ele></trkpt><trkpt lat="41.502031" lon="70.034225"><ele>2579</ele></trkpt><trkpt lat="41.502053" lon="70.034129"><ele>2579</ele></trkpt><trkpt lat="41.502087" lon="70.033938"><ele>2577</ele></trkpt><trkpt lat="41.502085" lon="70.033751"><ele>2576</ele></trkpt><trkpt lat="41.502117" lon="70.033577"><ele>2574</ele></trkpt><trkpt lat="41.502155" lon="70.033508"><ele>2572</ele></trkpt><trkpt lat="41.50221" lon="70.033457"><ele>2572</ele></trkpt><trkpt lat="41.502338" lon="70.033386"><ele>2571</ele></trkpt><trkpt lat="41.502489" lon="70.0332"><ele>2570</ele></trkpt><trkpt lat="41.502549" lon="70.03315"><ele>2570</ele></trkpt><trkpt lat="41.502593" lon="70.033076"><ele>2569</ele></trkpt><trkpt lat="41.502609" lon="70.032989"><ele>2567</ele></trkpt><trkpt lat="41.502576" lon="70.032813"><ele>2565</ele></trkpt><trkpt lat="41.502562" lon="70.032628"><ele>2564</ele></trkpt><trkpt lat="41.502579" lon="70.032434"><ele>2563</ele></trkpt><trkpt lat="41.502609" lon="70.032256"><ele>2558</ele></trkpt><trkpt lat="41.502716" lon="70.032021"><ele>2555</ele></trkpt><trkpt lat="41.502739" lon="70.031938"><ele>2555</ele></trkpt><trkpt lat="41.502702" lon="70.031867"><ele>2553</ele></trkpt><trkpt lat="41.502767" lon="70.031863"><ele>2537</ele></trkpt><trkpt lat="41.502884" lon="70.031778"><ele>2541</ele></trkpt><trkpt lat="41.502937" lon="70.031838"><ele>2540</ele></trkpt><trkpt lat="41.503002" lon="70.031867"><ele>2540</ele></trkpt><trkpt lat="41.503201" lon="70.031836"><ele>2536</ele></trkpt><trkpt lat="41.503398" lon="70.031852"><ele>2528</ele></trkpt><trkpt lat="41.503412" lon="70.031764"><ele>2527</ele></trkpt><trkpt lat="41.503482" lon="70.031607"><ele>2526</ele></trkpt><trkpt lat="41.503538" lon="70.031537"><ele>2525</ele></trkpt><trkpt lat="41.503724" lon="70.031153"><ele>2513</ele></trkpt><trkpt lat="41.503933" lon="70.030897"><ele>2508</ele></trkpt><trkpt lat="41.504021" lon="70.030755"><ele>2505</ele></trkpt><trkpt lat="41.50408" lon="70.030712"><ele>2503</ele></trkpt><trkpt lat="41.504117" lon="70.030623"><ele>2501</ele></trkpt><trkpt lat="41.504381" lon="70.030323"><ele>2490</ele></trkpt><trkpt lat="41.504424" lon="70.030251"><ele>2488</ele></trkpt><trkpt lat="41.504546" lon="70.030158"><ele>2484</ele></trkpt><trkpt lat="41.504594" lon="70.030088"><ele>2485</ele></trkpt><trkpt lat="41.504653" lon="70.030038"><ele>2483</ele></trkpt><trkpt lat="41.504862" lon="70.029994"><ele>2476</ele></trkpt><trkpt lat="41.505002" lon="70.029925"><ele>2474</ele></trkpt><trkpt lat="41.505175" lon="70.029739"><ele>2471</ele></trkpt><trkpt lat="41.505424" lon="70.02957"><ele>2468</ele></trkpt><trkpt lat="41.505568" lon="70.029347"><ele>2466</ele></trkpt><trkpt lat="41.505626" lon="70.029278"><ele>2465</ele></trkpt><trkpt lat="41.505686" lon="70.029241"><ele>2464</ele></trkpt><trkpt lat="41.505691" lon="70.029144"><ele>2463</ele></trkpt><trkpt lat="41.505746" lon="70.029084"><ele>2459</ele></trkpt><trkpt lat="41.505873" lon="70.029034"><ele>2457</ele></trkpt><trkpt lat="41.50599" lon="70.028935"><ele>2453</ele></trkpt><trkpt lat="41.50614" lon="70.028744"><ele>2447</ele></trkpt><trkpt lat="41.506278" lon="70.028708"><ele>2444</ele></trkpt><trkpt lat="41.506448" lon="70.02857"><ele>2441</ele></trkpt><trkpt lat="41.506479" lon="70.028487"><ele>2440</ele></trkpt><trkpt lat="41.506614" lon="70.028276"><ele>2437</ele></trkpt><trkpt lat="41.506664" lon="70.028022"><ele>2433</ele></trkpt><trkpt lat="41.506731" lon="70.027852"><ele>2432</ele></trkpt><trkpt lat="41.506746" lon="70.027763"><ele>2431</ele></trkpt><trkpt lat="41.506918" lon="70.027486"><ele>2424</ele></trkpt><trkpt lat="41.507027" lon="70.027156"><ele>2416</ele></trkpt><trkpt lat="41.507055" lon="70.026971"><ele>2414</ele></trkpt><trkpt lat="41.507114" lon="70.026796"><ele>2411</ele></trkpt><trkpt lat="41.507265" lon="70.026607"><ele>2407</ele></trkpt><trkpt lat="41.507464" lon="70.026534"><ele>2404</ele></trkpt><trkpt lat="41.507514" lon="70.026469"><ele>2403</ele></trkpt><trkpt lat="41.507513" lon="70.026376"><ele>2402</ele></trkpt><trkpt lat="41.507554" lon="70.026194"><ele>2397</ele></trkpt><trkpt lat="41.507595" lon="70.026113"><ele>2394</ele></trkpt><trkpt lat="41.507743" lon="70.025937"><ele>2391</ele></trkpt><trkpt lat="41.507885" lon="70.02572"><ele>2388</ele></trkpt><trkpt lat="41.507928" lon="70.025449"><ele>2385</ele></trkpt><trkpt lat="41.507975" lon="70.025384"><ele>2383</ele></trkpt><trkpt lat="41.508006" lon="70.025301"><ele>2382</ele></trkpt><trkpt lat="41.50812" lon="70.025194"><ele>2379</ele></trkpt><trkpt lat="41.508251" lon="70.025118"><ele>2377</ele></trkpt><trkpt lat="41.508293" lon="70.025043"><ele>2375</ele></trkpt><trkpt lat="41.508529" lon="70.024837"><ele>2373</ele></trkpt><trkpt lat="41.50867" lon="70.024822"><ele>2371</ele></trkpt><trkpt lat="41.508713" lon="70.024755"><ele>2370</ele></trkpt><trkpt lat="41.508705" lon="70.024666"><ele>2368</ele></trkpt><trkpt lat="41.508634" lon="70.02449"><ele>2366</ele></trkpt><trkpt lat="41.508631" lon="70.024397"><ele>2366</ele></trkpt><trkpt lat="41.508598" lon="70.024304"><ele>2365</ele></trkpt><trkpt lat="41.508635" lon="70.024128"><ele>2362</ele></trkpt><trkpt lat="41.50863" lon="70.023752"><ele>2356</ele></trkpt><trkpt lat="41.508697" lon="70.023588"><ele>2353</ele></trkpt><trkpt lat="41.508708" lon="70.023498"><ele>2350</ele></trkpt><trkpt lat="41.508757" lon="70.023439"><ele>2349</ele></trkpt><trkpt lat="41.508848" lon="70.023193"><ele>2343</ele></trkpt><trkpt lat="41.508904" lon="70.023143"><ele>2339</ele></trkpt><trkpt lat="41.508909" lon="70.022954"><ele>2337</ele></trkpt><trkpt lat="41.509009" lon="70.022834"><ele>2336</ele></trkpt><trkpt lat="41.509085" lon="70.022683"><ele>2331</ele></trkpt><trkpt lat="41.509148" lon="70.022641"><ele>2328</ele></trkpt><trkpt lat="41.509176" lon="70.022551"><ele>2325</ele></trkpt><trkpt lat="41.509258" lon="70.022404"><ele>2322</ele></trkpt><trkpt lat="41.509314" lon="70.02232"><ele>2320</ele></trkpt><trkpt lat="41.509438" lon="70.022201"><ele>2317</ele></trkpt><trkpt lat="41.509516" lon="70.022043"><ele>2314</ele></trkpt><trkpt lat="41.509535" lon="70.021773"><ele>2293</ele></trkpt><trkpt lat="41.509522" lon="70.021688"><ele>2295</ele></trkpt><trkpt lat="41.50947" lon="70.021637"><ele>2294</ele></trkpt><trkpt lat="41.509447" lon="70.021541"><ele>2275</ele></trkpt><trkpt lat="41.509447" lon="70.021362"><ele>2288</ele></trkpt><trkpt lat="41.509404" lon="70.021094"><ele>2293</ele></trkpt><trkpt lat="41.509424" lon="70.020906"><ele>2290</ele></trkpt><trkpt lat="41.50942" lon="70.020812"><ele>2293</ele></trkpt><trkpt lat="41.509492" lon="70.020539"><ele>2289</ele></trkpt><trkpt lat="41.509522" lon="70.020361"><ele>2288</ele></trkpt><trkpt lat="41.50965" lon="70.020049"><ele>2281</ele></trkpt><trkpt lat="41.509681" lon="70.019864"><ele>2278</ele></trkpt><trkpt lat="41.509795" lon="70.019631"><ele>2273</ele></trkpt><trkpt lat="41.509935" lon="70.019421"><ele>2269</ele></trkpt><trkpt lat="41.509966" lon="70.019335"><ele>2268</ele></trkpt><trkpt lat="41.509965" lon="70.019239"><ele>2268</ele></trkpt><trkpt lat="41.51" lon="70.019154"><ele>2267</ele></trkpt><trkpt lat="41.509983" lon="70.019071"><ele>2265</ele></trkpt><trkpt lat="41.509983" lon="70.018882"><ele>2262</ele></trkpt><trkpt lat="41.509965" lon="70.018798"><ele>2262</ele></trkpt><trkpt lat="41.510012" lon="70.018626"><ele>2255</ele></trkpt><trkpt lat="41.510015" lon="70.018536"><ele>2257</ele></trkpt><trkpt lat="41.51013" lon="70.018309"><ele>2256</ele></trkpt><trkpt lat="41.510155" lon="70.018223"><ele>2257</ele></trkpt><trkpt lat="41.510173" lon="70.017855"><ele>2254</ele></trkpt><trkpt lat="41.51019" lon="70.017767"><ele>2254</ele></trkpt><trkpt lat="41.51023" lon="70.017692"><ele>2251</ele></trkpt><trkpt lat="41.510238" lon="70.017602"><ele>2250</ele></trkpt><trkpt lat="41.510268" lon="70.017524"><ele>2247</ele></trkpt><trkpt lat="41.510389" lon="70.017447"><ele>2244</ele></trkpt><trkpt lat="41.510483" lon="70.017316"><ele>2239</ele></trkpt><trkpt lat="41.510549" lon="70.017341"><ele>2236</ele></trkpt><trkpt lat="41.510587" lon="70.017423"><ele>2234</ele></trkpt><trkpt lat="41.51065" lon="70.017453"><ele>2230</ele></trkpt><trkpt lat="41.510695" lon="70.017519"><ele>2228</ele></trkpt><trkpt lat="41.51074" lon="70.017693"><ele>2224</ele></trkpt><trkpt lat="41.510724" lon="70.017783"><ele>2222</ele></trkpt><trkpt lat="41.510757" lon="70.017858"><ele>2220</ele></trkpt><trkpt lat="41.510871" lon="70.017741"><ele>2215</ele></trkpt><trkpt lat="41.510878" lon="70.017653"><ele>2214</ele></trkpt><trkpt lat="41.511" lon="70.017728"><ele>2205</ele></trkpt><trkpt lat="41.51108" lon="70.017578"><ele>2200</ele></trkpt><trkpt lat="41.511155" lon="70.017575"><ele>2199</ele></trkpt><trkpt lat="41.511218" lon="70.017614"><ele>2196</ele></trkpt><trkpt lat="41.511282" lon="70.017626"><ele>2194</ele></trkpt><trkpt lat="41.511346" lon="70.017671"><ele>2190</ele></trkpt><trkpt lat="41.511417" lon="70.017683"><ele>2189</ele></trkpt><trkpt lat="41.511555" lon="70.01765"><ele>2187</ele></trkpt><trkpt lat="41.511623" lon="70.017654"><ele>2187</ele></trkpt><trkpt lat="41.511899" lon="70.017708"><ele>2185</ele></trkpt><trkpt lat="41.512047" lon="70.017706"><ele>2181</ele></trkpt><trkpt lat="41.512456" lon="70.01778"><ele>2163</ele></trkpt><trkpt lat="41.512521" lon="70.017773"><ele>2161</ele></trkpt><trkpt lat="41.512582" lon="70.017722"><ele>2158</ele></trkpt><trkpt lat="41.512612" lon="70.017641"><ele>2156</ele></trkpt><trkpt lat="41.512668" lon="70.017595"><ele>2154</ele></trkpt><trkpt lat="41.512754" lon="70.017455"><ele>2151</ele></trkpt><trkpt lat="41.512806" lon="70.017511"><ele>2150</ele></trkpt><trkpt lat="41.512941" lon="70.017498"><ele>2143</ele></trkpt><trkpt lat="41.512995" lon="70.017548"><ele>2137</ele></trkpt><trkpt lat="41.513058" lon="70.017513"><ele>2134</ele></trkpt><trkpt lat="41.513089" lon="70.01759"><ele>2132</ele></trkpt><trkpt lat="41.513224" lon="70.0176"><ele>2127</ele></trkpt><trkpt lat="41.513354" lon="70.017576"><ele>2119</ele></trkpt><trkpt lat="41.513481" lon="70.017612"><ele>2114</ele></trkpt><trkpt lat="41.513548" lon="70.0176"><ele>2111</ele></trkpt><trkpt lat="41.513606" lon="70.017641"><ele>2108</ele></trkpt><trkpt lat="41.513672" lon="70.01764"><ele>2106</ele></trkpt><trkpt lat="41.513788" lon="70.017748"><ele>2103</ele></trkpt><trkpt lat="41.513926" lon="70.017804"><ele>2101</ele></trkpt><trkpt lat="41.513997" lon="70.017802"><ele>2100</ele></trkpt><trkpt lat="41.514115" lon="70.017882"><ele>2094</ele></trkpt><trkpt lat="41.514166" lon="70.017938"><ele>2092</ele></trkpt><trkpt lat="41.51422" lon="70.017887"><ele>2090</ele></trkpt><trkpt lat="41.514355" lon="70.017858"><ele>2084</ele></trkpt><trkpt lat="41.514412" lon="70.017807"><ele>2083</ele></trkpt><trkpt lat="41.514543" lon="70.017828"><ele>2076</ele></trkpt><trkpt lat="41.514607" lon="70.017817"><ele>2072</ele></trkpt><trkpt lat="41.514677" lon="70.017778"><ele>2068</ele></trkpt><trkpt lat="41.515002" lon="70.017899"><ele>2056</ele></trkpt><trkpt lat="41.515069" lon="70.017904"><ele>2054</ele></trkpt><trkpt lat="41.515131" lon="70.017867"><ele>2051</ele></trkpt><trkpt lat="41.515193" lon="70.017895"><ele>2047</ele></trkpt><trkpt lat="41.515241" lon="70.017955"><ele>2044</ele></trkpt><trkpt lat="41.51527" lon="70.018038"><ele>2042</ele></trkpt><trkpt lat="41.515324" lon="70.018094"><ele>2038</ele></trkpt><trkpt lat="41.515389" lon="70.018084"><ele>2035</ele></trkpt><trkpt lat="41.515444" lon="70.018129"><ele>2031</ele></trkpt><trkpt lat="41.515512" lon="70.018133"><ele>2028</ele></trkpt><trkpt lat="41.515573" lon="70.018164"><ele>2025</ele></trkpt><trkpt lat="41.51573" lon="70.01833"><ele>2017</ele></trkpt><trkpt lat="41.51575" lon="70.018417"><ele>2014</ele></trkpt><trkpt lat="41.515815" lon="70.018435"><ele>2011</ele></trkpt><trkpt lat="41.515845" lon="70.018519"><ele>2009</ele></trkpt><trkpt lat="41.515893" lon="70.018582"><ele>2003</ele></trkpt><trkpt lat="41.51596" lon="70.018582"><ele>1999</ele></trkpt><trkpt lat="41.516019" lon="70.018537"><ele>1998</ele></trkpt><trkpt lat="41.516149" lon="70.018595"><ele>1991</ele></trkpt><trkpt lat="41.516279" lon="70.018558"><ele>1984</ele></trkpt><trkpt lat="41.516253" lon="70.01864"><ele>1981</ele></trkpt><trkpt lat="41.516385" lon="70.018614"><ele>1976</ele></trkpt><trkpt lat="41.516438" lon="70.018664"><ele>1974</ele></trkpt><trkpt lat="41.516509" lon="70.018664"><ele>1970</ele></trkpt><trkpt lat="41.516565" lon="70.018707"><ele>1965</ele></trkpt><trkpt lat="41.516825" lon="70.018735"><ele>1957</ele></trkpt><trkpt lat="41.516875" lon="70.01879"><ele>1954</ele></trkpt><trkpt lat="41.51694" lon="70.018813"><ele>1951</ele></trkpt><trkpt lat="41.516977" lon="70.018737"><ele>1949</ele></trkpt><trkpt lat="41.51716" lon="70.018852"><ele>1938</ele></trkpt><trkpt lat="41.517226" lon="70.018827"><ele>1934</ele></trkpt><trkpt lat="41.517272" lon="70.018762"><ele>1930</ele></trkpt><trkpt lat="41.517404" lon="70.018732"><ele>1921</ele></trkpt><trkpt lat="41.517468" lon="70.018758"><ele>1917</ele></trkpt><trkpt lat="41.517666" lon="70.018725"><ele>1909</ele></trkpt><trkpt lat="41.517732" lon="70.01876"><ele>1905</ele></trkpt><trkpt lat="41.517936" lon="70.018719"><ele>1895</ele></trkpt><trkpt lat="41.518028" lon="70.018586"><ele>1889</ele></trkpt><trkpt lat="41.518178" lon="70.018753"><ele>1882</ele></trkpt><trkpt lat="41.518499" lon="70.018896"><ele>1866</ele></trkpt><trkpt lat="41.518563" lon="70.018858"><ele>1863</ele></trkpt><trkpt lat="41.51867" lon="70.018737"><ele>1859</ele></trkpt><trkpt lat="41.518852" lon="70.018603"><ele>1851</ele></trkpt><trkpt lat="41.518995" lon="70.018802"><ele>1842</ele></trkpt><trkpt lat="41.519234" lon="70.018965"><ele>1829</ele></trkpt><trkpt lat="41.519427" lon="70.019074"><ele>1822</ele></trkpt><trkpt lat="41.519833" lon="70.019215"><ele>1813</ele></trkpt><trkpt lat="41.51996" lon="70.019293"><ele>1811</ele></trkpt><trkpt lat="41.520119" lon="70.019452"><ele>1806</ele></trkpt><trkpt lat="41.520325" lon="70.019511"><ele>1805</ele></trkpt><trkpt lat="41.520525" lon="70.019534"><ele>1802</ele></trkpt><trkpt lat="41.520663" lon="70.019583"><ele>1798</ele></trkpt><trkpt lat="41.520802" lon="70.019605"><ele>1797</ele></trkpt><trkpt lat="41.520865" lon="70.019639"><ele>1796</ele></trkpt><trkpt lat="41.520946" lon="70.019641"><ele>1796</ele></trkpt><trkpt lat="41.521083" lon="70.01957"><ele>1794</ele></trkpt><trkpt lat="41.521266" lon="70.019426"><ele>1792</ele></trkpt><trkpt lat="41.521475" lon="70.019332"><ele>1789</ele></trkpt><trkpt lat="41.521758" lon="70.019057"><ele>1782</ele></trkpt><trkpt lat="41.52201" lon="70.018891"><ele>1776</ele></trkpt><trkpt lat="41.522255" lon="70.018694"><ele>1772</ele></trkpt><trkpt lat="41.52233" lon="70.018655"><ele>1770</ele></trkpt><trkpt lat="41.522405" lon="70.018646"><ele>1770</ele></trkpt><trkpt lat="41.522732" lon="70.018445"><ele>1765</ele></trkpt><trkpt lat="41.523071" lon="70.018278"><ele>1760</ele></trkpt><trkpt lat="41.523113" lon="70.018207"><ele>1759</ele></trkpt><trkpt lat="41.523176" lon="70.018148"><ele>1757</ele></trkpt><trkpt lat="41.52332" lon="70.018119"><ele>1755</ele></trkpt><trkpt lat="41.523387" lon="70.018124"><ele>1753</ele></trkpt><trkpt lat="41.523457" lon="70.018103"><ele>1751</ele></trkpt><trkpt lat="41.523519" lon="70.018129"><ele>1750</ele></trkpt><trkpt lat="41.523601" lon="70.018074"><ele>1750</ele></trkpt><trkpt lat="41.523665" lon="70.018063"><ele>1749</ele></trkpt><trkpt lat="41.524017" lon="70.018053"><ele>1744</ele></trkpt><trkpt lat="41.52409" lon="70.018069"><ele>1743</ele></trkpt><trkpt lat="41.524216" lon="70.018159"><ele>1741</ele></trkpt><trkpt lat="41.524284" lon="70.018187"><ele>1740</ele></trkpt><trkpt lat="41.52434" lon="70.018233"><ele>1739</ele></trkpt></trkseg></trk></gpx>