<?xml version='1.0' encoding='utf-8'?>
<gpx xmlns="http://www.topografix.com/GPX/1/1" version="1.1" creator="Sayr">
<trk><name>Плато Кызылгаза — пещера Чильсим</name><trkseg>
<trkpt lat="38.717822" lon="67.290609"><ele>2766.8</ele></trkpt>
<trkpt lat="38.717830" lon="67.290765"><ele>2765.6</ele></trkpt>
<trkpt lat="38.717814" lon="67.290886"><ele>2764.5</ele></trkpt>
<trkpt lat="38.717845" lon="67.291166"><ele>2760.6</ele></trkpt>
<trkpt lat="38.717928" lon="67.291430"><ele>2755.2</ele></trkpt>
<trkpt lat="38.717919" lon="67.291714"><ele>2748.7</ele></trkpt>
<trkpt lat="38.717929" lon="67.291803"><ele>2745.9</ele></trkpt>
<trkpt lat="38.717918" lon="67.291981"><ele>2740.1</ele></trkpt>
<trkpt lat="38.717870" lon="67.292093"><ele>2736.6</ele></trkpt>
<trkpt lat="38.717801" lon="67.292171"><ele>2734.6</ele></trkpt>
<trkpt lat="38.717830" lon="67.292293"><ele>2730.0</ele></trkpt>
<trkpt lat="38.717824" lon="67.292372"><ele>2727.6</ele></trkpt>
<trkpt lat="38.717778" lon="67.292521"><ele>2724.5</ele></trkpt>
<trkpt lat="38.717592" lon="67.292552"><ele>2728.4</ele></trkpt>
<trkpt lat="38.717531" lon="67.292530"><ele>2730.5</ele></trkpt>
<trkpt lat="38.717457" lon="67.292459"><ele>2734.2</ele></trkpt>
<trkpt lat="38.717371" lon="67.292426"><ele>2738.2</ele></trkpt>
<trkpt lat="38.717301" lon="67.292433"><ele>2741.2</ele></trkpt>
<trkpt lat="38.717254" lon="67.292410"><ele>2743.8</ele></trkpt>
<trkpt lat="38.717204" lon="67.292412"><ele>2746.3</ele></trkpt>
<trkpt lat="38.717158" lon="67.292382"><ele>2749.2</ele></trkpt>
<trkpt lat="38.717106" lon="67.292417"><ele>2751.3</ele></trkpt>
<trkpt lat="38.717078" lon="67.292351"><ele>2753.9</ele></trkpt>
<trkpt lat="38.717013" lon="67.292351"><ele>2757.3</ele></trkpt>
<trkpt lat="38.716979" lon="67.292439"><ele>2757.9</ele></trkpt>
<trkpt lat="38.716937" lon="67.292463"><ele>2759.9</ele></trkpt>
<trkpt lat="38.716856" lon="67.292586"><ele>2763.6</ele></trkpt>
<trkpt lat="38.716807" lon="67.292721"><ele>2766.3</ele></trkpt>
<trkpt lat="38.716834" lon="67.292966"><ele>2766.1</ele></trkpt>
<trkpt lat="38.716945" lon="67.293365"><ele>2759.8</ele></trkpt>
<trkpt lat="38.716855" lon="67.293581"><ele>2763.2</ele></trkpt>
<trkpt lat="38.716772" lon="67.293911"><ele>2763.4</ele></trkpt>
<trkpt lat="38.716788" lon="67.294028"><ele>2759.6</ele></trkpt>
<trkpt lat="38.716740" lon="67.294043"><ele>2761.6</ele></trkpt>
<trkpt lat="38.716706" lon="67.294081"><ele>2761.8</ele></trkpt>
<trkpt lat="38.716581" lon="67.294119"><ele>2764.7</ele></trkpt>
<trkpt lat="38.716373" lon="67.294051"><ele>2770.1</ele></trkpt>
<trkpt lat="38.716277" lon="67.294087"><ele>2769.0</ele></trkpt>
<trkpt lat="38.716153" lon="67.294068"><ele>2769.8</ele></trkpt>
<trkpt lat="38.715894" lon="67.294082"><ele>2770.5</ele></trkpt>
<trkpt lat="38.715795" lon="67.294033"><ele>2774.3</ele></trkpt>
<trkpt lat="38.715592" lon="67.294151"><ele>2775.0</ele></trkpt>
<trkpt lat="38.715341" lon="67.294206"><ele>2781.0</ele></trkpt>
<trkpt lat="38.715283" lon="67.294234"><ele>2781.7</ele></trkpt>
<trkpt lat="38.715171" lon="67.294200"><ele>2787.1</ele></trkpt>
<trkpt lat="38.715123" lon="67.294223"><ele>2787.6</ele></trkpt>
<trkpt lat="38.714691" lon="67.294251"><ele>2800.0</ele></trkpt>
<trkpt lat="38.714589" lon="67.294276"><ele>2802.5</ele></trkpt>
<trkpt lat="38.714495" lon="67.294325"><ele>2804.1</ele></trkpt>
<trkpt lat="38.714430" lon="67.294402"><ele>2804.1</ele></trkpt>
<trkpt lat="38.714377" lon="67.294497"><ele>2803.5</ele></trkpt>
<trkpt lat="38.714339" lon="67.294623"><ele>2801.7</ele></trkpt>
<trkpt lat="38.714371" lon="67.294773"><ele>2795.4</ele></trkpt>
<trkpt lat="38.714367" lon="67.294917"><ele>2790.8</ele></trkpt>
<trkpt lat="38.714294" lon="67.295146"><ele>2787.5</ele></trkpt>
<trkpt lat="38.714225" lon="67.295213"><ele>2789.3</ele></trkpt>
<trkpt lat="38.714146" lon="67.295204"><ele>2793.4</ele></trkpt>
<trkpt lat="38.714050" lon="67.295040"><ele>2801.8</ele></trkpt>
<trkpt lat="38.713819" lon="67.295000"><ele>2807.1</ele></trkpt>
<trkpt lat="38.713719" lon="67.294934"><ele>2809.2</ele></trkpt>
<trkpt lat="38.713609" lon="67.294916"><ele>2810.1</ele></trkpt>
<trkpt lat="38.713596" lon="67.294843"><ele>2811.5</ele></trkpt>
<trkpt lat="38.713522" lon="67.294825"><ele>2812.1</ele></trkpt>
<trkpt lat="38.713460" lon="67.294781"><ele>2813.2</ele></trkpt>
<trkpt lat="38.713399" lon="67.294834"><ele>2812.7</ele></trkpt>
<trkpt lat="38.713121" lon="67.294734"><ele>2817.2</ele></trkpt>
<trkpt lat="38.713019" lon="67.294768"><ele>2817.7</ele></trkpt>
<trkpt lat="38.713000" lon="67.294827"><ele>2817.2</ele></trkpt>
<trkpt lat="38.712786" lon="67.295002"><ele>2818.6</ele></trkpt>
<trkpt lat="38.712750" lon="67.295141"><ele>2819.1</ele></trkpt>
<trkpt lat="38.712748" lon="67.295273"><ele>2819.9</ele></trkpt>
<trkpt lat="38.712772" lon="67.295376"><ele>2820.1</ele></trkpt>
<trkpt lat="38.712732" lon="67.295612"><ele>2822.9</ele></trkpt>
<trkpt lat="38.712787" lon="67.295760"><ele>2821.9</ele></trkpt>
<trkpt lat="38.712914" lon="67.295989"><ele>2816.7</ele></trkpt>
<trkpt lat="38.712973" lon="67.296130"><ele>2813.2</ele></trkpt>
<trkpt lat="38.712993" lon="67.296260"><ele>2811.1</ele></trkpt>
<trkpt lat="38.712944" lon="67.296307"><ele>2812.6</ele></trkpt>
<trkpt lat="38.712897" lon="67.296310"><ele>2814.6</ele></trkpt>
<trkpt lat="38.712716" lon="67.296429"><ele>2820.2</ele></trkpt>
<trkpt lat="38.712635" lon="67.296520"><ele>2821.6</ele></trkpt>
<trkpt lat="38.712540" lon="67.296582"><ele>2823.6</ele></trkpt>
<trkpt lat="38.712464" lon="67.296687"><ele>2823.6</ele></trkpt>
<trkpt lat="38.712275" lon="67.296808"><ele>2824.7</ele></trkpt>
<trkpt lat="38.712180" lon="67.296833"><ele>2825.9</ele></trkpt>
<trkpt lat="38.712106" lon="67.296881"><ele>2825.7</ele></trkpt>
<trkpt lat="38.712031" lon="67.296986"><ele>2823.6</ele></trkpt>
<trkpt lat="38.711853" lon="67.297106"><ele>2823.4</ele></trkpt>
<trkpt lat="38.711786" lon="67.297204"><ele>2821.6</ele></trkpt>
<trkpt lat="38.711606" lon="67.297272"><ele>2822.8</ele></trkpt>
<trkpt lat="38.711404" lon="67.297411"><ele>2820.0</ele></trkpt>
<trkpt lat="38.711301" lon="67.297452"><ele>2818.9</ele></trkpt>
<trkpt lat="38.711195" lon="67.297468"><ele>2818.6</ele></trkpt>
<trkpt lat="38.711093" lon="67.297460"><ele>2819.3</ele></trkpt>
<trkpt lat="38.710979" lon="67.297489"><ele>2818.8</ele></trkpt>
<trkpt lat="38.710926" lon="67.297451"><ele>2820.7</ele></trkpt>
<trkpt lat="38.710828" lon="67.297473"><ele>2821.1</ele></trkpt>
<trkpt lat="38.710699" lon="67.297412"><ele>2825.5</ele></trkpt>
<trkpt lat="38.710514" lon="67.297402"><ele>2829.6</ele></trkpt>
<trkpt lat="38.710432" lon="67.297561"><ele>2827.1</ele></trkpt>
<trkpt lat="38.710375" lon="67.297717"><ele>2825.1</ele></trkpt>
<trkpt lat="38.710192" lon="67.297849"><ele>2828.7</ele></trkpt>
<trkpt lat="38.710246" lon="67.298254"><ele>2819.6</ele></trkpt>
<trkpt lat="38.710227" lon="67.298557"><ele>2814.3</ele></trkpt>
<trkpt lat="38.710190" lon="67.298701"><ele>2813.4</ele></trkpt>
<trkpt lat="38.710195" lon="67.299143"><ele>2803.6</ele></trkpt>
<trkpt lat="38.710146" lon="67.299605"><ele>2797.2</ele></trkpt>
<trkpt lat="38.709937" lon="67.300786"><ele>2773.3</ele></trkpt>
<trkpt lat="38.709872" lon="67.300938"><ele>2771.6</ele></trkpt>
<trkpt lat="38.709792" lon="67.301051"><ele>2771.9</ele></trkpt>
<trkpt lat="38.709727" lon="67.301180"><ele>2770.6</ele></trkpt>
<trkpt lat="38.709728" lon="67.301288"><ele>2766.5</ele></trkpt>
<trkpt lat="38.709514" lon="67.301563"><ele>2762.4</ele></trkpt>
<trkpt lat="38.709424" lon="67.301585"><ele>2764.0</ele></trkpt>
<trkpt lat="38.709297" lon="67.301719"><ele>2761.0</ele></trkpt>
<trkpt lat="38.709197" lon="67.301699"><ele>2764.1</ele></trkpt>
<trkpt lat="38.709116" lon="67.301605"><ele>2769.3</ele></trkpt>
<trkpt lat="38.708930" lon="67.301662"><ele>2767.0</ele></trkpt>
<trkpt lat="38.708787" lon="67.301672"><ele>2765.2</ele></trkpt>
<trkpt lat="38.708513" lon="67.301755"><ele>2759.6</ele></trkpt>
<trkpt lat="38.708478" lon="67.301889"><ele>2755.2</ele></trkpt>
<trkpt lat="38.708399" lon="67.302020"><ele>2751.6</ele></trkpt>
<trkpt lat="38.708434" lon="67.302097"><ele>2749.0</ele></trkpt>
<trkpt lat="38.708499" lon="67.302124"><ele>2748.0</ele></trkpt>
<trkpt lat="38.708516" lon="67.302181"><ele>2746.3</ele></trkpt>
<trkpt lat="38.708522" lon="67.302326"><ele>2742.2</ele></trkpt>
<trkpt lat="38.708505" lon="67.302444"><ele>2739.0</ele></trkpt>
<trkpt lat="38.708541" lon="67.302624"><ele>2734.2</ele></trkpt>
<trkpt lat="38.708595" lon="67.302775"><ele>2730.1</ele></trkpt>
<trkpt lat="38.708631" lon="67.303092"><ele>2721.8</ele></trkpt>
<trkpt lat="38.708758" lon="67.303349"><ele>2713.0</ele></trkpt>
<trkpt lat="38.708714" lon="67.303829"><ele>2703.0</ele></trkpt>
<trkpt lat="38.708751" lon="67.304339"><ele>2693.3</ele></trkpt>
<trkpt lat="38.708747" lon="67.304477"><ele>2691.9</ele></trkpt>
<trkpt lat="38.708797" lon="67.304720"><ele>2688.8</ele></trkpt>
<trkpt lat="38.708815" lon="67.304962"><ele>2687.8</ele></trkpt>
<trkpt lat="38.708785" lon="67.305009"><ele>2688.2</ele></trkpt>
<trkpt lat="38.708758" lon="67.305141"><ele>2688.8</ele></trkpt>
<trkpt lat="38.708720" lon="67.305181"><ele>2689.4</ele></trkpt>
<trkpt lat="38.708797" lon="67.305256"><ele>2688.7</ele></trkpt>
<trkpt lat="38.708899" lon="67.305249"><ele>2687.9</ele></trkpt>
<trkpt lat="38.708999" lon="67.305270"><ele>2688.0</ele></trkpt>
<trkpt lat="38.709088" lon="67.305351"><ele>2689.6</ele></trkpt>
<trkpt lat="38.709090" lon="67.305485"><ele>2691.4</ele></trkpt>
<trkpt lat="38.709164" lon="67.305493"><ele>2692.7</ele></trkpt>
<trkpt lat="38.709241" lon="67.305444"><ele>2693.7</ele></trkpt>
<trkpt lat="38.709281" lon="67.305474"><ele>2695.2</ele></trkpt>
<trkpt lat="38.709345" lon="67.305457"><ele>2697.0</ele></trkpt>
<trkpt lat="38.709420" lon="67.305390"><ele>2698.8</ele></trkpt>
<trkpt lat="38.709554" lon="67.305332"><ele>2703.9</ele></trkpt>
<trkpt lat="38.709673" lon="67.305235"><ele>2708.4</ele></trkpt>
<trkpt lat="38.709746" lon="67.305201"><ele>2711.8</ele></trkpt>
<trkpt lat="38.709827" lon="67.305072"><ele>2714.3</ele></trkpt>
<trkpt lat="38.709898" lon="67.305046"><ele>2717.6</ele></trkpt>
<trkpt lat="38.709924" lon="67.304944"><ele>2717.5</ele></trkpt>
<trkpt lat="38.710003" lon="67.304850"><ele>2720.0</ele></trkpt>
<trkpt lat="38.710054" lon="67.304761"><ele>2721.2</ele></trkpt>
<trkpt lat="38.710143" lon="67.304713"><ele>2724.9</ele></trkpt>
<trkpt lat="38.710230" lon="67.304619"><ele>2728.1</ele></trkpt>
<trkpt lat="38.710504" lon="67.304255"><ele>2736.4</ele></trkpt>
<trkpt lat="38.710521" lon="67.304099"><ele>2733.2</ele></trkpt>
<trkpt lat="38.710641" lon="67.303811"><ele>2730.2</ele></trkpt>
<trkpt lat="38.710769" lon="67.303401"><ele>2722.7</ele></trkpt>
<trkpt lat="38.710783" lon="67.303253"><ele>2718.5</ele></trkpt>
<trkpt lat="38.710844" lon="67.303184"><ele>2719.4</ele></trkpt>
<trkpt lat="38.710862" lon="67.303069"><ele>2716.3</ele></trkpt>
<trkpt lat="38.710819" lon="67.302634"><ele>2699.3</ele></trkpt>
<trkpt lat="38.710829" lon="67.302392"><ele>2692.7</ele></trkpt>
<trkpt lat="38.710940" lon="67.302356"><ele>2696.2</ele></trkpt>
<trkpt lat="38.711008" lon="67.302284"><ele>2696.7</ele></trkpt>
<trkpt lat="38.711188" lon="67.302309"><ele>2708.9</ele></trkpt>
<trkpt lat="38.711460" lon="67.302417"><ele>2732.3</ele></trkpt>
<trkpt lat="38.711811" lon="67.302478"><ele>2748.5</ele></trkpt>
<trkpt lat="38.711856" lon="67.302513"><ele>2750.6</ele></trkpt>
<trkpt lat="38.711945" lon="67.302544"><ele>2752.4</ele></trkpt>
<trkpt lat="38.712093" lon="67.302572"><ele>2753.5</ele></trkpt>
<trkpt lat="38.712221" lon="67.302569"><ele>2752.9</ele></trkpt>
<trkpt lat="38.712326" lon="67.302529"><ele>2751.2</ele></trkpt>
<trkpt lat="38.712482" lon="67.302519"><ele>2751.4</ele></trkpt>
<trkpt lat="38.712579" lon="67.302483"><ele>2751.4</ele></trkpt>
<trkpt lat="38.712694" lon="67.302393"><ele>2750.4</ele></trkpt>
<trkpt lat="38.712806" lon="67.302390"><ele>2752.2</ele></trkpt>
<trkpt lat="38.712926" lon="67.302308"><ele>2752.8</ele></trkpt>
<trkpt lat="38.713101" lon="67.302120"><ele>2754.6</ele></trkpt>
<trkpt lat="38.713216" lon="67.302084"><ele>2757.8</ele></trkpt>
<trkpt lat="38.713292" lon="67.302139"><ele>2760.2</ele></trkpt>
<trkpt lat="38.713360" lon="67.302309"><ele>2762.7</ele></trkpt>
<trkpt lat="38.713424" lon="67.302374"><ele>2764.5</ele></trkpt>
<trkpt lat="38.713420" lon="67.302433"><ele>2764.9</ele></trkpt>
<trkpt lat="38.713488" lon="67.302606"><ele>2768.4</ele></trkpt>
<trkpt lat="38.713829" lon="67.302719"><ele>2776.2</ele></trkpt>
<trkpt lat="38.713958" lon="67.302830"><ele>2780.1</ele></trkpt>
<trkpt lat="38.714131" lon="67.302906"><ele>2784.5</ele></trkpt>
<trkpt lat="38.714461" lon="67.302974"><ele>2792.9</ele></trkpt>
<trkpt lat="38.714523" lon="67.303024"><ele>2794.8</ele></trkpt>
<trkpt lat="38.714526" lon="67.303133"><ele>2795.5</ele></trkpt>
<trkpt lat="38.714448" lon="67.303376"><ele>2795.9</ele></trkpt>
<trkpt lat="38.714464" lon="67.303499"><ele>2797.7</ele></trkpt>
<trkpt lat="38.714441" lon="67.303628"><ele>2799.4</ele></trkpt>
<trkpt lat="38.714528" lon="67.304346"><ele>2813.6</ele></trkpt>
<trkpt lat="38.714483" lon="67.304433"><ele>2815.5</ele></trkpt>
<trkpt lat="38.714428" lon="67.304641"><ele>2820.6</ele></trkpt>
<trkpt lat="38.714457" lon="67.304723"><ele>2822.6</ele></trkpt>
<trkpt lat="38.714541" lon="67.304793"><ele>2824.0</ele></trkpt>
<trkpt lat="38.714571" lon="67.304844"><ele>2825.2</ele></trkpt>
<trkpt lat="38.714874" lon="67.304928"><ele>2827.4</ele></trkpt>
<trkpt lat="38.714978" lon="67.305017"><ele>2830.2</ele></trkpt>
<trkpt lat="38.715142" lon="67.305207"><ele>2836.5</ele></trkpt>
<trkpt lat="38.715248" lon="67.305404"><ele>2842.3</ele></trkpt>
<trkpt lat="38.715329" lon="67.305494"><ele>2844.9</ele></trkpt>
<trkpt lat="38.715301" lon="67.305542"><ele>2845.9</ele></trkpt>
<trkpt lat="38.715297" lon="67.305757"><ele>2851.1</ele></trkpt>
<trkpt lat="38.715264" lon="67.305862"><ele>2853.5</ele></trkpt>
<trkpt lat="38.715218" lon="67.305939"><ele>2855.2</ele></trkpt>
<trkpt lat="38.715233" lon="67.306045"><ele>2857.4</ele></trkpt>
<trkpt lat="38.715208" lon="67.306240"><ele>2861.3</ele></trkpt>
<trkpt lat="38.715227" lon="67.306328"><ele>2863.0</ele></trkpt>
<trkpt lat="38.715289" lon="67.306425"><ele>2865.1</ele></trkpt>
<trkpt lat="38.715295" lon="67.306756"><ele>2873.2</ele></trkpt>
<trkpt lat="38.715341" lon="67.306867"><ele>2876.7</ele></trkpt>
<trkpt lat="38.715349" lon="67.306979"><ele>2880.1</ele></trkpt>
<trkpt lat="38.715621" lon="67.307247"><ele>2890.3</ele></trkpt>
<trkpt lat="38.715743" lon="67.307391"><ele>2895.4</ele></trkpt>
<trkpt lat="38.715783" lon="67.307463"><ele>2897.7</ele></trkpt>
<trkpt lat="38.715722" lon="67.307586"><ele>2900.9</ele></trkpt>
<trkpt lat="38.715837" lon="67.307700"><ele>2904.4</ele></trkpt>
<trkpt lat="38.715924" lon="67.307741"><ele>2905.5</ele></trkpt>
<trkpt lat="38.716003" lon="67.307809"><ele>2907.0</ele></trkpt>
<trkpt lat="38.716219" lon="67.308092"><ele>2913.1</ele></trkpt>
<trkpt lat="38.716355" lon="67.308243"><ele>2916.8</ele></trkpt>
<trkpt lat="38.716659" lon="67.308458"><ele>2925.0</ele></trkpt>
<trkpt lat="38.716712" lon="67.308513"><ele>2927.5</ele></trkpt>
<trkpt lat="38.716747" lon="67.308604"><ele>2930.6</ele></trkpt>
<trkpt lat="38.716793" lon="67.308665"><ele>2933.3</ele></trkpt>
<trkpt lat="38.716806" lon="67.308779"><ele>2936.4</ele></trkpt>
<trkpt lat="38.716837" lon="67.308894"><ele>2940.0</ele></trkpt>
<trkpt lat="38.716868" lon="67.308948"><ele>2942.1</ele></trkpt>
<trkpt lat="38.716915" lon="67.308957"><ele>2943.5</ele></trkpt>
<trkpt lat="38.717009" lon="67.309037"><ele>2947.9</ele></trkpt>
<trkpt lat="38.717034" lon="67.309087"><ele>2949.7</ele></trkpt>
<trkpt lat="38.717135" lon="67.309143"><ele>2953.7</ele></trkpt>
<trkpt lat="38.717249" lon="67.309261"><ele>2958.8</ele></trkpt>
<trkpt lat="38.717325" lon="67.309398"><ele>2962.5</ele></trkpt>
<trkpt lat="38.717378" lon="67.309539"><ele>2964.9</ele></trkpt>
<trkpt lat="38.717423" lon="67.309575"><ele>2966.2</ele></trkpt>
<trkpt lat="38.717490" lon="67.309749"><ele>2968.6</ele></trkpt>
<trkpt lat="38.717501" lon="67.309850"><ele>2969.5</ele></trkpt>
<trkpt lat="38.717514" lon="67.310015"><ele>2971.4</ele></trkpt>
<trkpt lat="38.717429" lon="67.310263"><ele>2974.8</ele></trkpt>
<trkpt lat="38.717379" lon="67.310335"><ele>2976.0</ele></trkpt>
<trkpt lat="38.717218" lon="67.310483"><ele>2979.1</ele></trkpt>
<trkpt lat="38.717166" lon="67.310508"><ele>2979.7</ele></trkpt>
<trkpt lat="38.717096" lon="67.310737"><ele>2984.8</ele></trkpt>
<trkpt lat="38.716968" lon="67.310964"><ele>2989.2</ele></trkpt>
<trkpt lat="38.717000" lon="67.311363"><ele>2994.3</ele></trkpt>
<trkpt lat="38.717025" lon="67.311463"><ele>2995.6</ele></trkpt>
<trkpt lat="38.717076" lon="67.311578"><ele>2997.0</ele></trkpt>
<trkpt lat="38.717058" lon="67.311713"><ele>2999.5</ele></trkpt>
<trkpt lat="38.717088" lon="67.311837"><ele>3001.8</ele></trkpt>
<trkpt lat="38.717084" lon="67.312005"><ele>3005.4</ele></trkpt>
<trkpt lat="38.717107" lon="67.312116"><ele>3007.7</ele></trkpt>
<trkpt lat="38.717157" lon="67.312186"><ele>3008.6</ele></trkpt>
<trkpt lat="38.717166" lon="67.312247"><ele>3009.9</ele></trkpt>
<trkpt lat="38.717126" lon="67.312337"><ele>3012.5</ele></trkpt>
<trkpt lat="38.717113" lon="67.312493"><ele>3016.3</ele></trkpt>
<trkpt lat="38.717136" lon="67.312580"><ele>3017.9</ele></trkpt>
<trkpt lat="38.717171" lon="67.312617"><ele>3018.3</ele></trkpt>
<trkpt lat="38.717262" lon="67.312815"><ele>3022.2</ele></trkpt>
<trkpt lat="38.717295" lon="67.312987"><ele>3026.5</ele></trkpt>
<trkpt lat="38.717267" lon="67.313089"><ele>3029.4</ele></trkpt>
<trkpt lat="38.717261" lon="67.313175"><ele>3031.8</ele></trkpt>
<trkpt lat="38.717216" lon="67.313208"><ele>3032.8</ele></trkpt>
<trkpt lat="38.717157" lon="67.313474"><ele>3040.1</ele></trkpt>
<trkpt lat="38.717169" lon="67.313786"><ele>3048.5</ele></trkpt>
<trkpt lat="38.717197" lon="67.313885"><ele>3051.2</ele></trkpt>
<trkpt lat="38.717220" lon="67.314062"><ele>3056.1</ele></trkpt>
<trkpt lat="38.717216" lon="67.314243"><ele>3060.9</ele></trkpt>
<trkpt lat="38.717184" lon="67.314333"><ele>3063.2</ele></trkpt>
<trkpt lat="38.717198" lon="67.314540"><ele>3068.6</ele></trkpt>
<trkpt lat="38.717258" lon="67.314871"><ele>3077.3</ele></trkpt>
<trkpt lat="38.717434" lon="67.315220"><ele>3086.9</ele></trkpt>
<trkpt lat="38.717431" lon="67.315295"><ele>3088.7</ele></trkpt>
<trkpt lat="38.717458" lon="67.315399"><ele>3091.3</ele></trkpt>
<trkpt lat="38.717456" lon="67.315494"><ele>3093.4</ele></trkpt>
<trkpt lat="38.717389" lon="67.315641"><ele>3096.3</ele></trkpt>
<trkpt lat="38.717337" lon="67.315713"><ele>3097.7</ele></trkpt>
<trkpt lat="38.717290" lon="67.315827"><ele>3099.9</ele></trkpt>
<trkpt lat="38.717268" lon="67.315947"><ele>3102.1</ele></trkpt>
<trkpt lat="38.717197" lon="67.316049"><ele>3103.7</ele></trkpt>
<trkpt lat="38.717163" lon="67.316176"><ele>3105.5</ele></trkpt>
<trkpt lat="38.717193" lon="67.316226"><ele>3106.4</ele></trkpt>
<trkpt lat="38.717221" lon="67.316331"><ele>3108.1</ele></trkpt>
<trkpt lat="38.717190" lon="67.316423"><ele>3109.0</ele></trkpt>
<trkpt lat="38.717143" lon="67.316486"><ele>3109.3</ele></trkpt>
<trkpt lat="38.717091" lon="67.316454"><ele>3108.4</ele></trkpt>
<trkpt lat="38.716970" lon="67.316643"><ele>3108.5</ele></trkpt>
<trkpt lat="38.716919" lon="67.316937"><ele>3107.9</ele></trkpt>
<trkpt lat="38.716953" lon="67.317182"><ele>3108.0</ele></trkpt>
<trkpt lat="38.717013" lon="67.317284"><ele>3109.6</ele></trkpt>
<trkpt lat="38.717144" lon="67.317440"><ele>3114.1</ele></trkpt>
<trkpt lat="38.717327" lon="67.317609"><ele>3120.4</ele></trkpt>
<trkpt lat="38.717402" lon="67.317706"><ele>3122.7</ele></trkpt>
<trkpt lat="38.717401" lon="67.317960"><ele>3123.4</ele></trkpt>
<trkpt lat="38.717470" lon="67.318338"><ele>3128.8</ele></trkpt>
<trkpt lat="38.717452" lon="67.318581"><ele>3136.7</ele></trkpt>
<trkpt lat="38.717323" lon="67.318697"><ele>3141.3</ele></trkpt>
<trkpt lat="38.717255" lon="67.318731"><ele>3142.9</ele></trkpt>
<trkpt lat="38.717234" lon="67.318782"><ele>3145.3</ele></trkpt>
<trkpt lat="38.717123" lon="67.318850"><ele>3148.9</ele></trkpt>
<trkpt lat="38.716962" lon="67.318906"><ele>3152.1</ele></trkpt>
<trkpt lat="38.716790" lon="67.319046"><ele>3158.6</ele></trkpt>
<trkpt lat="38.716745" lon="67.319105"><ele>3160.8</ele></trkpt>
<trkpt lat="38.716790" lon="67.319145"><ele>3162.1</ele></trkpt>
<trkpt lat="38.716954" lon="67.319460"><ele>3170.3</ele></trkpt>
<trkpt lat="38.716996" lon="67.319587"><ele>3173.1</ele></trkpt>
<trkpt lat="38.717020" lon="67.319803"><ele>3177.3</ele></trkpt>
<trkpt lat="38.717048" lon="67.319918"><ele>3179.4</ele></trkpt>
<trkpt lat="38.717055" lon="67.320052"><ele>3181.7</ele></trkpt>
<trkpt lat="38.717173" lon="67.320343"><ele>3185.9</ele></trkpt>
<trkpt lat="38.717301" lon="67.320547"><ele>3188.7</ele></trkpt>
<trkpt lat="38.717346" lon="67.320661"><ele>3189.9</ele></trkpt>
<trkpt lat="38.717332" lon="67.320826"><ele>3190.9</ele></trkpt>
<trkpt lat="38.717370" lon="67.320859"><ele>3191.3</ele></trkpt>
<trkpt lat="38.717416" lon="67.321013"><ele>3192.4</ele></trkpt>
<trkpt lat="38.717483" lon="67.321139"><ele>3193.1</ele></trkpt>
<trkpt lat="38.717658" lon="67.321358"><ele>3193.2</ele></trkpt>
<trkpt lat="38.717653" lon="67.321479"><ele>3192.7</ele></trkpt>
<trkpt lat="38.717594" lon="67.321613"><ele>3191.9</ele></trkpt>
<trkpt lat="38.717603" lon="67.321960"><ele>3187.6</ele></trkpt>
<trkpt lat="38.717584" lon="67.322113"><ele>3185.0</ele></trkpt>
<trkpt lat="38.717512" lon="67.322418"><ele>3180.9</ele></trkpt>
<trkpt lat="38.717503" lon="67.322908"><ele>3174.4</ele></trkpt>
<trkpt lat="38.717484" lon="67.323081"><ele>3172.5</ele></trkpt>
<trkpt lat="38.717401" lon="67.323405"><ele>3170.0</ele></trkpt>
<trkpt lat="38.717380" lon="67.323564"><ele>3168.8</ele></trkpt>
<trkpt lat="38.717314" lon="67.323653"><ele>3168.6</ele></trkpt>
<trkpt lat="38.717254" lon="67.323640"><ele>3169.3</ele></trkpt>
<trkpt lat="38.717228" lon="67.323691"><ele>3169.1</ele></trkpt>
<trkpt lat="38.716994" lon="67.323795"><ele>3170.8</ele></trkpt>
<trkpt lat="38.716717" lon="67.324014"><ele>3171.0</ele></trkpt>
<trkpt lat="38.716604" lon="67.324130"><ele>3170.4</ele></trkpt>
<trkpt lat="38.716509" lon="67.324264"><ele>3170.1</ele></trkpt>
<trkpt lat="38.716418" lon="67.324535"><ele>3171.1</ele></trkpt>
<trkpt lat="38.716327" lon="67.324630"><ele>3171.9</ele></trkpt>
<trkpt lat="38.716204" lon="67.324718"><ele>3172.4</ele></trkpt>
<trkpt lat="38.715830" lon="67.325119"><ele>3171.5</ele></trkpt>
<trkpt lat="38.715724" lon="67.325681"><ele>3173.2</ele></trkpt>
<trkpt lat="38.715439" lon="67.326206"><ele>3168.5</ele></trkpt>
<trkpt lat="38.715341" lon="67.326288"><ele>3165.3</ele></trkpt>
<trkpt lat="38.715285" lon="67.326406"><ele>3164.7</ele></trkpt>
<trkpt lat="38.715009" lon="67.327297"><ele>3171.6</ele></trkpt>
<trkpt lat="38.714971" lon="67.327331"><ele>3170.8</ele></trkpt>
<trkpt lat="38.714861" lon="67.327686"><ele>3174.1</ele></trkpt>
<trkpt lat="38.714779" lon="67.327788"><ele>3172.6</ele></trkpt>
<trkpt lat="38.714642" lon="67.328040"><ele>3172.2</ele></trkpt>
<trkpt lat="38.714598" lon="67.328192"><ele>3174.0</ele></trkpt>
<trkpt lat="38.714521" lon="67.328328"><ele>3173.5</ele></trkpt>
<trkpt lat="38.714475" lon="67.328449"><ele>3174.2</ele></trkpt>
<trkpt lat="38.714403" lon="67.328709"><ele>3177.3</ele></trkpt>
<trkpt lat="38.714310" lon="67.328844"><ele>3177.1</ele></trkpt>
<trkpt lat="38.714279" lon="67.328965"><ele>3178.6</ele></trkpt>
<trkpt lat="38.714212" lon="67.329090"><ele>3179.0</ele></trkpt>
<trkpt lat="38.714200" lon="67.329211"><ele>3180.3</ele></trkpt>
<trkpt lat="38.714233" lon="67.329362"><ele>3182.6</ele></trkpt>
<trkpt lat="38.714183" lon="67.329520"><ele>3182.3</ele></trkpt>
<trkpt lat="38.714156" lon="67.329671"><ele>3182.4</ele></trkpt>
<trkpt lat="38.714158" lon="67.329823"><ele>3183.3</ele></trkpt>
<trkpt lat="38.714125" lon="67.329981"><ele>3183.9</ele></trkpt>
<trkpt lat="38.714126" lon="67.330099"><ele>3185.3</ele></trkpt>
<trkpt lat="38.714206" lon="67.330347"><ele>3190.3</ele></trkpt>
<trkpt lat="38.714214" lon="67.330471"><ele>3192.2</ele></trkpt>
<trkpt lat="38.714372" lon="67.330757"><ele>3198.8</ele></trkpt>
<trkpt lat="38.714527" lon="67.331126"><ele>3206.1</ele></trkpt>
<trkpt lat="38.714556" lon="67.331382"><ele>3209.9</ele></trkpt>
<trkpt lat="38.714512" lon="67.331664"><ele>3212.5</ele></trkpt>
<trkpt lat="38.714351" lon="67.332226"><ele>3214.4</ele></trkpt>
<trkpt lat="38.714196" lon="67.332375"><ele>3213.9</ele></trkpt>
<trkpt lat="38.714012" lon="67.332686"><ele>3215.8</ele></trkpt>
<trkpt lat="38.713995" lon="67.332770"><ele>3216.8</ele></trkpt>
<trkpt lat="38.714005" lon="67.332834"><ele>3218.0</ele></trkpt>
<trkpt lat="38.713948" lon="67.333004"><ele>3219.7</ele></trkpt>
<trkpt lat="38.713912" lon="67.333421"><ele>3224.5</ele></trkpt>
<trkpt lat="38.713859" lon="67.333557"><ele>3224.5</ele></trkpt>
<trkpt lat="38.713827" lon="67.333693"><ele>3225.0</ele></trkpt>
<trkpt lat="38.713803" lon="67.333966"><ele>3227.1</ele></trkpt>
<trkpt lat="38.713811" lon="67.334100"><ele>3228.9</ele></trkpt>
<trkpt lat="38.713855" lon="67.334125"><ele>3230.1</ele></trkpt>
<trkpt lat="38.713865" lon="67.334182"><ele>3231.2</ele></trkpt>
<trkpt lat="38.713975" lon="67.334297"><ele>3235.4</ele></trkpt>
<trkpt lat="38.713937" lon="67.334451"><ele>3237.6</ele></trkpt>
<trkpt lat="38.713953" lon="67.334578"><ele>3240.6</ele></trkpt>
<trkpt lat="38.714016" lon="67.334706"><ele>3244.8</ele></trkpt>
<trkpt lat="38.714028" lon="67.334829"><ele>3247.6</ele></trkpt>
<trkpt lat="38.713925" lon="67.335158"><ele>3250.9</ele></trkpt>
<trkpt lat="38.713762" lon="67.335406"><ele>3250.5</ele></trkpt>
<trkpt lat="38.713717" lon="67.335546"><ele>3251.1</ele></trkpt>
<trkpt lat="38.713791" lon="67.335692"><ele>3254.3</ele></trkpt>
<trkpt lat="38.713688" lon="67.335950"><ele>3254.3</ele></trkpt>
<trkpt lat="38.713675" lon="67.336159"><ele>3255.4</ele></trkpt>
<trkpt lat="38.713682" lon="67.336290"><ele>3256.4</ele></trkpt>
<trkpt lat="38.713625" lon="67.336401"><ele>3255.5</ele></trkpt>
<trkpt lat="38.713584" lon="67.336538"><ele>3255.3</ele></trkpt>
<trkpt lat="38.713550" lon="67.337004"><ele>3256.8</ele></trkpt>
<trkpt lat="38.713511" lon="67.337117"><ele>3256.4</ele></trkpt>
<trkpt lat="38.713407" lon="67.337245"><ele>3255.4</ele></trkpt>
<trkpt lat="38.713403" lon="67.337382"><ele>3256.6</ele></trkpt>
<trkpt lat="38.713324" lon="67.337493"><ele>3257.9</ele></trkpt>
<trkpt lat="38.713271" lon="67.337740"><ele>3263.1</ele></trkpt>
<trkpt lat="38.713171" lon="67.338058"><ele>3271.2</ele></trkpt>
<trkpt lat="38.713156" lon="67.338175"><ele>3274.0</ele></trkpt>
<trkpt lat="38.713081" lon="67.338281"><ele>3276.0</ele></trkpt>
<trkpt lat="38.713054" lon="67.338376"><ele>3277.8</ele></trkpt>
<trkpt lat="38.712994" lon="67.338473"><ele>3279.3</ele></trkpt>
<trkpt lat="38.712843" lon="67.338849"><ele>3284.8</ele></trkpt>
<trkpt lat="38.712638" lon="67.339267"><ele>3290.3</ele></trkpt>
<trkpt lat="38.712594" lon="67.339462"><ele>3294.0</ele></trkpt>
<trkpt lat="38.712548" lon="67.339484"><ele>3294.4</ele></trkpt>
<trkpt lat="38.712496" lon="67.339690"><ele>3299.1</ele></trkpt>
<trkpt lat="38.712455" lon="67.339762"><ele>3301.0</ele></trkpt>
<trkpt lat="38.712411" lon="67.339741"><ele>3301.3</ele></trkpt>
<trkpt lat="38.712332" lon="67.339777"><ele>3303.8</ele></trkpt>
<trkpt lat="38.712172" lon="67.339743"><ele>3309.5</ele></trkpt>
<trkpt lat="38.711982" lon="67.339677"><ele>3319.9</ele></trkpt>
<trkpt lat="38.711910" lon="67.339635"><ele>3324.7</ele></trkpt>
<trkpt lat="38.711763" lon="67.339622"><ele>3335.7</ele></trkpt>
<trkpt lat="38.711720" lon="67.339587"><ele>3339.2</ele></trkpt>
</trkseg></trk>
</gpx>