<?xml version='1.0' encoding='utf-8'?>
<gpx xmlns="http://www.topografix.com/GPX/1/1" xmlns:ns2="http://www.topografix.com/GPX/gpx_style/0/2" xmlns:xsi="http://www.w3.org/2001/XMLSchema-instance" creator="GaiaGPS" version="1.1" xsi:schemaLocation="http://www.topografix.com/GPX/1/1 http://www.topografix.com/GPX/1/1/gpx.xsd"><trk><name>Fazlimon cho'qqisi</name><desc /><extensions><ns2:line><ns2:color>A726BC</ns2:color></ns2:line></extensions><trkseg><trkpt lat="40.548022" lon="66.589599"><ele>1643.2</ele></trkpt><trkpt lat="40.547999" lon="66.589598"><ele>1651.8</ele></trkpt><trkpt lat="40.548021" lon="66.589599"><ele>1649.0</ele></trkpt><trkpt lat="40.547979" lon="66.589778"><ele>1652.0</ele></trkpt><trkpt lat="40.547984" lon="66.589881"><ele>1650.0</ele></trkpt><trkpt lat="40.547946" lon="66.589999"><ele>1650.0</ele></trkpt><trkpt lat="40.547881" lon="66.5901"><ele>1650.0</ele></trkpt><trkpt lat="40.547799" lon="66.590049"><ele>1647.0</ele></trkpt><trkpt lat="40.5477" lon="66.590277"><ele>1647.0</ele></trkpt><trkpt lat="40.547653" lon="66.590496"><ele>1650.0</ele></trkpt><trkpt lat="40.547619" lon="66.59079"><ele>1650.0</ele></trkpt><trkpt lat="40.547417" lon="66.591065"><ele>1650.0</ele></trkpt><trkpt lat="40.547222" lon="66.591287"><ele>1652.0</ele></trkpt><trkpt lat="40.54714" lon="66.591443"><ele>1654.0</ele></trkpt><trkpt lat="40.547086" lon="66.591497"><ele>1655.0</ele></trkpt><trkpt lat="40.546995" lon="66.591638"><ele>1656.7</ele></trkpt><trkpt lat="40.546871" lon="66.591753"><ele>1658.0</ele></trkpt><trkpt lat="40.546491" lon="66.592"><ele>1665.0</ele></trkpt><trkpt lat="40.546417" lon="66.592023"><ele>1664.0</ele></trkpt><trkpt lat="40.546311" lon="66.592014"><ele>1664.0</ele></trkpt><trkpt lat="40.546241" lon="66.592034"><ele>1667.0</ele></trkpt><trkpt lat="40.54594" lon="66.592191"><ele>1674.0</ele></trkpt><trkpt lat="40.545843" lon="66.592195"><ele>1676.0</ele></trkpt><trkpt lat="40.545745" lon="66.592224"><ele>1679.0</ele></trkpt><trkpt lat="40.54564" lon="66.592226"><ele>1679.0</ele></trkpt><trkpt lat="40.545301" lon="66.592128"><ele>1686.0</ele></trkpt><trkpt lat="40.545226" lon="66.59213"><ele>1686.0</ele></trkpt><trkpt lat="40.545098" lon="66.592059"><ele>1685.0</ele></trkpt><trkpt lat="40.545051" lon="66.592064"><ele>1688.0</ele></trkpt><trkpt lat="40.545013" lon="66.591994"><ele>1680.0</ele></trkpt><trkpt lat="40.544961" lon="66.592031"><ele>1689.0</ele></trkpt><trkpt lat="40.544857" lon="66.592053"><ele>1689.0</ele></trkpt><trkpt lat="40.54477" lon="66.592027"><ele>1687.0</ele></trkpt><trkpt lat="40.544634" lon="66.592064"><ele>1688.0</ele></trkpt><trkpt lat="40.544564" lon="66.592027"><ele>1688.0</ele></trkpt><trkpt lat="40.544375" lon="66.591989"><ele>1689.8</ele></trkpt><trkpt lat="40.544042" lon="66.591836"><ele>1692.0</ele></trkpt><trkpt lat="40.543665" lon="66.591552"><ele>1696.0</ele></trkpt><trkpt lat="40.543466" lon="66.591463"><ele>1698.0</ele></trkpt><trkpt lat="40.543361" lon="66.591388"><ele>1698.0</ele></trkpt><trkpt lat="40.542878" lon="66.590777"><ele>1702.0</ele></trkpt><trkpt lat="40.542519" lon="66.590491"><ele>1707.0</ele></trkpt><trkpt lat="40.542414" lon="66.590448"><ele>1707.0</ele></trkpt><trkpt lat="40.542161" lon="66.590277"><ele>1708.0</ele></trkpt><trkpt lat="40.542065" lon="66.590239"><ele>1706.0</ele></trkpt><trkpt lat="40.54163" lon="66.58993"><ele>1708.0</ele></trkpt><trkpt lat="40.541311" lon="66.589749"><ele>1708.0</ele></trkpt><trkpt lat="40.540894" lon="66.589473"><ele>1713.0</ele></trkpt><trkpt lat="40.540643" lon="66.589367"><ele>1716.0</ele></trkpt><trkpt lat="40.540448" lon="66.589308"><ele>1718.0</ele></trkpt><trkpt lat="40.539981" lon="66.589237"><ele>1719.2</ele></trkpt><trkpt lat="40.5399" lon="66.589265"><ele>1719.0</ele></trkpt><trkpt lat="40.539829" lon="66.58938"><ele>1718.0</ele></trkpt><trkpt lat="40.539593" lon="66.589666"><ele>1723.0</ele></trkpt><trkpt lat="40.539523" lon="66.589709"><ele>1722.0</ele></trkpt><trkpt lat="40.539467" lon="66.589773"><ele>1722.0</ele></trkpt><trkpt lat="40.538959" lon="66.590001"><ele>1726.0</ele></trkpt><trkpt lat="40.538624" lon="66.590087"><ele>1725.0</ele></trkpt><trkpt lat="40.538284" lon="66.590076"><ele>1728.0</ele></trkpt><trkpt lat="40.538239" lon="66.590058"><ele>1729.5</ele></trkpt><trkpt lat="40.538013" lon="66.590067"><ele>1728.0</ele></trkpt><trkpt lat="40.537712" lon="66.590108"><ele>1728.0</ele></trkpt><trkpt lat="40.537544" lon="66.590162"><ele>1730.0</ele></trkpt><trkpt lat="40.537426" lon="66.590166"><ele>1731.0</ele></trkpt><trkpt lat="40.537255" lon="66.590133"><ele>1731.0</ele></trkpt><trkpt lat="40.536996" lon="66.590058"><ele>1732.0</ele></trkpt><trkpt lat="40.53687" lon="66.590001"><ele>1734.0</ele></trkpt><trkpt lat="40.536511" lon="66.589909"><ele>1734.0</ele></trkpt><trkpt lat="40.53636" lon="66.589922"><ele>1734.0</ele></trkpt><trkpt lat="40.536009" lon="66.58984"><ele>1735.0</ele></trkpt><trkpt lat="40.535745" lon="66.589835"><ele>1739.0</ele></trkpt><trkpt lat="40.535624" lon="66.589892"><ele>1742.0</ele></trkpt><trkpt lat="40.535575" lon="66.589939"><ele>1741.0</ele></trkpt><trkpt lat="40.535422" lon="66.590028"><ele>1743.0</ele></trkpt><trkpt lat="40.535183" lon="66.590131"><ele>1748.0</ele></trkpt><trkpt lat="40.53476" lon="66.590279"><ele>1756.0</ele></trkpt><trkpt lat="40.534652" lon="66.590399"><ele>1757.0</ele></trkpt><trkpt lat="40.534532" lon="66.590577"><ele>1759.0</ele></trkpt><trkpt lat="40.534468" lon="66.590818"><ele>1762.0</ele></trkpt><trkpt lat="40.534435" lon="66.591092"><ele>1765.0</ele></trkpt><trkpt lat="40.534394" lon="66.591258"><ele>1768.0</ele></trkpt><trkpt lat="40.534346" lon="66.591568"><ele>1773.0</ele></trkpt><trkpt lat="40.534274" lon="66.591835"><ele>1778.0</ele></trkpt><trkpt lat="40.534252" lon="66.592059"><ele>1778.0</ele></trkpt><trkpt lat="40.534223" lon="66.592165"><ele>1779.0</ele></trkpt><trkpt lat="40.534156" lon="66.592258"><ele>1780.0</ele></trkpt><trkpt lat="40.534076" lon="66.592315"><ele>1779.0</ele></trkpt><trkpt lat="40.533923" lon="66.592501"><ele>1776.0</ele></trkpt><trkpt lat="40.53373" lon="66.592669"><ele>1782.0</ele></trkpt><trkpt lat="40.533549" lon="66.592755"><ele>1785.0</ele></trkpt><trkpt lat="40.53349" lon="66.592801"><ele>1784.0</ele></trkpt><trkpt lat="40.533378" lon="66.592944"><ele>1784.0</ele></trkpt><trkpt lat="40.53295" lon="66.593075"><ele>1792.0</ele></trkpt><trkpt lat="40.532787" lon="66.593173"><ele>1791.0</ele></trkpt><trkpt lat="40.532453" lon="66.59329"><ele>1796.0</ele></trkpt><trkpt lat="40.532235" lon="66.593418"><ele>1800.0</ele></trkpt><trkpt lat="40.532081" lon="66.593473"><ele>1803.0</ele></trkpt><trkpt lat="40.532035" lon="66.593466"><ele>1807.1</ele></trkpt><trkpt lat="40.531969" lon="66.593523"><ele>1806.0</ele></trkpt><trkpt lat="40.531854" lon="66.59354"><ele>1806.0</ele></trkpt><trkpt lat="40.531824" lon="66.593568"><ele>1807.0</ele></trkpt><trkpt lat="40.531761" lon="66.59351"><ele>1807.0</ele></trkpt><trkpt lat="40.531707" lon="66.593405"><ele>1808.0</ele></trkpt><trkpt lat="40.531748" lon="66.593349"><ele>1811.0</ele></trkpt><trkpt lat="40.531794" lon="66.593233"><ele>1812.0</ele></trkpt><trkpt lat="40.531819" lon="66.593255"><ele>1809.0</ele></trkpt><trkpt lat="40.53171" lon="66.593444"><ele>1810.0</ele></trkpt><trkpt lat="40.531667" lon="66.59355"><ele>1808.0</ele></trkpt><trkpt lat="40.531629" lon="66.593589"><ele>1807.4</ele></trkpt><trkpt lat="40.531468" lon="66.593715"><ele>1806.0</ele></trkpt><trkpt lat="40.53135" lon="66.593771"><ele>1806.0</ele></trkpt><trkpt lat="40.531272" lon="66.593781"><ele>1806.0</ele></trkpt><trkpt lat="40.53111" lon="66.593964"><ele>1806.0</ele></trkpt><trkpt lat="40.530991" lon="66.594018"><ele>1809.0</ele></trkpt><trkpt lat="40.530888" lon="66.594123"><ele>1810.0</ele></trkpt><trkpt lat="40.530885" lon="66.594197"><ele>1810.0</ele></trkpt><trkpt lat="40.530834" lon="66.594379"><ele>1810.0</ele></trkpt><trkpt lat="40.530677" lon="66.594512"><ele>1818.0</ele></trkpt><trkpt lat="40.53059" lon="66.594718"><ele>1822.0</ele></trkpt><trkpt lat="40.530589" lon="66.594763"><ele>1821.0</ele></trkpt><trkpt lat="40.530471" lon="66.594875"><ele>1824.0</ele></trkpt><trkpt lat="40.530365" lon="66.594902"><ele>1827.0</ele></trkpt><trkpt lat="40.530318" lon="66.594961"><ele>1829.0</ele></trkpt><trkpt lat="40.530197" lon="66.594949"><ele>1829.0</ele></trkpt><trkpt lat="40.530166" lon="66.594929"><ele>1830.0</ele></trkpt><trkpt lat="40.530078" lon="66.594971"><ele>1833.0</ele></trkpt><trkpt lat="40.529971" lon="66.595056"><ele>1835.0</ele></trkpt><trkpt lat="40.52985" lon="66.595091"><ele>1837.0</ele></trkpt><trkpt lat="40.529603" lon="66.595078"><ele>1840.0</ele></trkpt><trkpt lat="40.529473" lon="66.595041"><ele>1842.0</ele></trkpt><trkpt lat="40.529396" lon="66.595041"><ele>1844.0</ele></trkpt><trkpt lat="40.529096" lon="66.594951"><ele>1850.0</ele></trkpt><trkpt lat="40.529001" lon="66.594943"><ele>1852.0</ele></trkpt><trkpt lat="40.528933" lon="66.594958"><ele>1851.0</ele></trkpt><trkpt lat="40.528899" lon="66.594977"><ele>1851.0</ele></trkpt><trkpt lat="40.528828" lon="66.595072"><ele>1854.0</ele></trkpt><trkpt lat="40.528682" lon="66.595306"><ele>1856.0</ele></trkpt><trkpt lat="40.528303" lon="66.595518"><ele>1858.0</ele></trkpt><trkpt lat="40.528066" lon="66.595723"><ele>1857.0</ele></trkpt><trkpt lat="40.527674" lon="66.595928"><ele>1854.0</ele></trkpt><trkpt lat="40.527536" lon="66.596059"><ele>1856.0</ele></trkpt><trkpt lat="40.527248" lon="66.59628"><ele>1858.0</ele></trkpt><trkpt lat="40.527101" lon="66.596347"><ele>1855.0</ele></trkpt><trkpt lat="40.526947" lon="66.596378"><ele>1854.0</ele></trkpt><trkpt lat="40.526898" lon="66.59636"><ele>1855.9</ele></trkpt><trkpt lat="40.526722" lon="66.596448"><ele>1853.0</ele></trkpt><trkpt lat="40.526479" lon="66.596729"><ele>1852.0</ele></trkpt><trkpt lat="40.52632" lon="66.596952"><ele>1855.0</ele></trkpt><trkpt lat="40.526061" lon="66.597369"><ele>1854.0</ele></trkpt><trkpt lat="40.525934" lon="66.597544"><ele>1851.0</ele></trkpt><trkpt lat="40.525921" lon="66.597589"><ele>1851.0</ele></trkpt><trkpt lat="40.525732" lon="66.597884"><ele>1849.0</ele></trkpt><trkpt lat="40.525616" lon="66.598179"><ele>1847.0</ele></trkpt><trkpt lat="40.52552" lon="66.598357"><ele>1846.0</ele></trkpt><trkpt lat="40.525439" lon="66.598477"><ele>1842.0</ele></trkpt><trkpt lat="40.525334" lon="66.598578"><ele>1842.0</ele></trkpt><trkpt lat="40.525275" lon="66.598691"><ele>1839.0</ele></trkpt><trkpt lat="40.525242" lon="66.598713"><ele>1837.0</ele></trkpt><trkpt lat="40.525145" lon="66.598948"><ele>1836.0</ele></trkpt><trkpt lat="40.525157" lon="66.599023"><ele>1834.0</ele></trkpt><trkpt lat="40.525143" lon="66.599164"><ele>1832.0</ele></trkpt><trkpt lat="40.525149" lon="66.59914"><ele>1831.0</ele></trkpt><trkpt lat="40.525123" lon="66.599053"><ele>1835.0</ele></trkpt><trkpt lat="40.525075" lon="66.59899"><ele>1834.0</ele></trkpt><trkpt lat="40.524992" lon="66.598925"><ele>1831.0</ele></trkpt><trkpt lat="40.524872" lon="66.598867"><ele>1830.0</ele></trkpt><trkpt lat="40.524803" lon="66.598792"><ele>1828.0</ele></trkpt><trkpt lat="40.524769" lon="66.598697"><ele>1830.0</ele></trkpt><trkpt lat="40.52473" lon="66.598645"><ele>1830.0</ele></trkpt><trkpt lat="40.524416" lon="66.59836"><ele>1824.0</ele></trkpt><trkpt lat="40.524291" lon="66.598378"><ele>1820.0</ele></trkpt><trkpt lat="40.524184" lon="66.598419"><ele>1815.0</ele></trkpt><trkpt lat="40.524114" lon="66.598388"><ele>1815.0</ele></trkpt><trkpt lat="40.52408" lon="66.598393"><ele>1814.0</ele></trkpt><trkpt lat="40.523994" lon="66.598465"><ele>1811.0</ele></trkpt><trkpt lat="40.523854" lon="66.598519"><ele>1809.0</ele></trkpt><trkpt lat="40.523555" lon="66.598769"><ele>1808.0</ele></trkpt><trkpt lat="40.523493" lon="66.598785"><ele>1810.0</ele></trkpt><trkpt lat="40.523463" lon="66.598827"><ele>1809.0</ele></trkpt><trkpt lat="40.523398" lon="66.598862"><ele>1809.0</ele></trkpt><trkpt lat="40.523369" lon="66.598933"><ele>1810.0</ele></trkpt><trkpt lat="40.523285" lon="66.599052"><ele>1810.0</ele></trkpt><trkpt lat="40.523209" lon="66.599323"><ele>1809.0</ele></trkpt><trkpt lat="40.523152" lon="66.599406"><ele>1808.0</ele></trkpt><trkpt lat="40.523119" lon="66.599429"><ele>1808.0</ele></trkpt><trkpt lat="40.523025" lon="66.59943"><ele>1810.0</ele></trkpt><trkpt lat="40.522686" lon="66.599691"><ele>1807.0</ele></trkpt><trkpt lat="40.522614" lon="66.599705"><ele>1807.0</ele></trkpt><trkpt lat="40.522515" lon="66.599797"><ele>1808.0</ele></trkpt><trkpt lat="40.522441" lon="66.599835"><ele>1809.0</ele></trkpt><trkpt lat="40.522373" lon="66.599901"><ele>1808.0</ele></trkpt><trkpt lat="40.522334" lon="66.599969"><ele>1806.0</ele></trkpt><trkpt lat="40.522172" lon="66.600081"><ele>1807.0</ele></trkpt><trkpt lat="40.522073" lon="66.600119"><ele>1806.0</ele></trkpt><trkpt lat="40.522031" lon="66.600111"><ele>1806.0</ele></trkpt><trkpt lat="40.52194" lon="66.600168"><ele>1808.0</ele></trkpt><trkpt lat="40.521893" lon="66.600167"><ele>1809.2</ele></trkpt><trkpt lat="40.521863" lon="66.6002"><ele>1806.0</ele></trkpt><trkpt lat="40.5217" lon="66.600196"><ele>1805.0</ele></trkpt><trkpt lat="40.521625" lon="66.600221"><ele>1804.0</ele></trkpt><trkpt lat="40.521382" lon="66.60048"><ele>1801.0</ele></trkpt><trkpt lat="40.521322" lon="66.600729"><ele>1800.0</ele></trkpt><trkpt lat="40.521311" lon="66.60084"><ele>1801.0</ele></trkpt><trkpt lat="40.521313" lon="66.600911"><ele>1803.0</ele></trkpt><trkpt lat="40.521386" lon="66.601091"><ele>1804.0</ele></trkpt><trkpt lat="40.521462" lon="66.601207"><ele>1802.0</ele></trkpt><trkpt lat="40.52151" lon="66.601382"><ele>1802.0</ele></trkpt><trkpt lat="40.521585" lon="66.601554"><ele>1802.0</ele></trkpt><trkpt lat="40.521564" lon="66.601876"><ele>1797.0</ele></trkpt><trkpt lat="40.521494" lon="66.602019"><ele>1798.0</ele></trkpt><trkpt lat="40.521422" lon="66.602313"><ele>1796.0</ele></trkpt><trkpt lat="40.521447" lon="66.602417"><ele>1794.0</ele></trkpt><trkpt lat="40.521444" lon="66.602533"><ele>1793.0</ele></trkpt><trkpt lat="40.521393" lon="66.602671"><ele>1792.0</ele></trkpt><trkpt lat="40.521383" lon="66.602751"><ele>1791.0</ele></trkpt><trkpt lat="40.521307" lon="66.60286"><ele>1791.0</ele></trkpt><trkpt lat="40.521222" lon="66.602917"><ele>1788.0</ele></trkpt><trkpt lat="40.521191" lon="66.602985"><ele>1787.0</ele></trkpt><trkpt lat="40.520977" lon="66.603222"><ele>1785.0</ele></trkpt><trkpt lat="40.520897" lon="66.603401"><ele>1776.0</ele></trkpt><trkpt lat="40.520921" lon="66.603471"><ele>1775.0</ele></trkpt><trkpt lat="40.520853" lon="66.603544"><ele>1771.0</ele></trkpt><trkpt lat="40.520806" lon="66.603637"><ele>1766.0</ele></trkpt><trkpt lat="40.520704" lon="66.603777"><ele>1763.0</ele></trkpt><trkpt lat="40.52068" lon="66.603841"><ele>1760.0</ele></trkpt><trkpt lat="40.520643" lon="66.603863"><ele>1759.0</ele></trkpt><trkpt lat="40.520571" lon="66.603864"><ele>1758.0</ele></trkpt><trkpt lat="40.520544" lon="66.603842"><ele>1761.0</ele></trkpt><trkpt lat="40.520231" lon="66.603842"><ele>1763.0</ele></trkpt><trkpt lat="40.520179" lon="66.60394"><ele>1764.0</ele></trkpt><trkpt lat="40.520187" lon="66.604004"><ele>1768.0</ele></trkpt><trkpt lat="40.520133" lon="66.60414"><ele>1770.0</ele></trkpt><trkpt lat="40.520022" lon="66.604224"><ele>1772.0</ele></trkpt><trkpt lat="40.519717" lon="66.604304"><ele>1776.0</ele></trkpt><trkpt lat="40.519683" lon="66.604381"><ele>1776.0</ele></trkpt><trkpt lat="40.519539" lon="66.604572"><ele>1783.0</ele></trkpt><trkpt lat="40.519355" lon="66.605097"><ele>1788.0</ele></trkpt><trkpt lat="40.519334" lon="66.605285"><ele>1786.0</ele></trkpt><trkpt lat="40.519288" lon="66.605433"><ele>1789.0</ele></trkpt><trkpt lat="40.519305" lon="66.605576"><ele>1791.0</ele></trkpt><trkpt lat="40.519279" lon="66.605648"><ele>1793.0</ele></trkpt><trkpt lat="40.519172" lon="66.605764"><ele>1794.0</ele></trkpt><trkpt lat="40.519083" lon="66.605959"><ele>1796.0</ele></trkpt><trkpt lat="40.519042" lon="66.606009"><ele>1800.0</ele></trkpt><trkpt lat="40.519029" lon="66.606099"><ele>1800.0</ele></trkpt><trkpt lat="40.518983" lon="66.60615"><ele>1802.0</ele></trkpt><trkpt lat="40.518749" lon="66.6066"><ele>1810.0</ele></trkpt><trkpt lat="40.518713" lon="66.60671"><ele>1809.0</ele></trkpt><trkpt lat="40.518662" lon="66.606804"><ele>1812.0</ele></trkpt><trkpt lat="40.518591" lon="66.607059"><ele>1814.0</ele></trkpt><trkpt lat="40.518537" lon="66.607193"><ele>1814.0</ele></trkpt><trkpt lat="40.518452" lon="66.607331"><ele>1818.0</ele></trkpt><trkpt lat="40.518452" lon="66.607391"><ele>1818.0</ele></trkpt><trkpt lat="40.518403" lon="66.607504"><ele>1824.0</ele></trkpt><trkpt lat="40.518335" lon="66.607622"><ele>1824.0</ele></trkpt><trkpt lat="40.518288" lon="66.60765"><ele>1825.0</ele></trkpt><trkpt lat="40.518132" lon="66.607887"><ele>1830.0</ele></trkpt><trkpt lat="40.518001" lon="66.608345"><ele>1841.0</ele></trkpt><trkpt lat="40.517992" lon="66.608473"><ele>1845.0</ele></trkpt><trkpt lat="40.517947" lon="66.608611"><ele>1845.0</ele></trkpt><trkpt lat="40.517939" lon="66.608716"><ele>1848.0</ele></trkpt><trkpt lat="40.517846" lon="66.608963"><ele>1855.0</ele></trkpt><trkpt lat="40.517742" lon="66.609114"><ele>1860.0</ele></trkpt><trkpt lat="40.517742" lon="66.609313"><ele>1860.0</ele></trkpt><trkpt lat="40.517715" lon="66.60949"><ele>1864.0</ele></trkpt><trkpt lat="40.517627" lon="66.609588"><ele>1868.0</ele></trkpt><trkpt lat="40.517576" lon="66.60969"><ele>1869.0</ele></trkpt><trkpt lat="40.517517" lon="66.609752"><ele>1873.0</ele></trkpt><trkpt lat="40.517399" lon="66.609994"><ele>1876.0</ele></trkpt><trkpt lat="40.517352" lon="66.610036"><ele>1876.0</ele></trkpt><trkpt lat="40.517338" lon="66.610102"><ele>1877.0</ele></trkpt><trkpt lat="40.517224" lon="66.61028"><ele>1884.0</ele></trkpt><trkpt lat="40.517202" lon="66.610378"><ele>1884.0</ele></trkpt><trkpt lat="40.51717" lon="66.610401"><ele>1887.0</ele></trkpt><trkpt lat="40.517156" lon="66.610454"><ele>1885.0</ele></trkpt><trkpt lat="40.517133" lon="66.61047"><ele>1888.0</ele></trkpt><trkpt lat="40.517082" lon="66.610656"><ele>1892.0</ele></trkpt><trkpt lat="40.517074" lon="66.610747"><ele>1894.0</ele></trkpt><trkpt lat="40.517033" lon="66.610806"><ele>1897.0</ele></trkpt><trkpt lat="40.516889" lon="66.610926"><ele>1900.0</ele></trkpt><trkpt lat="40.516847" lon="66.611031"><ele>1903.0</ele></trkpt><trkpt lat="40.516806" lon="66.611082"><ele>1905.0</ele></trkpt><trkpt lat="40.51681" lon="66.611141"><ele>1908.0</ele></trkpt><trkpt lat="40.516779" lon="66.611207"><ele>1898.0</ele></trkpt><trkpt lat="40.516789" lon="66.61142"><ele>1910.0</ele></trkpt><trkpt lat="40.516757" lon="66.611496"><ele>1918.0</ele></trkpt><trkpt lat="40.516778" lon="66.611575"><ele>1920.0</ele></trkpt><trkpt lat="40.516739" lon="66.611707"><ele>1921.8</ele></trkpt><trkpt lat="40.516825" lon="66.612052"><ele>1928.0</ele></trkpt><trkpt lat="40.516952" lon="66.61233"><ele>1932.0</ele></trkpt><trkpt lat="40.516974" lon="66.61235"><ele>1933.4</ele></trkpt><trkpt lat="40.516978" lon="66.612408"><ele>1931.0</ele></trkpt><trkpt lat="40.517068" lon="66.612524"><ele>1936.0</ele></trkpt><trkpt lat="40.517138" lon="66.612689"><ele>1940.0</ele></trkpt><trkpt lat="40.517216" lon="66.612794"><ele>1942.0</ele></trkpt><trkpt lat="40.517273" lon="66.612916"><ele>1948.0</ele></trkpt><trkpt lat="40.517265" lon="66.612904"><ele>1945.0</ele></trkpt><trkpt lat="40.517401" lon="66.613012"><ele>1951.8</ele></trkpt><trkpt lat="40.51763" lon="66.613118"><ele>1956.0</ele></trkpt><trkpt lat="40.517641" lon="66.613162"><ele>1957.0</ele></trkpt><trkpt lat="40.517678" lon="66.6132"><ele>1954.0</ele></trkpt><trkpt lat="40.517764" lon="66.613246"><ele>1956.0</ele></trkpt><trkpt lat="40.517812" lon="66.613345"><ele>1955.0</ele></trkpt><trkpt lat="40.517887" lon="66.613434"><ele>1961.0</ele></trkpt><trkpt lat="40.517899" lon="66.613495"><ele>1960.0</ele></trkpt><trkpt lat="40.518131" lon="66.613696"><ele>1966.0</ele></trkpt><trkpt lat="40.518147" lon="66.613752"><ele>1962.0</ele></trkpt><trkpt lat="40.518222" lon="66.613782"><ele>1970.0</ele></trkpt><trkpt lat="40.518263" lon="66.613865"><ele>1968.0</ele></trkpt><trkpt lat="40.518265" lon="66.613991"><ele>1968.0</ele></trkpt><trkpt lat="40.51839" lon="66.614046"><ele>1971.0</ele></trkpt><trkpt lat="40.518481" lon="66.614182"><ele>1979.0</ele></trkpt><trkpt lat="40.518611" lon="66.614244"><ele>1981.0</ele></trkpt><trkpt lat="40.518733" lon="66.614365"><ele>1980.0</ele></trkpt><trkpt lat="40.51873" lon="66.614402"><ele>1979.0</ele></trkpt><trkpt lat="40.518929" lon="66.614794"><ele>1986.0</ele></trkpt><trkpt lat="40.518945" lon="66.614962"><ele>1986.0</ele></trkpt><trkpt lat="40.518934" lon="66.615006"><ele>1987.0</ele></trkpt><trkpt lat="40.518954" lon="66.61506"><ele>1989.0</ele></trkpt><trkpt lat="40.518948" lon="66.615141"><ele>1989.3</ele></trkpt><trkpt lat="40.519048" lon="66.615261"><ele>1996.0</ele></trkpt><trkpt lat="40.519052" lon="66.615334"><ele>1996.0</ele></trkpt><trkpt lat="40.519092" lon="66.615457"><ele>2002.0</ele></trkpt><trkpt lat="40.519266" lon="66.615602"><ele>2006.0</ele></trkpt><trkpt lat="40.519242" lon="66.615704"><ele>2004.0</ele></trkpt><trkpt lat="40.519265" lon="66.615893"><ele>2015.0</ele></trkpt><trkpt lat="40.519258" lon="66.615933"><ele>2015.0</ele></trkpt><trkpt lat="40.51908" lon="66.616035"><ele>2022.0</ele></trkpt><trkpt lat="40.519041" lon="66.616021"><ele>2025.0</ele></trkpt><trkpt lat="40.518958" lon="66.616071"><ele>2027.0</ele></trkpt><trkpt lat="40.518985" lon="66.616067"><ele>2029.0</ele></trkpt><trkpt lat="40.519052" lon="66.616155"><ele>2033.0</ele></trkpt><trkpt lat="40.519051" lon="66.616189"><ele>2033.0</ele></trkpt><trkpt lat="40.519075" lon="66.616213"><ele>2037.0</ele></trkpt><trkpt lat="40.519075" lon="66.616341"><ele>2037.0</ele></trkpt><trkpt lat="40.519092" lon="66.616427"><ele>2040.0</ele></trkpt><trkpt lat="40.518967" lon="66.616515"><ele>2041.0</ele></trkpt><trkpt lat="40.518938" lon="66.616574"><ele>2043.0</ele></trkpt><trkpt lat="40.5188" lon="66.616657"><ele>2049.0</ele></trkpt><trkpt lat="40.51874" lon="66.616659"><ele>2049.0</ele></trkpt><trkpt lat="40.518701" lon="66.616694"><ele>2051.0</ele></trkpt><trkpt lat="40.518658" lon="66.616693"><ele>2055.0</ele></trkpt><trkpt lat="40.518601" lon="66.616663"><ele>2057.0</ele></trkpt><trkpt lat="40.518495" lon="66.616692"><ele>2055.0</ele></trkpt><trkpt lat="40.518483" lon="66.616663"><ele>2062.0</ele></trkpt><trkpt lat="40.518534" lon="66.616735"><ele>2061.0</ele></trkpt><trkpt lat="40.518565" lon="66.616826"><ele>2063.0</ele></trkpt><trkpt lat="40.518501" lon="66.616685"><ele>2061.0</ele></trkpt><trkpt lat="40.518453" lon="66.616682"><ele>2061.0</ele></trkpt><trkpt lat="40.51837" lon="66.616752"><ele>2067.0</ele></trkpt><trkpt lat="40.518052" lon="66.616814"><ele>2079.0</ele></trkpt><trkpt lat="40.517971" lon="66.616879"><ele>2080.0</ele></trkpt><trkpt lat="40.517921" lon="66.616951"><ele>2084.0</ele></trkpt><trkpt lat="40.517914" lon="66.617097"><ele>2088.0</ele></trkpt><trkpt lat="40.517838" lon="66.617386"><ele>2094.0</ele></trkpt><trkpt lat="40.517743" lon="66.617532"><ele>2097.4</ele></trkpt><trkpt lat="40.517677" lon="66.617608"><ele>2097.0</ele></trkpt><trkpt lat="40.517596" lon="66.617669"><ele>2100.0</ele></trkpt><trkpt lat="40.517276" lon="66.617733"><ele>2108.0</ele></trkpt><trkpt lat="40.5171" lon="66.617566"><ele>2116.0</ele></trkpt><trkpt lat="40.517094" lon="66.617529"><ele>2115.0</ele></trkpt><trkpt lat="40.51704" lon="66.617497"><ele>2115.0</ele></trkpt><trkpt lat="40.516987" lon="66.617408"><ele>2118.0</ele></trkpt><trkpt lat="40.516849" lon="66.617312"><ele>2124.0</ele></trkpt><trkpt lat="40.516739" lon="66.617291"><ele>2129.0</ele></trkpt><trkpt lat="40.516683" lon="66.617236"><ele>2132.0</ele></trkpt><trkpt lat="40.516632" lon="66.617237"><ele>2133.0</ele></trkpt><trkpt lat="40.516614" lon="66.617219"><ele>2132.0</ele></trkpt><trkpt lat="40.516526" lon="66.617309"><ele>2137.4</ele></trkpt></trkseg></trk></gpx>