<?xml version='1.0' encoding='utf-8'?>
<gpx xmlns="http://www.topografix.com/GPX/1/1" xmlns:ns2="http://www.topografix.com/GPX/gpx_style/0/2" xmlns:ns3="http://www.locusmap.eu" xmlns:xsi="http://www.w3.org/2001/XMLSchema-instance" version="1.1" creator="Locus Map, Android" xsi:schemaLocation="http://www.topografix.com/GPX/1/1 http://www.topografix.com/GPX/1/1/gpx.xsd">
	<metadata>
		<desc>File with points/tracks from Locus Map/4.19.0</desc>
		</metadata>
<trk>
<name>пер.Песочный - вдп.Гулькам - обход теснин - Янгикурган</name>
<desc>t.me/Shelomentsev_Yaroslav</desc>
	<extensions>
		<ns2:line>
			<ns2:color>0000FF</ns2:color>
			<ns2:opacity>0.59</ns2:opacity>
			<ns2:width>6.0</ns2:width>
			<ns2:extensions>
				<ns3:lsColorBase>#960000FF</ns3:lsColorBase>
				<ns3:lsWidth>6.0</ns3:lsWidth>
				<ns3:lsUnits>PIXELS</ns3:lsUnits>
			</ns2:extensions>
		</ns2:line>
		<ns3:activity>hiking</ns3:activity>
	</extensions>
<trkseg>
<trkpt lat="41.54278000" lon="70.04568500">
	<ele>1843.10</ele>
	</trkpt>
<trkpt lat="41.54277400" lon="70.04571000">
	<ele>1842.78</ele>
	</trkpt>
<trkpt lat="41.54281600" lon="70.04578000">
	<ele>1841.47</ele>
	</trkpt>
<trkpt lat="41.54287300" lon="70.04581000">
	<ele>1839.60</ele>
	</trkpt>
<trkpt lat="41.54289200" lon="70.04584500">
	<ele>1838.37</ele>
	</trkpt>
<trkpt lat="41.54300000" lon="70.04588000">
	<ele>1835.83</ele>
	</trkpt>
<trkpt lat="41.54303400" lon="70.04591000">
	<ele>1831.62</ele>
	</trkpt>
<trkpt lat="41.54304000" lon="70.04594400">
	<ele>1830.42</ele>
	</trkpt>
<trkpt lat="41.54306000" lon="70.04594400">
	<ele>1829.50</ele>
	</trkpt>
<trkpt lat="41.54313300" lon="70.04603000">
	<ele>1827.94</ele>
	</trkpt>
<trkpt lat="41.54316000" lon="70.04603600">
	<ele>1826.62</ele>
	</trkpt>
<trkpt lat="41.54316700" lon="70.04611000">
	<ele>1823.82</ele>
	</trkpt>
<trkpt lat="41.54315000" lon="70.04616500">
	<ele>1823.09</ele>
	</trkpt>
<trkpt lat="41.54319400" lon="70.04620000">
	<ele>1820.86</ele>
	</trkpt>
<trkpt lat="41.54318600" lon="70.04628000">
	<ele>1818.89</ele>
	</trkpt>
<trkpt lat="41.54321700" lon="70.04630000">
	<ele>1817.09</ele>
	</trkpt>
<trkpt lat="41.54324700" lon="70.04636000">
	<ele>1815.13</ele>
	</trkpt>
<trkpt lat="41.54322000" lon="70.04636400">
	<ele>1814.25</ele>
	</trkpt>
<trkpt lat="41.54319400" lon="70.04639400">
	<ele>1813.58</ele>
	</trkpt>
<trkpt lat="41.54313700" lon="70.04640000">
	<ele>1808.97</ele>
	</trkpt>
<trkpt lat="41.54311000" lon="70.04643000">
	<ele>1808.30</ele>
	</trkpt>
<trkpt lat="41.54305000" lon="70.04640000">
	<ele>1805.71</ele>
	</trkpt>
<trkpt lat="41.54305000" lon="70.04642000">
	<ele>1805.35</ele>
	</trkpt>
<trkpt lat="41.54300700" lon="70.04645500">
	<ele>1803.46</ele>
	</trkpt>
<trkpt lat="41.54298800" lon="70.04642500">
	<ele>1802.67</ele>
	</trkpt>
<trkpt lat="41.54296500" lon="70.04642500">
	<ele>1802.17</ele>
	</trkpt>
<trkpt lat="41.54294000" lon="70.04645500">
	<ele>1801.52</ele>
	</trkpt>
<trkpt lat="41.54291000" lon="70.04646000">
	<ele>1800.81</ele>
	</trkpt>
<trkpt lat="41.54290000" lon="70.04651000">
	<ele>1800.80</ele>
	</trkpt>
<trkpt lat="41.54280000" lon="70.04659000">
	<ele>1799.57</ele>
	</trkpt>
<trkpt lat="41.54280500" lon="70.04663000">
	<ele>1798.42</ele>
	</trkpt>
<trkpt lat="41.54281600" lon="70.04664600">
	<ele>1798.24</ele>
	</trkpt>
<trkpt lat="41.54284700" lon="70.04664000">
	<ele>1796.11</ele>
	</trkpt>
<trkpt lat="41.54287700" lon="70.04667000">
	<ele>1795.67</ele>
	</trkpt>
<trkpt lat="41.54296500" lon="70.04665000">
	<ele>1792.20</ele>
	</trkpt>
<trkpt lat="41.54303700" lon="70.04679000">
	<ele>1789.56</ele>
	</trkpt>
<trkpt lat="41.54302000" lon="70.04686000">
	<ele>1787.93</ele>
	</trkpt>
<trkpt lat="41.54303000" lon="70.04689000">
	<ele>1786.77</ele>
	</trkpt>
<trkpt lat="41.54308700" lon="70.04688000">
	<ele>1784.37</ele>
	</trkpt>
<trkpt lat="41.54312000" lon="70.04691000">
	<ele>1783.53</ele>
	</trkpt>
<trkpt lat="41.54312500" lon="70.04697400">
	<ele>1780.00</ele>
	</trkpt>
<trkpt lat="41.54315600" lon="70.04702000">
	<ele>1777.96</ele>
	</trkpt>
<trkpt lat="41.54313300" lon="70.04706600">
	<ele>1775.95</ele>
	</trkpt>
<trkpt lat="41.54311400" lon="70.04706600">
	<ele>1775.02</ele>
	</trkpt>
<trkpt lat="41.54311800" lon="70.04713000">
	<ele>1772.77</ele>
	</trkpt>
<trkpt lat="41.54314800" lon="70.04713000">
	<ele>1771.41</ele>
	</trkpt>
<trkpt lat="41.54315000" lon="70.04726000">
	<ele>1769.06</ele>
	</trkpt>
<trkpt lat="41.54316700" lon="70.04729000">
	<ele>1768.23</ele>
	</trkpt>
<trkpt lat="41.54321700" lon="70.04731000">
	<ele>1765.78</ele>
	</trkpt>
<trkpt lat="41.54325500" lon="70.04725000">
	<ele>1764.90</ele>
	</trkpt>
<trkpt lat="41.54332000" lon="70.04726000">
	<ele>1762.37</ele>
	</trkpt>
<trkpt lat="41.54333000" lon="70.04723000">
	<ele>1761.63</ele>
	</trkpt>
<trkpt lat="41.54337300" lon="70.04722600">
	<ele>1759.35</ele>
	</trkpt>
<trkpt lat="41.54339200" lon="70.04720000">
	<ele>1758.51</ele>
	</trkpt>
<trkpt lat="41.54343000" lon="70.04726400">
	<ele>1756.29</ele>
	</trkpt>
<trkpt lat="41.54342300" lon="70.04731000">
	<ele>1755.10</ele>
	</trkpt>
<trkpt lat="41.54345300" lon="70.04732500">
	<ele>1752.00</ele>
	</trkpt>
<trkpt lat="41.54347200" lon="70.04746000">
	<ele>1749.47</ele>
	</trkpt>
<trkpt lat="41.54353700" lon="70.04749000">
	<ele>1746.83</ele>
	</trkpt>
<trkpt lat="41.54354500" lon="70.04753000">
	<ele>1746.26</ele>
	</trkpt>
<trkpt lat="41.54358700" lon="70.04751600">
	<ele>1745.47</ele>
	</trkpt>
<trkpt lat="41.54364400" lon="70.04754000">
	<ele>1743.66</ele>
	</trkpt>
<trkpt lat="41.54363000" lon="70.04765000">
	<ele>1741.00</ele>
	</trkpt>
<trkpt lat="41.54359000" lon="70.04771400">
	<ele>1740.32</ele>
	</trkpt>
<trkpt lat="41.54351800" lon="70.04803000">
	<ele>1739.21</ele>
	</trkpt>
<trkpt lat="41.54353300" lon="70.04813000">
	<ele>1738.02</ele>
	</trkpt>
<trkpt lat="41.54357500" lon="70.04818000">
	<ele>1737.87</ele>
	</trkpt>
<trkpt lat="41.54359400" lon="70.04817000">
	<ele>1737.77</ele>
	</trkpt>
<trkpt lat="41.54361000" lon="70.04823000">
	<ele>1737.56</ele>
	</trkpt>
<trkpt lat="41.54360200" lon="70.04825600">
	<ele>1737.51</ele>
	</trkpt>
<trkpt lat="41.54357000" lon="70.04832000">
	<ele>1736.55</ele>
	</trkpt>
<trkpt lat="41.54353300" lon="70.04834000">
	<ele>1735.67</ele>
	</trkpt>
<trkpt lat="41.54352000" lon="70.04841000">
	<ele>1732.71</ele>
	</trkpt>
<trkpt lat="41.54349000" lon="70.04841600">
	<ele>1731.20</ele>
	</trkpt>
<trkpt lat="41.54348400" lon="70.04845000">
	<ele>1730.48</ele>
	</trkpt>
<trkpt lat="41.54338500" lon="70.04849000">
	<ele>1726.57</ele>
	</trkpt>
<trkpt lat="41.54330000" lon="70.04865000">
	<ele>1723.69</ele>
	</trkpt>
<trkpt lat="41.54327800" lon="70.04874400">
	<ele>1721.88</ele>
	</trkpt>
<trkpt lat="41.54320000" lon="70.04884000">
	<ele>1721.08</ele>
	</trkpt>
<trkpt lat="41.54319000" lon="70.04888000">
	<ele>1720.56</ele>
	</trkpt>
<trkpt lat="41.54321000" lon="70.04899600">
	<ele>1719.90</ele>
	</trkpt>
<trkpt lat="41.54321700" lon="70.04928000">
	<ele>1718.35</ele>
	</trkpt>
<trkpt lat="41.54315600" lon="70.04943000">
	<ele>1716.07</ele>
	</trkpt>
<trkpt lat="41.54310200" lon="70.04950000">
	<ele>1714.96</ele>
	</trkpt>
<trkpt lat="41.54303700" lon="70.04953000">
	<ele>1713.15</ele>
	</trkpt>
<trkpt lat="41.54294200" lon="70.04961400">
	<ele>1711.02</ele>
	</trkpt>
<trkpt lat="41.54293000" lon="70.04967500">
	<ele>1710.64</ele>
	</trkpt>
<trkpt lat="41.54290000" lon="70.04971000">
	<ele>1710.03</ele>
	</trkpt>
<trkpt lat="41.54286000" lon="70.04983000">
	<ele>1705.59</ele>
	</trkpt>
<trkpt lat="41.54278000" lon="70.04986600">
	<ele>1704.44</ele>
	</trkpt>
<trkpt lat="41.54278000" lon="70.04996000">
	<ele>1701.65</ele>
	</trkpt>
<trkpt lat="41.54272000" lon="70.04999000">
	<ele>1700.11</ele>
	</trkpt>
<trkpt lat="41.54270000" lon="70.04998000">
	<ele>1700.12</ele>
	</trkpt>
<trkpt lat="41.54266700" lon="70.05002600">
	<ele>1696.28</ele>
	</trkpt>
<trkpt lat="41.54267000" lon="70.05007000">
	<ele>1693.94</ele>
	</trkpt>
<trkpt lat="41.54264000" lon="70.05008000">
	<ele>1690.40</ele>
	</trkpt>
<trkpt lat="41.54263000" lon="70.05012500">
	<ele>1688.64</ele>
	</trkpt>
<trkpt lat="41.54258700" lon="70.05014000">
	<ele>1685.88</ele>
	</trkpt>
<trkpt lat="41.54257200" lon="70.05018600">
	<ele>1683.18</ele>
	</trkpt>
<trkpt lat="41.54252600" lon="70.05019000">
	<ele>1681.01</ele>
	</trkpt>
<trkpt lat="41.54247700" lon="70.05023000">
	<ele>1678.35</ele>
	</trkpt>
<trkpt lat="41.54246500" lon="70.05027000">
	<ele>1678.40</ele>
	</trkpt>
<trkpt lat="41.54247700" lon="70.05034000">
	<ele>1674.60</ele>
	</trkpt>
<trkpt lat="41.54242700" lon="70.05041000">
	<ele>1674.06</ele>
	</trkpt>
<trkpt lat="41.54239300" lon="70.05044600">
	<ele>1673.68</ele>
	</trkpt>
<trkpt lat="41.54234300" lon="70.05044600">
	<ele>1672.12</ele>
	</trkpt>
<trkpt lat="41.54228600" lon="70.05048000">
	<ele>1669.62</ele>
	</trkpt>
<trkpt lat="41.54222500" lon="70.05048000">
	<ele>1666.74</ele>
	</trkpt>
<trkpt lat="41.54215200" lon="70.05056000">
	<ele>1665.74</ele>
	</trkpt>
<trkpt lat="41.54210300" lon="70.05066000">
	<ele>1663.51</ele>
	</trkpt>
<trkpt lat="41.54206000" lon="70.05068000">
	<ele>1662.43</ele>
	</trkpt>
<trkpt lat="41.54204600" lon="70.05075000">
	<ele>1660.71</ele>
	</trkpt>
<trkpt lat="41.54202300" lon="70.05077000">
	<ele>1658.93</ele>
	</trkpt>
<trkpt lat="41.54197700" lon="70.05088000">
	<ele>1655.28</ele>
	</trkpt>
<trkpt lat="41.54193000" lon="70.05090000">
	<ele>1652.57</ele>
	</trkpt>
<trkpt lat="41.54195000" lon="70.05099500">
	<ele>1652.20</ele>
	</trkpt>
<trkpt lat="41.54194600" lon="70.05107000">
	<ele>1650.59</ele>
	</trkpt>
<trkpt lat="41.54186600" lon="70.05117000">
	<ele>1649.11</ele>
	</trkpt>
<trkpt lat="41.54185000" lon="70.05121600">
	<ele>1648.66</ele>
	</trkpt>
<trkpt lat="41.54185500" lon="70.05134000">
	<ele>1647.86</ele>
	</trkpt>
<trkpt lat="41.54182400" lon="70.05140000">
	<ele>1647.43</ele>
	</trkpt>
<trkpt lat="41.54180000" lon="70.05150600">
	<ele>1645.70</ele>
	</trkpt>
<trkpt lat="41.54179800" lon="70.05159000">
	<ele>1644.17</ele>
	</trkpt>
<trkpt lat="41.54175000" lon="70.05173000">
	<ele>1641.79</ele>
	</trkpt>
<trkpt lat="41.54171400" lon="70.05192600">
	<ele>1639.80</ele>
	</trkpt>
<trkpt lat="41.54171400" lon="70.05205000">
	<ele>1638.22</ele>
	</trkpt>
<trkpt lat="41.54169500" lon="70.05208600">
	<ele>1637.38</ele>
	</trkpt>
<trkpt lat="41.54167000" lon="70.05208600">
	<ele>1636.80</ele>
	</trkpt>
<trkpt lat="41.54166000" lon="70.05215500">
	<ele>1636.24</ele>
	</trkpt>
<trkpt lat="41.54162600" lon="70.05221600">
	<ele>1635.44</ele>
	</trkpt>
<trkpt lat="41.54155000" lon="70.05228000">
	<ele>1633.88</ele>
	</trkpt>
<trkpt lat="41.54151000" lon="70.05228400">
	<ele>1633.24</ele>
	</trkpt>
<trkpt lat="41.54149600" lon="70.05231000">
	<ele>1632.88</ele>
	</trkpt>
<trkpt lat="41.54139300" lon="70.05238000">
	<ele>1630.74</ele>
	</trkpt>
<trkpt lat="41.54133600" lon="70.05250000">
	<ele>1629.87</ele>
	</trkpt>
<trkpt lat="41.54123300" lon="70.05261000">
	<ele>1628.19</ele>
	</trkpt>
<trkpt lat="41.54120300" lon="70.05268000">
	<ele>1627.60</ele>
	</trkpt>
<trkpt lat="41.54113000" lon="70.05277000">
	<ele>1626.14</ele>
	</trkpt>
<trkpt lat="41.54107300" lon="70.05292000">
	<ele>1623.33</ele>
	</trkpt>
<trkpt lat="41.54100800" lon="70.05299000">
	<ele>1621.48</ele>
	</trkpt>
<trkpt lat="41.54097700" lon="70.05315400">
	<ele>1619.11</ele>
	</trkpt>
<trkpt lat="41.54090500" lon="70.05325000">
	<ele>1616.69</ele>
	</trkpt>
<trkpt lat="41.54088200" lon="70.05333000">
	<ele>1614.05</ele>
	</trkpt>
<trkpt lat="41.54083000" lon="70.05339000">
	<ele>1612.62</ele>
	</trkpt>
<trkpt lat="41.54076000" lon="70.05360000">
	<ele>1605.96</ele>
	</trkpt>
<trkpt lat="41.54071400" lon="70.05366000">
	<ele>1604.49</ele>
	</trkpt>
<trkpt lat="41.54062700" lon="70.05368000">
	<ele>1601.42</ele>
	</trkpt>
<trkpt lat="41.54063800" lon="70.05376400">
	<ele>1599.57</ele>
	</trkpt>
<trkpt lat="41.54062000" lon="70.05379000">
	<ele>1598.92</ele>
	</trkpt>
<trkpt lat="41.54059600" lon="70.05379000">
	<ele>1597.42</ele>
	</trkpt>
<trkpt lat="41.54056000" lon="70.05384000">
	<ele>1596.01</ele>
	</trkpt>
<trkpt lat="41.54051600" lon="70.05386000">
	<ele>1593.64</ele>
	</trkpt>
<trkpt lat="41.54043200" lon="70.05398000">
	<ele>1592.78</ele>
	</trkpt>
<trkpt lat="41.54038600" lon="70.05401600">
	<ele>1592.51</ele>
	</trkpt>
<trkpt lat="41.54033300" lon="70.05414000">
	<ele>1590.75</ele>
	</trkpt>
<trkpt lat="41.54027600" lon="70.05418000">
	<ele>1590.13</ele>
	</trkpt>
<trkpt lat="41.54026000" lon="70.05430600">
	<ele>1589.07</ele>
	</trkpt>
<trkpt lat="41.54021000" lon="70.05438000">
	<ele>1587.66</ele>
	</trkpt>
<trkpt lat="41.54017600" lon="70.05453500">
	<ele>1585.23</ele>
	</trkpt>
<trkpt lat="41.54014600" lon="70.05459000">
	<ele>1583.65</ele>
	</trkpt>
<trkpt lat="41.54014600" lon="70.05466500">
	<ele>1581.91</ele>
	</trkpt>
<trkpt lat="41.54013000" lon="70.05467000">
	<ele>1581.18</ele>
	</trkpt>
<trkpt lat="41.54010800" lon="70.05475000">
	<ele>1579.07</ele>
	</trkpt>
<trkpt lat="41.54006000" lon="70.05476000">
	<ele>1578.66</ele>
	</trkpt>
<trkpt lat="41.54003000" lon="70.05479000">
	<ele>1578.40</ele>
	</trkpt>
<trkpt lat="41.54005000" lon="70.05493000">
	<ele>1574.35</ele>
	</trkpt>
<trkpt lat="41.54002800" lon="70.05498000">
	<ele>1573.53</ele>
	</trkpt>
<trkpt lat="41.53996300" lon="70.05504600">
	<ele>1572.48</ele>
	</trkpt>
<trkpt lat="41.53992000" lon="70.05518000">
	<ele>1571.53</ele>
	</trkpt>
<trkpt lat="41.53991700" lon="70.05529000">
	<ele>1569.08</ele>
	</trkpt>
<trkpt lat="41.53993000" lon="70.05532000">
	<ele>1568.91</ele>
	</trkpt>
<trkpt lat="41.53992000" lon="70.05540000">
	<ele>1566.91</ele>
	</trkpt>
<trkpt lat="41.53993600" lon="70.05550000">
	<ele>1564.70</ele>
	</trkpt>
<trkpt lat="41.53992500" lon="70.05553000">
	<ele>1563.20</ele>
	</trkpt>
<trkpt lat="41.53995000" lon="70.05558000">
	<ele>1561.02</ele>
	</trkpt>
<trkpt lat="41.53989000" lon="70.05581000">
	<ele>1557.32</ele>
	</trkpt>
<trkpt lat="41.53985200" lon="70.05585000">
	<ele>1555.99</ele>
	</trkpt>
<trkpt lat="41.53977000" lon="70.05589000">
	<ele>1554.48</ele>
	</trkpt>
<trkpt lat="41.53972200" lon="70.05595000">
	<ele>1552.20</ele>
	</trkpt>
<trkpt lat="41.53965400" lon="70.05595400">
	<ele>1551.04</ele>
	</trkpt>
<trkpt lat="41.53954300" lon="70.05604600">
	<ele>1546.60</ele>
	</trkpt>
<trkpt lat="41.53937500" lon="70.05612000">
	<ele>1543.32</ele>
	</trkpt>
<trkpt lat="41.53935600" lon="70.05615000">
	<ele>1542.71</ele>
	</trkpt>
<trkpt lat="41.53938300" lon="70.05616000">
	<ele>1541.82</ele>
	</trkpt>
<trkpt lat="41.53936800" lon="70.05619000">
	<ele>1541.70</ele>
	</trkpt>
<trkpt lat="41.53937000" lon="70.05624000">
	<ele>1541.43</ele>
	</trkpt>
<trkpt lat="41.53935000" lon="70.05627000">
	<ele>1541.20</ele>
	</trkpt>
<trkpt lat="41.53928400" lon="70.05633500">
	<ele>1540.18</ele>
	</trkpt>
<trkpt lat="41.53922000" lon="70.05634000">
	<ele>1538.52</ele>
	</trkpt>
<trkpt lat="41.53920400" lon="70.05640000">
	<ele>1537.97</ele>
	</trkpt>
<trkpt lat="41.53907800" lon="70.05652600">
	<ele>1535.42</ele>
	</trkpt>
<trkpt lat="41.53903600" lon="70.05654000">
	<ele>1534.90</ele>
	</trkpt>
<trkpt lat="41.53899400" lon="70.05660000">
	<ele>1534.30</ele>
	</trkpt>
<trkpt lat="41.53894000" lon="70.05662000">
	<ele>1532.83</ele>
	</trkpt>
<trkpt lat="41.53886800" lon="70.05672000">
	<ele>1531.48</ele>
	</trkpt>
<trkpt lat="41.53884000" lon="70.05673000">
	<ele>1531.10</ele>
	</trkpt>
<trkpt lat="41.53880300" lon="70.05678600">
	<ele>1529.88</ele>
	</trkpt>
<trkpt lat="41.53877600" lon="70.05679000">
	<ele>1529.41</ele>
	</trkpt>
<trkpt lat="41.53868500" lon="70.05690000">
	<ele>1527.89</ele>
	</trkpt>
<trkpt lat="41.53855000" lon="70.05713000">
	<ele>1525.31</ele>
	</trkpt>
<trkpt lat="41.53854800" lon="70.05737000">
	<ele>1524.46</ele>
	</trkpt>
<trkpt lat="41.53853000" lon="70.05747000">
	<ele>1523.33</ele>
	</trkpt>
<trkpt lat="41.53853000" lon="70.05760000">
	<ele>1522.19</ele>
	</trkpt>
<trkpt lat="41.53851000" lon="70.05766000">
	<ele>1521.41</ele>
	</trkpt>
<trkpt lat="41.53851700" lon="70.05778000">
	<ele>1519.87</ele>
	</trkpt>
<trkpt lat="41.53848600" lon="70.05782000">
	<ele>1518.92</ele>
	</trkpt>
<trkpt lat="41.53840300" lon="70.05807500">
	<ele>1514.80</ele>
	</trkpt>
<trkpt lat="41.53837000" lon="70.05813000">
	<ele>1513.91</ele>
	</trkpt>
<trkpt lat="41.53829600" lon="70.05818000">
	<ele>1512.76</ele>
	</trkpt>
<trkpt lat="41.53825400" lon="70.05833000">
	<ele>1511.66</ele>
	</trkpt>
<trkpt lat="41.53815000" lon="70.05845000">
	<ele>1510.77</ele>
	</trkpt>
<trkpt lat="41.53810000" lon="70.05854000">
	<ele>1510.38</ele>
	</trkpt>
<trkpt lat="41.53809400" lon="70.05865000">
	<ele>1509.85</ele>
	</trkpt>
<trkpt lat="41.53814700" lon="70.05881500">
	<ele>1507.64</ele>
	</trkpt>
<trkpt lat="41.53814300" lon="70.05890000">
	<ele>1506.82</ele>
	</trkpt>
<trkpt lat="41.53810000" lon="70.05898000">
	<ele>1505.44</ele>
	</trkpt>
<trkpt lat="41.53811600" lon="70.05900600">
	<ele>1505.54</ele>
	</trkpt>
<trkpt lat="41.53813000" lon="70.05913500">
	<ele>1505.27</ele>
	</trkpt>
<trkpt lat="41.53821000" lon="70.05920000">
	<ele>1503.22</ele>
	</trkpt>
<trkpt lat="41.53819300" lon="70.05932000">
	<ele>1502.25</ele>
	</trkpt>
<trkpt lat="41.53821000" lon="70.05932600">
	<ele>1501.41</ele>
	</trkpt>
<trkpt lat="41.53822000" lon="70.05936000">
	<ele>1501.20</ele>
	</trkpt>
<trkpt lat="41.53822000" lon="70.05945600">
	<ele>1500.78</ele>
	</trkpt>
<trkpt lat="41.53820400" lon="70.05950000">
	<ele>1500.36</ele>
	</trkpt>
<trkpt lat="41.53817000" lon="70.05952500">
	<ele>1500.11</ele>
	</trkpt>
<trkpt lat="41.53816000" lon="70.05957000">
	<ele>1499.68</ele>
	</trkpt>
<trkpt lat="41.53819700" lon="70.05969000">
	<ele>1497.90</ele>
	</trkpt>
<trkpt lat="41.53819300" lon="70.05992000">
	<ele>1494.70</ele>
	</trkpt>
<trkpt lat="41.53820400" lon="70.05994400">
	<ele>1494.63</ele>
	</trkpt>
<trkpt lat="41.53826000" lon="70.05994000">
	<ele>1493.38</ele>
	</trkpt>
<trkpt lat="41.53828000" lon="70.05997500">
	<ele>1493.29</ele>
	</trkpt>
<trkpt lat="41.53830000" lon="70.05994400">
	<ele>1493.34</ele>
	</trkpt>
<trkpt lat="41.53832600" lon="70.05996000">
	<ele>1493.60</ele>
	</trkpt>
<trkpt lat="41.53833000" lon="70.06009000">
	<ele>1493.87</ele>
	</trkpt>
<trkpt lat="41.53830300" lon="70.06013500">
	<ele>1491.98</ele>
	</trkpt>
<trkpt lat="41.53840000" lon="70.06025000">
	<ele>1490.83</ele>
	</trkpt>
<trkpt lat="41.53839000" lon="70.06027000">
	<ele>1490.72</ele>
	</trkpt>
<trkpt lat="41.53843700" lon="70.06039000">
	<ele>1489.92</ele>
	</trkpt>
<trkpt lat="41.53843300" lon="70.06046000">
	<ele>1489.57</ele>
	</trkpt>
<trkpt lat="41.53847000" lon="70.06055500">
	<ele>1488.50</ele>
	</trkpt>
<trkpt lat="41.53846000" lon="70.06058500">
	<ele>1488.21</ele>
	</trkpt>
<trkpt lat="41.53846700" lon="70.06067000">
	<ele>1487.24</ele>
	</trkpt>
<trkpt lat="41.53843700" lon="70.06074000">
	<ele>1486.54</ele>
	</trkpt>
<trkpt lat="41.53853200" lon="70.06073000">
	<ele>1485.96</ele>
	</trkpt>
<trkpt lat="41.53858000" lon="70.06079000">
	<ele>1484.78</ele>
	</trkpt>
<trkpt lat="41.53858000" lon="70.06084000">
	<ele>1484.35</ele>
	</trkpt>
<trkpt lat="41.53862000" lon="70.06092000">
	<ele>1482.87</ele>
	</trkpt>
<trkpt lat="41.53861600" lon="70.06103500">
	<ele>1481.72</ele>
	</trkpt>
<trkpt lat="41.53863500" lon="70.06106000">
	<ele>1481.14</ele>
	</trkpt>
<trkpt lat="41.53863000" lon="70.06109000">
	<ele>1480.82</ele>
	</trkpt>
<trkpt lat="41.53861600" lon="70.06110400">
	<ele>1479.53</ele>
	</trkpt>
<trkpt lat="41.53861600" lon="70.06109000">
	<ele>1479.26</ele>
	</trkpt>
<trkpt lat="41.53858000" lon="70.06109000">
	<ele>1479.10</ele>
	</trkpt>
<trkpt lat="41.53857400" lon="70.06107000">
	<ele>1479.08</ele>
	</trkpt>
<trkpt lat="41.53856300" lon="70.06108000">
	<ele>1479.13</ele>
	</trkpt>
<trkpt lat="41.53859000" lon="70.06115000">
	<ele>1478.62</ele>
	</trkpt>
<trkpt lat="41.53858000" lon="70.06122000">
	<ele>1477.75</ele>
	</trkpt>
<trkpt lat="41.53860000" lon="70.06126000">
	<ele>1477.45</ele>
	</trkpt>
<trkpt lat="41.53864000" lon="70.06126400">
	<ele>1477.41</ele>
	</trkpt>
<trkpt lat="41.53866000" lon="70.06130000">
	<ele>1477.67</ele>
	</trkpt>
<trkpt lat="41.53866000" lon="70.06137000">
	<ele>1477.32</ele>
	</trkpt>
<trkpt lat="41.53863000" lon="70.06143000">
	<ele>1475.70</ele>
	</trkpt>
<trkpt lat="41.53858000" lon="70.06143000">
	<ele>1474.54</ele>
	</trkpt>
<trkpt lat="41.53853200" lon="70.06152000">
	<ele>1476.00</ele>
	</trkpt>
<trkpt lat="41.53853000" lon="70.06165000">
	<ele>1475.99</ele>
	</trkpt>
<trkpt lat="41.53856300" lon="70.06168000">
	<ele>1473.84</ele>
	</trkpt>
<trkpt lat="41.53858600" lon="70.06174500">
	<ele>1472.64</ele>
	</trkpt>
<trkpt lat="41.53865400" lon="70.06185000">
	<ele>1471.29</ele>
	</trkpt>
<trkpt lat="41.53866200" lon="70.06200000">
	<ele>1470.65</ele>
	</trkpt>
<trkpt lat="41.53870400" lon="70.06207000">
	<ele>1469.42</ele>
	</trkpt>
<trkpt lat="41.53869200" lon="70.06216400">
	<ele>1466.74</ele>
	</trkpt>
<trkpt lat="41.53870400" lon="70.06217000">
	<ele>1466.97</ele>
	</trkpt>
<trkpt lat="41.53871000" lon="70.06223000">
	<ele>1467.27</ele>
	</trkpt>
<trkpt lat="41.53874600" lon="70.06225600">
	<ele>1467.11</ele>
	</trkpt>
<trkpt lat="41.53877000" lon="70.06225600">
	<ele>1466.51</ele>
	</trkpt>
<trkpt lat="41.53877300" lon="70.06224000">
	<ele>1466.22</ele>
	</trkpt>
<trkpt lat="41.53882200" lon="70.06225600">
	<ele>1465.85</ele>
	</trkpt>
<trkpt lat="41.53883580" lon="70.06228125">
	<ele>1466.36</ele>
	</trkpt>
<trkpt lat="41.53884000" lon="70.06222500">
	<ele>1466.81</ele>
	</trkpt>
<trkpt lat="41.53882200" lon="70.06218000">
	<ele>1466.97</ele>
	</trkpt>
<trkpt lat="41.53873400" lon="70.06218000">
	<ele>1468.06</ele>
	</trkpt>
<trkpt lat="41.53871000" lon="70.06209600">
	<ele>1468.45</ele>
	</trkpt>
<trkpt lat="41.53874000" lon="70.06207000">
	<ele>1468.11</ele>
	</trkpt>
<trkpt lat="41.53874600" lon="70.06203500">
	<ele>1468.33</ele>
	</trkpt>
<trkpt lat="41.53871000" lon="70.06195000">
	<ele>1469.41</ele>
	</trkpt>
<trkpt lat="41.53870000" lon="70.06185000">
	<ele>1471.32</ele>
	</trkpt>
<trkpt lat="41.53867700" lon="70.06183000">
	<ele>1472.61</ele>
	</trkpt>
<trkpt lat="41.53864000" lon="70.06174500">
	<ele>1472.74</ele>
	</trkpt>
<trkpt lat="41.53860000" lon="70.06172000">
	<ele>1472.07</ele>
	</trkpt>
<trkpt lat="41.53859000" lon="70.06164000">
	<ele>1472.36</ele>
	</trkpt>
<trkpt lat="41.53854000" lon="70.06161000">
	<ele>1474.59</ele>
	</trkpt>
<trkpt lat="41.53853600" lon="70.06155000">
	<ele>1476.19</ele>
	</trkpt>
<trkpt lat="41.53855500" lon="70.06148000">
	<ele>1476.95</ele>
	</trkpt>
<trkpt lat="41.53855500" lon="70.06146000">
	<ele>1477.24</ele>
	</trkpt>
<trkpt lat="41.53853600" lon="70.06145000">
	<ele>1478.27</ele>
	</trkpt>
<trkpt lat="41.53855000" lon="70.06129500">
	<ele>1480.65</ele>
	</trkpt>
<trkpt lat="41.53854800" lon="70.06127000">
	<ele>1480.85</ele>
	</trkpt>
<trkpt lat="41.53851300" lon="70.06125000">
	<ele>1481.74</ele>
	</trkpt>
<trkpt lat="41.53853200" lon="70.06121000">
	<ele>1481.92</ele>
	</trkpt>
<trkpt lat="41.53851700" lon="70.06113000">
	<ele>1482.74</ele>
	</trkpt>
<trkpt lat="41.53852000" lon="70.06104000">
	<ele>1482.73</ele>
	</trkpt>
<trkpt lat="41.53851000" lon="70.06102000">
	<ele>1482.58</ele>
	</trkpt>
<trkpt lat="41.53847500" lon="70.06102000">
	<ele>1482.70</ele>
	</trkpt>
<trkpt lat="41.53843300" lon="70.06090500">
	<ele>1483.21</ele>
	</trkpt>
<trkpt lat="41.53837200" lon="70.06081400">
	<ele>1484.51</ele>
	</trkpt>
<trkpt lat="41.53834000" lon="70.06081000">
	<ele>1485.76</ele>
	</trkpt>
<trkpt lat="41.53832000" lon="70.06074500">
	<ele>1486.48</ele>
	</trkpt>
<trkpt lat="41.53831000" lon="70.06074000">
	<ele>1486.64</ele>
	</trkpt>
<trkpt lat="41.53830000" lon="70.06077000">
	<ele>1486.96</ele>
	</trkpt>
<trkpt lat="41.53827300" lon="70.06060000">
	<ele>1487.68</ele>
	</trkpt>
<trkpt lat="41.53827700" lon="70.06052400">
	<ele>1488.61</ele>
	</trkpt>
<trkpt lat="41.53825800" lon="70.06045500">
	<ele>1490.07</ele>
	</trkpt>
<trkpt lat="41.53818000" lon="70.06037000">
	<ele>1492.45</ele>
	</trkpt>
<trkpt lat="41.53818000" lon="70.06030000">
	<ele>1492.73</ele>
	</trkpt>
<trkpt lat="41.53819300" lon="70.06028000">
	<ele>1492.66</ele>
	</trkpt>
<trkpt lat="41.53818500" lon="70.06023400">
	<ele>1491.79</ele>
	</trkpt>
<trkpt lat="41.53811000" lon="70.06018000">
	<ele>1493.09</ele>
	</trkpt>
<trkpt lat="41.53809000" lon="70.06019600">
	<ele>1493.72</ele>
	</trkpt>
<trkpt lat="41.53799000" lon="70.06016000">
	<ele>1495.37</ele>
	</trkpt>
<trkpt lat="41.53800200" lon="70.06013500">
	<ele>1496.02</ele>
	</trkpt>
<trkpt lat="41.53799000" lon="70.06008000">
	<ele>1498.48</ele>
	</trkpt>
<trkpt lat="41.53797000" lon="70.06003600">
	<ele>1497.84</ele>
	</trkpt>
<trkpt lat="41.53792600" lon="70.06000000">
	<ele>1497.81</ele>
	</trkpt>
<trkpt lat="41.53790300" lon="70.05993000">
	<ele>1498.38</ele>
	</trkpt>
<trkpt lat="41.53775000" lon="70.05988000">
	<ele>1500.57</ele>
	</trkpt>
<trkpt lat="41.53771200" lon="70.05984000">
	<ele>1501.24</ele>
	</trkpt>
<trkpt lat="41.53772000" lon="70.05981000">
	<ele>1502.24</ele>
	</trkpt>
<trkpt lat="41.53760500" lon="70.05978000">
	<ele>1507.56</ele>
	</trkpt>
<trkpt lat="41.53756000" lon="70.05969000">
	<ele>1508.44</ele>
	</trkpt>
<trkpt lat="41.53741000" lon="70.05962000">
	<ele>1510.79</ele>
	</trkpt>
<trkpt lat="41.53734000" lon="70.05965000">
	<ele>1511.77</ele>
	</trkpt>
<trkpt lat="41.53721200" lon="70.05964000">
	<ele>1513.47</ele>
	</trkpt>
<trkpt lat="41.53712000" lon="70.05967000">
	<ele>1515.42</ele>
	</trkpt>
<trkpt lat="41.53706700" lon="70.05962000">
	<ele>1516.89</ele>
	</trkpt>
<trkpt lat="41.53702000" lon="70.05962000">
	<ele>1518.16</ele>
	</trkpt>
<trkpt lat="41.53699500" lon="70.05965000">
	<ele>1518.24</ele>
	</trkpt>
<trkpt lat="41.53700300" lon="70.05974000">
	<ele>1516.95</ele>
	</trkpt>
<trkpt lat="41.53692000" lon="70.05973000">
	<ele>1516.90</ele>
	</trkpt>
<trkpt lat="41.53689200" lon="70.05975000">
	<ele>1517.18</ele>
	</trkpt>
<trkpt lat="41.53687300" lon="70.05979000">
	<ele>1516.42</ele>
	</trkpt>
<trkpt lat="41.53688400" lon="70.05987000">
	<ele>1516.76</ele>
	</trkpt>
<trkpt lat="41.53684200" lon="70.05987000">
	<ele>1517.32</ele>
	</trkpt>
<trkpt lat="41.53684000" lon="70.05989000">
	<ele>1517.62</ele>
	</trkpt>
<trkpt lat="41.53674300" lon="70.05987000">
	<ele>1521.79</ele>
	</trkpt>
<trkpt lat="41.53674300" lon="70.05994000">
	<ele>1523.83</ele>
	</trkpt>
<trkpt lat="41.53666000" lon="70.06002000">
	<ele>1527.66</ele>
	</trkpt>
<trkpt lat="41.53666300" lon="70.06004000">
	<ele>1528.57</ele>
	</trkpt>
<trkpt lat="41.53672800" lon="70.06006000">
	<ele>1530.09</ele>
	</trkpt>
<trkpt lat="41.53678000" lon="70.06012000">
	<ele>1531.48</ele>
	</trkpt>
<trkpt lat="41.53686500" lon="70.06014000">
	<ele>1534.35</ele>
	</trkpt>
<trkpt lat="41.53688400" lon="70.06017000">
	<ele>1535.43</ele>
	</trkpt>
<trkpt lat="41.53688000" lon="70.06020000">
	<ele>1535.92</ele>
	</trkpt>
<trkpt lat="41.53691000" lon="70.06024000">
	<ele>1537.31</ele>
	</trkpt>
<trkpt lat="41.53692200" lon="70.06031000">
	<ele>1539.01</ele>
	</trkpt>
<trkpt lat="41.53695300" lon="70.06036000">
	<ele>1539.81</ele>
	</trkpt>
<trkpt lat="41.53695300" lon="70.06038000">
	<ele>1540.00</ele>
	</trkpt>
<trkpt lat="41.53689600" lon="70.06037000">
	<ele>1540.65</ele>
	</trkpt>
<trkpt lat="41.53689200" lon="70.06048000">
	<ele>1543.27</ele>
	</trkpt>
<trkpt lat="41.53685400" lon="70.06045500">
	<ele>1544.32</ele>
	</trkpt>
<trkpt lat="41.53676600" lon="70.06046000">
	<ele>1548.02</ele>
	</trkpt>
<trkpt lat="41.53676600" lon="70.06048000">
	<ele>1548.10</ele>
	</trkpt>
<trkpt lat="41.53685000" lon="70.06073000">
	<ele>1556.87</ele>
	</trkpt>
<trkpt lat="41.53683500" lon="70.06081000">
	<ele>1559.65</ele>
	</trkpt>
<trkpt lat="41.53689200" lon="70.06084400">
	<ele>1561.94</ele>
	</trkpt>
<trkpt lat="41.53690300" lon="70.06087000">
	<ele>1562.61</ele>
	</trkpt>
<trkpt lat="41.53695700" lon="70.06088000">
	<ele>1563.60</ele>
	</trkpt>
<trkpt lat="41.53696000" lon="70.06096000">
	<ele>1565.00</ele>
	</trkpt>
<trkpt lat="41.53699000" lon="70.06103000">
	<ele>1567.43</ele>
	</trkpt>
<trkpt lat="41.53701400" lon="70.06103500">
	<ele>1569.07</ele>
	</trkpt>
<trkpt lat="41.53701800" lon="70.06113000">
	<ele>1573.01</ele>
	</trkpt>
<trkpt lat="41.53696400" lon="70.06113400">
	<ele>1573.51</ele>
	</trkpt>
<trkpt lat="41.53694000" lon="70.06110400">
	<ele>1573.26</ele>
	</trkpt>
<trkpt lat="41.53689000" lon="70.06109000">
	<ele>1573.58</ele>
	</trkpt>
<trkpt lat="41.53683000" lon="70.06113400">
	<ele>1576.02</ele>
	</trkpt>
<trkpt lat="41.53673600" lon="70.06106000">
	<ele>1579.26</ele>
	</trkpt>
<trkpt lat="41.53671000" lon="70.06106000">
	<ele>1580.49</ele>
	</trkpt>
<trkpt lat="41.53667000" lon="70.06111000">
	<ele>1582.82</ele>
	</trkpt>
<trkpt lat="41.53662000" lon="70.06107000">
	<ele>1585.45</ele>
	</trkpt>
<trkpt lat="41.53661300" lon="70.06116000">
	<ele>1586.57</ele>
	</trkpt>
<trkpt lat="41.53658000" lon="70.06122600">
	<ele>1588.75</ele>
	</trkpt>
<trkpt lat="41.53654000" lon="70.06125000">
	<ele>1590.50</ele>
	</trkpt>
<trkpt lat="41.53652200" lon="70.06129000">
	<ele>1592.15</ele>
	</trkpt>
<trkpt lat="41.53648800" lon="70.06128000">
	<ele>1593.28</ele>
	</trkpt>
<trkpt lat="41.53638500" lon="70.06140000">
	<ele>1597.99</ele>
	</trkpt>
<trkpt lat="41.53635400" lon="70.06127000">
	<ele>1602.64</ele>
	</trkpt>
<trkpt lat="41.53632000" lon="70.06123000">
	<ele>1605.94</ele>
	</trkpt>
<trkpt lat="41.53625000" lon="70.06134000">
	<ele>1608.49</ele>
	</trkpt>
<trkpt lat="41.53618200" lon="70.06137000">
	<ele>1611.84</ele>
	</trkpt>
<trkpt lat="41.53610600" lon="70.06148000">
	<ele>1615.13</ele>
	</trkpt>
<trkpt lat="41.53607000" lon="70.06147000">
	<ele>1617.53</ele>
	</trkpt>
<trkpt lat="41.53600700" lon="70.06149000">
	<ele>1619.57</ele>
	</trkpt>
<trkpt lat="41.53591000" lon="70.06164000">
	<ele>1622.47</ele>
	</trkpt>
<trkpt lat="41.53583000" lon="70.06168000">
	<ele>1622.48</ele>
	</trkpt>
<trkpt lat="41.53579000" lon="70.06174000">
	<ele>1622.38</ele>
	</trkpt>
<trkpt lat="41.53570000" lon="70.06178000">
	<ele>1622.56</ele>
	</trkpt>
<trkpt lat="41.53561000" lon="70.06193000">
	<ele>1626.16</ele>
	</trkpt>
<trkpt lat="41.53557200" lon="70.06194000">
	<ele>1626.79</ele>
	</trkpt>
<trkpt lat="41.53545400" lon="70.06192000">
	<ele>1633.88</ele>
	</trkpt>
<trkpt lat="41.53539300" lon="70.06206500">
	<ele>1632.95</ele>
	</trkpt>
<trkpt lat="41.53532800" lon="70.06215000">
	<ele>1633.83</ele>
	</trkpt>
<trkpt lat="41.53531300" lon="70.06219000">
	<ele>1634.03</ele>
	</trkpt>
<trkpt lat="41.53531000" lon="70.06229000">
	<ele>1633.55</ele>
	</trkpt>
<trkpt lat="41.53519000" lon="70.06254000">
	<ele>1633.64</ele>
	</trkpt>
<trkpt lat="41.53507600" lon="70.06261000">
	<ele>1633.99</ele>
	</trkpt>
<trkpt lat="41.53504000" lon="70.06261400">
	<ele>1634.07</ele>
	</trkpt>
<trkpt lat="41.53503400" lon="70.06259000">
	<ele>1635.25</ele>
	</trkpt>
<trkpt lat="41.53500400" lon="70.06261000">
	<ele>1635.99</ele>
	</trkpt>
<trkpt lat="41.53503800" lon="70.06273000">
	<ele>1637.02</ele>
	</trkpt>
<trkpt lat="41.53508400" lon="70.06278000">
	<ele>1637.22</ele>
	</trkpt>
<trkpt lat="41.53510300" lon="70.06284000">
	<ele>1637.29</ele>
	</trkpt>
<trkpt lat="41.53510300" lon="70.06296000">
	<ele>1638.78</ele>
	</trkpt>
<trkpt lat="41.53508800" lon="70.06296500">
	<ele>1640.02</ele>
	</trkpt>
<trkpt lat="41.53509500" lon="70.06302000">
	<ele>1640.70</ele>
	</trkpt>
<trkpt lat="41.53526000" lon="70.06316000">
	<ele>1646.20</ele>
	</trkpt>
<trkpt lat="41.53527000" lon="70.06328000">
	<ele>1649.43</ele>
	</trkpt>
<trkpt lat="41.53529700" lon="70.06333000">
	<ele>1650.52</ele>
	</trkpt>
<trkpt lat="41.53528000" lon="70.06338000">
	<ele>1651.45</ele>
	</trkpt>
<trkpt lat="41.53524000" lon="70.06340000">
	<ele>1654.22</ele>
	</trkpt>
<trkpt lat="41.53521700" lon="70.06348000">
	<ele>1654.77</ele>
	</trkpt>
<trkpt lat="41.53515600" lon="70.06358000">
	<ele>1655.73</ele>
	</trkpt>
<trkpt lat="41.53514500" lon="70.06371000">
	<ele>1656.99</ele>
	</trkpt>
<trkpt lat="41.53505300" lon="70.06381000">
	<ele>1658.55</ele>
	</trkpt>
<trkpt lat="41.53504600" lon="70.06387000">
	<ele>1660.22</ele>
	</trkpt>
<trkpt lat="41.53506500" lon="70.06393000">
	<ele>1661.36</ele>
	</trkpt>
<trkpt lat="41.53511400" lon="70.06399000">
	<ele>1663.18</ele>
	</trkpt>
<trkpt lat="41.53513300" lon="70.06398000">
	<ele>1664.44</ele>
	</trkpt>
<trkpt lat="41.53515000" lon="70.06400000">
	<ele>1664.63</ele>
	</trkpt>
<trkpt lat="41.53519400" lon="70.06410000">
	<ele>1664.98</ele>
	</trkpt>
<trkpt lat="41.53519400" lon="70.06414000">
	<ele>1665.72</ele>
	</trkpt>
<trkpt lat="41.53526700" lon="70.06420000">
	<ele>1667.35</ele>
	</trkpt>
<trkpt lat="41.53531300" lon="70.06428000">
	<ele>1668.78</ele>
	</trkpt>
<trkpt lat="41.53537000" lon="70.06432000">
	<ele>1670.83</ele>
	</trkpt>
<trkpt lat="41.53538500" lon="70.06438000">
	<ele>1672.16</ele>
	</trkpt>
<trkpt lat="41.53551000" lon="70.06444500">
	<ele>1675.05</ele>
	</trkpt>
<trkpt lat="41.53556400" lon="70.06454500">
	<ele>1678.17</ele>
	</trkpt>
<trkpt lat="41.53563700" lon="70.06460600">
	<ele>1678.09</ele>
	</trkpt>
<trkpt lat="41.53579300" lon="70.06462000">
	<ele>1677.73</ele>
	</trkpt>
<trkpt lat="41.53587300" lon="70.06466000">
	<ele>1678.29</ele>
	</trkpt>
<trkpt lat="41.53594600" lon="70.06466000">
	<ele>1678.74</ele>
	</trkpt>
<trkpt lat="41.53604000" lon="70.06469000">
	<ele>1679.34</ele>
	</trkpt>
<trkpt lat="41.53610000" lon="70.06466000">
	<ele>1679.48</ele>
	</trkpt>
<trkpt lat="41.53623200" lon="70.06467400">
	<ele>1678.54</ele>
	</trkpt>
<trkpt lat="41.53623600" lon="70.06464400">
	<ele>1677.40</ele>
	</trkpt>
<trkpt lat="41.53626300" lon="70.06465000">
	<ele>1676.65</ele>
	</trkpt>
<trkpt lat="41.53627400" lon="70.06456000">
	<ele>1675.93</ele>
	</trkpt>
<trkpt lat="41.53639200" lon="70.06454000">
	<ele>1673.22</ele>
	</trkpt>
<trkpt lat="41.53645700" lon="70.06448000">
	<ele>1671.38</ele>
	</trkpt>
<trkpt lat="41.53664400" lon="70.06447000">
	<ele>1666.64</ele>
	</trkpt>
<trkpt lat="41.53664800" lon="70.06444000">
	<ele>1666.12</ele>
	</trkpt>
<trkpt lat="41.53685000" lon="70.06444500">
	<ele>1659.55</ele>
	</trkpt>
<trkpt lat="41.53693800" lon="70.06440000">
	<ele>1658.64</ele>
	</trkpt>
<trkpt lat="41.53713200" lon="70.06441000">
	<ele>1657.30</ele>
	</trkpt>
<trkpt lat="41.53720000" lon="70.06435400">
	<ele>1657.33</ele>
	</trkpt>
<trkpt lat="41.53738000" lon="70.06435000">
	<ele>1655.63</ele>
	</trkpt>
<trkpt lat="41.53743000" lon="70.06432000">
	<ele>1655.07</ele>
	</trkpt>
<trkpt lat="41.53742600" lon="70.06438400">
	<ele>1652.65</ele>
	</trkpt>
<trkpt lat="41.53728500" lon="70.06448000">
	<ele>1650.17</ele>
	</trkpt>
<trkpt lat="41.53722400" lon="70.06460600">
	<ele>1648.58</ele>
	</trkpt>
<trkpt lat="41.53712500" lon="70.06473000">
	<ele>1645.21</ele>
	</trkpt>
<trkpt lat="41.53698300" lon="70.06475000">
	<ele>1641.10</ele>
	</trkpt>
<trkpt lat="41.53692000" lon="70.06477000">
	<ele>1639.63</ele>
	</trkpt>
<trkpt lat="41.53688400" lon="70.06480400">
	<ele>1639.08</ele>
	</trkpt>
<trkpt lat="41.53682000" lon="70.06496000">
	<ele>1634.75</ele>
	</trkpt>
<trkpt lat="41.53675000" lon="70.06503000">
	<ele>1631.15</ele>
	</trkpt>
<trkpt lat="41.53670500" lon="70.06512500">
	<ele>1625.47</ele>
	</trkpt>
<trkpt lat="41.53669400" lon="70.06527000">
	<ele>1622.32</ele>
	</trkpt>
<trkpt lat="41.53666000" lon="70.06535000">
	<ele>1620.65</ele>
	</trkpt>
<trkpt lat="41.53668600" lon="70.06551000">
	<ele>1615.62</ele>
	</trkpt>
<trkpt lat="41.53676600" lon="70.06547500">
	<ele>1610.76</ele>
	</trkpt>
<trkpt lat="41.53679300" lon="70.06541400">
	<ele>1609.45</ele>
	</trkpt>
<trkpt lat="41.53684600" lon="70.06537000">
	<ele>1607.11</ele>
	</trkpt>
<trkpt lat="41.53684200" lon="70.06549000">
	<ele>1603.36</ele>
	</trkpt>
<trkpt lat="41.53686000" lon="70.06553000">
	<ele>1600.85</ele>
	</trkpt>
<trkpt lat="41.53684200" lon="70.06554000">
	<ele>1599.86</ele>
	</trkpt>
<trkpt lat="41.53685000" lon="70.06560000">
	<ele>1598.61</ele>
	</trkpt>
<trkpt lat="41.53684000" lon="70.06562000">
	<ele>1597.83</ele>
	</trkpt>
<trkpt lat="41.53685800" lon="70.06565000">
	<ele>1595.10</ele>
	</trkpt>
<trkpt lat="41.53682300" lon="70.06583400">
	<ele>1592.44</ele>
	</trkpt>
<trkpt lat="41.53685800" lon="70.06589000">
	<ele>1588.59</ele>
	</trkpt>
<trkpt lat="41.53683000" lon="70.06596000">
	<ele>1587.01</ele>
	</trkpt>
<trkpt lat="41.53687300" lon="70.06596000">
	<ele>1585.18</ele>
	</trkpt>
<trkpt lat="41.53689000" lon="70.06602500">
	<ele>1577.90</ele>
	</trkpt>
<trkpt lat="41.53695300" lon="70.06610000">
	<ele>1570.09</ele>
	</trkpt>
<trkpt lat="41.53695300" lon="70.06617000">
	<ele>1568.51</ele>
	</trkpt>
<trkpt lat="41.53706000" lon="70.06617000">
	<ele>1563.83</ele>
	</trkpt>
<trkpt lat="41.53709000" lon="70.06620000">
	<ele>1560.12</ele>
	</trkpt>
<trkpt lat="41.53708600" lon="70.06623000">
	<ele>1559.92</ele>
	</trkpt>
<trkpt lat="41.53711300" lon="70.06624600">
	<ele>1559.30</ele>
	</trkpt>
<trkpt lat="41.53709400" lon="70.06632000">
	<ele>1557.77</ele>
	</trkpt>
<trkpt lat="41.53709800" lon="70.06637000">
	<ele>1554.70</ele>
	</trkpt>
<trkpt lat="41.53712000" lon="70.06636000">
	<ele>1554.05</ele>
	</trkpt>
<trkpt lat="41.53718000" lon="70.06644000">
	<ele>1545.74</ele>
	</trkpt>
<trkpt lat="41.53729600" lon="70.06649000">
	<ele>1538.72</ele>
	</trkpt>
<trkpt lat="41.53732700" lon="70.06657000">
	<ele>1536.10</ele>
	</trkpt>
<trkpt lat="41.53738400" lon="70.06651000">
	<ele>1533.73</ele>
	</trkpt>
<trkpt lat="41.53741500" lon="70.06650000">
	<ele>1533.08</ele>
	</trkpt>
<trkpt lat="41.53741500" lon="70.06657000">
	<ele>1531.37</ele>
	</trkpt>
<trkpt lat="41.53739500" lon="70.06660000">
	<ele>1530.75</ele>
	</trkpt>
<trkpt lat="41.53742000" lon="70.06660000">
	<ele>1529.22</ele>
	</trkpt>
<trkpt lat="41.53745300" lon="70.06657000">
	<ele>1525.76</ele>
	</trkpt>
<trkpt lat="41.53750600" lon="70.06657400">
	<ele>1523.36</ele>
	</trkpt>
<trkpt lat="41.53753000" lon="70.06659000">
	<ele>1522.74</ele>
	</trkpt>
<trkpt lat="41.53754800" lon="70.06666600">
	<ele>1520.40</ele>
	</trkpt>
<trkpt lat="41.53757000" lon="70.06665000">
	<ele>1519.62</ele>
	</trkpt>
<trkpt lat="41.53764700" lon="70.06665000">
	<ele>1514.52</ele>
	</trkpt>
<trkpt lat="41.53765000" lon="70.06678000">
	<ele>1510.73</ele>
	</trkpt>
<trkpt lat="41.53763600" lon="70.06682600">
	<ele>1507.80</ele>
	</trkpt>
<trkpt lat="41.53759400" lon="70.06692500">
	<ele>1504.19</ele>
	</trkpt>
<trkpt lat="41.53756000" lon="70.06696000">
	<ele>1502.23</ele>
	</trkpt>
<trkpt lat="41.53755000" lon="70.06702000">
	<ele>1499.69</ele>
	</trkpt>
<trkpt lat="41.53748300" lon="70.06709000">
	<ele>1496.35</ele>
	</trkpt>
<trkpt lat="41.53751400" lon="70.06713000">
	<ele>1496.43</ele>
	</trkpt>
<trkpt lat="41.53746800" lon="70.06716000">
	<ele>1496.33</ele>
	</trkpt>
<trkpt lat="41.53747000" lon="70.06718400">
	<ele>1496.01</ele>
	</trkpt>
<trkpt lat="41.53751400" lon="70.06721500">
	<ele>1496.45</ele>
	</trkpt>
<trkpt lat="41.53759000" lon="70.06723000">
	<ele>1497.42</ele>
	</trkpt>
<trkpt lat="41.53763200" lon="70.06718400">
	<ele>1497.00</ele>
	</trkpt>
<trkpt lat="41.53774300" lon="70.06712000">
	<ele>1493.60</ele>
	</trkpt>
<trkpt lat="41.53780000" lon="70.06711600">
	<ele>1492.77</ele>
	</trkpt>
<trkpt lat="41.53781500" lon="70.06709000">
	<ele>1491.97</ele>
	</trkpt>
<trkpt lat="41.53784000" lon="70.06709000">
	<ele>1490.32</ele>
	</trkpt>
<trkpt lat="41.53789000" lon="70.06713000">
	<ele>1490.07</ele>
	</trkpt>
<trkpt lat="41.53792000" lon="70.06708000">
	<ele>1489.69</ele>
	</trkpt>
<trkpt lat="41.53798300" lon="70.06705500">
	<ele>1488.37</ele>
	</trkpt>
<trkpt lat="41.53803300" lon="70.06700000">
	<ele>1486.97</ele>
	</trkpt>
<trkpt lat="41.53804800" lon="70.06695000">
	<ele>1484.42</ele>
	</trkpt>
<trkpt lat="41.53811000" lon="70.06692000">
	<ele>1482.77</ele>
	</trkpt>
<trkpt lat="41.53818000" lon="70.06686000">
	<ele>1481.14</ele>
	</trkpt>
<trkpt lat="41.53819000" lon="70.06682600">
	<ele>1479.70</ele>
	</trkpt>
<trkpt lat="41.53833000" lon="70.06673000">
	<ele>1476.54</ele>
	</trkpt>
<trkpt lat="41.53840000" lon="70.06666000">
	<ele>1473.03</ele>
	</trkpt>
<trkpt lat="41.53841800" lon="70.06663000">
	<ele>1472.47</ele>
	</trkpt>
<trkpt lat="41.53840600" lon="70.06660000">
	<ele>1471.44</ele>
	</trkpt>
<trkpt lat="41.53842500" lon="70.06650500">
	<ele>1468.84</ele>
	</trkpt>
<trkpt lat="41.53846400" lon="70.06645000">
	<ele>1468.02</ele>
	</trkpt>
<trkpt lat="41.53849800" lon="70.06644000">
	<ele>1467.19</ele>
	</trkpt>
<trkpt lat="41.53852000" lon="70.06635000">
	<ele>1466.32</ele>
	</trkpt>
<trkpt lat="41.53866600" lon="70.06629000">
	<ele>1462.36</ele>
	</trkpt>
<trkpt lat="41.53872000" lon="70.06624000">
	<ele>1460.66</ele>
	</trkpt>
<trkpt lat="41.53874600" lon="70.06618500">
	<ele>1458.80</ele>
	</trkpt>
<trkpt lat="41.53880000" lon="70.06617000">
	<ele>1457.55</ele>
	</trkpt>
<trkpt lat="41.53883000" lon="70.06618500">
	<ele>1456.65</ele>
	</trkpt>
<trkpt lat="41.53894400" lon="70.06617000">
	<ele>1454.25</ele>
	</trkpt>
<trkpt lat="41.53903600" lon="70.06618500">
	<ele>1453.08</ele>
	</trkpt>
<trkpt lat="41.53910000" lon="70.06615000">
	<ele>1451.03</ele>
	</trkpt>
<trkpt lat="41.53910000" lon="70.06612400">
	<ele>1450.26</ele>
	</trkpt>
<trkpt lat="41.53914300" lon="70.06609000">
	<ele>1448.54</ele>
	</trkpt>
<trkpt lat="41.53916500" lon="70.06596000">
	<ele>1446.77</ele>
	</trkpt>
<trkpt lat="41.53924600" lon="70.06592600">
	<ele>1445.42</ele>
	</trkpt>
<trkpt lat="41.53925700" lon="70.06587000">
	<ele>1444.40</ele>
	</trkpt>
<trkpt lat="41.53928400" lon="70.06583400">
	<ele>1444.06</ele>
	</trkpt>
<trkpt lat="41.53933300" lon="70.06584000">
	<ele>1442.86</ele>
	</trkpt>
<trkpt lat="41.53936000" lon="70.06579000">
	<ele>1441.69</ele>
	</trkpt>
<trkpt lat="41.53935200" lon="70.06576500">
	<ele>1442.04</ele>
	</trkpt>
<trkpt lat="41.53939400" lon="70.06570400">
	<ele>1442.89</ele>
	</trkpt>
<trkpt lat="41.53943000" lon="70.06570000">
	<ele>1441.37</ele>
	</trkpt>
<trkpt lat="41.53947000" lon="70.06561000">
	<ele>1439.85</ele>
	</trkpt>
<trkpt lat="41.53952800" lon="70.06557500">
	<ele>1437.03</ele>
	</trkpt>
<trkpt lat="41.53966000" lon="70.06560000">
	<ele>1432.65</ele>
	</trkpt>
<trkpt lat="41.53966500" lon="70.06557000">
	<ele>1432.52</ele>
	</trkpt>
<trkpt lat="41.53970300" lon="70.06552000">
	<ele>1432.00</ele>
	</trkpt>
<trkpt lat="41.53973800" lon="70.06550600">
	<ele>1431.34</ele>
	</trkpt>
<trkpt lat="41.53980600" lon="70.06539000">
	<ele>1429.16</ele>
	</trkpt>
<trkpt lat="41.53985000" lon="70.06538000">
	<ele>1429.65</ele>
	</trkpt>
<trkpt lat="41.53993000" lon="70.06530000">
	<ele>1429.10</ele>
	</trkpt>
<trkpt lat="41.53999700" lon="70.06514000">
	<ele>1428.27</ele>
	</trkpt>
<trkpt lat="41.54002000" lon="70.06500000">
	<ele>1422.23</ele>
	</trkpt>
<trkpt lat="41.54009200" lon="70.06497000">
	<ele>1421.55</ele>
	</trkpt>
<trkpt lat="41.54009200" lon="70.06491000">
	<ele>1419.48</ele>
	</trkpt>
<trkpt lat="41.54013400" lon="70.06489000">
	<ele>1417.54</ele>
	</trkpt>
<trkpt lat="41.54020300" lon="70.06492000">
	<ele>1416.31</ele>
	</trkpt>
<trkpt lat="41.54025000" lon="70.06492000">
	<ele>1415.74</ele>
	</trkpt>
<trkpt lat="41.54027000" lon="70.06490000">
	<ele>1414.48</ele>
	</trkpt>
<trkpt lat="41.54028300" lon="70.06492000">
	<ele>1414.23</ele>
	</trkpt>
<trkpt lat="41.54036300" lon="70.06493000">
	<ele>1412.68</ele>
	</trkpt>
<trkpt lat="41.54041300" lon="70.06499000">
	<ele>1412.01</ele>
	</trkpt>
<trkpt lat="41.54049700" lon="70.06502500">
	<ele>1410.36</ele>
	</trkpt>
<trkpt lat="41.54057000" lon="70.06509000">
	<ele>1408.17</ele>
	</trkpt>
<trkpt lat="41.54063800" lon="70.06509400">
	<ele>1406.97</ele>
	</trkpt>
<trkpt lat="41.54075000" lon="70.06524000">
	<ele>1405.34</ele>
	</trkpt>
<trkpt lat="41.54075200" lon="70.06529000">
	<ele>1405.05</ele>
	</trkpt>
<trkpt lat="41.54079000" lon="70.06534000">
	<ele>1404.87</ele>
	</trkpt>
<trkpt lat="41.54083600" lon="70.06534600">
	<ele>1402.35</ele>
	</trkpt>
<trkpt lat="41.54088600" lon="70.06530000">
	<ele>1400.93</ele>
	</trkpt>
<trkpt lat="41.54098500" lon="70.06550000">
	<ele>1399.38</ele>
	</trkpt>
<trkpt lat="41.54104600" lon="70.06551000">
	<ele>1398.89</ele>
	</trkpt>
<trkpt lat="41.54108400" lon="70.06557000">
	<ele>1397.27</ele>
	</trkpt>
<trkpt lat="41.54121000" lon="70.06564000">
	<ele>1395.85</ele>
	</trkpt>
<trkpt lat="41.54123000" lon="70.06568000">
	<ele>1394.98</ele>
	</trkpt>
<trkpt lat="41.54122000" lon="70.06573000">
	<ele>1394.83</ele>
	</trkpt>
<trkpt lat="41.54123700" lon="70.06574000">
	<ele>1394.20</ele>
	</trkpt>
<trkpt lat="41.54122500" lon="70.06579600">
	<ele>1391.93</ele>
	</trkpt>
<trkpt lat="41.54124000" lon="70.06583400">
	<ele>1391.70</ele>
	</trkpt>
<trkpt lat="41.54126000" lon="70.06584000">
	<ele>1391.43</ele>
	</trkpt>
<trkpt lat="41.54125600" lon="70.06588000">
	<ele>1391.12</ele>
	</trkpt>
<trkpt lat="41.54129000" lon="70.06595000">
	<ele>1391.21</ele>
	</trkpt>
<trkpt lat="41.54132000" lon="70.06608000">
	<ele>1388.95</ele>
	</trkpt>
<trkpt lat="41.54137000" lon="70.06614000">
	<ele>1387.67</ele>
	</trkpt>
<trkpt lat="41.54140000" lon="70.06614000">
	<ele>1387.65</ele>
	</trkpt>
<trkpt lat="41.54143000" lon="70.06618500">
	<ele>1387.12</ele>
	</trkpt>
<trkpt lat="41.54146200" lon="70.06618500">
	<ele>1386.15</ele>
	</trkpt>
<trkpt lat="41.54147000" lon="70.06621000">
	<ele>1386.07</ele>
	</trkpt>
<trkpt lat="41.54151500" lon="70.06623000">
	<ele>1385.58</ele>
	</trkpt>
<trkpt lat="41.54152300" lon="70.06631000">
	<ele>1385.83</ele>
	</trkpt>
<trkpt lat="41.54155300" lon="70.06632000">
	<ele>1385.59</ele>
	</trkpt>
<trkpt lat="41.54157600" lon="70.06641400">
	<ele>1385.17</ele>
	</trkpt>
<trkpt lat="41.54159000" lon="70.06656000">
	<ele>1383.79</ele>
	</trkpt>
<trkpt lat="41.54164500" lon="70.06650500">
	<ele>1383.74</ele>
	</trkpt>
<trkpt lat="41.54169500" lon="70.06656000">
	<ele>1383.36</ele>
	</trkpt>
<trkpt lat="41.54176700" lon="70.06658000">
	<ele>1382.29</ele>
	</trkpt>
<trkpt lat="41.54179800" lon="70.06665000">
	<ele>1381.73</ele>
	</trkpt>
<trkpt lat="41.54185500" lon="70.06666600">
	<ele>1378.90</ele>
	</trkpt>
<trkpt lat="41.54186200" lon="70.06673400">
	<ele>1378.91</ele>
	</trkpt>
<trkpt lat="41.54189700" lon="70.06672000">
	<ele>1378.89</ele>
	</trkpt>
<trkpt lat="41.54189700" lon="70.06666600">
	<ele>1378.71</ele>
	</trkpt>
<trkpt lat="41.54191000" lon="70.06666600">
	<ele>1378.63</ele>
	</trkpt>
<trkpt lat="41.54191600" lon="70.06663500">
	<ele>1378.47</ele>
	</trkpt>
<trkpt lat="41.54195000" lon="70.06663500">
	<ele>1377.54</ele>
	</trkpt>
<trkpt lat="41.54199600" lon="70.06660000">
	<ele>1376.75</ele>
	</trkpt>
<trkpt lat="41.54202000" lon="70.06652000">
	<ele>1376.68</ele>
	</trkpt>
<trkpt lat="41.54201500" lon="70.06649000">
	<ele>1376.85</ele>
	</trkpt>
<trkpt lat="41.54204000" lon="70.06650000">
	<ele>1376.66</ele>
	</trkpt>
<trkpt lat="41.54205700" lon="70.06647000">
	<ele>1376.18</ele>
	</trkpt>
<trkpt lat="41.54208400" lon="70.06646000">
	<ele>1375.61</ele>
	</trkpt>
<trkpt lat="41.54217500" lon="70.06647000">
	<ele>1375.79</ele>
	</trkpt>
<trkpt lat="41.54220600" lon="70.06643000">
	<ele>1375.61</ele>
	</trkpt>
<trkpt lat="41.54223300" lon="70.06631500">
	<ele>1373.19</ele>
	</trkpt>
<trkpt lat="41.54233000" lon="70.06628000">
	<ele>1371.00</ele>
	</trkpt>
<trkpt lat="41.54236000" lon="70.06621600">
	<ele>1370.31</ele>
	</trkpt>
<trkpt lat="41.54239000" lon="70.06620000">
	<ele>1370.25</ele>
	</trkpt>
<trkpt lat="41.54238000" lon="70.06614000">
	<ele>1369.43</ele>
	</trkpt>
<trkpt lat="41.54239700" lon="70.06607000">
	<ele>1369.34</ele>
	</trkpt>
<trkpt lat="41.54245000" lon="70.06596000">
	<ele>1368.56</ele>
	</trkpt>
<trkpt lat="41.54248000" lon="70.06595000">
	<ele>1367.93</ele>
	</trkpt>
<trkpt lat="41.54249200" lon="70.06589500">
	<ele>1367.10</ele>
	</trkpt>
<trkpt lat="41.54253800" lon="70.06587000">
	<ele>1365.07</ele>
	</trkpt>
<trkpt lat="41.54253000" lon="70.06584000">
	<ele>1364.57</ele>
	</trkpt>
<trkpt lat="41.54260300" lon="70.06585000">
	<ele>1363.49</ele>
	</trkpt>
<trkpt lat="41.54263700" lon="70.06591000">
	<ele>1363.32</ele>
	</trkpt>
<trkpt lat="41.54266400" lon="70.06591000">
	<ele>1363.15</ele>
	</trkpt>
<trkpt lat="41.54269800" lon="70.06585000">
	<ele>1363.40</ele>
	</trkpt>
<trkpt lat="41.54280500" lon="70.06576000">
	<ele>1361.82</ele>
	</trkpt>
<trkpt lat="41.54282400" lon="70.06573000">
	<ele>1360.47</ele>
	</trkpt>
<trkpt lat="41.54283500" lon="70.06564000">
	<ele>1358.27</ele>
	</trkpt>
<trkpt lat="41.54282000" lon="70.06562000">
	<ele>1357.34</ele>
	</trkpt>
<trkpt lat="41.54278000" lon="70.06563000">
	<ele>1356.37</ele>
	</trkpt>
<trkpt lat="41.54284700" lon="70.06557000">
	<ele>1354.84</ele>
	</trkpt>
<trkpt lat="41.54291500" lon="70.06543000">
	<ele>1355.18</ele>
	</trkpt>
<trkpt lat="41.54295700" lon="70.06542000">
	<ele>1355.00</ele>
	</trkpt>
<trkpt lat="41.54297600" lon="70.06547500">
	<ele>1356.50</ele>
	</trkpt>
<trkpt lat="41.54303000" lon="70.06548000">
	<ele>1357.14</ele>
	</trkpt>
<trkpt lat="41.54304500" lon="70.06550600">
	<ele>1356.89</ele>
	</trkpt>
<trkpt lat="41.54308000" lon="70.06551000">
	<ele>1356.42</ele>
	</trkpt>
<trkpt lat="41.54313300" lon="70.06550000">
	<ele>1355.98</ele>
	</trkpt>
<trkpt lat="41.54316000" lon="70.06546000">
	<ele>1354.62</ele>
	</trkpt>
<trkpt lat="41.54323000" lon="70.06545000">
	<ele>1353.71</ele>
	</trkpt>
<trkpt lat="41.54325500" lon="70.06538000">
	<ele>1352.29</ele>
	</trkpt>
<trkpt lat="41.54329000" lon="70.06535000">
	<ele>1351.48</ele>
	</trkpt>
<trkpt lat="41.54345000" lon="70.06534600">
	<ele>1347.20</ele>
	</trkpt>
<trkpt lat="41.54352600" lon="70.06543000">
	<ele>1344.38</ele>
	</trkpt>
<trkpt lat="41.54353700" lon="70.06547000">
	<ele>1343.92</ele>
	</trkpt>
<trkpt lat="41.54363000" lon="70.06552000">
	<ele>1342.83</ele>
	</trkpt>
<trkpt lat="41.54367000" lon="70.06557000">
	<ele>1342.86</ele>
	</trkpt>
<trkpt lat="41.54374000" lon="70.06559000">
	<ele>1342.10</ele>
	</trkpt>
<trkpt lat="41.54382000" lon="70.06567000">
	<ele>1341.38</ele>
	</trkpt>
<trkpt lat="41.54387300" lon="70.06565000">
	<ele>1340.93</ele>
	</trkpt>
<trkpt lat="41.54409800" lon="70.06563600">
	<ele>1339.43</ele>
	</trkpt>
<trkpt lat="41.54421000" lon="70.06568000">
	<ele>1336.87</ele>
	</trkpt>
<trkpt lat="41.54422400" lon="70.06570000">
	<ele>1336.68</ele>
	</trkpt>
<trkpt lat="41.54432000" lon="70.06573000">
	<ele>1336.44</ele>
	</trkpt>
<trkpt lat="41.54434000" lon="70.06572000">
	<ele>1336.49</ele>
	</trkpt>
<trkpt lat="41.54438400" lon="70.06576500">
	<ele>1336.46</ele>
	</trkpt>
<trkpt lat="41.54452000" lon="70.06576500">
	<ele>1333.99</ele>
	</trkpt>
<trkpt lat="41.54457500" lon="70.06581000">
	<ele>1333.14</ele>
	</trkpt>
<trkpt lat="41.54471200" lon="70.06583400">
	<ele>1330.47</ele>
	</trkpt>
<trkpt lat="41.54473000" lon="70.06586000">
	<ele>1330.30</ele>
	</trkpt>
<trkpt lat="41.54476500" lon="70.06586500">
	<ele>1330.59</ele>
	</trkpt>
<trkpt lat="41.54482300" lon="70.06591000">
	<ele>1331.11</ele>
	</trkpt>
<trkpt lat="41.54492000" lon="70.06601000">
	<ele>1329.24</ele>
	</trkpt>
<trkpt lat="41.54501300" lon="70.06603000">
	<ele>1328.00</ele>
	</trkpt>
<trkpt lat="41.54519000" lon="70.06617000">
	<ele>1322.70</ele>
	</trkpt>
<trkpt lat="41.54525000" lon="70.06624000">
	<ele>1321.57</ele>
	</trkpt>
<trkpt lat="41.54525400" lon="70.06631000">
	<ele>1320.84</ele>
	</trkpt>
<trkpt lat="41.54530000" lon="70.06638000">
	<ele>1319.66</ele>
	</trkpt>
<trkpt lat="41.54536400" lon="70.06660000">
	<ele>1317.31</ele>
	</trkpt>
<trkpt lat="41.54559000" lon="70.06689500">
	<ele>1313.13</ele>
	</trkpt>
<trkpt lat="41.54565000" lon="70.06702000">
	<ele>1310.62</ele>
	</trkpt>
<trkpt lat="41.54570800" lon="70.06708500">
	<ele>1309.64</ele>
	</trkpt>
<trkpt lat="41.54579000" lon="70.06723000">
	<ele>1308.13</ele>
	</trkpt>
<trkpt lat="41.54583700" lon="70.06727000">
	<ele>1307.67</ele>
	</trkpt>
<trkpt lat="41.54589500" lon="70.06728000">
	<ele>1307.22</ele>
	</trkpt>
<trkpt lat="41.54598600" lon="70.06741000">
	<ele>1305.97</ele>
	</trkpt>
<trkpt lat="41.54610000" lon="70.06749000">
	<ele>1304.89</ele>
	</trkpt>
<trkpt lat="41.54615400" lon="70.06756000">
	<ele>1304.24</ele>
	</trkpt>
<trkpt lat="41.54620400" lon="70.06758000">
	<ele>1303.65</ele>
	</trkpt>
<trkpt lat="41.54622700" lon="70.06762000">
	<ele>1303.16</ele>
	</trkpt>
<trkpt lat="41.54624000" lon="70.06771000">
	<ele>1302.27</ele>
	</trkpt>
<trkpt lat="41.54626500" lon="70.06773000">
	<ele>1301.75</ele>
	</trkpt>
<trkpt lat="41.54627200" lon="70.06776000">
	<ele>1301.61</ele>
	</trkpt>
<trkpt lat="41.54638700" lon="70.06786000">
	<ele>1300.47</ele>
	</trkpt>
<trkpt lat="41.54656600" lon="70.06820000">
	<ele>1298.03</ele>
	</trkpt>
<trkpt lat="41.54665400" lon="70.06827000">
	<ele>1297.46</ele>
	</trkpt>
<trkpt lat="41.54677600" lon="70.06822000">
	<ele>1297.00</ele>
	</trkpt>
<trkpt lat="41.54693000" lon="70.06820000">
	<ele>1295.91</ele>
	</trkpt>
<trkpt lat="41.54695500" lon="70.06819000">
	<ele>1295.68</ele>
	</trkpt>
<trkpt lat="41.54696700" lon="70.06816000">
	<ele>1295.05</ele>
	</trkpt>
<trkpt lat="41.54713400" lon="70.06817000">
	<ele>1294.27</ele>
	</trkpt>
<trkpt lat="41.54721000" lon="70.06814000">
	<ele>1293.72</ele>
	</trkpt>
<trkpt lat="41.54728700" lon="70.06805000">
	<ele>1292.49</ele>
	</trkpt>
<trkpt lat="41.54732000" lon="70.06796000">
	<ele>1291.25</ele>
	</trkpt>
<trkpt lat="41.54738000" lon="70.06788000">
	<ele>1290.50</ele>
	</trkpt>
<trkpt lat="41.54749300" lon="70.06764000">
	<ele>1287.37</ele>
	</trkpt>
<trkpt lat="41.54760400" lon="70.06758000">
	<ele>1286.47</ele>
	</trkpt>
<trkpt lat="41.54770700" lon="70.06758000">
	<ele>1285.61</ele>
	</trkpt>
<trkpt lat="41.54781300" lon="70.06766000">
	<ele>1284.43</ele>
	</trkpt>
<trkpt lat="41.54790000" lon="70.06769600">
	<ele>1283.51</ele>
	</trkpt>
<trkpt lat="41.54794300" lon="70.06774000">
	<ele>1282.60</ele>
	</trkpt>
<trkpt lat="41.54798500" lon="70.06782000">
	<ele>1281.25</ele>
	</trkpt>
<trkpt lat="41.54801000" lon="70.06791000">
	<ele>1279.04</ele>
	</trkpt>
<trkpt lat="41.54803500" lon="70.06790000">
	<ele>1278.65</ele>
	</trkpt>
<trkpt lat="41.54805400" lon="70.06793000">
	<ele>1278.25</ele>
	</trkpt>
<trkpt lat="41.54808400" lon="70.06808000">
	<ele>1276.74</ele>
	</trkpt>
<trkpt lat="41.54813000" lon="70.06813000">
	<ele>1276.13</ele>
	</trkpt>
<trkpt lat="41.54816000" lon="70.06821000">
	<ele>1275.91</ele>
	</trkpt>
<trkpt lat="41.54822000" lon="70.06827000">
	<ele>1275.28</ele>
	</trkpt>
<trkpt lat="41.54829000" lon="70.06830000">
	<ele>1275.10</ele>
	</trkpt>
<trkpt lat="41.54841000" lon="70.06829000">
	<ele>1274.77</ele>
	</trkpt>
<trkpt lat="41.54847300" lon="70.06831000">
	<ele>1274.36</ele>
	</trkpt>
<trkpt lat="41.54847700" lon="70.06833000">
	<ele>1273.87</ele>
	</trkpt>
<trkpt lat="41.54854200" lon="70.06836000">
	<ele>1273.62</ele>
	</trkpt>
<trkpt lat="41.54865300" lon="70.06838000">
	<ele>1271.97</ele>
	</trkpt>
<trkpt lat="41.54881000" lon="70.06847000">
	<ele>1268.97</ele>
	</trkpt>
<trkpt lat="41.54884700" lon="70.06853000">
	<ele>1268.53</ele>
	</trkpt>
<trkpt lat="41.54892700" lon="70.06858000">
	<ele>1267.82</ele>
	</trkpt>
<trkpt lat="41.54907600" lon="70.06859000">
	<ele>1265.81</ele>
	</trkpt>
<trkpt lat="41.54914500" lon="70.06856500">
	<ele>1264.98</ele>
	</trkpt>
<trkpt lat="41.54917500" lon="70.06858000">
	<ele>1263.78</ele>
	</trkpt>
<trkpt lat="41.54928000" lon="70.06856500">
	<ele>1262.21</ele>
	</trkpt>
<trkpt lat="41.54930500" lon="70.06859000">
	<ele>1261.69</ele>
	</trkpt>
<trkpt lat="41.54944600" lon="70.06863400">
	<ele>1260.18</ele>
	</trkpt>
<trkpt lat="41.54948400" lon="70.06868000">
	<ele>1260.12</ele>
	</trkpt>
<trkpt lat="41.54960000" lon="70.06872600">
	<ele>1259.12</ele>
	</trkpt>
<trkpt lat="41.54969400" lon="70.06884000">
	<ele>1257.25</ele>
	</trkpt>
<trkpt lat="41.54984000" lon="70.06882000">
	<ele>1256.06</ele>
	</trkpt>
<trkpt lat="41.54986600" lon="70.06879400">
	<ele>1255.51</ele>
	</trkpt>
<trkpt lat="41.54986000" lon="70.06870000">
	<ele>1254.27</ele>
	</trkpt>
<trkpt lat="41.54983500" lon="70.06869500">
	<ele>1253.88</ele>
	</trkpt>
<trkpt lat="41.54983500" lon="70.06868000">
	<ele>1253.84</ele>
	</trkpt>
<trkpt lat="41.54991000" lon="70.06857000">
	<ele>1253.94</ele>
	</trkpt>
<trkpt lat="41.55004000" lon="70.06856500">
	<ele>1253.31</ele>
	</trkpt>
<trkpt lat="41.55006000" lon="70.06859000">
	<ele>1252.98</ele>
	</trkpt>
<trkpt lat="41.55013300" lon="70.06860000">
	<ele>1252.31</ele>
	</trkpt>
<trkpt lat="41.55023600" lon="70.06866500">
	<ele>1251.90</ele>
	</trkpt>
<trkpt lat="41.55033000" lon="70.06866000">
	<ele>1251.91</ele>
	</trkpt>
<trkpt lat="41.55042000" lon="70.06868000">
	<ele>1251.48</ele>
	</trkpt>
<trkpt lat="41.55064400" lon="70.06859600">
	<ele>1249.74</ele>
	</trkpt>
<trkpt lat="41.55068000" lon="70.06862000">
	<ele>1249.68</ele>
	</trkpt>
<trkpt lat="41.55080000" lon="70.06860000">
	<ele>1248.76</ele>
	</trkpt>
<trkpt lat="41.55088000" lon="70.06869000">
	<ele>1247.72</ele>
	</trkpt>
<trkpt lat="41.55093800" lon="70.06871000">
	<ele>1246.63</ele>
	</trkpt>
<trkpt lat="41.55101400" lon="70.06885000">
	<ele>1245.48</ele>
	</trkpt>
<trkpt lat="41.55108000" lon="70.06887000">
	<ele>1245.40</ele>
	</trkpt>
<trkpt lat="41.55116700" lon="70.06895000">
	<ele>1245.39</ele>
	</trkpt>
<trkpt lat="41.55123500" lon="70.06895400">
	<ele>1244.85</ele>
	</trkpt>
<trkpt lat="41.55137600" lon="70.06902000">
	<ele>1242.49</ele>
	</trkpt>
<trkpt lat="41.55142600" lon="70.06908400">
	<ele>1241.53</ele>
	</trkpt>
<trkpt lat="41.55142600" lon="70.06912000">
	<ele>1240.89</ele>
	</trkpt>
<trkpt lat="41.55155000" lon="70.06918000">
	<ele>1239.04</ele>
	</trkpt>
<trkpt lat="41.55162400" lon="70.06929000">
	<ele>1237.32</ele>
	</trkpt>
<trkpt lat="41.55165000" lon="70.06929000">
	<ele>1236.63</ele>
	</trkpt>
<trkpt lat="41.55176500" lon="70.06940000">
	<ele>1235.73</ele>
	</trkpt>
<trkpt lat="41.55185700" lon="70.06941000">
	<ele>1235.17</ele>
	</trkpt>
<trkpt lat="41.55194500" lon="70.06946000">
	<ele>1234.39</ele>
	</trkpt>
<trkpt lat="41.55205500" lon="70.06948000">
	<ele>1233.75</ele>
	</trkpt>
<trkpt lat="41.55214000" lon="70.06952000">
	<ele>1233.27</ele>
	</trkpt>
<trkpt lat="41.55220800" lon="70.06960000">
	<ele>1232.69</ele>
	</trkpt>
<trkpt lat="41.55223500" lon="70.06966000">
	<ele>1232.32</ele>
	</trkpt>
<trkpt lat="41.55225800" lon="70.06987000">
	<ele>1230.98</ele>
	</trkpt>
<trkpt lat="41.55228800" lon="70.06986000">
	<ele>1230.56</ele>
	</trkpt>
<trkpt lat="41.55232200" lon="70.06995000">
	<ele>1230.03</ele>
	</trkpt>
<trkpt lat="41.55238300" lon="70.06997000">
	<ele>1229.59</ele>
	</trkpt>
<trkpt lat="41.55239500" lon="70.07001000">
	<ele>1229.34</ele>
	</trkpt>
<trkpt lat="41.55242500" lon="70.07004000">
	<ele>1229.07</ele>
	</trkpt>
<trkpt lat="41.55294000" lon="70.07018000">
	<ele>1224.05</ele>
	</trkpt>
<trkpt lat="41.55306600" lon="70.07017000">
	<ele>1222.76</ele>
	</trkpt>
<trkpt lat="41.55314000" lon="70.07020000">
	<ele>1222.02</ele>
	</trkpt>
<trkpt lat="41.55328800" lon="70.07020000">
	<ele>1221.23</ele>
	</trkpt>
<trkpt lat="41.55336400" lon="70.07023000">
	<ele>1220.43</ele>
	</trkpt>
<trkpt lat="41.55341300" lon="70.07027400">
	<ele>1220.22</ele>
	</trkpt>
<trkpt lat="41.55351600" lon="70.07030500">
	<ele>1220.13</ele>
	</trkpt>
<trkpt lat="41.55356200" lon="70.07036000">
	<ele>1220.06</ele>
	</trkpt>
<trkpt lat="41.55372200" lon="70.07047000">
	<ele>1219.43</ele>
	</trkpt>
<trkpt lat="41.55382000" lon="70.07056000">
	<ele>1219.01</ele>
	</trkpt>
<trkpt lat="41.55399000" lon="70.07063000">
	<ele>1218.06</ele>
	</trkpt>
<trkpt lat="41.55418400" lon="70.07079000">
	<ele>1214.98</ele>
	</trkpt>
<trkpt lat="41.55439400" lon="70.07088500">
	<ele>1210.74</ele>
	</trkpt>
<trkpt lat="41.55457000" lon="70.07114000">
	<ele>1207.19</ele>
	</trkpt>
<trkpt lat="41.55465300" lon="70.07118000">
	<ele>1206.25</ele>
	</trkpt>
<trkpt lat="41.55476400" lon="70.07128000">
	<ele>1204.75</ele>
	</trkpt>
<trkpt lat="41.55479000" lon="70.07134000">
	<ele>1203.68</ele>
	</trkpt>
<trkpt lat="41.55478300" lon="70.07137000">
	<ele>1203.16</ele>
	</trkpt>
</trkseg>
</trk>
</gpx>