<?xml version='1.0' encoding='utf-8'?>
<gpx xmlns="http://www.topografix.com/GPX/1/1" version="1.1"><trk><trkseg><trkpt lat="41.89669359780292" lon="70.55190239413727"><ele>0</ele></trkpt><trkpt lat="41.89686511778378" lon="70.55167515808061"><ele>0</ele></trkpt><trkpt lat="41.89702011294794" lon="70.55130685193248"><ele>0</ele></trkpt><trkpt lat="41.89711788726732" lon="70.55074809787628"><ele>0</ele></trkpt><trkpt lat="41.89734406325747" lon="70.55012771826502"><ele>0</ele></trkpt><trkpt lat="41.89767601639272" lon="70.54999444088769"><ele>0</ele></trkpt><trkpt lat="41.89799773391125" lon="70.54968285915112"><ele>0</ele></trkpt><trkpt lat="41.89841492166541" lon="70.54916070924283"><ele>0</ele></trkpt><trkpt lat="41.89888151610804" lon="70.54852458436358"><ele>0</ele></trkpt><trkpt lat="41.8995426642279" lon="70.5481219659128"><ele>0</ele></trkpt><trkpt lat="41.89984048149944" lon="70.54749962629465"><ele>0</ele></trkpt><trkpt lat="41.89997182940011" lon="70.54685376687598"><ele>0</ele></trkpt><trkpt lat="41.89988890029798" lon="70.54610503753653"><ele>0</ele></trkpt><trkpt lat="41.89927742541387" lon="70.5457918094171"><ele>0</ele></trkpt><trkpt lat="41.89877340449286" lon="70.54522193114394"><ele>0</ele></trkpt><trkpt lat="41.89886986762212" lon="70.54461801855508"><ele>0</ele></trkpt><trkpt lat="41.89877844575075" lon="70.54413512641619"><ele>0</ele></trkpt><trkpt lat="41.89855531210737" lon="70.5435120201857"><ele>0</ele></trkpt><trkpt lat="41.89825038603775" lon="70.54316853967227"><ele>0</ele></trkpt><trkpt lat="41.89771880543309" lon="70.54211696352434"><ele>0</ele></trkpt><trkpt lat="41.89731060390049" lon="70.54164410225221"><ele>0</ele></trkpt><trkpt lat="41.89674307809273" lon="70.54049895973158"><ele>0</ele></trkpt><trkpt lat="41.8964923840479" lon="70.54017520039008"><ele>0</ele></trkpt><trkpt lat="41.8962432896992" lon="70.53972469295073"><ele>0</ele></trkpt><trkpt lat="41.89605843654695" lon="70.53894042807975"><ele>0</ele></trkpt><trkpt lat="41.89586538460138" lon="70.53825750939708"><ele>0</ele></trkpt><trkpt lat="41.89564045779473" lon="70.53795395674516"><ele>0</ele></trkpt><trkpt lat="41.89571876511637" lon="70.53725999552576"><ele>0</ele></trkpt><trkpt lat="41.89568465358821" lon="70.53632182645889"><ele>0</ele></trkpt><trkpt lat="41.89538004656083" lon="70.53539223591699"><ele>0</ele></trkpt><trkpt lat="41.89518739666875" lon="70.53442948493574"><ele>0</ele></trkpt><trkpt lat="41.89573640912251" lon="70.53397671800792"><ele>0</ele></trkpt><trkpt lat="41.89620822769789" lon="70.53377525810741"><ele>0</ele></trkpt><trkpt lat="41.89637736306965" lon="70.53310319288255"><ele>0</ele></trkpt><trkpt lat="41.89611322550788" lon="70.5330245709074"><ele>0</ele></trkpt><trkpt lat="41.89557922665003" lon="70.53304348882632"><ele>0</ele></trkpt><trkpt lat="41.89468985299082" lon="70.53298830625558"><ele>0</ele></trkpt><trkpt lat="41.89434447234589" lon="70.53300369176623"><ele>0</ele></trkpt><trkpt lat="41.89402026623068" lon="70.53318311630834"><ele>0</ele></trkpt><trkpt lat="41.89343431541009" lon="70.53361767386734"><ele>0</ele></trkpt><trkpt lat="41.89289784284436" lon="70.53389028913865"><ele>0</ele></trkpt><trkpt lat="41.89263687778064" lon="70.53391204892559"><ele>0</ele></trkpt><trkpt lat="41.89187009260009" lon="70.53407006563427"><ele>0</ele></trkpt><trkpt lat="41.89155774316375" lon="70.53420915298187"><ele>0</ele></trkpt><trkpt lat="41.89144592651024" lon="70.53364939004314"><ele>0</ele></trkpt><trkpt lat="41.89134737574097" lon="70.53281258754264"><ele>0</ele></trkpt><trkpt lat="41.89134158691535" lon="70.53213415646304"><ele>0</ele></trkpt><trkpt lat="41.89093869134495" lon="70.53141510682944"><ele>0</ele></trkpt><trkpt lat="41.89049842981123" lon="70.53055676977995"><ele>0</ele></trkpt><trkpt lat="41.89037170300649" lon="70.52984466433503"><ele>0</ele></trkpt><trkpt lat="41.89032827515107" lon="70.5291934784191"><ele>0</ele></trkpt><trkpt lat="41.88993801719556" lon="70.52880044399829"><ele>0</ele></trkpt><trkpt lat="41.88969954637921" lon="70.52787572312089"><ele>0</ele></trkpt><trkpt lat="41.88926938880369" lon="70.52687097027228"><ele>0</ele></trkpt><trkpt lat="41.88920655805574" lon="70.52607981459975"><ele>0</ele></trkpt><trkpt lat="41.88926915240432" lon="70.52530518458803"><ele>0</ele></trkpt><trkpt lat="41.88910688340632" lon="70.5246448371897"><ele>0</ele></trkpt><trkpt lat="41.88892779548576" lon="70.52373835815806"><ele>0</ele></trkpt><trkpt lat="41.88894957446088" lon="70.52295264814914"><ele>0</ele></trkpt><trkpt lat="41.88886822117724" lon="70.52199855285879"><ele>0</ele></trkpt><trkpt lat="41.88897903735346" lon="70.52105304060349"><ele>0</ele></trkpt><trkpt lat="41.88946903066032" lon="70.52025119678603"><ele>0</ele></trkpt><trkpt lat="41.88975655703941" lon="70.51933137418261"><ele>0</ele></trkpt><trkpt lat="41.88991192241423" lon="70.51872061556499"><ele>0</ele></trkpt><trkpt lat="41.89002089922106" lon="70.51765554685227"><ele>0</ele></trkpt><trkpt lat="41.8902216676986" lon="70.51638816521974"><ele>0</ele></trkpt><trkpt lat="41.8903026587039" lon="70.51544284085655"><ele>0</ele></trkpt><trkpt lat="41.89042751629813" lon="70.51434388095176"><ele>0</ele></trkpt><trkpt lat="41.89091521804036" lon="70.51360129844247"><ele>0</ele></trkpt><trkpt lat="41.89196278925922" lon="70.51282262825566"><ele>0</ele></trkpt><trkpt lat="41.89270043912002" lon="70.51230611722724"><ele>0</ele></trkpt><trkpt lat="41.89319382149478" lon="70.51221671661297"><ele>0</ele></trkpt><trkpt lat="41.89393858134729" lon="70.51161436471091"><ele>0</ele></trkpt><trkpt lat="41.89500823840372" lon="70.51081243160863"><ele>0</ele></trkpt><trkpt lat="41.89510795189307" lon="70.5101059516344"><ele>0</ele></trkpt><trkpt lat="41.89561880630318" lon="70.50926175772766"><ele>0</ele></trkpt><trkpt lat="41.89644559928211" lon="70.50744940970131"><ele>0</ele></trkpt><trkpt lat="41.89759879720974" lon="70.50644166699729"><ele>0</ele></trkpt><trkpt lat="41.89829237178225" lon="70.50601833230648"><ele>0</ele></trkpt><trkpt lat="41.89858351889875" lon="70.50559257262981"><ele>0</ele></trkpt><trkpt lat="41.89907607041831" lon="70.50453669059891"><ele>0</ele></trkpt><trkpt lat="41.89961971067628" lon="70.50407515444438"><ele>0</ele></trkpt><trkpt lat="41.89999906573716" lon="70.50332584941496"><ele>0</ele></trkpt><trkpt lat="41.90079828521972" lon="70.50245446709897"><ele>0</ele></trkpt><trkpt lat="41.90147182239534" lon="70.50199011580457"><ele>0</ele></trkpt><trkpt lat="41.90197526226112" lon="70.50143673412084"><ele>0</ele></trkpt><trkpt lat="41.90249498002102" lon="70.49953576794991"><ele>0</ele></trkpt><trkpt lat="41.90326309430193" lon="70.49751529341053"><ele>0</ele></trkpt><trkpt lat="41.90424874815797" lon="70.49650619029541"><ele>0</ele></trkpt><trkpt lat="41.90544478175238" lon="70.49598667814617"><ele>0</ele></trkpt><trkpt lat="41.90777433779098" lon="70.49322122788607"><ele>0</ele></trkpt><trkpt lat="41.90851425844496" lon="70.49194148465948"><ele>0</ele></trkpt><trkpt lat="41.91024679803035" lon="70.4911682930171"><ele>0</ele></trkpt><trkpt lat="41.9109147836943" lon="70.49003143987738"><ele>0</ele></trkpt><trkpt lat="41.9112094144954" lon="70.48893649271642"><ele>0</ele></trkpt><trkpt lat="41.91149018453284" lon="70.4883870122023"><ele>0</ele></trkpt><trkpt lat="41.91160933767723" lon="70.48801436692882"><ele>0</ele></trkpt><trkpt lat="41.91200196111777" lon="70.48770932209804"><ele>0</ele></trkpt><trkpt lat="41.91252031847917" lon="70.48719480877895"><ele>0</ele></trkpt><trkpt lat="41.91293930029083" lon="70.48629587249394"><ele>0</ele></trkpt><trkpt lat="41.9131644310861" lon="70.48557508561048"><ele>0</ele></trkpt><trkpt lat="41.91388402250711" lon="70.4848232515875"><ele>0</ele></trkpt><trkpt lat="41.91498747243247" lon="70.4845258095995"><ele>0</ele></trkpt><trkpt lat="41.91535778657651" lon="70.48438538843571"><ele>0</ele></trkpt><trkpt lat="41.91566287663996" lon="70.48400718400013"><ele>0</ele></trkpt><trkpt lat="41.91615825254771" lon="70.48392362212897"><ele>0</ele></trkpt><trkpt lat="41.91671748510855" lon="70.48360517123056"><ele>0</ele></trkpt><trkpt lat="41.91717767297117" lon="70.48329273125141"><ele>0</ele></trkpt><trkpt lat="41.91724316999762" lon="70.48253986758725"><ele>0</ele></trkpt><trkpt lat="41.91739972730464" lon="70.48196937758773"><ele>0</ele></trkpt><trkpt lat="41.917703634188" lon="70.48198482831515"><ele>0</ele></trkpt><trkpt lat="41.91801730275601" lon="70.48171332330276"><ele>0</ele></trkpt><trkpt lat="41.91825078598175" lon="70.48135551986576"><ele>0</ele></trkpt><trkpt lat="41.91854995146904" lon="70.48185794320646"><ele>0</ele></trkpt><trkpt lat="41.91879870196475" lon="70.4808467728991"><ele>0</ele></trkpt><trkpt lat="41.91921436730827" lon="70.48114599709548"><ele>0</ele></trkpt><trkpt lat="41.91994038312978" lon="70.48089877161473"><ele>0</ele></trkpt><trkpt lat="41.92062793341486" lon="70.48053752598632"><ele>0</ele></trkpt><trkpt lat="41.92151389219961" lon="70.48016229773013"><ele>0</ele></trkpt><trkpt lat="41.92198836828584" lon="70.48043736053049"><ele>0</ele></trkpt><trkpt lat="41.92215554263317" lon="70.48027646466731"><ele>0</ele></trkpt><trkpt lat="41.92188317175426" lon="70.4796651271333"><ele>0</ele></trkpt><trkpt lat="41.92155148649195" lon="70.47826026736102"><ele>0</ele></trkpt><trkpt lat="41.92125415401019" lon="70.47729226106061"><ele>0</ele></trkpt><trkpt lat="41.92015913311182" lon="70.47530689800098"><ele>0</ele></trkpt><trkpt lat="41.92143525108915" lon="70.47590885696643"><ele>0</ele></trkpt><trkpt lat="41.92212024458784" lon="70.47551355766943"><ele>0</ele></trkpt><trkpt lat="41.92275969963495" lon="70.4751127852272"><ele>0</ele></trkpt><trkpt lat="41.92316907556361" lon="70.47389323976533"><ele>0</ele></trkpt><trkpt lat="41.92376241400309" lon="70.47286879491173"><ele>0</ele></trkpt><trkpt lat="41.92456163765773" lon="70.4715901840628"><ele>0</ele></trkpt><trkpt lat="41.92518026122834" lon="70.47065700713907"><ele>0</ele></trkpt><trkpt lat="41.92580576229366" lon="70.47023138405389"><ele>0</ele></trkpt><trkpt lat="41.92654062680132" lon="70.4693766239465"><ele>0</ele></trkpt><trkpt lat="41.92693121109306" lon="70.46925488692543"><ele>0</ele></trkpt><trkpt lat="41.92742236644323" lon="70.46943705192908"><ele>0</ele></trkpt><trkpt lat="41.92828035602504" lon="70.46931628291496"><ele>0</ele></trkpt><trkpt lat="41.92872479762289" lon="70.46858509080734"><ele>0</ele></trkpt><trkpt lat="41.92933053915036" lon="70.46801194690005"><ele>0</ele></trkpt><trkpt lat="41.9291860558679" lon="70.46745755139617"><ele>0</ele></trkpt><trkpt lat="41.92997717377701" lon="70.46675476380858"><ele>0</ele></trkpt><trkpt lat="41.93053754333709" lon="70.46586700862919"><ele>0</ele></trkpt><trkpt lat="41.93156775207789" lon="70.464109376213"><ele>0</ele></trkpt><trkpt lat="41.9318163513429" lon="70.4631395549663"><ele>0</ele></trkpt><trkpt lat="41.93207115700488" lon="70.46197990548879"><ele>0</ele></trkpt><trkpt lat="41.93212453167313" lon="70.46105124631151"><ele>0</ele></trkpt><trkpt lat="41.93202555011079" lon="70.45953054549408"><ele>0</ele></trkpt><trkpt lat="41.93207282476785" lon="70.45841029404284"><ele>0</ele></trkpt><trkpt lat="41.93253739175033" lon="70.45761870879149"><ele>0</ele></trkpt><trkpt lat="41.93237486735993" lon="70.45698015591158"><ele>0</ele></trkpt><trkpt lat="41.93215402668279" lon="70.45623188253685"><ele>0</ele></trkpt><trkpt lat="41.93198104882681" lon="70.4557706890534"><ele>0</ele></trkpt><trkpt lat="41.9315651284223" lon="70.4551145571525"><ele>0</ele></trkpt><trkpt lat="41.93094593722739" lon="70.45440855292598"><ele>0</ele></trkpt><trkpt lat="41.9305821147134" lon="70.45405080692825"><ele>0</ele></trkpt></trkseg></trk></gpx>