<?xml version='1.0' encoding='utf-8'?>
<gpx xmlns="http://www.topografix.com/GPX/1/1" version="1.1" creator="Sayr">
<trk><name>От дороги по Каптар-Кумыш-саю к водопаду</name><trkseg>
<trkpt lat="41.808342" lon="70.260906"><ele>1119.0</ele></trkpt>
<trkpt lat="41.808450" lon="70.260963"><ele>1120.0</ele></trkpt>
<trkpt lat="41.808536" lon="70.261083"><ele>1119.0</ele></trkpt>
<trkpt lat="41.808622" lon="70.261133"><ele>1121.0</ele></trkpt>
<trkpt lat="41.808807" lon="70.261305"><ele>1122.0</ele></trkpt>
<trkpt lat="41.809008" lon="70.261598"><ele>1122.0</ele></trkpt>
<trkpt lat="41.809142" lon="70.261830"><ele>1122.0</ele></trkpt>
<trkpt lat="41.809297" lon="70.262031"><ele>1122.0</ele></trkpt>
<trkpt lat="41.809508" lon="70.262201"><ele>1124.0</ele></trkpt>
<trkpt lat="41.809673" lon="70.262279"><ele>1126.0</ele></trkpt>
<trkpt lat="41.809980" lon="70.262483"><ele>1129.0</ele></trkpt>
<trkpt lat="41.810093" lon="70.262504"><ele>1130.0</ele></trkpt>
<trkpt lat="41.810368" lon="70.262432"><ele>1128.0</ele></trkpt>
<trkpt lat="41.810521" lon="70.262427"><ele>1128.0</ele></trkpt>
<trkpt lat="41.810657" lon="70.262444"><ele>1128.0</ele></trkpt>
<trkpt lat="41.810725" lon="70.262484"><ele>1128.0</ele></trkpt>
<trkpt lat="41.811013" lon="70.262796"><ele>1128.0</ele></trkpt>
<trkpt lat="41.811112" lon="70.262880"><ele>1130.0</ele></trkpt>
<trkpt lat="41.811330" lon="70.263281"><ele>1131.0</ele></trkpt>
<trkpt lat="41.811444" lon="70.263389"><ele>1132.0</ele></trkpt>
<trkpt lat="41.811698" lon="70.263557"><ele>1134.0</ele></trkpt>
<trkpt lat="41.812133" lon="70.263990"><ele>1136.0</ele></trkpt>
<trkpt lat="41.812407" lon="70.264183"><ele>1138.0</ele></trkpt>
<trkpt lat="41.812519" lon="70.264238"><ele>1137.0</ele></trkpt>
<trkpt lat="41.812571" lon="70.264304"><ele>1138.0</ele></trkpt>
<trkpt lat="41.812748" lon="70.264387"><ele>1140.0</ele></trkpt>
<trkpt lat="41.812872" lon="70.264502"><ele>1140.0</ele></trkpt>
<trkpt lat="41.812992" lon="70.264563"><ele>1140.0</ele></trkpt>
<trkpt lat="41.813060" lon="70.264635"><ele>1140.0</ele></trkpt>
<trkpt lat="41.813511" lon="70.264910"><ele>1140.0</ele></trkpt>
<trkpt lat="41.813658" lon="70.264974"><ele>1143.0</ele></trkpt>
<trkpt lat="41.813849" lon="70.265103"><ele>1143.0</ele></trkpt>
<trkpt lat="41.814167" lon="70.265418"><ele>1143.0</ele></trkpt>
<trkpt lat="41.814372" lon="70.265546"><ele>1144.0</ele></trkpt>
<trkpt lat="41.814894" lon="70.266048"><ele>1149.0</ele></trkpt>
<trkpt lat="41.815175" lon="70.266262"><ele>1150.0</ele></trkpt>
<trkpt lat="41.815341" lon="70.266432"><ele>1149.0</ele></trkpt>
<trkpt lat="41.815811" lon="70.266779"><ele>1150.0</ele></trkpt>
<trkpt lat="41.816030" lon="70.266872"><ele>1149.0</ele></trkpt>
<trkpt lat="41.816089" lon="70.266926"><ele>1149.6</ele></trkpt>
<trkpt lat="41.816165" lon="70.267060"><ele>1149.0</ele></trkpt>
<trkpt lat="41.816268" lon="70.267177"><ele>1152.0</ele></trkpt>
<trkpt lat="41.816309" lon="70.267265"><ele>1152.0</ele></trkpt>
<trkpt lat="41.816381" lon="70.267351"><ele>1152.0</ele></trkpt>
<trkpt lat="41.816713" lon="70.267944"><ele>1158.0</ele></trkpt>
<trkpt lat="41.817162" lon="70.268393"><ele>1164.0</ele></trkpt>
<trkpt lat="41.817219" lon="70.268487"><ele>1164.0</ele></trkpt>
<trkpt lat="41.817327" lon="70.268604"><ele>1164.0</ele></trkpt>
<trkpt lat="41.817414" lon="70.268789"><ele>1164.0</ele></trkpt>
<trkpt lat="41.817516" lon="70.268943"><ele>1164.0</ele></trkpt>
<trkpt lat="41.817678" lon="70.269008"><ele>1165.0</ele></trkpt>
<trkpt lat="41.817799" lon="70.269099"><ele>1167.0</ele></trkpt>
<trkpt lat="41.817858" lon="70.269215"><ele>1169.0</ele></trkpt>
<trkpt lat="41.817982" lon="70.269625"><ele>1170.0</ele></trkpt>
<trkpt lat="41.818049" lon="70.269747"><ele>1171.0</ele></trkpt>
<trkpt lat="41.818068" lon="70.269814"><ele>1172.0</ele></trkpt>
<trkpt lat="41.818133" lon="70.269939"><ele>1172.0</ele></trkpt>
<trkpt lat="41.818183" lon="70.269990"><ele>1176.0</ele></trkpt>
<trkpt lat="41.818254" lon="70.270121"><ele>1176.0</ele></trkpt>
<trkpt lat="41.818304" lon="70.270176"><ele>1176.0</ele></trkpt>
<trkpt lat="41.818336" lon="70.270256"><ele>1176.0</ele></trkpt>
<trkpt lat="41.818508" lon="70.270520"><ele>1179.0</ele></trkpt>
<trkpt lat="41.818681" lon="70.270665"><ele>1178.0</ele></trkpt>
<trkpt lat="41.818783" lon="70.270718"><ele>1179.0</ele></trkpt>
<trkpt lat="41.819296" lon="70.270917"><ele>1186.0</ele></trkpt>
<trkpt lat="41.819457" lon="70.271068"><ele>1186.0</ele></trkpt>
<trkpt lat="41.819639" lon="70.271101"><ele>1191.0</ele></trkpt>
<trkpt lat="41.819884" lon="70.271267"><ele>1193.0</ele></trkpt>
<trkpt lat="41.820082" lon="70.271327"><ele>1192.0</ele></trkpt>
<trkpt lat="41.820136" lon="70.271362"><ele>1191.0</ele></trkpt>
<trkpt lat="41.820164" lon="70.271432"><ele>1191.0</ele></trkpt>
<trkpt lat="41.820342" lon="70.271567"><ele>1192.0</ele></trkpt>
<trkpt lat="41.820549" lon="70.271810"><ele>1194.0</ele></trkpt>
<trkpt lat="41.820668" lon="70.272015"><ele>1196.0</ele></trkpt>
<trkpt lat="41.820714" lon="70.272064"><ele>1195.0</ele></trkpt>
<trkpt lat="41.820724" lon="70.272104"><ele>1194.0</ele></trkpt>
<trkpt lat="41.820850" lon="70.272279"><ele>1194.0</ele></trkpt>
<trkpt lat="41.820932" lon="70.272433"><ele>1194.0</ele></trkpt>
<trkpt lat="41.821012" lon="70.272649"><ele>1191.0</ele></trkpt>
<trkpt lat="41.821037" lon="70.272678"><ele>1188.0</ele></trkpt>
<trkpt lat="41.821037" lon="70.272710"><ele>1189.0</ele></trkpt>
<trkpt lat="41.821066" lon="70.272735"><ele>1188.0</ele></trkpt>
<trkpt lat="41.821122" lon="70.272836"><ele>1188.0</ele></trkpt>
<trkpt lat="41.821140" lon="70.272910"><ele>1188.0</ele></trkpt>
<trkpt lat="41.821147" lon="70.273166"><ele>1184.0</ele></trkpt>
<trkpt lat="41.821170" lon="70.273267"><ele>1185.0</ele></trkpt>
<trkpt lat="41.821168" lon="70.273333"><ele>1184.0</ele></trkpt>
<trkpt lat="41.821267" lon="70.273725"><ele>1182.0</ele></trkpt>
<trkpt lat="41.821302" lon="70.274089"><ele>1182.0</ele></trkpt>
<trkpt lat="41.821361" lon="70.274337"><ele>1180.0</ele></trkpt>
<trkpt lat="41.821411" lon="70.274477"><ele>1180.0</ele></trkpt>
<trkpt lat="41.821431" lon="70.274607"><ele>1178.0</ele></trkpt>
<trkpt lat="41.821470" lon="70.274709"><ele>1178.0</ele></trkpt>
<trkpt lat="41.821494" lon="70.274854"><ele>1177.0</ele></trkpt>
<trkpt lat="41.821487" lon="70.274887"><ele>1178.0</ele></trkpt>
<trkpt lat="41.821532" lon="70.275007"><ele>1178.0</ele></trkpt>
<trkpt lat="41.821554" lon="70.275141"><ele>1176.0</ele></trkpt>
<trkpt lat="41.821623" lon="70.275298"><ele>1175.0</ele></trkpt>
<trkpt lat="41.821870" lon="70.275735"><ele>1170.0</ele></trkpt>
<trkpt lat="41.821964" lon="70.276008"><ele>1174.0</ele></trkpt>
<trkpt lat="41.822011" lon="70.276063"><ele>1172.0</ele></trkpt>
<trkpt lat="41.822113" lon="70.276321"><ele>1173.0</ele></trkpt>
<trkpt lat="41.822108" lon="70.276391"><ele>1173.0</ele></trkpt>
<trkpt lat="41.822202" lon="70.276642"><ele>1170.0</ele></trkpt>
<trkpt lat="41.822202" lon="70.276715"><ele>1169.0</ele></trkpt>
<trkpt lat="41.822240" lon="70.276818"><ele>1168.0</ele></trkpt>
<trkpt lat="41.822337" lon="70.276988"><ele>1170.0</ele></trkpt>
<trkpt lat="41.822372" lon="70.277017"><ele>1170.0</ele></trkpt>
<trkpt lat="41.822388" lon="70.277096"><ele>1170.0</ele></trkpt>
<trkpt lat="41.822436" lon="70.277207"><ele>1170.0</ele></trkpt>
<trkpt lat="41.822457" lon="70.277346"><ele>1172.0</ele></trkpt>
<trkpt lat="41.822509" lon="70.277528"><ele>1170.0</ele></trkpt>
<trkpt lat="41.822560" lon="70.277626"><ele>1172.0</ele></trkpt>
<trkpt lat="41.822582" lon="70.277752"><ele>1174.0</ele></trkpt>
<trkpt lat="41.822655" lon="70.277843"><ele>1173.0</ele></trkpt>
<trkpt lat="41.822726" lon="70.277992"><ele>1177.0</ele></trkpt>
<trkpt lat="41.822819" lon="70.278112"><ele>1176.0</ele></trkpt>
<trkpt lat="41.822837" lon="70.278182"><ele>1178.0</ele></trkpt>
<trkpt lat="41.822879" lon="70.278240"><ele>1178.0</ele></trkpt>
<trkpt lat="41.823032" lon="70.278598"><ele>1177.0</ele></trkpt>
<trkpt lat="41.823069" lon="70.278734"><ele>1180.3</ele></trkpt>
<trkpt lat="41.823084" lon="70.278970"><ele>1180.0</ele></trkpt>
<trkpt lat="41.823115" lon="70.279120"><ele>1179.0</ele></trkpt>
<trkpt lat="41.823101" lon="70.279148"><ele>1180.0</ele></trkpt>
<trkpt lat="41.823122" lon="70.279266"><ele>1181.0</ele></trkpt>
<trkpt lat="41.823085" lon="70.279582"><ele>1181.9</ele></trkpt>
<trkpt lat="41.823008" lon="70.279983"><ele>1181.0</ele></trkpt>
<trkpt lat="41.822988" lon="70.280231"><ele>1182.0</ele></trkpt>
<trkpt lat="41.822996" lon="70.280358"><ele>1182.0</ele></trkpt>
<trkpt lat="41.823020" lon="70.280421"><ele>1182.0</ele></trkpt>
<trkpt lat="41.823020" lon="70.280489"><ele>1182.0</ele></trkpt>
<trkpt lat="41.823063" lon="70.280721"><ele>1184.0</ele></trkpt>
<trkpt lat="41.823114" lon="70.280786"><ele>1182.0</ele></trkpt>
<trkpt lat="41.823162" lon="70.280904"><ele>1182.0</ele></trkpt>
<trkpt lat="41.823274" lon="70.280991"><ele>1184.0</ele></trkpt>
<trkpt lat="41.823292" lon="70.281067"><ele>1182.0</ele></trkpt>
<trkpt lat="41.823421" lon="70.281163"><ele>1182.0</ele></trkpt>
<trkpt lat="41.823490" lon="70.281266"><ele>1182.0</ele></trkpt>
<trkpt lat="41.823613" lon="70.281399"><ele>1182.0</ele></trkpt>
<trkpt lat="41.823647" lon="70.281466"><ele>1183.0</ele></trkpt>
<trkpt lat="41.823759" lon="70.281603"><ele>1182.0</ele></trkpt>
<trkpt lat="41.823786" lon="70.281669"><ele>1183.0</ele></trkpt>
<trkpt lat="41.823821" lon="70.281692"><ele>1183.0</ele></trkpt>
<trkpt lat="41.823849" lon="70.281760"><ele>1182.0</ele></trkpt>
<trkpt lat="41.824056" lon="70.281989"><ele>1179.0</ele></trkpt>
<trkpt lat="41.824196" lon="70.282202"><ele>1179.0</ele></trkpt>
<trkpt lat="41.824206" lon="70.282241"><ele>1177.0</ele></trkpt>
<trkpt lat="41.824339" lon="70.282405"><ele>1176.0</ele></trkpt>
<trkpt lat="41.824415" lon="70.282538"><ele>1176.0</ele></trkpt>
<trkpt lat="41.824564" lon="70.282721"><ele>1175.0</ele></trkpt>
<trkpt lat="41.824577" lon="70.282758"><ele>1176.0</ele></trkpt>
<trkpt lat="41.824685" lon="70.282876"><ele>1176.0</ele></trkpt>
<trkpt lat="41.824743" lon="70.282967"><ele>1174.0</ele></trkpt>
<trkpt lat="41.824899" lon="70.283131"><ele>1173.0</ele></trkpt>
<trkpt lat="41.824988" lon="70.283266"><ele>1173.0</ele></trkpt>
<trkpt lat="41.825077" lon="70.283333"><ele>1174.0</ele></trkpt>
<trkpt lat="41.825202" lon="70.283475"><ele>1172.6</ele></trkpt>
<trkpt lat="41.825255" lon="70.283503"><ele>1170.0</ele></trkpt>
<trkpt lat="41.825367" lon="70.283516"><ele>1173.0</ele></trkpt>
<trkpt lat="41.825427" lon="70.283562"><ele>1172.0</ele></trkpt>
<trkpt lat="41.825545" lon="70.283606"><ele>1171.7</ele></trkpt>
<trkpt lat="41.825582" lon="70.283603"><ele>1170.0</ele></trkpt>
<trkpt lat="41.825715" lon="70.283675"><ele>1170.0</ele></trkpt>
<trkpt lat="41.825827" lon="70.283682"><ele>1169.0</ele></trkpt>
<trkpt lat="41.825864" lon="70.283726"><ele>1167.0</ele></trkpt>
<trkpt lat="41.826000" lon="70.283721"><ele>1167.0</ele></trkpt>
<trkpt lat="41.826137" lon="70.283783"><ele>1167.0</ele></trkpt>
<trkpt lat="41.826203" lon="70.283783"><ele>1166.0</ele></trkpt>
<trkpt lat="41.826360" lon="70.283836"><ele>1164.0</ele></trkpt>
<trkpt lat="41.826550" lon="70.283847"><ele>1162.0</ele></trkpt>
<trkpt lat="41.826925" lon="70.283933"><ele>1160.0</ele></trkpt>
<trkpt lat="41.826968" lon="70.283920"><ele>1161.0</ele></trkpt>
<trkpt lat="41.826997" lon="70.283938"><ele>1160.0</ele></trkpt>
<trkpt lat="41.827274" lon="70.283972"><ele>1162.4</ele></trkpt>
<trkpt lat="41.827450" lon="70.284058"><ele>1158.0</ele></trkpt>
<trkpt lat="41.827690" lon="70.284133"><ele>1158.0</ele></trkpt>
<trkpt lat="41.827968" lon="70.284283"><ele>1155.0</ele></trkpt>
<trkpt lat="41.828139" lon="70.284354"><ele>1158.0</ele></trkpt>
<trkpt lat="41.828346" lon="70.284517"><ele>1157.0</ele></trkpt>
<trkpt lat="41.828744" lon="70.284952"><ele>1149.0</ele></trkpt>
<trkpt lat="41.829044" lon="70.285155"><ele>1150.0</ele></trkpt>
<trkpt lat="41.829233" lon="70.285165"><ele>1148.0</ele></trkpt>
<trkpt lat="41.829339" lon="70.285115"><ele>1148.0</ele></trkpt>
<trkpt lat="41.829444" lon="70.285016"><ele>1148.0</ele></trkpt>
<trkpt lat="41.829478" lon="70.284930"><ele>1148.0</ele></trkpt>
<trkpt lat="41.829515" lon="70.284911"><ele>1148.0</ele></trkpt>
<trkpt lat="41.829539" lon="70.285060"><ele>1144.0</ele></trkpt>
<trkpt lat="41.829538" lon="70.284894"><ele>1149.0</ele></trkpt>
<trkpt lat="41.829574" lon="70.284836"><ele>1148.0</ele></trkpt>
<trkpt lat="41.829635" lon="70.284863"><ele>1146.0</ele></trkpt>
<trkpt lat="41.829695" lon="70.284920"><ele>1148.0</ele></trkpt>
<trkpt lat="41.829817" lon="70.285176"><ele>1150.0</ele></trkpt>
<trkpt lat="41.829838" lon="70.285278"><ele>1150.0</ele></trkpt>
<trkpt lat="41.829825" lon="70.285346"><ele>1150.0</ele></trkpt>
<trkpt lat="41.829837" lon="70.285416"><ele>1150.0</ele></trkpt>
<trkpt lat="41.829959" lon="70.285759"><ele>1152.0</ele></trkpt>
<trkpt lat="41.830093" lon="70.285934"><ele>1152.0</ele></trkpt>
<trkpt lat="41.830170" lon="70.286066"><ele>1152.0</ele></trkpt>
<trkpt lat="41.830227" lon="70.286109"><ele>1152.0</ele></trkpt>
<trkpt lat="41.830304" lon="70.286226"><ele>1152.4</ele></trkpt>
<trkpt lat="41.830355" lon="70.286260"><ele>1150.0</ele></trkpt>
<trkpt lat="41.830425" lon="70.286397"><ele>1149.0</ele></trkpt>
<trkpt lat="41.830540" lon="70.286504"><ele>1149.0</ele></trkpt>
<trkpt lat="41.830742" lon="70.286768"><ele>1148.0</ele></trkpt>
<trkpt lat="41.830866" lon="70.286888"><ele>1150.0</ele></trkpt>
<trkpt lat="41.830949" lon="70.287054"><ele>1149.0</ele></trkpt>
<trkpt lat="41.830957" lon="70.287242"><ele>1146.0</ele></trkpt>
<trkpt lat="41.831002" lon="70.287337"><ele>1148.0</ele></trkpt>
<trkpt lat="41.831047" lon="70.287391"><ele>1149.0</ele></trkpt>
<trkpt lat="41.831152" lon="70.287644"><ele>1149.0</ele></trkpt>
<trkpt lat="41.831341" lon="70.288034"><ele>1150.0</ele></trkpt>
<trkpt lat="41.831387" lon="70.288106"><ele>1150.0</ele></trkpt>
<trkpt lat="41.831580" lon="70.288297"><ele>1150.0</ele></trkpt>
<trkpt lat="41.831663" lon="70.288428"><ele>1150.0</ele></trkpt>
<trkpt lat="41.831716" lon="70.288718"><ele>1150.0</ele></trkpt>
<trkpt lat="41.831811" lon="70.288961"><ele>1148.0</ele></trkpt>
<trkpt lat="41.831833" lon="70.289109"><ele>1146.0</ele></trkpt>
<trkpt lat="41.831777" lon="70.289393"><ele>1148.0</ele></trkpt>
<trkpt lat="41.831798" lon="70.289480"><ele>1148.0</ele></trkpt>
<trkpt lat="41.831807" lon="70.289729"><ele>1150.0</ele></trkpt>
<trkpt lat="41.831787" lon="70.289856"><ele>1149.0</ele></trkpt>
<trkpt lat="41.831758" lon="70.289885"><ele>1147.0</ele></trkpt>
<trkpt lat="41.831723" lon="70.289985"><ele>1146.0</ele></trkpt>
<trkpt lat="41.831675" lon="70.290067"><ele>1146.0</ele></trkpt>
<trkpt lat="41.831453" lon="70.290300"><ele>1142.0</ele></trkpt>
<trkpt lat="41.831385" lon="70.290394"><ele>1141.0</ele></trkpt>
<trkpt lat="41.831338" lon="70.290552"><ele>1142.0</ele></trkpt>
<trkpt lat="41.831340" lon="70.290585"><ele>1143.0</ele></trkpt>
<trkpt lat="41.831393" lon="70.290761"><ele>1143.0</ele></trkpt>
<trkpt lat="41.831480" lon="70.290873"><ele>1144.0</ele></trkpt>
<trkpt lat="41.831540" lon="70.290904"><ele>1145.4</ele></trkpt>
<trkpt lat="41.831612" lon="70.291001"><ele>1144.0</ele></trkpt>
<trkpt lat="41.831664" lon="70.291175"><ele>1142.0</ele></trkpt>
<trkpt lat="41.831747" lon="70.291275"><ele>1142.0</ele></trkpt>
<trkpt lat="41.831792" lon="70.291368"><ele>1141.0</ele></trkpt>
<trkpt lat="41.831873" lon="70.291627"><ele>1142.0</ele></trkpt>
<trkpt lat="41.831881" lon="70.291696"><ele>1142.0</ele></trkpt>
<trkpt lat="41.831860" lon="70.291800"><ele>1142.0</ele></trkpt>
<trkpt lat="41.831859" lon="70.292181"><ele>1140.0</ele></trkpt>
<trkpt lat="41.831834" lon="70.292367"><ele>1140.0</ele></trkpt>
<trkpt lat="41.831837" lon="70.292445"><ele>1140.0</ele></trkpt>
<trkpt lat="41.831924" lon="70.292731"><ele>1144.0</ele></trkpt>
<trkpt lat="41.831932" lon="70.292846"><ele>1143.0</ele></trkpt>
<trkpt lat="41.831972" lon="70.292927"><ele>1143.0</ele></trkpt>
<trkpt lat="41.832016" lon="70.293109"><ele>1143.0</ele></trkpt>
<trkpt lat="41.832103" lon="70.293227"><ele>1143.0</ele></trkpt>
<trkpt lat="41.832253" lon="70.293265"><ele>1143.0</ele></trkpt>
<trkpt lat="41.832381" lon="70.293322"><ele>1144.0</ele></trkpt>
<trkpt lat="41.832409" lon="70.293354"><ele>1144.0</ele></trkpt>
<trkpt lat="41.832435" lon="70.293431"><ele>1144.0</ele></trkpt>
<trkpt lat="41.832511" lon="70.293513"><ele>1146.0</ele></trkpt>
<trkpt lat="41.832577" lon="70.293730"><ele>1144.0</ele></trkpt>
<trkpt lat="41.832599" lon="70.293753"><ele>1143.0</ele></trkpt>
<trkpt lat="41.832698" lon="70.293768"><ele>1144.0</ele></trkpt>
<trkpt lat="41.832725" lon="70.293791"><ele>1144.0</ele></trkpt>
<trkpt lat="41.832822" lon="70.293915"><ele>1146.0</ele></trkpt>
<trkpt lat="41.832884" lon="70.294042"><ele>1147.0</ele></trkpt>
<trkpt lat="41.832954" lon="70.294073"><ele>1144.0</ele></trkpt>
<trkpt lat="41.833125" lon="70.294314"><ele>1146.0</ele></trkpt>
<trkpt lat="41.833223" lon="70.294416"><ele>1144.0</ele></trkpt>
<trkpt lat="41.833288" lon="70.294428"><ele>1143.0</ele></trkpt>
<trkpt lat="41.833353" lon="70.294467"><ele>1143.0</ele></trkpt>
<trkpt lat="41.833544" lon="70.294645"><ele>1143.0</ele></trkpt>
<trkpt lat="41.833884" lon="70.294741"><ele>1137.0</ele></trkpt>
<trkpt lat="41.834050" lon="70.294925"><ele>1134.0</ele></trkpt>
<trkpt lat="41.834423" lon="70.295175"><ele>1125.0</ele></trkpt>
<trkpt lat="41.834715" lon="70.295343"><ele>1125.0</ele></trkpt>
<trkpt lat="41.834846" lon="70.295380"><ele>1122.0</ele></trkpt>
<trkpt lat="41.834905" lon="70.295378"><ele>1120.0</ele></trkpt>
<trkpt lat="41.835096" lon="70.295454"><ele>1120.0</ele></trkpt>
<trkpt lat="41.835227" lon="70.295476"><ele>1116.0</ele></trkpt>
<trkpt lat="41.835435" lon="70.295610"><ele>1115.0</ele></trkpt>
<trkpt lat="41.835569" lon="70.295640"><ele>1116.0</ele></trkpt>
<trkpt lat="41.835664" lon="70.295740"><ele>1114.0</ele></trkpt>
<trkpt lat="41.835757" lon="70.295783"><ele>1112.0</ele></trkpt>
<trkpt lat="41.835870" lon="70.295865"><ele>1113.0</ele></trkpt>
<trkpt lat="41.836172" lon="70.296151"><ele>1112.0</ele></trkpt>
<trkpt lat="41.836214" lon="70.296219"><ele>1113.0</ele></trkpt>
<trkpt lat="41.836518" lon="70.296421"><ele>1110.0</ele></trkpt>
<trkpt lat="41.836558" lon="70.296478"><ele>1110.0</ele></trkpt>
<trkpt lat="41.836606" lon="70.296704"><ele>1108.0</ele></trkpt>
<trkpt lat="41.836538" lon="70.297068"><ele>1100.0</ele></trkpt>
<trkpt lat="41.836537" lon="70.297209"><ele>1098.0</ele></trkpt>
<trkpt lat="41.836586" lon="70.297306"><ele>1096.0</ele></trkpt>
<trkpt lat="41.836558" lon="70.297417"><ele>1096.0</ele></trkpt>
<trkpt lat="41.836453" lon="70.297433"><ele>1096.0</ele></trkpt>
<trkpt lat="41.836368" lon="70.297413"><ele>1089.0</ele></trkpt>
<trkpt lat="41.836355" lon="70.297563"><ele>1092.0</ele></trkpt>
<trkpt lat="41.836292" lon="70.297737"><ele>1086.0</ele></trkpt>
<trkpt lat="41.836264" lon="70.297749"><ele>1085.0</ele></trkpt>
<trkpt lat="41.836258" lon="70.297842"><ele>1079.0</ele></trkpt>
<trkpt lat="41.836290" lon="70.297837"><ele>1083.0</ele></trkpt>
<trkpt lat="41.836339" lon="70.297748"><ele>1082.0</ele></trkpt>
<trkpt lat="41.836379" lon="70.297739"><ele>1083.0</ele></trkpt>
<trkpt lat="41.836421" lon="70.297776"><ele>1082.0</ele></trkpt>
<trkpt lat="41.836411" lon="70.297815"><ele>1080.0</ele></trkpt>
<trkpt lat="41.836352" lon="70.297896"><ele>1079.3</ele></trkpt>
<trkpt lat="41.836325" lon="70.297987"><ele>1080.0</ele></trkpt>
<trkpt lat="41.836237" lon="70.298064"><ele>1081.0</ele></trkpt>
<trkpt lat="41.836184" lon="70.298199"><ele>1084.0</ele></trkpt>
<trkpt lat="41.836164" lon="70.298317"><ele>1089.0</ele></trkpt>
<trkpt lat="41.836078" lon="70.298409"><ele>1094.0</ele></trkpt>
<trkpt lat="41.836005" lon="70.298436"><ele>1095.0</ele></trkpt>
<trkpt lat="41.835968" lon="70.298419"><ele>1092.0</ele></trkpt>
<trkpt lat="41.835779" lon="70.298414"><ele>1082.0</ele></trkpt>
<trkpt lat="41.835724" lon="70.298453"><ele>1077.0</ele></trkpt>
<trkpt lat="41.835772" lon="70.298575"><ele>1082.0</ele></trkpt>
<trkpt lat="41.835775" lon="70.298695"><ele>1082.0</ele></trkpt>
<trkpt lat="41.835750" lon="70.298769"><ele>1080.0</ele></trkpt>
<trkpt lat="41.835687" lon="70.298795"><ele>1077.0</ele></trkpt>
<trkpt lat="41.835624" lon="70.298874"><ele>1077.7</ele></trkpt>
<trkpt lat="41.835634" lon="70.298906"><ele>1076.6</ele></trkpt>
<trkpt lat="41.835584" lon="70.299060"><ele>1072.0</ele></trkpt>
<trkpt lat="41.835535" lon="70.299062"><ele>1085.0</ele></trkpt>
<trkpt lat="41.835477" lon="70.299180"><ele>1088.0</ele></trkpt>
<trkpt lat="41.835396" lon="70.299239"><ele>1094.0</ele></trkpt>
<trkpt lat="41.835316" lon="70.299361"><ele>1093.0</ele></trkpt>
<trkpt lat="41.835206" lon="70.299328"><ele>1095.0</ele></trkpt>
<trkpt lat="41.835169" lon="70.299381"><ele>1101.0</ele></trkpt>
<trkpt lat="41.835086" lon="70.299385"><ele>1106.0</ele></trkpt>
<trkpt lat="41.835082" lon="70.299421"><ele>1100.0</ele></trkpt>
<trkpt lat="41.834977" lon="70.299373"><ele>1106.0</ele></trkpt>
<trkpt lat="41.834926" lon="70.299567"><ele>1112.4</ele></trkpt>
<trkpt lat="41.834896" lon="70.299562"><ele>1112.8</ele></trkpt>
<trkpt lat="41.834817" lon="70.299605"><ele>1113.0</ele></trkpt>
<trkpt lat="41.834750" lon="70.299614"><ele>1119.2</ele></trkpt>
<trkpt lat="41.834651" lon="70.299687"><ele>1123.0</ele></trkpt>
<trkpt lat="41.834575" lon="70.299660"><ele>1116.0</ele></trkpt>
<trkpt lat="41.834506" lon="70.299711"><ele>1128.0</ele></trkpt>
<trkpt lat="41.834491" lon="70.299674"><ele>1126.0</ele></trkpt>
<trkpt lat="41.834529" lon="70.299715"><ele>1132.4</ele></trkpt>
<trkpt lat="41.834476" lon="70.299694"><ele>1135.2</ele></trkpt>
<trkpt lat="41.834508" lon="70.299776"><ele>1132.0</ele></trkpt>
<trkpt lat="41.834482" lon="70.299771"><ele>1132.0</ele></trkpt>
<trkpt lat="41.834565" lon="70.299748"><ele>1108.0</ele></trkpt>
<trkpt lat="41.834528" lon="70.299653"><ele>1097.0</ele></trkpt>
<trkpt lat="41.834481" lon="70.299625"><ele>1098.0</ele></trkpt>
<trkpt lat="41.834445" lon="70.299643"><ele>1096.0</ele></trkpt>
<trkpt lat="41.834401" lon="70.299595"><ele>1097.6</ele></trkpt>
<trkpt lat="41.834334" lon="70.299607"><ele>1089.0</ele></trkpt>
<trkpt lat="41.834212" lon="70.299566"><ele>1086.0</ele></trkpt>
<trkpt lat="41.834190" lon="70.299536"><ele>1086.0</ele></trkpt>
<trkpt lat="41.834206" lon="70.299608"><ele>1080.0</ele></trkpt>
<trkpt lat="41.834174" lon="70.299603"><ele>1080.0</ele></trkpt>
<trkpt lat="41.834169" lon="70.299660"><ele>1077.0</ele></trkpt>
<trkpt lat="41.834186" lon="70.299699"><ele>1078.4</ele></trkpt>
<trkpt lat="41.834158" lon="70.299670"><ele>1080.0</ele></trkpt>
<trkpt lat="41.834156" lon="70.299764"><ele>1085.0</ele></trkpt>
<trkpt lat="41.834189" lon="70.299817"><ele>1086.0</ele></trkpt>
<trkpt lat="41.834196" lon="70.299885"><ele>1088.0</ele></trkpt>
<trkpt lat="41.834154" lon="70.299833"><ele>1086.0</ele></trkpt>
<trkpt lat="41.834186" lon="70.299957"><ele>1092.7</ele></trkpt>
<trkpt lat="41.834154" lon="70.299943"><ele>1102.0</ele></trkpt>
<trkpt lat="41.834150" lon="70.299998"><ele>1111.9</ele></trkpt>
<trkpt lat="41.834061" lon="70.300008"><ele>1111.0</ele></trkpt>
<trkpt lat="41.834059" lon="70.300045"><ele>1111.0</ele></trkpt>
<trkpt lat="41.833926" lon="70.300145"><ele>1111.0</ele></trkpt>
<trkpt lat="41.833848" lon="70.300113"><ele>1120.0</ele></trkpt>
<trkpt lat="41.833856" lon="70.300254"><ele>1120.0</ele></trkpt>
<trkpt lat="41.833835" lon="70.300311"><ele>1120.0</ele></trkpt>
<trkpt lat="41.833846" lon="70.300368"><ele>1116.6</ele></trkpt>
<trkpt lat="41.833801" lon="70.300321"><ele>1127.0</ele></trkpt>
<trkpt lat="41.833706" lon="70.300386"><ele>1122.0</ele></trkpt>
<trkpt lat="41.833713" lon="70.300504"><ele>1130.0</ele></trkpt>
<trkpt lat="41.833685" lon="70.300481"><ele>1134.0</ele></trkpt>
<trkpt lat="41.833697" lon="70.300669"><ele>1136.0</ele></trkpt>
<trkpt lat="41.833685" lon="70.300742"><ele>1134.8</ele></trkpt>
<trkpt lat="41.833627" lon="70.300725"><ele>1131.0</ele></trkpt>
<trkpt lat="41.833618" lon="70.300761"><ele>1133.0</ele></trkpt>
<trkpt lat="41.833540" lon="70.300713"><ele>1132.0</ele></trkpt>
<trkpt lat="41.833613" lon="70.300939"><ele>1125.6</ele></trkpt>
<trkpt lat="41.833567" lon="70.300985"><ele>1121.0</ele></trkpt>
<trkpt lat="41.833489" lon="70.301002"><ele>1119.0</ele></trkpt>
<trkpt lat="41.833392" lon="70.300933"><ele>1099.0</ele></trkpt>
<trkpt lat="41.833260" lon="70.300729"><ele>1112.0</ele></trkpt>
<trkpt lat="41.833306" lon="70.300763"><ele>1104.0</ele></trkpt>
<trkpt lat="41.833416" lon="70.300910"><ele>1108.0</ele></trkpt>
<trkpt lat="41.833361" lon="70.300853"><ele>1108.0</ele></trkpt>
<trkpt lat="41.833455" lon="70.301112"><ele>1100.0</ele></trkpt>
<trkpt lat="41.833365" lon="70.301251"><ele>1098.0</ele></trkpt>
<trkpt lat="41.833356" lon="70.301323"><ele>1098.0</ele></trkpt>
<trkpt lat="41.833286" lon="70.301422"><ele>1100.0</ele></trkpt>
<trkpt lat="41.833283" lon="70.301459"><ele>1100.0</ele></trkpt>
<trkpt lat="41.833327" lon="70.301487"><ele>1102.0</ele></trkpt>
<trkpt lat="41.833315" lon="70.301543"><ele>1105.0</ele></trkpt>
<trkpt lat="41.833287" lon="70.301564"><ele>1107.0</ele></trkpt>
<trkpt lat="41.833314" lon="70.301655"><ele>1110.0</ele></trkpt>
<trkpt lat="41.833292" lon="70.301681"><ele>1110.0</ele></trkpt>
<trkpt lat="41.833285" lon="70.301755"><ele>1112.0</ele></trkpt>
<trkpt lat="41.833261" lon="70.301779"><ele>1112.0</ele></trkpt>
<trkpt lat="41.833270" lon="70.301808"><ele>1115.0</ele></trkpt>
<trkpt lat="41.833247" lon="70.301884"><ele>1116.0</ele></trkpt>
<trkpt lat="41.833191" lon="70.301923"><ele>1116.0</ele></trkpt>
<trkpt lat="41.833183" lon="70.302099"><ele>1119.0</ele></trkpt>
<trkpt lat="41.833145" lon="70.302247"><ele>1120.0</ele></trkpt>
<trkpt lat="41.833072" lon="70.302439"><ele>1116.0</ele></trkpt>
<trkpt lat="41.833073" lon="70.302476"><ele>1117.0</ele></trkpt>
<trkpt lat="41.833045" lon="70.302532"><ele>1118.0</ele></trkpt>
<trkpt lat="41.833029" lon="70.302617"><ele>1116.0</ele></trkpt>
<trkpt lat="41.832936" lon="70.302776"><ele>1113.0</ele></trkpt>
<trkpt lat="41.832893" lon="70.302930"><ele>1115.5</ele></trkpt>
<trkpt lat="41.832816" lon="70.303090"><ele>1114.0</ele></trkpt>
<trkpt lat="41.832841" lon="70.303265"><ele>1116.0</ele></trkpt>
<trkpt lat="41.832822" lon="70.303416"><ele>1118.0</ele></trkpt>
<trkpt lat="41.832858" lon="70.303488"><ele>1120.0</ele></trkpt>
<trkpt lat="41.832832" lon="70.303604"><ele>1119.0</ele></trkpt>
<trkpt lat="41.832777" lon="70.303681"><ele>1119.0</ele></trkpt>
<trkpt lat="41.832759" lon="70.303757"><ele>1121.0</ele></trkpt>
<trkpt lat="41.832753" lon="70.304063"><ele>1119.0</ele></trkpt>
<trkpt lat="41.832562" lon="70.304237"><ele>1110.0</ele></trkpt>
<trkpt lat="41.832524" lon="70.304317"><ele>1112.0</ele></trkpt>
<trkpt lat="41.832506" lon="70.304422"><ele>1113.0</ele></trkpt>
<trkpt lat="41.832451" lon="70.304465"><ele>1112.0</ele></trkpt>
<trkpt lat="41.832453" lon="70.304564"><ele>1116.0</ele></trkpt>
<trkpt lat="41.832422" lon="70.304623"><ele>1115.0</ele></trkpt>
<trkpt lat="41.832430" lon="70.304725"><ele>1116.0</ele></trkpt>
<trkpt lat="41.832413" lon="70.304837"><ele>1116.0</ele></trkpt>
<trkpt lat="41.832386" lon="70.304903"><ele>1118.0</ele></trkpt>
<trkpt lat="41.832364" lon="70.305033"><ele>1119.0</ele></trkpt>
<trkpt lat="41.832356" lon="70.305195"><ele>1122.0</ele></trkpt>
<trkpt lat="41.832386" lon="70.305253"><ele>1122.0</ele></trkpt>
<trkpt lat="41.832382" lon="70.305424"><ele>1128.0</ele></trkpt>
<trkpt lat="41.832415" lon="70.305493"><ele>1131.0</ele></trkpt>
<trkpt lat="41.832419" lon="70.305535"><ele>1131.0</ele></trkpt>
<trkpt lat="41.832402" lon="70.305603"><ele>1132.1</ele></trkpt>
<trkpt lat="41.832401" lon="70.305694"><ele>1131.0</ele></trkpt>
<trkpt lat="41.832462" lon="70.305849"><ele>1133.0</ele></trkpt>
<trkpt lat="41.832461" lon="70.305981"><ele>1131.0</ele></trkpt>
<trkpt lat="41.832486" lon="70.306051"><ele>1130.0</ele></trkpt>
<trkpt lat="41.832492" lon="70.306158"><ele>1134.0</ele></trkpt>
<trkpt lat="41.832381" lon="70.306603"><ele>1134.0</ele></trkpt>
<trkpt lat="41.832333" lon="70.306710"><ele>1134.0</ele></trkpt>
<trkpt lat="41.832320" lon="70.306883"><ele>1136.0</ele></trkpt>
<trkpt lat="41.832293" lon="70.306921"><ele>1134.0</ele></trkpt>
<trkpt lat="41.832303" lon="70.306998"><ele>1132.0</ele></trkpt>
<trkpt lat="41.832287" lon="70.307075"><ele>1132.0</ele></trkpt>
<trkpt lat="41.832193" lon="70.307159"><ele>1134.0</ele></trkpt>
<trkpt lat="41.832130" lon="70.307282"><ele>1134.0</ele></trkpt>
<trkpt lat="41.832084" lon="70.307510"><ele>1137.0</ele></trkpt>
<trkpt lat="41.832103" lon="70.307589"><ele>1137.0</ele></trkpt>
<trkpt lat="41.832038" lon="70.307626"><ele>1136.0</ele></trkpt>
<trkpt lat="41.832001" lon="70.307736"><ele>1136.0</ele></trkpt>
<trkpt lat="41.831988" lon="70.307966"><ele>1140.0</ele></trkpt>
<trkpt lat="41.831949" lon="70.308061"><ele>1142.0</ele></trkpt>
<trkpt lat="41.831962" lon="70.308100"><ele>1142.0</ele></trkpt>
<trkpt lat="41.831921" lon="70.308147"><ele>1143.0</ele></trkpt>
<trkpt lat="41.831930" lon="70.308266"><ele>1145.0</ele></trkpt>
<trkpt lat="41.831908" lon="70.308347"><ele>1147.0</ele></trkpt>
<trkpt lat="41.831878" lon="70.308415"><ele>1149.0</ele></trkpt>
<trkpt lat="41.831819" lon="70.308462"><ele>1148.0</ele></trkpt>
<trkpt lat="41.831765" lon="70.308567"><ele>1152.0</ele></trkpt>
<trkpt lat="41.831721" lon="70.308598"><ele>1152.0</ele></trkpt>
<trkpt lat="41.831727" lon="70.308640"><ele>1154.0</ele></trkpt>
<trkpt lat="41.831708" lon="70.308770"><ele>1158.0</ele></trkpt>
<trkpt lat="41.831745" lon="70.308837"><ele>1156.0</ele></trkpt>
<trkpt lat="41.831753" lon="70.308903"><ele>1156.0</ele></trkpt>
<trkpt lat="41.831681" lon="70.308980"><ele>1155.0</ele></trkpt>
<trkpt lat="41.831671" lon="70.309020"><ele>1157.0</ele></trkpt>
<trkpt lat="41.831639" lon="70.309040"><ele>1155.0</ele></trkpt>
<trkpt lat="41.831612" lon="70.309108"><ele>1160.0</ele></trkpt>
<trkpt lat="41.831601" lon="70.309194"><ele>1167.0</ele></trkpt>
<trkpt lat="41.831508" lon="70.309414"><ele>1170.0</ele></trkpt>
<trkpt lat="41.831430" lon="70.309493"><ele>1173.0</ele></trkpt>
<trkpt lat="41.831401" lon="70.309551"><ele>1172.0</ele></trkpt>
<trkpt lat="41.831353" lon="70.309548"><ele>1173.0</ele></trkpt>
<trkpt lat="41.831298" lon="70.309578"><ele>1175.0</ele></trkpt>
<trkpt lat="41.831262" lon="70.309638"><ele>1176.0</ele></trkpt>
<trkpt lat="41.831211" lon="70.309662"><ele>1179.0</ele></trkpt>
<trkpt lat="41.831196" lon="70.309745"><ele>1180.0</ele></trkpt>
<trkpt lat="41.831174" lon="70.309777"><ele>1180.0</ele></trkpt>
<trkpt lat="41.831101" lon="70.309853"><ele>1184.0</ele></trkpt>
<trkpt lat="41.831032" lon="70.309897"><ele>1184.0</ele></trkpt>
<trkpt lat="41.830999" lon="70.309899"><ele>1185.0</ele></trkpt>
<trkpt lat="41.830963" lon="70.309980"><ele>1185.0</ele></trkpt>
<trkpt lat="41.830848" lon="70.310138"><ele>1188.0</ele></trkpt>
<trkpt lat="41.830861" lon="70.310281"><ele>1188.0</ele></trkpt>
<trkpt lat="41.830843" lon="70.310348"><ele>1188.0</ele></trkpt>
<trkpt lat="41.830814" lon="70.310363"><ele>1188.0</ele></trkpt>
<trkpt lat="41.830797" lon="70.310397"><ele>1189.0</ele></trkpt>
<trkpt lat="41.830812" lon="70.310535"><ele>1189.9</ele></trkpt>
<trkpt lat="41.830772" lon="70.310601"><ele>1188.0</ele></trkpt>
<trkpt lat="41.830630" lon="70.310736"><ele>1190.0</ele></trkpt>
<trkpt lat="41.830513" lon="70.310792"><ele>1188.0</ele></trkpt>
<trkpt lat="41.830482" lon="70.310846"><ele>1190.0</ele></trkpt>
<trkpt lat="41.830417" lon="70.310887"><ele>1188.0</ele></trkpt>
<trkpt lat="41.830319" lon="70.310901"><ele>1188.0</ele></trkpt>
<trkpt lat="41.830311" lon="70.310936"><ele>1189.3</ele></trkpt>
<trkpt lat="41.830275" lon="70.310980"><ele>1189.9</ele></trkpt>
<trkpt lat="41.830349" lon="70.311338"><ele>1190.0</ele></trkpt>
<trkpt lat="41.830307" lon="70.311402"><ele>1188.0</ele></trkpt>
<trkpt lat="41.830212" lon="70.311442"><ele>1188.0</ele></trkpt>
<trkpt lat="41.830176" lon="70.311510"><ele>1188.0</ele></trkpt>
<trkpt lat="41.829999" lon="70.311710"><ele>1191.0</ele></trkpt>
<trkpt lat="41.829893" lon="70.311770"><ele>1191.0</ele></trkpt>
<trkpt lat="41.829831" lon="70.311774"><ele>1191.0</ele></trkpt>
<trkpt lat="41.829785" lon="70.311752"><ele>1194.0</ele></trkpt>
<trkpt lat="41.829785" lon="70.311705"><ele>1193.0</ele></trkpt>
<trkpt lat="41.829783" lon="70.311765"><ele>1192.0</ele></trkpt>
<trkpt lat="41.829566" lon="70.311870"><ele>1194.0</ele></trkpt>
<trkpt lat="41.829532" lon="70.311933"><ele>1193.0</ele></trkpt>
<trkpt lat="41.829440" lon="70.312040"><ele>1193.0</ele></trkpt>
<trkpt lat="41.829394" lon="70.312169"><ele>1196.0</ele></trkpt>
<trkpt lat="41.829352" lon="70.312236"><ele>1196.0</ele></trkpt>
<trkpt lat="41.829314" lon="70.312251"><ele>1196.0</ele></trkpt>
<trkpt lat="41.829286" lon="70.312346"><ele>1197.0</ele></trkpt>
<trkpt lat="41.829257" lon="70.312385"><ele>1198.0</ele></trkpt>
<trkpt lat="41.829200" lon="70.312419"><ele>1197.0</ele></trkpt>
<trkpt lat="41.829115" lon="70.312542"><ele>1198.0</ele></trkpt>
<trkpt lat="41.829094" lon="70.312610"><ele>1196.0</ele></trkpt>
<trkpt lat="41.829070" lon="70.312638"><ele>1197.0</ele></trkpt>
<trkpt lat="41.828890" lon="70.312697"><ele>1197.0</ele></trkpt>
<trkpt lat="41.828824" lon="70.312740"><ele>1197.0</ele></trkpt>
<trkpt lat="41.828800" lon="70.312781"><ele>1199.0</ele></trkpt>
<trkpt lat="41.828740" lon="70.312823"><ele>1198.0</ele></trkpt>
<trkpt lat="41.828706" lon="70.312895"><ele>1198.0</ele></trkpt>
<trkpt lat="41.828622" lon="70.312924"><ele>1197.0</ele></trkpt>
<trkpt lat="41.828561" lon="70.313047"><ele>1196.0</ele></trkpt>
<trkpt lat="41.828512" lon="70.313109"><ele>1194.0</ele></trkpt>
<trkpt lat="41.828496" lon="70.313175"><ele>1196.0</ele></trkpt>
<trkpt lat="41.828411" lon="70.313280"><ele>1196.0</ele></trkpt>
<trkpt lat="41.828317" lon="70.313335"><ele>1196.0</ele></trkpt>
<trkpt lat="41.828165" lon="70.313376"><ele>1198.0</ele></trkpt>
<trkpt lat="41.828125" lon="70.313434"><ele>1197.0</ele></trkpt>
<trkpt lat="41.828063" lon="70.313466"><ele>1198.0</ele></trkpt>
<trkpt lat="41.828026" lon="70.313464"><ele>1197.0</ele></trkpt>
<trkpt lat="41.827841" lon="70.313531"><ele>1198.0</ele></trkpt>
<trkpt lat="41.827824" lon="70.313566"><ele>1199.0</ele></trkpt>
<trkpt lat="41.827769" lon="70.313600"><ele>1200.0</ele></trkpt>
<trkpt lat="41.827637" lon="70.313654"><ele>1198.0</ele></trkpt>
<trkpt lat="41.827599" lon="70.313720"><ele>1197.0</ele></trkpt>
<trkpt lat="41.827512" lon="70.313793"><ele>1200.0</ele></trkpt>
<trkpt lat="41.827507" lon="70.313858"><ele>1200.0</ele></trkpt>
<trkpt lat="41.827449" lon="70.313918"><ele>1198.0</ele></trkpt>
<trkpt lat="41.827472" lon="70.314091"><ele>1200.0</ele></trkpt>
<trkpt lat="41.827448" lon="70.314150"><ele>1201.0</ele></trkpt>
<trkpt lat="41.827402" lon="70.314197"><ele>1199.0</ele></trkpt>
<trkpt lat="41.827406" lon="70.314230"><ele>1200.0</ele></trkpt>
<trkpt lat="41.827521" lon="70.314375"><ele>1205.0</ele></trkpt>
<trkpt lat="41.827551" lon="70.314562"><ele>1208.0</ele></trkpt>
<trkpt lat="41.827526" lon="70.314707"><ele>1210.0</ele></trkpt>
<trkpt lat="41.827514" lon="70.314745"><ele>1208.0</ele></trkpt>
<trkpt lat="41.827485" lon="70.314771"><ele>1209.0</ele></trkpt>
<trkpt lat="41.827432" lon="70.315013"><ele>1208.0</ele></trkpt>
<trkpt lat="41.827372" lon="70.315197"><ele>1210.0</ele></trkpt>
<trkpt lat="41.827328" lon="70.315257"><ele>1212.0</ele></trkpt>
<trkpt lat="41.827312" lon="70.315325"><ele>1209.0</ele></trkpt>
<trkpt lat="41.827349" lon="70.315505"><ele>1210.0</ele></trkpt>
<trkpt lat="41.827371" lon="70.315847"><ele>1208.0</ele></trkpt>
<trkpt lat="41.827352" lon="70.315963"><ele>1208.0</ele></trkpt>
<trkpt lat="41.827369" lon="70.316041"><ele>1210.0</ele></trkpt>
<trkpt lat="41.827331" lon="70.316145"><ele>1211.0</ele></trkpt>
<trkpt lat="41.827322" lon="70.316263"><ele>1212.0</ele></trkpt>
<trkpt lat="41.827440" lon="70.316533"><ele>1212.0</ele></trkpt>
<trkpt lat="41.827419" lon="70.316610"><ele>1212.0</ele></trkpt>
<trkpt lat="41.827459" lon="70.316734"><ele>1215.0</ele></trkpt>
<trkpt lat="41.827490" lon="70.316769"><ele>1216.0</ele></trkpt>
<trkpt lat="41.827499" lon="70.316916"><ele>1215.0</ele></trkpt>
<trkpt lat="41.827562" lon="70.317074"><ele>1218.1</ele></trkpt>
<trkpt lat="41.827622" lon="70.317178"><ele>1218.0</ele></trkpt>
<trkpt lat="41.827663" lon="70.317303"><ele>1218.0</ele></trkpt>
<trkpt lat="41.827644" lon="70.317487"><ele>1220.0</ele></trkpt>
<trkpt lat="41.827668" lon="70.317512"><ele>1222.0</ele></trkpt>
<trkpt lat="41.827685" lon="70.317656"><ele>1220.0</ele></trkpt>
<trkpt lat="41.827645" lon="70.317800"><ele>1222.0</ele></trkpt>
<trkpt lat="41.827656" lon="70.318078"><ele>1224.0</ele></trkpt>
<trkpt lat="41.827651" lon="70.318110"><ele>1224.0</ele></trkpt>
<trkpt lat="41.827607" lon="70.318157"><ele>1224.0</ele></trkpt>
<trkpt lat="41.827630" lon="70.318216"><ele>1224.0</ele></trkpt>
<trkpt lat="41.827629" lon="70.318253"><ele>1224.0</ele></trkpt>
<trkpt lat="41.827573" lon="70.318350"><ele>1228.0</ele></trkpt>
<trkpt lat="41.827546" lon="70.318369"><ele>1228.4</ele></trkpt>
<trkpt lat="41.827477" lon="70.318537"><ele>1228.0</ele></trkpt>
<trkpt lat="41.827433" lon="70.318572"><ele>1227.0</ele></trkpt>
<trkpt lat="41.827375" lon="70.318793"><ele>1225.0</ele></trkpt>
<trkpt lat="41.827324" lon="70.318857"><ele>1227.0</ele></trkpt>
<trkpt lat="41.827296" lon="70.318954"><ele>1228.0</ele></trkpt>
<trkpt lat="41.827336" lon="70.319064"><ele>1232.0</ele></trkpt>
<trkpt lat="41.827346" lon="70.319074"><ele>1231.0</ele></trkpt>
<trkpt lat="41.827351" lon="70.319054"><ele>1230.0</ele></trkpt>
<trkpt lat="41.827421" lon="70.319154"><ele>1224.0</ele></trkpt>
<trkpt lat="41.827426" lon="70.319217"><ele>1225.0</ele></trkpt>
<trkpt lat="41.827410" lon="70.319270"><ele>1224.0</ele></trkpt>
<trkpt lat="41.827376" lon="70.319265"><ele>1230.0</ele></trkpt>
<trkpt lat="41.827333" lon="70.319356"><ele>1232.0</ele></trkpt>
<trkpt lat="41.827225" lon="70.319441"><ele>1230.0</ele></trkpt>
<trkpt lat="41.827178" lon="70.319498"><ele>1232.0</ele></trkpt>
<trkpt lat="41.827138" lon="70.319597"><ele>1232.0</ele></trkpt>
<trkpt lat="41.827051" lon="70.319654"><ele>1233.0</ele></trkpt>
<trkpt lat="41.827021" lon="70.319708"><ele>1232.0</ele></trkpt>
<trkpt lat="41.826962" lon="70.319735"><ele>1232.0</ele></trkpt>
<trkpt lat="41.826931" lon="70.319848"><ele>1233.0</ele></trkpt>
<trkpt lat="41.826829" lon="70.319975"><ele>1230.0</ele></trkpt>
<trkpt lat="41.826751" lon="70.320180"><ele>1236.0</ele></trkpt>
<trkpt lat="41.826753" lon="70.320211"><ele>1236.0</ele></trkpt>
<trkpt lat="41.826795" lon="70.320275"><ele>1238.0</ele></trkpt>
<trkpt lat="41.826794" lon="70.320311"><ele>1239.0</ele></trkpt>
<trkpt lat="41.826734" lon="70.320426"><ele>1242.0</ele></trkpt>
<trkpt lat="41.826676" lon="70.320480"><ele>1242.0</ele></trkpt>
<trkpt lat="41.826646" lon="70.320475"><ele>1242.0</ele></trkpt>
<trkpt lat="41.826618" lon="70.320498"><ele>1242.0</ele></trkpt>
<trkpt lat="41.826604" lon="70.320535"><ele>1245.0</ele></trkpt>
<trkpt lat="41.826629" lon="70.320677"><ele>1247.0</ele></trkpt>
<trkpt lat="41.826600" lon="70.320771"><ele>1248.0</ele></trkpt>
<trkpt lat="41.826610" lon="70.320840"><ele>1248.0</ele></trkpt>
<trkpt lat="41.826679" lon="70.320980"><ele>1252.0</ele></trkpt>
<trkpt lat="41.826770" lon="70.321093"><ele>1251.9</ele></trkpt>
<trkpt lat="41.826826" lon="70.321207"><ele>1251.7</ele></trkpt>
<trkpt lat="41.826901" lon="70.321459"><ele>1254.0</ele></trkpt>
<trkpt lat="41.826910" lon="70.321607"><ele>1254.0</ele></trkpt>
<trkpt lat="41.826977" lon="70.321724"><ele>1256.0</ele></trkpt>
<trkpt lat="41.826986" lon="70.321828"><ele>1258.0</ele></trkpt>
<trkpt lat="41.827078" lon="70.322078"><ele>1259.9</ele></trkpt>
<trkpt lat="41.827065" lon="70.322171"><ele>1261.0</ele></trkpt>
<trkpt lat="41.827083" lon="70.322270"><ele>1258.0</ele></trkpt>
<trkpt lat="41.827118" lon="70.322329"><ele>1257.0</ele></trkpt>
<trkpt lat="41.827190" lon="70.322565"><ele>1263.0</ele></trkpt>
<trkpt lat="41.827423" lon="70.323007"><ele>1266.0</ele></trkpt>
<trkpt lat="41.827487" lon="70.323037"><ele>1274.0</ele></trkpt>
<trkpt lat="41.827565" lon="70.323039"><ele>1274.0</ele></trkpt>
<trkpt lat="41.827662" lon="70.323172"><ele>1274.0</ele></trkpt>
<trkpt lat="41.827695" lon="70.323247"><ele>1273.0</ele></trkpt>
<trkpt lat="41.827701" lon="70.323467"><ele>1275.0</ele></trkpt>
<trkpt lat="41.827683" lon="70.323512"><ele>1274.0</ele></trkpt>
<trkpt lat="41.827657" lon="70.323707"><ele>1272.0</ele></trkpt>
<trkpt lat="41.827622" lon="70.323814"><ele>1272.0</ele></trkpt>
<trkpt lat="41.827514" lon="70.324017"><ele>1274.0</ele></trkpt>
<trkpt lat="41.827467" lon="70.324197"><ele>1278.0</ele></trkpt>
<trkpt lat="41.827444" lon="70.324363"><ele>1280.0</ele></trkpt>
<trkpt lat="41.827454" lon="70.324545"><ele>1282.0</ele></trkpt>
<trkpt lat="41.827407" lon="70.324707"><ele>1284.0</ele></trkpt>
<trkpt lat="41.827412" lon="70.324749"><ele>1284.0</ele></trkpt>
<trkpt lat="41.827371" lon="70.324953"><ele>1289.0</ele></trkpt>
<trkpt lat="41.827384" lon="70.325041"><ele>1291.0</ele></trkpt>
<trkpt lat="41.827383" lon="70.325348"><ele>1296.0</ele></trkpt>
<trkpt lat="41.827574" lon="70.326041"><ele>1292.0</ele></trkpt>
<trkpt lat="41.827603" lon="70.326259"><ele>1294.0</ele></trkpt>
<trkpt lat="41.827642" lon="70.326407"><ele>1294.0</ele></trkpt>
<trkpt lat="41.827617" lon="70.326691"><ele>1298.0</ele></trkpt>
<trkpt lat="41.827546" lon="70.326998"><ele>1298.0</ele></trkpt>
<trkpt lat="41.827554" lon="70.327158"><ele>1298.0</ele></trkpt>
<trkpt lat="41.827543" lon="70.327273"><ele>1298.0</ele></trkpt>
<trkpt lat="41.827572" lon="70.327373"><ele>1296.0</ele></trkpt>
<trkpt lat="41.827535" lon="70.327485"><ele>1297.0</ele></trkpt>
<trkpt lat="41.827470" lon="70.327586"><ele>1297.0</ele></trkpt>
<trkpt lat="41.827477" lon="70.327629"><ele>1299.0</ele></trkpt>
<trkpt lat="41.827444" lon="70.327720"><ele>1299.0</ele></trkpt>
<trkpt lat="41.827437" lon="70.327799"><ele>1300.0</ele></trkpt>
<trkpt lat="41.827301" lon="70.328020"><ele>1301.0</ele></trkpt>
<trkpt lat="41.827249" lon="70.328157"><ele>1304.7</ele></trkpt>
<trkpt lat="41.827288" lon="70.328346"><ele>1304.0</ele></trkpt>
<trkpt lat="41.827281" lon="70.328439"><ele>1304.0</ele></trkpt>
<trkpt lat="41.827331" lon="70.328611"><ele>1304.0</ele></trkpt>
<trkpt lat="41.827333" lon="70.328679"><ele>1304.0</ele></trkpt>
<trkpt lat="41.827313" lon="70.328756"><ele>1305.0</ele></trkpt>
<trkpt lat="41.827319" lon="70.328810"><ele>1304.0</ele></trkpt>
<trkpt lat="41.827342" lon="70.328841"><ele>1302.0</ele></trkpt>
<trkpt lat="41.827311" lon="70.328877"><ele>1302.0</ele></trkpt>
<trkpt lat="41.827311" lon="70.328942"><ele>1305.0</ele></trkpt>
<trkpt lat="41.827246" lon="70.328943"><ele>1304.0</ele></trkpt>
<trkpt lat="41.827205" lon="70.329011"><ele>1308.0</ele></trkpt>
<trkpt lat="41.827097" lon="70.329058"><ele>1308.0</ele></trkpt>
<trkpt lat="41.827009" lon="70.329130"><ele>1308.0</ele></trkpt>
<trkpt lat="41.826986" lon="70.329185"><ele>1309.0</ele></trkpt>
<trkpt lat="41.826959" lon="70.329373"><ele>1310.0</ele></trkpt>
<trkpt lat="41.826857" lon="70.329675"><ele>1310.0</ele></trkpt>
<trkpt lat="41.826780" lon="70.330188"><ele>1312.0</ele></trkpt>
<trkpt lat="41.826688" lon="70.330359"><ele>1312.0</ele></trkpt>
<trkpt lat="41.826626" lon="70.330664"><ele>1315.3</ele></trkpt>
<trkpt lat="41.826523" lon="70.330729"><ele>1314.0</ele></trkpt>
<trkpt lat="41.826450" lon="70.330734"><ele>1315.0</ele></trkpt>
<trkpt lat="41.826422" lon="70.330761"><ele>1317.0</ele></trkpt>
<trkpt lat="41.826156" lon="70.330869"><ele>1318.0</ele></trkpt>
<trkpt lat="41.825921" lon="70.331109"><ele>1320.0</ele></trkpt>
<trkpt lat="41.825906" lon="70.331178"><ele>1320.0</ele></trkpt>
<trkpt lat="41.825881" lon="70.331211"><ele>1320.0</ele></trkpt>
<trkpt lat="41.825850" lon="70.331233"><ele>1320.0</ele></trkpt>
<trkpt lat="41.825739" lon="70.331232"><ele>1322.0</ele></trkpt>
<trkpt lat="41.825726" lon="70.331218"><ele>1323.1</ele></trkpt>
<trkpt lat="41.825708" lon="70.331259"><ele>1320.0</ele></trkpt>
<trkpt lat="41.825643" lon="70.331301"><ele>1324.0</ele></trkpt>
<trkpt lat="41.825617" lon="70.331341"><ele>1325.0</ele></trkpt>
<trkpt lat="41.825660" lon="70.331482"><ele>1323.0</ele></trkpt>
<trkpt lat="41.825643" lon="70.331555"><ele>1325.0</ele></trkpt>
<trkpt lat="41.825560" lon="70.331658"><ele>1326.0</ele></trkpt>
<trkpt lat="41.825485" lon="70.331699"><ele>1326.0</ele></trkpt>
<trkpt lat="41.825448" lon="70.331749"><ele>1326.0</ele></trkpt>
<trkpt lat="41.825413" lon="70.331875"><ele>1327.0</ele></trkpt>
<trkpt lat="41.825358" lon="70.331914"><ele>1329.0</ele></trkpt>
<trkpt lat="41.825290" lon="70.332043"><ele>1329.0</ele></trkpt>
<trkpt lat="41.825262" lon="70.332128"><ele>1329.0</ele></trkpt>
<trkpt lat="41.825249" lon="70.332245"><ele>1329.0</ele></trkpt>
<trkpt lat="41.825165" lon="70.332441"><ele>1334.0</ele></trkpt>
<trkpt lat="41.825045" lon="70.332578"><ele>1335.0</ele></trkpt>
<trkpt lat="41.824869" lon="70.332703"><ele>1334.0</ele></trkpt>
<trkpt lat="41.824852" lon="70.332683"><ele>1334.0</ele></trkpt>
<trkpt lat="41.824786" lon="70.332767"><ele>1332.0</ele></trkpt>
<trkpt lat="41.824708" lon="70.332824"><ele>1332.0</ele></trkpt>
<trkpt lat="41.824631" lon="70.332909"><ele>1335.0</ele></trkpt>
<trkpt lat="41.824491" lon="70.333140"><ele>1336.0</ele></trkpt>
<trkpt lat="41.824458" lon="70.333164"><ele>1336.0</ele></trkpt>
<trkpt lat="41.824421" lon="70.333156"><ele>1337.2</ele></trkpt>
<trkpt lat="41.824324" lon="70.333277"><ele>1335.0</ele></trkpt>
<trkpt lat="41.824249" lon="70.333291"><ele>1336.0</ele></trkpt>
<trkpt lat="41.824025" lon="70.333495"><ele>1335.0</ele></trkpt>
<trkpt lat="41.823892" lon="70.333545"><ele>1338.0</ele></trkpt>
<trkpt lat="41.823821" lon="70.333623"><ele>1338.0</ele></trkpt>
<trkpt lat="41.823769" lon="70.333732"><ele>1336.0</ele></trkpt>
<trkpt lat="41.823735" lon="70.333745"><ele>1336.0</ele></trkpt>
<trkpt lat="41.823703" lon="70.333821"><ele>1338.0</ele></trkpt>
<trkpt lat="41.823656" lon="70.333873"><ele>1340.0</ele></trkpt>
<trkpt lat="41.823544" lon="70.333961"><ele>1341.0</ele></trkpt>
<trkpt lat="41.823377" lon="70.334017"><ele>1341.0</ele></trkpt>
<trkpt lat="41.823312" lon="70.334008"><ele>1341.0</ele></trkpt>
<trkpt lat="41.823130" lon="70.334138"><ele>1344.0</ele></trkpt>
<trkpt lat="41.823013" lon="70.334158"><ele>1344.0</ele></trkpt>
<trkpt lat="41.822873" lon="70.334220"><ele>1346.0</ele></trkpt>
<trkpt lat="41.822678" lon="70.334370"><ele>1347.0</ele></trkpt>
<trkpt lat="41.822555" lon="70.334390"><ele>1349.9</ele></trkpt>
<trkpt lat="41.822393" lon="70.334476"><ele>1350.0</ele></trkpt>
<trkpt lat="41.822240" lon="70.334592"><ele>1352.0</ele></trkpt>
<trkpt lat="41.822136" lon="70.334633"><ele>1352.0</ele></trkpt>
<trkpt lat="41.822099" lon="70.334622"><ele>1352.0</ele></trkpt>
<trkpt lat="41.822038" lon="70.334656"><ele>1354.5</ele></trkpt>
<trkpt lat="41.821934" lon="70.334663"><ele>1352.0</ele></trkpt>
<trkpt lat="41.821871" lon="70.334721"><ele>1354.0</ele></trkpt>
<trkpt lat="41.821771" lon="70.334876"><ele>1360.0</ele></trkpt>
<trkpt lat="41.821774" lon="70.334911"><ele>1360.0</ele></trkpt>
<trkpt lat="41.821701" lon="70.335060"><ele>1363.0</ele></trkpt>
<trkpt lat="41.821529" lon="70.335192"><ele>1368.0</ele></trkpt>
<trkpt lat="41.821304" lon="70.335293"><ele>1368.0</ele></trkpt>
<trkpt lat="41.821223" lon="70.335369"><ele>1368.0</ele></trkpt>
<trkpt lat="41.821129" lon="70.335352"><ele>1370.7</ele></trkpt>
<trkpt lat="41.821043" lon="70.335370"><ele>1370.0</ele></trkpt>
<trkpt lat="41.821018" lon="70.335392"><ele>1372.0</ele></trkpt>
<trkpt lat="41.820998" lon="70.335456"><ele>1374.0</ele></trkpt>
<trkpt lat="41.820956" lon="70.335497"><ele>1376.0</ele></trkpt>
<trkpt lat="41.820893" lon="70.335491"><ele>1377.0</ele></trkpt>
<trkpt lat="41.820807" lon="70.335562"><ele>1380.0</ele></trkpt>
<trkpt lat="41.820687" lon="70.335570"><ele>1380.0</ele></trkpt>
<trkpt lat="41.820563" lon="70.335633"><ele>1380.0</ele></trkpt>
<trkpt lat="41.820404" lon="70.335817"><ele>1380.0</ele></trkpt>
<trkpt lat="41.820192" lon="70.335935"><ele>1378.0</ele></trkpt>
<trkpt lat="41.820182" lon="70.335963"><ele>1377.0</ele></trkpt>
<trkpt lat="41.820116" lon="70.335987"><ele>1377.0</ele></trkpt>
<trkpt lat="41.820019" lon="70.336069"><ele>1380.0</ele></trkpt>
<trkpt lat="41.819931" lon="70.336176"><ele>1380.0</ele></trkpt>
<trkpt lat="41.819862" lon="70.336225"><ele>1380.0</ele></trkpt>
<trkpt lat="41.819735" lon="70.336228"><ele>1382.0</ele></trkpt>
<trkpt lat="41.819679" lon="70.336262"><ele>1381.0</ele></trkpt>
<trkpt lat="41.819583" lon="70.336357"><ele>1382.0</ele></trkpt>
<trkpt lat="41.819538" lon="70.336456"><ele>1383.0</ele></trkpt>
<trkpt lat="41.819499" lon="70.336495"><ele>1383.0</ele></trkpt>
<trkpt lat="41.819445" lon="70.336595"><ele>1384.0</ele></trkpt>
<trkpt lat="41.819414" lon="70.336606"><ele>1384.0</ele></trkpt>
<trkpt lat="41.819317" lon="70.336729"><ele>1387.0</ele></trkpt>
<trkpt lat="41.819266" lon="70.336856"><ele>1389.0</ele></trkpt>
<trkpt lat="41.819227" lon="70.336853"><ele>1388.0</ele></trkpt>
<trkpt lat="41.819123" lon="70.336898"><ele>1388.0</ele></trkpt>
<trkpt lat="41.819075" lon="70.336969"><ele>1391.0</ele></trkpt>
<trkpt lat="41.818951" lon="70.337088"><ele>1392.0</ele></trkpt>
<trkpt lat="41.818794" lon="70.337139"><ele>1392.0</ele></trkpt>
<trkpt lat="41.818728" lon="70.337114"><ele>1392.0</ele></trkpt>
<trkpt lat="41.818657" lon="70.337121"><ele>1392.0</ele></trkpt>
<trkpt lat="41.818625" lon="70.337132"><ele>1392.0</ele></trkpt>
<trkpt lat="41.818576" lon="70.337186"><ele>1395.0</ele></trkpt>
<trkpt lat="41.818476" lon="70.337182"><ele>1398.0</ele></trkpt>
<trkpt lat="41.818446" lon="70.337201"><ele>1397.0</ele></trkpt>
<trkpt lat="41.818390" lon="70.337275"><ele>1396.0</ele></trkpt>
<trkpt lat="41.818371" lon="70.337337"><ele>1392.0</ele></trkpt>
<trkpt lat="41.818317" lon="70.337394"><ele>1394.0</ele></trkpt>
<trkpt lat="41.818242" lon="70.337425"><ele>1394.0</ele></trkpt>
<trkpt lat="41.818163" lon="70.337535"><ele>1398.0</ele></trkpt>
<trkpt lat="41.818163" lon="70.337576"><ele>1398.0</ele></trkpt>
<trkpt lat="41.818093" lon="70.337652"><ele>1398.0</ele></trkpt>
<trkpt lat="41.818086" lon="70.337685"><ele>1398.0</ele></trkpt>
<trkpt lat="41.818014" lon="70.337744"><ele>1398.0</ele></trkpt>
<trkpt lat="41.817982" lon="70.337822"><ele>1398.0</ele></trkpt>
<trkpt lat="41.817921" lon="70.337862"><ele>1398.0</ele></trkpt>
<trkpt lat="41.817914" lon="70.337897"><ele>1398.0</ele></trkpt>
<trkpt lat="41.817939" lon="70.337962"><ele>1398.0</ele></trkpt>
<trkpt lat="41.817836" lon="70.338190"><ele>1404.0</ele></trkpt>
<trkpt lat="41.817788" lon="70.338225"><ele>1404.0</ele></trkpt>
<trkpt lat="41.817777" lon="70.338266"><ele>1404.0</ele></trkpt>
<trkpt lat="41.817716" lon="70.338268"><ele>1404.0</ele></trkpt>
<trkpt lat="41.817619" lon="70.338320"><ele>1404.0</ele></trkpt>
<trkpt lat="41.817534" lon="70.338422"><ele>1407.0</ele></trkpt>
<trkpt lat="41.817504" lon="70.338536"><ele>1410.0</ele></trkpt>
<trkpt lat="41.817456" lon="70.338570"><ele>1409.0</ele></trkpt>
<trkpt lat="41.817435" lon="70.338608"><ele>1410.0</ele></trkpt>
<trkpt lat="41.817318" lon="70.338669"><ele>1410.0</ele></trkpt>
<trkpt lat="41.817219" lon="70.338782"><ele>1413.0</ele></trkpt>
<trkpt lat="41.817190" lon="70.338765"><ele>1413.0</ele></trkpt>
<trkpt lat="41.817150" lon="70.338772"><ele>1413.0</ele></trkpt>
<trkpt lat="41.817039" lon="70.338961"><ele>1416.0</ele></trkpt>
<trkpt lat="41.816978" lon="70.339124"><ele>1421.4</ele></trkpt>
<trkpt lat="41.816941" lon="70.339144"><ele>1420.0</ele></trkpt>
<trkpt lat="41.816913" lon="70.339128"><ele>1417.0</ele></trkpt>
<trkpt lat="41.816934" lon="70.339152"><ele>1417.5</ele></trkpt>
<trkpt lat="41.816899" lon="70.339157"><ele>1416.0</ele></trkpt>
<trkpt lat="41.816872" lon="70.339186"><ele>1412.0</ele></trkpt>
<trkpt lat="41.816793" lon="70.339121"><ele>1405.0</ele></trkpt>
<trkpt lat="41.816747" lon="70.339138"><ele>1417.0</ele></trkpt>
<trkpt lat="41.816722" lon="70.339168"><ele>1419.0</ele></trkpt>
<trkpt lat="41.816692" lon="70.339373"><ele>1419.0</ele></trkpt>
<trkpt lat="41.816722" lon="70.339532"><ele>1416.0</ele></trkpt>
<trkpt lat="41.816677" lon="70.339592"><ele>1418.0</ele></trkpt>
<trkpt lat="41.816659" lon="70.339661"><ele>1419.0</ele></trkpt>
<trkpt lat="41.816668" lon="70.339692"><ele>1420.9</ele></trkpt>
<trkpt lat="41.816649" lon="70.339811"><ele>1424.0</ele></trkpt>
<trkpt lat="41.816421" lon="70.339935"><ele>1422.0</ele></trkpt>
<trkpt lat="41.816356" lon="70.340075"><ele>1422.0</ele></trkpt>
<trkpt lat="41.816308" lon="70.340128"><ele>1422.0</ele></trkpt>
<trkpt lat="41.816277" lon="70.340119"><ele>1424.0</ele></trkpt>
<trkpt lat="41.816245" lon="70.340138"><ele>1421.0</ele></trkpt>
<trkpt lat="41.816184" lon="70.340288"><ele>1424.0</ele></trkpt>
<trkpt lat="41.816130" lon="70.340321"><ele>1424.0</ele></trkpt>
<trkpt lat="41.816124" lon="70.340414"><ele>1428.0</ele></trkpt>
<trkpt lat="41.816162" lon="70.340515"><ele>1426.0</ele></trkpt>
<trkpt lat="41.816135" lon="70.340579"><ele>1428.0</ele></trkpt>
<trkpt lat="41.816042" lon="70.340604"><ele>1430.1</ele></trkpt>
<trkpt lat="41.816035" lon="70.340636"><ele>1430.0</ele></trkpt>
<trkpt lat="41.815977" lon="70.340659"><ele>1428.0</ele></trkpt>
<trkpt lat="41.815932" lon="70.340723"><ele>1428.0</ele></trkpt>
<trkpt lat="41.815862" lon="70.340696"><ele>1428.0</ele></trkpt>
<trkpt lat="41.815809" lon="70.340742"><ele>1428.0</ele></trkpt>
<trkpt lat="41.815741" lon="70.340864"><ele>1430.0</ele></trkpt>
<trkpt lat="41.815727" lon="70.340949"><ele>1428.0</ele></trkpt>
<trkpt lat="41.815695" lon="70.340980"><ele>1427.0</ele></trkpt>
<trkpt lat="41.815706" lon="70.341134"><ele>1428.0</ele></trkpt>
<trkpt lat="41.815609" lon="70.341297"><ele>1432.0</ele></trkpt>
<trkpt lat="41.815558" lon="70.341494"><ele>1433.0</ele></trkpt>
<trkpt lat="41.815405" lon="70.341612"><ele>1436.0</ele></trkpt>
<trkpt lat="41.815399" lon="70.341648"><ele>1436.0</ele></trkpt>
<trkpt lat="41.815338" lon="70.341738"><ele>1439.0</ele></trkpt>
<trkpt lat="41.815204" lon="70.341864"><ele>1431.0</ele></trkpt>
<trkpt lat="41.815188" lon="70.341950"><ele>1439.0</ele></trkpt>
<trkpt lat="41.815240" lon="70.342010"><ele>1439.8</ele></trkpt>
<trkpt lat="41.815232" lon="70.342106"><ele>1439.7</ele></trkpt>
<trkpt lat="41.815268" lon="70.342196"><ele>1437.0</ele></trkpt>
<trkpt lat="41.815270" lon="70.342250"><ele>1438.0</ele></trkpt>
<trkpt lat="41.815235" lon="70.342366"><ele>1440.0</ele></trkpt>
<trkpt lat="41.815217" lon="70.342358"><ele>1436.0</ele></trkpt>
<trkpt lat="41.815224" lon="70.342421"><ele>1440.0</ele></trkpt>
<trkpt lat="41.815188" lon="70.342483"><ele>1440.0</ele></trkpt>
<trkpt lat="41.815257" lon="70.342664"><ele>1440.0</ele></trkpt>
<trkpt lat="41.815240" lon="70.342743"><ele>1444.0</ele></trkpt>
<trkpt lat="41.815172" lon="70.342852"><ele>1446.0</ele></trkpt>
<trkpt lat="41.815185" lon="70.342966"><ele>1451.0</ele></trkpt>
<trkpt lat="41.815160" lon="70.342992"><ele>1455.0</ele></trkpt>
<trkpt lat="41.815169" lon="70.343031"><ele>1455.0</ele></trkpt>
<trkpt lat="41.815129" lon="70.343085"><ele>1457.0</ele></trkpt>
<trkpt lat="41.815172" lon="70.343172"><ele>1464.0</ele></trkpt>
<trkpt lat="41.815147" lon="70.343222"><ele>1464.9</ele></trkpt>
<trkpt lat="41.815169" lon="70.343415"><ele>1470.0</ele></trkpt>
<trkpt lat="41.815146" lon="70.343454"><ele>1469.0</ele></trkpt>
<trkpt lat="41.814953" lon="70.343608"><ele>1466.0</ele></trkpt>
<trkpt lat="41.814870" lon="70.343878"><ele>1467.0</ele></trkpt>
<trkpt lat="41.814889" lon="70.343983"><ele>1468.0</ele></trkpt>
<trkpt lat="41.814884" lon="70.344080"><ele>1470.0</ele></trkpt>
<trkpt lat="41.814785" lon="70.344234"><ele>1470.0</ele></trkpt>
<trkpt lat="41.814692" lon="70.344425"><ele>1483.8</ele></trkpt>
<trkpt lat="41.814623" lon="70.344497"><ele>1485.0</ele></trkpt>
<trkpt lat="41.814594" lon="70.344605"><ele>1491.0</ele></trkpt>
<trkpt lat="41.814506" lon="70.344668"><ele>1492.0</ele></trkpt>
<trkpt lat="41.814477" lon="70.344735"><ele>1493.0</ele></trkpt>
<trkpt lat="41.814347" lon="70.344899"><ele>1500.0</ele></trkpt>
<trkpt lat="41.814246" lon="70.344947"><ele>1504.0</ele></trkpt>
<trkpt lat="41.814115" lon="70.345065"><ele>1506.0</ele></trkpt>
<trkpt lat="41.813862" lon="70.345490"><ele>1512.0</ele></trkpt>
<trkpt lat="41.813841" lon="70.345605"><ele>1512.0</ele></trkpt>
<trkpt lat="41.813792" lon="70.345662"><ele>1514.0</ele></trkpt>
<trkpt lat="41.813777" lon="70.345704"><ele>1512.0</ele></trkpt>
<trkpt lat="41.813804" lon="70.345921"><ele>1514.0</ele></trkpt>
<trkpt lat="41.813788" lon="70.346123"><ele>1512.0</ele></trkpt>
<trkpt lat="41.813815" lon="70.346274"><ele>1509.0</ele></trkpt>
<trkpt lat="41.813751" lon="70.346445"><ele>1512.0</ele></trkpt>
<trkpt lat="41.813726" lon="70.346584"><ele>1514.0</ele></trkpt>
<trkpt lat="41.813797" lon="70.346750"><ele>1515.0</ele></trkpt>
<trkpt lat="41.813773" lon="70.346828"><ele>1515.0</ele></trkpt>
<trkpt lat="41.813750" lon="70.347014"><ele>1518.0</ele></trkpt>
<trkpt lat="41.813706" lon="70.347142"><ele>1521.0</ele></trkpt>
<trkpt lat="41.813665" lon="70.347181"><ele>1520.0</ele></trkpt>
<trkpt lat="41.813613" lon="70.347287"><ele>1521.0</ele></trkpt>
<trkpt lat="41.813608" lon="70.347326"><ele>1520.0</ele></trkpt>
<trkpt lat="41.813570" lon="70.347382"><ele>1518.0</ele></trkpt>
<trkpt lat="41.813563" lon="70.347414"><ele>1519.0</ele></trkpt>
<trkpt lat="41.813587" lon="70.347486"><ele>1518.0</ele></trkpt>
<trkpt lat="41.813452" lon="70.347645"><ele>1521.2</ele></trkpt>
<trkpt lat="41.813496" lon="70.348020"><ele>1524.0</ele></trkpt>
<trkpt lat="41.813466" lon="70.348078"><ele>1522.0</ele></trkpt>
<trkpt lat="41.813450" lon="70.348178"><ele>1523.0</ele></trkpt>
<trkpt lat="41.813408" lon="70.348225"><ele>1524.0</ele></trkpt>
<trkpt lat="41.813377" lon="70.348333"><ele>1524.0</ele></trkpt>
<trkpt lat="41.813262" lon="70.348402"><ele>1524.0</ele></trkpt>
<trkpt lat="41.813179" lon="70.348527"><ele>1521.0</ele></trkpt>
<trkpt lat="41.813179" lon="70.348603"><ele>1521.0</ele></trkpt>
<trkpt lat="41.813152" lon="70.348662"><ele>1520.0</ele></trkpt>
<trkpt lat="41.813070" lon="70.348731"><ele>1521.0</ele></trkpt>
<trkpt lat="41.813049" lon="70.348800"><ele>1522.0</ele></trkpt>
<trkpt lat="41.812949" lon="70.348850"><ele>1524.0</ele></trkpt>
<trkpt lat="41.812912" lon="70.348921"><ele>1527.6</ele></trkpt>
<trkpt lat="41.812881" lon="70.348940"><ele>1524.0</ele></trkpt>
<trkpt lat="41.812822" lon="70.349091"><ele>1522.0</ele></trkpt>
<trkpt lat="41.812742" lon="70.349207"><ele>1524.0</ele></trkpt>
<trkpt lat="41.812591" lon="70.349368"><ele>1530.0</ele></trkpt>
<trkpt lat="41.812543" lon="70.349583"><ele>1530.0</ele></trkpt>
<trkpt lat="41.812460" lon="70.349700"><ele>1533.0</ele></trkpt>
<trkpt lat="41.812418" lon="70.349792"><ele>1535.0</ele></trkpt>
<trkpt lat="41.812399" lon="70.349911"><ele>1536.0</ele></trkpt>
<trkpt lat="41.812413" lon="70.349975"><ele>1536.0</ele></trkpt>
<trkpt lat="41.812336" lon="70.350060"><ele>1536.0</ele></trkpt>
<trkpt lat="41.812269" lon="70.350086"><ele>1533.0</ele></trkpt>
<trkpt lat="41.812207" lon="70.350168"><ele>1536.0</ele></trkpt>
<trkpt lat="41.812170" lon="70.350260"><ele>1536.0</ele></trkpt>
<trkpt lat="41.812120" lon="70.350314"><ele>1540.0</ele></trkpt>
<trkpt lat="41.812095" lon="70.350459"><ele>1542.0</ele></trkpt>
<trkpt lat="41.812020" lon="70.350588"><ele>1541.0</ele></trkpt>
<trkpt lat="41.812009" lon="70.350674"><ele>1542.0</ele></trkpt>
<trkpt lat="41.811981" lon="70.350732"><ele>1542.0</ele></trkpt>
<trkpt lat="41.811933" lon="70.351038"><ele>1548.0</ele></trkpt>
<trkpt lat="41.811885" lon="70.351200"><ele>1548.0</ele></trkpt>
<trkpt lat="41.811847" lon="70.351246"><ele>1548.0</ele></trkpt>
<trkpt lat="41.811854" lon="70.351321"><ele>1548.0</ele></trkpt>
<trkpt lat="41.811832" lon="70.351358"><ele>1550.0</ele></trkpt>
<trkpt lat="41.811833" lon="70.351398"><ele>1548.0</ele></trkpt>
<trkpt lat="41.811744" lon="70.351520"><ele>1548.0</ele></trkpt>
<trkpt lat="41.811735" lon="70.351557"><ele>1548.0</ele></trkpt>
<trkpt lat="41.811673" lon="70.351608"><ele>1550.0</ele></trkpt>
<trkpt lat="41.811610" lon="70.351610"><ele>1552.0</ele></trkpt>
<trkpt lat="41.811539" lon="70.351733"><ele>1552.0</ele></trkpt>
<trkpt lat="41.811495" lon="70.352132"><ele>1556.0</ele></trkpt>
<trkpt lat="41.811509" lon="70.352373"><ele>1554.0</ele></trkpt>
<trkpt lat="41.811502" lon="70.352404"><ele>1554.0</ele></trkpt>
<trkpt lat="41.811400" lon="70.352499"><ele>1556.0</ele></trkpt>
<trkpt lat="41.811397" lon="70.352676"><ele>1557.0</ele></trkpt>
<trkpt lat="41.811375" lon="70.352701"><ele>1560.0</ele></trkpt>
<trkpt lat="41.811302" lon="70.352718"><ele>1560.0</ele></trkpt>
<trkpt lat="41.811262" lon="70.352764"><ele>1560.0</ele></trkpt>
<trkpt lat="41.811194" lon="70.352763"><ele>1563.0</ele></trkpt>
<trkpt lat="41.811110" lon="70.352827"><ele>1563.0</ele></trkpt>
<trkpt lat="41.811073" lon="70.352939"><ele>1564.0</ele></trkpt>
<trkpt lat="41.811036" lon="70.352957"><ele>1564.0</ele></trkpt>
<trkpt lat="41.811019" lon="70.353023"><ele>1563.0</ele></trkpt>
<trkpt lat="41.810967" lon="70.353063"><ele>1563.0</ele></trkpt>
<trkpt lat="41.810926" lon="70.353124"><ele>1563.0</ele></trkpt>
<trkpt lat="41.810917" lon="70.353195"><ele>1563.0</ele></trkpt>
<trkpt lat="41.810852" lon="70.353326"><ele>1566.0</ele></trkpt>
<trkpt lat="41.810785" lon="70.353517"><ele>1564.0</ele></trkpt>
<trkpt lat="41.810694" lon="70.353587"><ele>1566.0</ele></trkpt>
<trkpt lat="41.810641" lon="70.353717"><ele>1570.0</ele></trkpt>
<trkpt lat="41.810496" lon="70.353837"><ele>1572.0</ele></trkpt>
<trkpt lat="41.810443" lon="70.353984"><ele>1571.0</ele></trkpt>
<trkpt lat="41.810312" lon="70.354131"><ele>1569.0</ele></trkpt>
<trkpt lat="41.810304" lon="70.354206"><ele>1571.0</ele></trkpt>
<trkpt lat="41.810258" lon="70.354217"><ele>1571.0</ele></trkpt>
<trkpt lat="41.810240" lon="70.354251"><ele>1572.0</ele></trkpt>
<trkpt lat="41.810142" lon="70.354315"><ele>1575.0</ele></trkpt>
<trkpt lat="41.810009" lon="70.354450"><ele>1572.0</ele></trkpt>
<trkpt lat="41.809991" lon="70.354638"><ele>1577.1</ele></trkpt>
<trkpt lat="41.809943" lon="70.354658"><ele>1578.0</ele></trkpt>
<trkpt lat="41.809875" lon="70.354768"><ele>1580.0</ele></trkpt>
<trkpt lat="41.809833" lon="70.354917"><ele>1578.0</ele></trkpt>
<trkpt lat="41.809848" lon="70.354944"><ele>1582.0</ele></trkpt>
<trkpt lat="41.809845" lon="70.354977"><ele>1584.0</ele></trkpt>
<trkpt lat="41.809714" lon="70.355194"><ele>1587.0</ele></trkpt>
<trkpt lat="41.809689" lon="70.355264"><ele>1590.0</ele></trkpt>
<trkpt lat="41.809536" lon="70.355360"><ele>1593.0</ele></trkpt>
<trkpt lat="41.809472" lon="70.355444"><ele>1594.0</ele></trkpt>
<trkpt lat="41.809344" lon="70.355749"><ele>1594.0</ele></trkpt>
<trkpt lat="41.809323" lon="70.355874"><ele>1593.0</ele></trkpt>
<trkpt lat="41.809276" lon="70.355970"><ele>1594.0</ele></trkpt>
<trkpt lat="41.809216" lon="70.356030"><ele>1592.0</ele></trkpt>
<trkpt lat="41.809209" lon="70.356093"><ele>1596.0</ele></trkpt>
<trkpt lat="41.809171" lon="70.356161"><ele>1595.0</ele></trkpt>
<trkpt lat="41.809109" lon="70.356363"><ele>1601.0</ele></trkpt>
<trkpt lat="41.809082" lon="70.356376"><ele>1600.0</ele></trkpt>
<trkpt lat="41.809052" lon="70.356439"><ele>1606.0</ele></trkpt>
<trkpt lat="41.809058" lon="70.356486"><ele>1603.0</ele></trkpt>
<trkpt lat="41.809007" lon="70.356568"><ele>1600.0</ele></trkpt>
<trkpt lat="41.808941" lon="70.356602"><ele>1602.0</ele></trkpt>
<trkpt lat="41.808759" lon="70.356646"><ele>1606.0</ele></trkpt>
<trkpt lat="41.808594" lon="70.356759"><ele>1608.0</ele></trkpt>
<trkpt lat="41.808562" lon="70.356820"><ele>1612.0</ele></trkpt>
<trkpt lat="41.808560" lon="70.356856"><ele>1616.0</ele></trkpt>
<trkpt lat="41.808468" lon="70.356988"><ele>1617.0</ele></trkpt>
<trkpt lat="41.808422" lon="70.357009"><ele>1616.0</ele></trkpt>
<trkpt lat="41.808398" lon="70.357098"><ele>1618.0</ele></trkpt>
<trkpt lat="41.808266" lon="70.357294"><ele>1624.0</ele></trkpt>
<trkpt lat="41.808273" lon="70.357326"><ele>1624.0</ele></trkpt>
<trkpt lat="41.808190" lon="70.357341"><ele>1625.0</ele></trkpt>
<trkpt lat="41.808175" lon="70.357431"><ele>1629.0</ele></trkpt>
<trkpt lat="41.808138" lon="70.357488"><ele>1631.0</ele></trkpt>
<trkpt lat="41.808045" lon="70.357462"><ele>1634.0</ele></trkpt>
<trkpt lat="41.807989" lon="70.357420"><ele>1632.0</ele></trkpt>
<trkpt lat="41.807942" lon="70.357421"><ele>1634.0</ele></trkpt>
<trkpt lat="41.807917" lon="70.357460"><ele>1635.0</ele></trkpt>
<trkpt lat="41.807931" lon="70.357561"><ele>1634.0</ele></trkpt>
<trkpt lat="41.807923" lon="70.357594"><ele>1632.0</ele></trkpt>
<trkpt lat="41.807828" lon="70.357721"><ele>1634.0</ele></trkpt>
<trkpt lat="41.807766" lon="70.357781"><ele>1636.0</ele></trkpt>
<trkpt lat="41.807435" lon="70.357913"><ele>1640.0</ele></trkpt>
<trkpt lat="41.807439" lon="70.357953"><ele>1636.0</ele></trkpt>
<trkpt lat="41.807469" lon="70.357935"><ele>1634.0</ele></trkpt>
<trkpt lat="41.807464" lon="70.358027"><ele>1638.0</ele></trkpt>
<trkpt lat="41.807477" lon="70.358082"><ele>1639.0</ele></trkpt>
<trkpt lat="41.807381" lon="70.358137"><ele>1644.0</ele></trkpt>
<trkpt lat="41.807342" lon="70.358133"><ele>1644.0</ele></trkpt>
<trkpt lat="41.807315" lon="70.358304"><ele>1647.0</ele></trkpt>
<trkpt lat="41.807255" lon="70.358354"><ele>1650.0</ele></trkpt>
<trkpt lat="41.807135" lon="70.358581"><ele>1653.0</ele></trkpt>
<trkpt lat="41.807060" lon="70.358665"><ele>1656.0</ele></trkpt>
<trkpt lat="41.807131" lon="70.358731"><ele>1658.8</ele></trkpt>
<trkpt lat="41.807077" lon="70.358728"><ele>1654.0</ele></trkpt>
<trkpt lat="41.807052" lon="70.358849"><ele>1654.0</ele></trkpt>
<trkpt lat="41.807001" lon="70.358877"><ele>1653.0</ele></trkpt>
<trkpt lat="41.806964" lon="70.358858"><ele>1655.0</ele></trkpt>
<trkpt lat="41.806943" lon="70.358882"><ele>1656.0</ele></trkpt>
<trkpt lat="41.806931" lon="70.358910"><ele>1657.0</ele></trkpt>
<trkpt lat="41.806938" lon="70.358947"><ele>1658.0</ele></trkpt>
<trkpt lat="41.806897" lon="70.359088"><ele>1658.0</ele></trkpt>
<trkpt lat="41.806837" lon="70.359125"><ele>1655.0</ele></trkpt>
<trkpt lat="41.806796" lon="70.359214"><ele>1659.0</ele></trkpt>
<trkpt lat="41.806684" lon="70.359267"><ele>1662.0</ele></trkpt>
<trkpt lat="41.806664" lon="70.359300"><ele>1662.0</ele></trkpt>
<trkpt lat="41.806572" lon="70.359315"><ele>1666.0</ele></trkpt>
<trkpt lat="41.806546" lon="70.359351"><ele>1666.0</ele></trkpt>
<trkpt lat="41.806500" lon="70.359372"><ele>1667.0</ele></trkpt>
<trkpt lat="41.806437" lon="70.359366"><ele>1673.0</ele></trkpt>
<trkpt lat="41.806401" lon="70.359432"><ele>1674.0</ele></trkpt>
<trkpt lat="41.806395" lon="70.359482"><ele>1675.0</ele></trkpt>
<trkpt lat="41.806441" lon="70.359508"><ele>1679.1</ele></trkpt>
<trkpt lat="41.806397" lon="70.359500"><ele>1676.0</ele></trkpt>
<trkpt lat="41.806337" lon="70.359537"><ele>1677.0</ele></trkpt>
<trkpt lat="41.806283" lon="70.359541"><ele>1675.0</ele></trkpt>
<trkpt lat="41.806281" lon="70.359588"><ele>1672.0</ele></trkpt>
<trkpt lat="41.806249" lon="70.359607"><ele>1672.0</ele></trkpt>
<trkpt lat="41.806225" lon="70.359698"><ele>1674.0</ele></trkpt>
<trkpt lat="41.806248" lon="70.359763"><ele>1677.0</ele></trkpt>
<trkpt lat="41.806213" lon="70.359824"><ele>1678.0</ele></trkpt>
<trkpt lat="41.806192" lon="70.359846"><ele>1680.0</ele></trkpt>
<trkpt lat="41.806156" lon="70.359849"><ele>1680.0</ele></trkpt>
<trkpt lat="41.806061" lon="70.359932"><ele>1680.0</ele></trkpt>
<trkpt lat="41.805979" lon="70.360039"><ele>1684.0</ele></trkpt>
<trkpt lat="41.805904" lon="70.360085"><ele>1681.0</ele></trkpt>
<trkpt lat="41.805815" lon="70.360263"><ele>1686.0</ele></trkpt>
<trkpt lat="41.805517" lon="70.360406"><ele>1687.0</ele></trkpt>
<trkpt lat="41.805461" lon="70.360367"><ele>1688.0</ele></trkpt>
<trkpt lat="41.805364" lon="70.360363"><ele>1694.0</ele></trkpt>
<trkpt lat="41.805284" lon="70.360478"><ele>1696.0</ele></trkpt>
<trkpt lat="41.805259" lon="70.360458"><ele>1698.0</ele></trkpt>
<trkpt lat="41.805193" lon="70.360483"><ele>1698.0</ele></trkpt>
<trkpt lat="41.804926" lon="70.360516"><ele>1702.0</ele></trkpt>
<trkpt lat="41.804864" lon="70.360564"><ele>1696.0</ele></trkpt>
<trkpt lat="41.804897" lon="70.360595"><ele>1698.0</ele></trkpt>
<trkpt lat="41.804881" lon="70.360740"><ele>1696.0</ele></trkpt>
<trkpt lat="41.804802" lon="70.360794"><ele>1698.0</ele></trkpt>
<trkpt lat="41.804752" lon="70.361031"><ele>1700.0</ele></trkpt>
<trkpt lat="41.804758" lon="70.361061"><ele>1701.0</ele></trkpt>
<trkpt lat="41.804845" lon="70.361072"><ele>1700.0</ele></trkpt>
<trkpt lat="41.804781" lon="70.361210"><ele>1700.0</ele></trkpt>
<trkpt lat="41.804822" lon="70.361287"><ele>1704.0</ele></trkpt>
<trkpt lat="41.804835" lon="70.361365"><ele>1704.0</ele></trkpt>
<trkpt lat="41.804858" lon="70.361389"><ele>1704.0</ele></trkpt>
<trkpt lat="41.804893" lon="70.361561"><ele>1706.0</ele></trkpt>
<trkpt lat="41.804949" lon="70.361675"><ele>1708.0</ele></trkpt>
<trkpt lat="41.804850" lon="70.361748"><ele>1713.0</ele></trkpt>
<trkpt lat="41.804721" lon="70.361807"><ele>1708.0</ele></trkpt>
<trkpt lat="41.804657" lon="70.361915"><ele>1712.0</ele></trkpt>
<trkpt lat="41.804582" lon="70.361971"><ele>1715.0</ele></trkpt>
<trkpt lat="41.804539" lon="70.362059"><ele>1721.0</ele></trkpt>
<trkpt lat="41.804469" lon="70.362065"><ele>1717.0</ele></trkpt>
<trkpt lat="41.804443" lon="70.362085"><ele>1716.0</ele></trkpt>
<trkpt lat="41.804281" lon="70.362060"><ele>1710.0</ele></trkpt>
<trkpt lat="41.804182" lon="70.361968"><ele>1716.0</ele></trkpt>
<trkpt lat="41.804157" lon="70.362033"><ele>1718.0</ele></trkpt>
<trkpt lat="41.804145" lon="70.362195"><ele>1720.0</ele></trkpt>
<trkpt lat="41.804084" lon="70.362151"><ele>1720.0</ele></trkpt>
<trkpt lat="41.803995" lon="70.362262"><ele>1725.0</ele></trkpt>
<trkpt lat="41.803979" lon="70.362354"><ele>1727.0</ele></trkpt>
<trkpt lat="41.803932" lon="70.362487"><ele>1726.0</ele></trkpt>
<trkpt lat="41.803913" lon="70.362623"><ele>1726.0</ele></trkpt>
<trkpt lat="41.803880" lon="70.362698"><ele>1728.0</ele></trkpt>
<trkpt lat="41.803913" lon="70.362725"><ele>1730.0</ele></trkpt>
<trkpt lat="41.803968" lon="70.362733"><ele>1735.0</ele></trkpt>
<trkpt lat="41.803914" lon="70.362759"><ele>1728.0</ele></trkpt>
<trkpt lat="41.803895" lon="70.362789"><ele>1728.0</ele></trkpt>
<trkpt lat="41.803922" lon="70.362953"><ele>1730.0</ele></trkpt>
<trkpt lat="41.803904" lon="70.363019"><ele>1735.0</ele></trkpt>
<trkpt lat="41.803847" lon="70.363075"><ele>1736.0</ele></trkpt>
<trkpt lat="41.803908" lon="70.363109"><ele>1740.0</ele></trkpt>
<trkpt lat="41.803951" lon="70.363225"><ele>1744.0</ele></trkpt>
<trkpt lat="41.803946" lon="70.363281"><ele>1745.0</ele></trkpt>
<trkpt lat="41.803854" lon="70.363298"><ele>1742.0</ele></trkpt>
<trkpt lat="41.803862" lon="70.363367"><ele>1746.0</ele></trkpt>
<trkpt lat="41.803850" lon="70.363431"><ele>1748.0</ele></trkpt>
<trkpt lat="41.803816" lon="70.363456"><ele>1750.0</ele></trkpt>
<trkpt lat="41.803783" lon="70.363439"><ele>1752.0</ele></trkpt>
<trkpt lat="41.803687" lon="70.363551"><ele>1750.0</ele></trkpt>
<trkpt lat="41.803637" lon="70.363586"><ele>1753.0</ele></trkpt>
<trkpt lat="41.803574" lon="70.363673"><ele>1755.0</ele></trkpt>
<trkpt lat="41.803552" lon="70.363730"><ele>1755.0</ele></trkpt>
<trkpt lat="41.803469" lon="70.363810"><ele>1750.0</ele></trkpt>
<trkpt lat="41.803506" lon="70.363850"><ele>1759.0</ele></trkpt>
<trkpt lat="41.803460" lon="70.363816"><ele>1754.0</ele></trkpt>
<trkpt lat="41.803394" lon="70.363973"><ele>1764.0</ele></trkpt>
<trkpt lat="41.803368" lon="70.363964"><ele>1764.0</ele></trkpt>
<trkpt lat="41.803351" lon="70.364004"><ele>1766.0</ele></trkpt>
<trkpt lat="41.803303" lon="70.364004"><ele>1770.0</ele></trkpt>
<trkpt lat="41.803251" lon="70.363956"><ele>1770.0</ele></trkpt>
<trkpt lat="41.803155" lon="70.364220"><ele>1782.0</ele></trkpt>
<trkpt lat="41.803134" lon="70.364236"><ele>1782.0</ele></trkpt>
<trkpt lat="41.803079" lon="70.364214"><ele>1785.0</ele></trkpt>
<trkpt lat="41.803037" lon="70.364228"><ele>1784.0</ele></trkpt>
<trkpt lat="41.803020" lon="70.364207"><ele>1782.0</ele></trkpt>
<trkpt lat="41.802956" lon="70.364382"><ele>1788.0</ele></trkpt>
<trkpt lat="41.802952" lon="70.364484"><ele>1786.0</ele></trkpt>
<trkpt lat="41.802922" lon="70.364558"><ele>1791.0</ele></trkpt>
<trkpt lat="41.802874" lon="70.364552"><ele>1792.0</ele></trkpt>
<trkpt lat="41.802847" lon="70.364703"><ele>1794.0</ele></trkpt>
<trkpt lat="41.802860" lon="70.364902"><ele>1799.0</ele></trkpt>
<trkpt lat="41.802810" lon="70.365007"><ele>1800.0</ele></trkpt>
<trkpt lat="41.802778" lon="70.365030"><ele>1800.0</ele></trkpt>
<trkpt lat="41.802748" lon="70.365110"><ele>1802.0</ele></trkpt>
<trkpt lat="41.802765" lon="70.365191"><ele>1803.0</ele></trkpt>
<trkpt lat="41.802741" lon="70.365296"><ele>1805.0</ele></trkpt>
<trkpt lat="41.802694" lon="70.365369"><ele>1806.0</ele></trkpt>
<trkpt lat="41.802611" lon="70.365380"><ele>1807.0</ele></trkpt>
<trkpt lat="41.802581" lon="70.365426"><ele>1806.0</ele></trkpt>
<trkpt lat="41.802609" lon="70.365544"><ele>1809.0</ele></trkpt>
<trkpt lat="41.802601" lon="70.365579"><ele>1808.0</ele></trkpt>
<trkpt lat="41.802515" lon="70.365662"><ele>1810.0</ele></trkpt>
<trkpt lat="41.802537" lon="70.365739"><ele>1812.0</ele></trkpt>
<trkpt lat="41.802517" lon="70.365790"><ele>1812.0</ele></trkpt>
<trkpt lat="41.802556" lon="70.365898"><ele>1816.0</ele></trkpt>
<trkpt lat="41.802560" lon="70.365996"><ele>1816.0</ele></trkpt>
<trkpt lat="41.802623" lon="70.366117"><ele>1816.0</ele></trkpt>
<trkpt lat="41.802689" lon="70.366301"><ele>1818.0</ele></trkpt>
<trkpt lat="41.802665" lon="70.366356"><ele>1818.0</ele></trkpt>
<trkpt lat="41.802682" lon="70.366392"><ele>1820.0</ele></trkpt>
<trkpt lat="41.802713" lon="70.366391"><ele>1820.0</ele></trkpt>
<trkpt lat="41.802784" lon="70.366432"><ele>1822.0</ele></trkpt>
<trkpt lat="41.802783" lon="70.366467"><ele>1820.0</ele></trkpt>
<trkpt lat="41.802727" lon="70.366524"><ele>1817.0</ele></trkpt>
<trkpt lat="41.802668" lon="70.366470"><ele>1822.0</ele></trkpt>
<trkpt lat="41.802693" lon="70.366508"><ele>1820.0</ele></trkpt>
<trkpt lat="41.802699" lon="70.366573"><ele>1820.0</ele></trkpt>
<trkpt lat="41.802725" lon="70.366636"><ele>1826.0</ele></trkpt>
<trkpt lat="41.802781" lon="70.366718"><ele>1824.0</ele></trkpt>
<trkpt lat="41.802771" lon="70.366753"><ele>1828.0</ele></trkpt>
<trkpt lat="41.802744" lon="70.366770"><ele>1828.0</ele></trkpt>
<trkpt lat="41.802815" lon="70.366905"><ele>1832.0</ele></trkpt>
<trkpt lat="41.802765" lon="70.367046"><ele>1828.0</ele></trkpt>
<trkpt lat="41.802766" lon="70.367150"><ele>1830.0</ele></trkpt>
<trkpt lat="41.802748" lon="70.367209"><ele>1835.0</ele></trkpt>
<trkpt lat="41.802820" lon="70.367392"><ele>1836.0</ele></trkpt>
<trkpt lat="41.802828" lon="70.367462"><ele>1840.0</ele></trkpt>
<trkpt lat="41.802882" lon="70.367582"><ele>1842.0</ele></trkpt>
<trkpt lat="41.802858" lon="70.367641"><ele>1844.0</ele></trkpt>
<trkpt lat="41.802904" lon="70.367778"><ele>1848.0</ele></trkpt>
<trkpt lat="41.802890" lon="70.367883"><ele>1850.0</ele></trkpt>
<trkpt lat="41.802945" lon="70.368003"><ele>1852.0</ele></trkpt>
<trkpt lat="41.802895" lon="70.368097"><ele>1855.0</ele></trkpt>
<trkpt lat="41.802914" lon="70.368161"><ele>1860.0</ele></trkpt>
<trkpt lat="41.803080" lon="70.368389"><ele>1872.0</ele></trkpt>
<trkpt lat="41.803090" lon="70.368423"><ele>1874.7</ele></trkpt>
<trkpt lat="41.803019" lon="70.368526"><ele>1879.0</ele></trkpt>
<trkpt lat="41.803052" lon="70.368601"><ele>1880.0</ele></trkpt>
<trkpt lat="41.803177" lon="70.368695"><ele>1884.0</ele></trkpt>
<trkpt lat="41.803142" lon="70.368746"><ele>1892.0</ele></trkpt>
<trkpt lat="41.803207" lon="70.368824"><ele>1893.0</ele></trkpt>
<trkpt lat="41.803253" lon="70.369048"><ele>1900.0</ele></trkpt>
<trkpt lat="41.803302" lon="70.369114"><ele>1902.0</ele></trkpt>
<trkpt lat="41.803331" lon="70.369266"><ele>1905.0</ele></trkpt>
<trkpt lat="41.803272" lon="70.369354"><ele>1905.0</ele></trkpt>
<trkpt lat="41.803281" lon="70.369459"><ele>1910.0</ele></trkpt>
<trkpt lat="41.803269" lon="70.369506"><ele>1910.0</ele></trkpt>
<trkpt lat="41.803306" lon="70.369733"><ele>1919.0</ele></trkpt>
<trkpt lat="41.803301" lon="70.369769"><ele>1920.0</ele></trkpt>
<trkpt lat="41.803232" lon="70.369850"><ele>1923.0</ele></trkpt>
<trkpt lat="41.803204" lon="70.370008"><ele>1930.0</ele></trkpt>
<trkpt lat="41.803225" lon="70.370124"><ele>1934.0</ele></trkpt>
<trkpt lat="41.803271" lon="70.370233"><ele>1940.0</ele></trkpt>
<trkpt lat="41.803278" lon="70.370305"><ele>1940.0</ele></trkpt>
<trkpt lat="41.803311" lon="70.370370"><ele>1944.0</ele></trkpt>
<trkpt lat="41.803303" lon="70.370435"><ele>1944.0</ele></trkpt>
<trkpt lat="41.803238" lon="70.370428"><ele>1946.0</ele></trkpt>
<trkpt lat="41.803185" lon="70.370594"><ele>1954.0</ele></trkpt>
<trkpt lat="41.803208" lon="70.370773"><ele>1957.0</ele></trkpt>
<trkpt lat="41.803203" lon="70.370881"><ele>1960.0</ele></trkpt>
<trkpt lat="41.803296" lon="70.371083"><ele>1962.0</ele></trkpt>
<trkpt lat="41.803349" lon="70.371106"><ele>1964.0</ele></trkpt>
<trkpt lat="41.803375" lon="70.371165"><ele>1964.0</ele></trkpt>
<trkpt lat="41.803483" lon="70.371265"><ele>1962.0</ele></trkpt>
<trkpt lat="41.803505" lon="70.371327"><ele>1965.0</ele></trkpt>
<trkpt lat="41.803441" lon="70.371471"><ele>1974.0</ele></trkpt>
<trkpt lat="41.803425" lon="70.371542"><ele>1975.0</ele></trkpt>
<trkpt lat="41.803399" lon="70.371579"><ele>1976.0</ele></trkpt>
<trkpt lat="41.803530" lon="70.371821"><ele>1975.0</ele></trkpt>
<trkpt lat="41.803602" lon="70.371885"><ele>1977.0</ele></trkpt>
<trkpt lat="41.803635" lon="70.371949"><ele>1978.0</ele></trkpt>
<trkpt lat="41.803700" lon="70.372014"><ele>1978.0</ele></trkpt>
<trkpt lat="41.803765" lon="70.372147"><ele>1982.0</ele></trkpt>
<trkpt lat="41.803760" lon="70.372186"><ele>1982.0</ele></trkpt>
<trkpt lat="41.803702" lon="70.372273"><ele>1981.0</ele></trkpt>
<trkpt lat="41.803730" lon="70.372341"><ele>1985.0</ele></trkpt>
<trkpt lat="41.803784" lon="70.372382"><ele>1984.0</ele></trkpt>
<trkpt lat="41.803795" lon="70.372495"><ele>1984.0</ele></trkpt>
<trkpt lat="41.803865" lon="70.372589"><ele>1988.0</ele></trkpt>
<trkpt lat="41.803848" lon="70.372640"><ele>1988.9</ele></trkpt>
<trkpt lat="41.803852" lon="70.372704"><ele>1988.0</ele></trkpt>
<trkpt lat="41.803875" lon="70.372759"><ele>1989.0</ele></trkpt>
<trkpt lat="41.803859" lon="70.372834"><ele>1989.0</ele></trkpt>
<trkpt lat="41.803875" lon="70.372931"><ele>1992.0</ele></trkpt>
<trkpt lat="41.803848" lon="70.373045"><ele>1992.0</ele></trkpt>
<trkpt lat="41.803871" lon="70.373167"><ele>1995.0</ele></trkpt>
<trkpt lat="41.803843" lon="70.373274"><ele>1995.0</ele></trkpt>
<trkpt lat="41.803882" lon="70.373341"><ele>1998.0</ele></trkpt>
<trkpt lat="41.803867" lon="70.373407"><ele>1996.0</ele></trkpt>
<trkpt lat="41.803867" lon="70.373546"><ele>2000.0</ele></trkpt>
<trkpt lat="41.803852" lon="70.373580"><ele>2000.9</ele></trkpt>
<trkpt lat="41.803906" lon="70.373669"><ele>2001.0</ele></trkpt>
<trkpt lat="41.803963" lon="70.373667"><ele>2005.0</ele></trkpt>
<trkpt lat="41.803950" lon="70.373783"><ele>2004.0</ele></trkpt>
<trkpt lat="41.803976" lon="70.373851"><ele>2007.0</ele></trkpt>
<trkpt lat="41.803992" lon="70.373980"><ele>2008.0</ele></trkpt>
<trkpt lat="41.804087" lon="70.374055"><ele>2012.0</ele></trkpt>
<trkpt lat="41.804065" lon="70.374199"><ele>2013.0</ele></trkpt>
<trkpt lat="41.804086" lon="70.374278"><ele>2014.0</ele></trkpt>
<trkpt lat="41.804038" lon="70.374364"><ele>2012.0</ele></trkpt>
<trkpt lat="41.804040" lon="70.374404"><ele>2013.0</ele></trkpt>
<trkpt lat="41.804104" lon="70.374507"><ele>2019.0</ele></trkpt>
<trkpt lat="41.804096" lon="70.374737"><ele>2022.0</ele></trkpt>
<trkpt lat="41.804065" lon="70.374858"><ele>2025.0</ele></trkpt>
<trkpt lat="41.804022" lon="70.374954"><ele>2022.0</ele></trkpt>
<trkpt lat="41.804103" lon="70.375146"><ele>2028.0</ele></trkpt>
<trkpt lat="41.804183" lon="70.375211"><ele>2034.0</ele></trkpt>
<trkpt lat="41.804197" lon="70.375246"><ele>2033.0</ele></trkpt>
<trkpt lat="41.804209" lon="70.375282"><ele>2035.0</ele></trkpt>
<trkpt lat="41.804207" lon="70.375368"><ele>2036.0</ele></trkpt>
<trkpt lat="41.804247" lon="70.375517"><ele>2040.0</ele></trkpt>
<trkpt lat="41.804308" lon="70.375588"><ele>2042.1</ele></trkpt>
<trkpt lat="41.804305" lon="70.375694"><ele>2044.0</ele></trkpt>
<trkpt lat="41.804323" lon="70.375729"><ele>2043.0</ele></trkpt>
<trkpt lat="41.804385" lon="70.375753"><ele>2044.0</ele></trkpt>
<trkpt lat="41.804424" lon="70.375919"><ele>2049.0</ele></trkpt>
<trkpt lat="41.804549" lon="70.376060"><ele>2051.0</ele></trkpt>
<trkpt lat="41.804564" lon="70.376096"><ele>2052.0</ele></trkpt>
<trkpt lat="41.804587" lon="70.376195"><ele>2056.0</ele></trkpt>
<trkpt lat="41.804575" lon="70.376306"><ele>2058.0</ele></trkpt>
<trkpt lat="41.804599" lon="70.376370"><ele>2058.0</ele></trkpt>
<trkpt lat="41.804756" lon="70.376551"><ele>2060.0</ele></trkpt>
<trkpt lat="41.804816" lon="70.376686"><ele>2064.0</ele></trkpt>
<trkpt lat="41.804869" lon="70.376719"><ele>2061.0</ele></trkpt>
<trkpt lat="41.804972" lon="70.376927"><ele>2064.0</ele></trkpt>
<trkpt lat="41.805018" lon="70.376980"><ele>2064.0</ele></trkpt>
<trkpt lat="41.805057" lon="70.376994"><ele>2065.0</ele></trkpt>
<trkpt lat="41.805289" lon="70.377239"><ele>2068.0</ele></trkpt>
<trkpt lat="41.805408" lon="70.377300"><ele>2072.0</ele></trkpt>
<trkpt lat="41.805563" lon="70.377285"><ele>2074.0</ele></trkpt>
<trkpt lat="41.805617" lon="70.377298"><ele>2072.0</ele></trkpt>
<trkpt lat="41.805645" lon="70.377371"><ele>2075.0</ele></trkpt>
<trkpt lat="41.805698" lon="70.377418"><ele>2076.0</ele></trkpt>
<trkpt lat="41.805822" lon="70.377459"><ele>2079.0</ele></trkpt>
<trkpt lat="41.805902" lon="70.377620"><ele>2080.0</ele></trkpt>
<trkpt lat="41.805934" lon="70.377770"><ele>2080.0</ele></trkpt>
<trkpt lat="41.805961" lon="70.377812"><ele>2082.0</ele></trkpt>
<trkpt lat="41.805945" lon="70.377926"><ele>2084.0</ele></trkpt>
<trkpt lat="41.805986" lon="70.377978"><ele>2086.0</ele></trkpt>
<trkpt lat="41.805998" lon="70.378043"><ele>2089.8</ele></trkpt>
<trkpt lat="41.806074" lon="70.378143"><ele>2091.0</ele></trkpt>
<trkpt lat="41.806049" lon="70.378218"><ele>2093.0</ele></trkpt>
<trkpt lat="41.806062" lon="70.378281"><ele>2096.0</ele></trkpt>
<trkpt lat="41.806046" lon="70.378347"><ele>2097.0</ele></trkpt>
<trkpt lat="41.806099" lon="70.378539"><ele>2100.0</ele></trkpt>
<trkpt lat="41.806147" lon="70.378683"><ele>2100.0</ele></trkpt>
<trkpt lat="41.806201" lon="70.378762"><ele>2105.0</ele></trkpt>
<trkpt lat="41.806211" lon="70.378823"><ele>2108.0</ele></trkpt>
<trkpt lat="41.806288" lon="70.378972"><ele>2112.0</ele></trkpt>
<trkpt lat="41.806275" lon="70.379022"><ele>2118.0</ele></trkpt>
<trkpt lat="41.806295" lon="70.379058"><ele>2119.0</ele></trkpt>
<trkpt lat="41.806292" lon="70.379103"><ele>2120.0</ele></trkpt>
<trkpt lat="41.806243" lon="70.379218"><ele>2121.0</ele></trkpt>
<trkpt lat="41.806296" lon="70.379332"><ele>2123.0</ele></trkpt>
<trkpt lat="41.806313" lon="70.379342"><ele>2125.7</ele></trkpt>
<trkpt lat="41.806331" lon="70.379446"><ele>2130.0</ele></trkpt>
<trkpt lat="41.806390" lon="70.379607"><ele>2136.0</ele></trkpt>
<trkpt lat="41.806421" lon="70.379649"><ele>2134.0</ele></trkpt>
<trkpt lat="41.806431" lon="70.379717"><ele>2136.0</ele></trkpt>
<trkpt lat="41.806370" lon="70.379887"><ele>2136.0</ele></trkpt>
<trkpt lat="41.806407" lon="70.379948"><ele>2139.0</ele></trkpt>
<trkpt lat="41.806395" lon="70.379998"><ele>2144.0</ele></trkpt>
<trkpt lat="41.806434" lon="70.379994"><ele>2145.0</ele></trkpt>
<trkpt lat="41.806475" lon="70.380031"><ele>2147.0</ele></trkpt>
<trkpt lat="41.806524" lon="70.380151"><ele>2164.0</ele></trkpt>
<trkpt lat="41.806509" lon="70.380187"><ele>2167.0</ele></trkpt>
<trkpt lat="41.806479" lon="70.380192"><ele>2174.0</ele></trkpt>
<trkpt lat="41.806480" lon="70.380145"><ele>2174.0</ele></trkpt>
<trkpt lat="41.806448" lon="70.380137"><ele>2178.0</ele></trkpt>
<trkpt lat="41.806399" lon="70.380048"><ele>2186.0</ele></trkpt>
<trkpt lat="41.806444" lon="70.380085"><ele>2191.6</ele></trkpt>
<trkpt lat="41.806414" lon="70.380062"><ele>2191.0</ele></trkpt>
<trkpt lat="41.806294" lon="70.379735"><ele>2195.2</ele></trkpt>
<trkpt lat="41.806518" lon="70.380200"><ele>2196.2</ele></trkpt>
<trkpt lat="41.806540" lon="70.380280"><ele>2196.3</ele></trkpt>
<trkpt lat="41.806502" lon="70.380410"><ele>2194.5</ele></trkpt>
<trkpt lat="41.806533" lon="70.380405"><ele>2186.4</ele></trkpt>
<trkpt lat="41.806528" lon="70.380371"><ele>2186.0</ele></trkpt>
<trkpt lat="41.806493" lon="70.380366"><ele>2185.5</ele></trkpt>
<trkpt lat="41.806712" lon="70.380767"><ele>2179.8</ele></trkpt>
<trkpt lat="41.806755" lon="70.380710"><ele>2178.0</ele></trkpt>
<trkpt lat="41.806705" lon="70.380608"><ele>2194.3</ele></trkpt>
<trkpt lat="41.806682" lon="70.380514"><ele>2193.0</ele></trkpt>
</trkseg></trk>
</gpx>