<?xml version='1.0' encoding='utf-8'?>
<gpx xmlns="http://www.topografix.com/GPX/1/1" version="1.1" creator="Sayr">
<trk><name>От машины к пещере</name><trkseg>
<trkpt lat="40.653046" lon="66.581073"><ele>702.7</ele></trkpt>
<trkpt lat="40.652976" lon="66.581042"><ele>703.7</ele></trkpt>
<trkpt lat="40.652868" lon="66.580855"><ele>705.7</ele></trkpt>
<trkpt lat="40.652758" lon="66.580400"><ele>708.9</ele></trkpt>
<trkpt lat="40.652670" lon="66.580220"><ele>710.1</ele></trkpt>
<trkpt lat="40.652392" lon="66.579959"><ele>713.4</ele></trkpt>
<trkpt lat="40.652326" lon="66.579872"><ele>715.4</ele></trkpt>
<trkpt lat="40.652204" lon="66.579778"><ele>718.8</ele></trkpt>
<trkpt lat="40.652173" lon="66.579774"><ele>719.4</ele></trkpt>
<trkpt lat="40.652148" lon="66.579721"><ele>719.8</ele></trkpt>
<trkpt lat="40.652045" lon="66.579620"><ele>723.0</ele></trkpt>
<trkpt lat="40.652022" lon="66.579574"><ele>723.0</ele></trkpt>
<trkpt lat="40.651997" lon="66.579566"><ele>722.9</ele></trkpt>
<trkpt lat="40.651910" lon="66.579471"><ele>725.1</ele></trkpt>
<trkpt lat="40.651838" lon="66.579245"><ele>728.8</ele></trkpt>
<trkpt lat="40.651791" lon="66.579151"><ele>729.7</ele></trkpt>
<trkpt lat="40.651796" lon="66.579113"><ele>729.1</ele></trkpt>
<trkpt lat="40.651658" lon="66.578838"><ele>732.1</ele></trkpt>
<trkpt lat="40.651647" lon="66.578749"><ele>733.2</ele></trkpt>
<trkpt lat="40.651597" lon="66.578626"><ele>735.3</ele></trkpt>
<trkpt lat="40.651596" lon="66.578551"><ele>737.0</ele></trkpt>
<trkpt lat="40.651574" lon="66.578509"><ele>736.6</ele></trkpt>
<trkpt lat="40.651570" lon="66.578331"><ele>741.7</ele></trkpt>
<trkpt lat="40.651494" lon="66.578265"><ele>740.6</ele></trkpt>
<trkpt lat="40.651411" lon="66.578062"><ele>740.0</ele></trkpt>
<trkpt lat="40.651336" lon="66.577970"><ele>743.2</ele></trkpt>
<trkpt lat="40.651301" lon="66.577895"><ele>743.9</ele></trkpt>
<trkpt lat="40.651242" lon="66.577843"><ele>743.9</ele></trkpt>
<trkpt lat="40.651224" lon="66.577785"><ele>744.3</ele></trkpt>
<trkpt lat="40.651141" lon="66.577652"><ele>748.8</ele></trkpt>
<trkpt lat="40.651147" lon="66.577638"><ele>747.3</ele></trkpt>
<trkpt lat="40.651056" lon="66.577537"><ele>750.6</ele></trkpt>
<trkpt lat="40.651059" lon="66.577482"><ele>752.4</ele></trkpt>
<trkpt lat="40.651044" lon="66.577433"><ele>753.1</ele></trkpt>
<trkpt lat="40.650996" lon="66.577370"><ele>754.8</ele></trkpt>
<trkpt lat="40.650984" lon="66.577321"><ele>755.0</ele></trkpt>
<trkpt lat="40.650914" lon="66.577278"><ele>756.1</ele></trkpt>
<trkpt lat="40.650848" lon="66.577108"><ele>757.8</ele></trkpt>
<trkpt lat="40.650855" lon="66.577064"><ele>758.2</ele></trkpt>
<trkpt lat="40.650803" lon="66.576957"><ele>760.8</ele></trkpt>
<trkpt lat="40.650799" lon="66.576911"><ele>761.1</ele></trkpt>
<trkpt lat="40.650758" lon="66.576834"><ele>762.6</ele></trkpt>
<trkpt lat="40.650750" lon="66.576786"><ele>763.4</ele></trkpt>
<trkpt lat="40.650711" lon="66.576764"><ele>764.5</ele></trkpt>
<trkpt lat="40.650704" lon="66.576605"><ele>766.1</ele></trkpt>
<trkpt lat="40.650664" lon="66.576579"><ele>766.7</ele></trkpt>
<trkpt lat="40.650639" lon="66.576502"><ele>768.7</ele></trkpt>
<trkpt lat="40.650634" lon="66.576209"><ele>771.6</ele></trkpt>
<trkpt lat="40.650703" lon="66.576113"><ele>774.1</ele></trkpt>
<trkpt lat="40.650713" lon="66.575935"><ele>775.1</ele></trkpt>
<trkpt lat="40.650738" lon="66.575863"><ele>777.9</ele></trkpt>
<trkpt lat="40.650748" lon="66.575872"><ele>779.4</ele></trkpt>
<trkpt lat="40.650737" lon="66.575808"><ele>778.7</ele></trkpt>
<trkpt lat="40.650764" lon="66.575706"><ele>779.7</ele></trkpt>
<trkpt lat="40.650754" lon="66.575652"><ele>779.4</ele></trkpt>
<trkpt lat="40.650732" lon="66.575635"><ele>779.7</ele></trkpt>
<trkpt lat="40.650724" lon="66.575599"><ele>780.1</ele></trkpt>
<trkpt lat="40.650678" lon="66.575539"><ele>779.7</ele></trkpt>
<trkpt lat="40.650465" lon="66.575563"><ele>786.1</ele></trkpt>
<trkpt lat="40.650322" lon="66.575509"><ele>789.6</ele></trkpt>
<trkpt lat="40.650300" lon="66.575456"><ele>790.1</ele></trkpt>
<trkpt lat="40.650264" lon="66.575433"><ele>791.4</ele></trkpt>
<trkpt lat="40.650261" lon="66.575389"><ele>791.5</ele></trkpt>
<trkpt lat="40.650235" lon="66.575349"><ele>791.9</ele></trkpt>
<trkpt lat="40.650156" lon="66.575354"><ele>792.9</ele></trkpt>
<trkpt lat="40.650113" lon="66.575329"><ele>793.4</ele></trkpt>
<trkpt lat="40.650050" lon="66.575200"><ele>797.0</ele></trkpt>
<trkpt lat="40.650001" lon="66.575214"><ele>797.4</ele></trkpt>
<trkpt lat="40.649939" lon="66.575164"><ele>799.7</ele></trkpt>
<trkpt lat="40.649896" lon="66.575156"><ele>799.9</ele></trkpt>
<trkpt lat="40.649863" lon="66.575188"><ele>800.6</ele></trkpt>
<trkpt lat="40.649831" lon="66.575154"><ele>801.7</ele></trkpt>
<trkpt lat="40.649744" lon="66.575164"><ele>802.9</ele></trkpt>
<trkpt lat="40.649716" lon="66.575132"><ele>803.9</ele></trkpt>
<trkpt lat="40.649684" lon="66.575134"><ele>804.4</ele></trkpt>
<trkpt lat="40.649658" lon="66.575108"><ele>805.1</ele></trkpt>
<trkpt lat="40.649603" lon="66.575123"><ele>805.7</ele></trkpt>
<trkpt lat="40.649587" lon="66.575106"><ele>806.9</ele></trkpt>
<trkpt lat="40.649529" lon="66.575113"><ele>808.4</ele></trkpt>
<trkpt lat="40.649496" lon="66.575096"><ele>809.2</ele></trkpt>
<trkpt lat="40.649516" lon="66.575099"><ele>808.9</ele></trkpt>
<trkpt lat="40.649489" lon="66.575135"><ele>808.9</ele></trkpt>
<trkpt lat="40.649445" lon="66.575113"><ele>810.1</ele></trkpt>
<trkpt lat="40.649419" lon="66.575137"><ele>810.4</ele></trkpt>
<trkpt lat="40.649353" lon="66.575135"><ele>812.9</ele></trkpt>
<trkpt lat="40.649289" lon="66.575162"><ele>814.8</ele></trkpt>
<trkpt lat="40.649241" lon="66.575080"><ele>816.0</ele></trkpt>
<trkpt lat="40.649167" lon="66.575066"><ele>818.1</ele></trkpt>
<trkpt lat="40.649153" lon="66.574994"><ele>819.5</ele></trkpt>
<trkpt lat="40.649177" lon="66.574948"><ele>820.3</ele></trkpt>
<trkpt lat="40.649149" lon="66.574869"><ele>821.9</ele></trkpt>
<trkpt lat="40.649155" lon="66.574843"><ele>822.4</ele></trkpt>
<trkpt lat="40.649099" lon="66.574818"><ele>823.4</ele></trkpt>
<trkpt lat="40.649100" lon="66.574752"><ele>823.6</ele></trkpt>
<trkpt lat="40.649127" lon="66.574638"><ele>826.3</ele></trkpt>
<trkpt lat="40.649181" lon="66.574646"><ele>827.4</ele></trkpt>
<trkpt lat="40.649209" lon="66.574680"><ele>829.2</ele></trkpt>
<trkpt lat="40.649250" lon="66.574648"><ele>830.8</ele></trkpt>
<trkpt lat="40.649225" lon="66.574602"><ele>830.2</ele></trkpt>
<trkpt lat="40.649187" lon="66.574594"><ele>831.8</ele></trkpt>
<trkpt lat="40.649215" lon="66.574567"><ele>833.3</ele></trkpt>
<trkpt lat="40.649187" lon="66.574535"><ele>834.5</ele></trkpt>
<trkpt lat="40.649183" lon="66.574494"><ele>834.6</ele></trkpt>
<trkpt lat="40.649153" lon="66.574457"><ele>834.9</ele></trkpt>
<trkpt lat="40.649092" lon="66.574440"><ele>834.5</ele></trkpt>
<trkpt lat="40.649077" lon="66.574407"><ele>836.9</ele></trkpt>
<trkpt lat="40.649084" lon="66.574385"><ele>838.4</ele></trkpt>
<trkpt lat="40.648987" lon="66.574417"><ele>837.9</ele></trkpt>
<trkpt lat="40.648982" lon="66.574405"><ele>839.1</ele></trkpt>
<trkpt lat="40.649002" lon="66.574392"><ele>839.6</ele></trkpt>
<trkpt lat="40.648988" lon="66.574369"><ele>841.2</ele></trkpt>
<trkpt lat="40.649008" lon="66.574398"><ele>840.9</ele></trkpt>
<trkpt lat="40.648976" lon="66.574373"><ele>842.8</ele></trkpt>
<trkpt lat="40.648969" lon="66.574384"><ele>843.6</ele></trkpt>
<trkpt lat="40.648957" lon="66.574372"><ele>841.0</ele></trkpt>
<trkpt lat="40.648962" lon="66.574352"><ele>838.8</ele></trkpt>
<trkpt lat="40.648993" lon="66.574364"><ele>838.5</ele></trkpt>
<trkpt lat="40.649012" lon="66.574334"><ele>840.7</ele></trkpt>
<trkpt lat="40.649025" lon="66.574355"><ele>841.6</ele></trkpt>
<trkpt lat="40.649041" lon="66.574295"><ele>845.5</ele></trkpt>
<trkpt lat="40.649012" lon="66.574282"><ele>847.6</ele></trkpt>
<trkpt lat="40.648960" lon="66.574295"><ele>848.2</ele></trkpt>
<trkpt lat="40.648945" lon="66.574263"><ele>850.7</ele></trkpt>
<trkpt lat="40.648919" lon="66.574260"><ele>852.9</ele></trkpt>
<trkpt lat="40.648922" lon="66.574194"><ele>855.2</ele></trkpt>
<trkpt lat="40.648932" lon="66.574196"><ele>855.8</ele></trkpt>
<trkpt lat="40.648918" lon="66.574173"><ele>855.9</ele></trkpt>
<trkpt lat="40.648851" lon="66.574189"><ele>860.2</ele></trkpt>
<trkpt lat="40.648837" lon="66.574173"><ele>861.8</ele></trkpt>
<trkpt lat="40.648847" lon="66.574159"><ele>862.0</ele></trkpt>
<trkpt lat="40.648834" lon="66.574168"><ele>863.5</ele></trkpt>
<trkpt lat="40.648813" lon="66.574134"><ele>864.9</ele></trkpt>
<trkpt lat="40.648740" lon="66.574135"><ele>867.2</ele></trkpt>
<trkpt lat="40.648746" lon="66.574097"><ele>868.6</ele></trkpt>
<trkpt lat="40.648724" lon="66.574088"><ele>870.2</ele></trkpt>
<trkpt lat="40.648733" lon="66.574062"><ele>871.6</ele></trkpt>
<trkpt lat="40.648714" lon="66.574061"><ele>872.8</ele></trkpt>
<trkpt lat="40.648729" lon="66.574022"><ele>874.3</ele></trkpt>
<trkpt lat="40.648741" lon="66.574034"><ele>875.0</ele></trkpt>
<trkpt lat="40.648760" lon="66.574016"><ele>875.7</ele></trkpt>
<trkpt lat="40.648738" lon="66.574013"><ele>878.1</ele></trkpt>
<trkpt lat="40.648740" lon="66.574000"><ele>877.6</ele></trkpt>
<trkpt lat="40.648674" lon="66.573997"><ele>878.5</ele></trkpt>
<trkpt lat="40.648661" lon="66.573980"><ele>878.4</ele></trkpt>
<trkpt lat="40.648637" lon="66.574008"><ele>878.6</ele></trkpt>
<trkpt lat="40.648549" lon="66.574035"><ele>880.7</ele></trkpt>
<trkpt lat="40.648566" lon="66.573972"><ele>881.2</ele></trkpt>
<trkpt lat="40.648534" lon="66.573949"><ele>884.4</ele></trkpt>
<trkpt lat="40.648542" lon="66.573918"><ele>884.7</ele></trkpt>
<trkpt lat="40.648524" lon="66.573904"><ele>885.2</ele></trkpt>
<trkpt lat="40.648521" lon="66.573859"><ele>887.0</ele></trkpt>
<trkpt lat="40.648488" lon="66.573834"><ele>886.9</ele></trkpt>
<trkpt lat="40.648481" lon="66.573808"><ele>887.2</ele></trkpt>
<trkpt lat="40.648371" lon="66.573734"><ele>891.3</ele></trkpt>
<trkpt lat="40.648373" lon="66.573710"><ele>892.7</ele></trkpt>
<trkpt lat="40.648348" lon="66.573717"><ele>893.1</ele></trkpt>
<trkpt lat="40.648362" lon="66.573699"><ele>893.5</ele></trkpt>
<trkpt lat="40.648339" lon="66.573700"><ele>894.5</ele></trkpt>
<trkpt lat="40.648352" lon="66.573664"><ele>894.8</ele></trkpt>
<trkpt lat="40.648327" lon="66.573640"><ele>894.8</ele></trkpt>
<trkpt lat="40.648305" lon="66.573653"><ele>896.4</ele></trkpt>
<trkpt lat="40.648317" lon="66.573637"><ele>896.3</ele></trkpt>
<trkpt lat="40.648305" lon="66.573632"><ele>898.7</ele></trkpt>
<trkpt lat="40.648302" lon="66.573593"><ele>898.0</ele></trkpt>
<trkpt lat="40.648285" lon="66.573637"><ele>898.7</ele></trkpt>
<trkpt lat="40.648264" lon="66.573640"><ele>897.6</ele></trkpt>
</trkseg></trk>
</gpx>