<?xml version='1.0' encoding='utf-8'?>
<gpx xmlns="http://www.topografix.com/GPX/1/1" version="1.1" creator="Sayr">
<trk><name>Камангаран — Каттакуль — пещера Киевская, кольцо</name><trkseg>
<trkpt lat="39.365417" lon="67.167603"><ele>1193.5</ele></trkpt>
<trkpt lat="39.365442" lon="67.167580"><ele>1193.1</ele></trkpt>
<trkpt lat="39.365460" lon="67.167441"><ele>1192.8</ele></trkpt>
<trkpt lat="39.365441" lon="67.167376"><ele>1193.2</ele></trkpt>
<trkpt lat="39.365477" lon="67.167294"><ele>1193.3</ele></trkpt>
<trkpt lat="39.365430" lon="67.167145"><ele>1194.9</ele></trkpt>
<trkpt lat="39.365407" lon="67.166849"><ele>1199.0</ele></trkpt>
<trkpt lat="39.365325" lon="67.166667"><ele>1202.2</ele></trkpt>
<trkpt lat="39.365261" lon="67.166395"><ele>1207.8</ele></trkpt>
<trkpt lat="39.365171" lon="67.166261"><ele>1210.5</ele></trkpt>
<trkpt lat="39.365009" lon="67.166071"><ele>1213.6</ele></trkpt>
<trkpt lat="39.364803" lon="67.165908"><ele>1215.5</ele></trkpt>
<trkpt lat="39.364652" lon="67.165731"><ele>1217.2</ele></trkpt>
<trkpt lat="39.364573" lon="67.165682"><ele>1217.3</ele></trkpt>
<trkpt lat="39.364431" lon="67.165649"><ele>1216.5</ele></trkpt>
<trkpt lat="39.364366" lon="67.165599"><ele>1216.8</ele></trkpt>
<trkpt lat="39.364240" lon="67.165568"><ele>1216.6</ele></trkpt>
<trkpt lat="39.364055" lon="67.165424"><ele>1218.1</ele></trkpt>
<trkpt lat="39.364020" lon="67.165430"><ele>1218.0</ele></trkpt>
<trkpt lat="39.363831" lon="67.165354"><ele>1219.2</ele></trkpt>
<trkpt lat="39.363466" lon="67.165162"><ele>1221.5</ele></trkpt>
<trkpt lat="39.363413" lon="67.165151"><ele>1221.8</ele></trkpt>
<trkpt lat="39.363183" lon="67.165196"><ele>1223.8</ele></trkpt>
<trkpt lat="39.362980" lon="67.165206"><ele>1226.7</ele></trkpt>
<trkpt lat="39.362805" lon="67.165201"><ele>1229.6</ele></trkpt>
<trkpt lat="39.362782" lon="67.165179"><ele>1230.1</ele></trkpt>
<trkpt lat="39.362668" lon="67.165197"><ele>1231.9</ele></trkpt>
<trkpt lat="39.362267" lon="67.165103"><ele>1238.2</ele></trkpt>
<trkpt lat="39.362173" lon="67.165108"><ele>1239.0</ele></trkpt>
<trkpt lat="39.361915" lon="67.164874"><ele>1243.9</ele></trkpt>
<trkpt lat="39.361740" lon="67.164789"><ele>1247.0</ele></trkpt>
<trkpt lat="39.361712" lon="67.164760"><ele>1247.7</ele></trkpt>
<trkpt lat="39.361661" lon="67.164760"><ele>1248.5</ele></trkpt>
<trkpt lat="39.361615" lon="67.164788"><ele>1248.8</ele></trkpt>
<trkpt lat="39.361545" lon="67.164800"><ele>1249.9</ele></trkpt>
<trkpt lat="39.361358" lon="67.164759"><ele>1253.7</ele></trkpt>
<trkpt lat="39.360968" lon="67.164571"><ele>1260.9</ele></trkpt>
<trkpt lat="39.360889" lon="67.164513"><ele>1262.0</ele></trkpt>
<trkpt lat="39.360807" lon="67.164422"><ele>1262.8</ele></trkpt>
<trkpt lat="39.360696" lon="67.164222"><ele>1263.6</ele></trkpt>
<trkpt lat="39.360585" lon="67.163774"><ele>1267.3</ele></trkpt>
<trkpt lat="39.360545" lon="67.163692"><ele>1268.5</ele></trkpt>
<trkpt lat="39.360249" lon="67.163402"><ele>1272.6</ele></trkpt>
<trkpt lat="39.360168" lon="67.163353"><ele>1273.5</ele></trkpt>
<trkpt lat="39.360047" lon="67.163241"><ele>1275.4</ele></trkpt>
<trkpt lat="39.359909" lon="67.163097"><ele>1278.1</ele></trkpt>
<trkpt lat="39.359797" lon="67.163042"><ele>1280.0</ele></trkpt>
<trkpt lat="39.359710" lon="67.162970"><ele>1281.2</ele></trkpt>
<trkpt lat="39.359483" lon="67.162715"><ele>1281.8</ele></trkpt>
<trkpt lat="39.359260" lon="67.162574"><ele>1282.8</ele></trkpt>
<trkpt lat="39.359176" lon="67.162466"><ele>1283.6</ele></trkpt>
<trkpt lat="39.359086" lon="67.162396"><ele>1285.6</ele></trkpt>
<trkpt lat="39.359000" lon="67.162292"><ele>1288.0</ele></trkpt>
<trkpt lat="39.358913" lon="67.162112"><ele>1290.8</ele></trkpt>
<trkpt lat="39.358906" lon="67.162040"><ele>1291.1</ele></trkpt>
<trkpt lat="39.358669" lon="67.161820"><ele>1296.9</ele></trkpt>
<trkpt lat="39.358648" lon="67.161781"><ele>1297.3</ele></trkpt>
<trkpt lat="39.358541" lon="67.161736"><ele>1299.1</ele></trkpt>
<trkpt lat="39.358470" lon="67.161681"><ele>1300.2</ele></trkpt>
<trkpt lat="39.358391" lon="67.161570"><ele>1301.5</ele></trkpt>
<trkpt lat="39.358171" lon="67.161347"><ele>1305.8</ele></trkpt>
<trkpt lat="39.358065" lon="67.161214"><ele>1309.2</ele></trkpt>
<trkpt lat="39.357928" lon="67.161108"><ele>1312.7</ele></trkpt>
<trkpt lat="39.357763" lon="67.161059"><ele>1315.3</ele></trkpt>
<trkpt lat="39.357681" lon="67.160978"><ele>1318.1</ele></trkpt>
<trkpt lat="39.357621" lon="67.160944"><ele>1319.5</ele></trkpt>
<trkpt lat="39.357405" lon="67.160945"><ele>1321.0</ele></trkpt>
<trkpt lat="39.357141" lon="67.160844"><ele>1323.2</ele></trkpt>
<trkpt lat="39.357021" lon="67.160743"><ele>1324.2</ele></trkpt>
<trkpt lat="39.356822" lon="67.160444"><ele>1329.9</ele></trkpt>
<trkpt lat="39.356759" lon="67.160318"><ele>1333.5</ele></trkpt>
<trkpt lat="39.356730" lon="67.160049"><ele>1341.6</ele></trkpt>
<trkpt lat="39.356753" lon="67.160010"><ele>1342.8</ele></trkpt>
<trkpt lat="39.356791" lon="67.159991"><ele>1343.6</ele></trkpt>
<trkpt lat="39.356788" lon="67.159965"><ele>1344.3</ele></trkpt>
<trkpt lat="39.356654" lon="67.159816"><ele>1347.8</ele></trkpt>
<trkpt lat="39.356594" lon="67.159791"><ele>1348.3</ele></trkpt>
<trkpt lat="39.356497" lon="67.159614"><ele>1351.7</ele></trkpt>
<trkpt lat="39.356346" lon="67.159488"><ele>1351.8</ele></trkpt>
<trkpt lat="39.356269" lon="67.159348"><ele>1351.9</ele></trkpt>
<trkpt lat="39.356159" lon="67.159213"><ele>1350.9</ele></trkpt>
<trkpt lat="39.356052" lon="67.158902"><ele>1354.5</ele></trkpt>
<trkpt lat="39.355991" lon="67.158787"><ele>1356.2</ele></trkpt>
<trkpt lat="39.355933" lon="67.158595"><ele>1360.6</ele></trkpt>
<trkpt lat="39.355760" lon="67.158341"><ele>1366.5</ele></trkpt>
<trkpt lat="39.355680" lon="67.158251"><ele>1369.2</ele></trkpt>
<trkpt lat="39.355561" lon="67.158157"><ele>1372.8</ele></trkpt>
<trkpt lat="39.355185" lon="67.157990"><ele>1383.2</ele></trkpt>
<trkpt lat="39.355073" lon="67.157884"><ele>1386.0</ele></trkpt>
<trkpt lat="39.354740" lon="67.157683"><ele>1396.9</ele></trkpt>
<trkpt lat="39.354625" lon="67.157576"><ele>1402.9</ele></trkpt>
<trkpt lat="39.354471" lon="67.157568"><ele>1410.9</ele></trkpt>
<trkpt lat="39.354413" lon="67.157524"><ele>1414.5</ele></trkpt>
<trkpt lat="39.354283" lon="67.157467"><ele>1422.0</ele></trkpt>
<trkpt lat="39.354227" lon="67.157469"><ele>1424.9</ele></trkpt>
<trkpt lat="39.354114" lon="67.157423"><ele>1431.0</ele></trkpt>
<trkpt lat="39.354056" lon="67.157382"><ele>1434.2</ele></trkpt>
<trkpt lat="39.353944" lon="67.157243"><ele>1439.2</ele></trkpt>
<trkpt lat="39.353870" lon="67.157197"><ele>1441.9</ele></trkpt>
<trkpt lat="39.353795" lon="67.157065"><ele>1441.5</ele></trkpt>
<trkpt lat="39.353799" lon="67.157007"><ele>1439.8</ele></trkpt>
<trkpt lat="39.353735" lon="67.156882"><ele>1437.6</ele></trkpt>
<trkpt lat="39.353518" lon="67.156668"><ele>1433.8</ele></trkpt>
<trkpt lat="39.353377" lon="67.156418"><ele>1434.5</ele></trkpt>
<trkpt lat="39.353181" lon="67.156167"><ele>1442.6</ele></trkpt>
<trkpt lat="39.352972" lon="67.155996"><ele>1452.8</ele></trkpt>
<trkpt lat="39.352947" lon="67.155942"><ele>1455.1</ele></trkpt>
<trkpt lat="39.352897" lon="67.155904"><ele>1457.5</ele></trkpt>
<trkpt lat="39.352802" lon="67.155691"><ele>1465.4</ele></trkpt>
<trkpt lat="39.352771" lon="67.155567"><ele>1469.1</ele></trkpt>
<trkpt lat="39.352736" lon="67.155598"><ele>1469.0</ele></trkpt>
<trkpt lat="39.352703" lon="67.155581"><ele>1470.0</ele></trkpt>
<trkpt lat="39.352661" lon="67.155407"><ele>1474.2</ele></trkpt>
<trkpt lat="39.352659" lon="67.155341"><ele>1475.6</ele></trkpt>
<trkpt lat="39.352630" lon="67.155254"><ele>1477.7</ele></trkpt>
<trkpt lat="39.352578" lon="67.155177"><ele>1479.5</ele></trkpt>
<trkpt lat="39.352474" lon="67.155090"><ele>1482.0</ele></trkpt>
<trkpt lat="39.352389" lon="67.154947"><ele>1485.8</ele></trkpt>
<trkpt lat="39.352356" lon="67.154924"><ele>1486.6</ele></trkpt>
<trkpt lat="39.352278" lon="67.154665"><ele>1493.4</ele></trkpt>
<trkpt lat="39.352013" lon="67.154390"><ele>1497.0</ele></trkpt>
<trkpt lat="39.352009" lon="67.154313"><ele>1498.4</ele></trkpt>
<trkpt lat="39.351973" lon="67.154250"><ele>1499.0</ele></trkpt>
<trkpt lat="39.351919" lon="67.154203"><ele>1499.1</ele></trkpt>
<trkpt lat="39.351796" lon="67.154174"><ele>1498.3</ele></trkpt>
<trkpt lat="39.351715" lon="67.154114"><ele>1499.3</ele></trkpt>
<trkpt lat="39.351539" lon="67.153891"><ele>1506.1</ele></trkpt>
<trkpt lat="39.351529" lon="67.153865"><ele>1506.9</ele></trkpt>
<trkpt lat="39.351645" lon="67.153781"><ele>1507.2</ele></trkpt>
<trkpt lat="39.351702" lon="67.153683"><ele>1510.0</ele></trkpt>
<trkpt lat="39.351688" lon="67.153581"><ele>1513.0</ele></trkpt>
<trkpt lat="39.351631" lon="67.153546"><ele>1513.9</ele></trkpt>
<trkpt lat="39.351603" lon="67.153478"><ele>1515.8</ele></trkpt>
<trkpt lat="39.351585" lon="67.153405"><ele>1517.8</ele></trkpt>
<trkpt lat="39.351592" lon="67.153264"><ele>1521.4</ele></trkpt>
<trkpt lat="39.351550" lon="67.153147"><ele>1524.4</ele></trkpt>
<trkpt lat="39.351575" lon="67.152932"><ele>1530.2</ele></trkpt>
<trkpt lat="39.351546" lon="67.152848"><ele>1532.4</ele></trkpt>
<trkpt lat="39.351530" lon="67.152736"><ele>1535.5</ele></trkpt>
<trkpt lat="39.351568" lon="67.152551"><ele>1541.2</ele></trkpt>
<trkpt lat="39.351549" lon="67.152479"><ele>1543.2</ele></trkpt>
<trkpt lat="39.351560" lon="67.152378"><ele>1546.5</ele></trkpt>
<trkpt lat="39.351537" lon="67.152254"><ele>1550.6</ele></trkpt>
<trkpt lat="39.351576" lon="67.152115"><ele>1555.6</ele></trkpt>
<trkpt lat="39.351627" lon="67.152052"><ele>1558.4</ele></trkpt>
<trkpt lat="39.351678" lon="67.151950"><ele>1562.8</ele></trkpt>
<trkpt lat="39.351693" lon="67.151876"><ele>1565.7</ele></trkpt>
<trkpt lat="39.351722" lon="67.151825"><ele>1568.2</ele></trkpt>
<trkpt lat="39.351725" lon="67.151766"><ele>1570.2</ele></trkpt>
<trkpt lat="39.351774" lon="67.151724"><ele>1573.0</ele></trkpt>
<trkpt lat="39.351791" lon="67.151683"><ele>1574.9</ele></trkpt>
<trkpt lat="39.351794" lon="67.151586"><ele>1577.8</ele></trkpt>
<trkpt lat="39.351752" lon="67.151491"><ele>1579.0</ele></trkpt>
<trkpt lat="39.351760" lon="67.151354"><ele>1582.7</ele></trkpt>
<trkpt lat="39.351710" lon="67.151196"><ele>1585.7</ele></trkpt>
<trkpt lat="39.351713" lon="67.151146"><ele>1587.0</ele></trkpt>
<trkpt lat="39.351689" lon="67.151111"><ele>1587.7</ele></trkpt>
<trkpt lat="39.351705" lon="67.151039"><ele>1589.8</ele></trkpt>
<trkpt lat="39.351734" lon="67.151007"><ele>1591.1</ele></trkpt>
<trkpt lat="39.351752" lon="67.150885"><ele>1594.8</ele></trkpt>
<trkpt lat="39.351785" lon="67.150827"><ele>1597.0</ele></trkpt>
<trkpt lat="39.351816" lon="67.150698"><ele>1601.5</ele></trkpt>
<trkpt lat="39.351867" lon="67.150627"><ele>1604.7</ele></trkpt>
<trkpt lat="39.351877" lon="67.150556"><ele>1607.1</ele></trkpt>
<trkpt lat="39.351831" lon="67.150530"><ele>1607.0</ele></trkpt>
<trkpt lat="39.351826" lon="67.150503"><ele>1607.8</ele></trkpt>
<trkpt lat="39.351863" lon="67.150418"><ele>1611.2</ele></trkpt>
<trkpt lat="39.351882" lon="67.150280"><ele>1616.1</ele></trkpt>
<trkpt lat="39.351874" lon="67.150259"><ele>1616.7</ele></trkpt>
<trkpt lat="39.351899" lon="67.150199"><ele>1619.3</ele></trkpt>
<trkpt lat="39.351876" lon="67.150171"><ele>1619.9</ele></trkpt>
<trkpt lat="39.351952" lon="67.149911"><ele>1631.2</ele></trkpt>
<trkpt lat="39.351945" lon="67.149880"><ele>1632.3</ele></trkpt>
<trkpt lat="39.351959" lon="67.149825"><ele>1634.8</ele></trkpt>
<trkpt lat="39.351949" lon="67.149801"><ele>1635.7</ele></trkpt>
<trkpt lat="39.351977" lon="67.149731"><ele>1639.0</ele></trkpt>
<trkpt lat="39.351969" lon="67.149691"><ele>1640.7</ele></trkpt>
<trkpt lat="39.352002" lon="67.149578"><ele>1646.0</ele></trkpt>
<trkpt lat="39.351997" lon="67.149543"><ele>1647.6</ele></trkpt>
<trkpt lat="39.352053" lon="67.149407"><ele>1654.2</ele></trkpt>
<trkpt lat="39.352062" lon="67.149339"><ele>1657.3</ele></trkpt>
<trkpt lat="39.352108" lon="67.149272"><ele>1660.6</ele></trkpt>
<trkpt lat="39.352145" lon="67.149281"><ele>1660.5</ele></trkpt>
<trkpt lat="39.352187" lon="67.149189"><ele>1664.8</ele></trkpt>
<trkpt lat="39.352201" lon="67.149083"><ele>1669.3</ele></trkpt>
<trkpt lat="39.352282" lon="67.148864"><ele>1678.8</ele></trkpt>
<trkpt lat="39.352414" lon="67.148707"><ele>1685.8</ele></trkpt>
<trkpt lat="39.352511" lon="67.148643"><ele>1689.3</ele></trkpt>
<trkpt lat="39.352578" lon="67.148575"><ele>1693.0</ele></trkpt>
<trkpt lat="39.352638" lon="67.148351"><ele>1701.1</ele></trkpt>
<trkpt lat="39.352616" lon="67.148311"><ele>1701.5</ele></trkpt>
<trkpt lat="39.352678" lon="67.148185"><ele>1706.2</ele></trkpt>
<trkpt lat="39.352676" lon="67.148137"><ele>1707.1</ele></trkpt>
<trkpt lat="39.352704" lon="67.148036"><ele>1709.8</ele></trkpt>
<trkpt lat="39.352726" lon="67.148015"><ele>1710.8</ele></trkpt>
<trkpt lat="39.352709" lon="67.147979"><ele>1710.9</ele></trkpt>
<trkpt lat="39.352714" lon="67.147924"><ele>1711.9</ele></trkpt>
<trkpt lat="39.352753" lon="67.147891"><ele>1713.6</ele></trkpt>
<trkpt lat="39.352789" lon="67.147910"><ele>1714.5</ele></trkpt>
<trkpt lat="39.352819" lon="67.147904"><ele>1715.7</ele></trkpt>
<trkpt lat="39.352841" lon="67.147866"><ele>1717.1</ele></trkpt>
<trkpt lat="39.352806" lon="67.147517"><ele>1722.2</ele></trkpt>
<trkpt lat="39.352822" lon="67.147442"><ele>1724.6</ele></trkpt>
<trkpt lat="39.352871" lon="67.147423"><ele>1726.5</ele></trkpt>
<trkpt lat="39.352884" lon="67.147391"><ele>1727.8</ele></trkpt>
<trkpt lat="39.352855" lon="67.147295"><ele>1729.8</ele></trkpt>
<trkpt lat="39.352871" lon="67.147223"><ele>1732.5</ele></trkpt>
<trkpt lat="39.352886" lon="67.147212"><ele>1733.3</ele></trkpt>
<trkpt lat="39.352862" lon="67.147093"><ele>1736.6</ele></trkpt>
<trkpt lat="39.352887" lon="67.147075"><ele>1737.9</ele></trkpt>
<trkpt lat="39.352963" lon="67.147076"><ele>1740.4</ele></trkpt>
<trkpt lat="39.352986" lon="67.147044"><ele>1742.3</ele></trkpt>
<trkpt lat="39.353021" lon="67.146971"><ele>1746.3</ele></trkpt>
<trkpt lat="39.353025" lon="67.146837"><ele>1751.6</ele></trkpt>
<trkpt lat="39.353108" lon="67.146790"><ele>1756.6</ele></trkpt>
<trkpt lat="39.353128" lon="67.146696"><ele>1761.1</ele></trkpt>
<trkpt lat="39.353186" lon="67.146654"><ele>1765.0</ele></trkpt>
<trkpt lat="39.353192" lon="67.146622"><ele>1766.5</ele></trkpt>
<trkpt lat="39.353246" lon="67.146553"><ele>1771.2</ele></trkpt>
<trkpt lat="39.353235" lon="67.146461"><ele>1774.6</ele></trkpt>
<trkpt lat="39.353312" lon="67.146345"><ele>1781.8</ele></trkpt>
<trkpt lat="39.353285" lon="67.146227"><ele>1786.2</ele></trkpt>
<trkpt lat="39.353359" lon="67.146152"><ele>1791.3</ele></trkpt>
<trkpt lat="39.353297" lon="67.146027"><ele>1795.4</ele></trkpt>
<trkpt lat="39.353326" lon="67.145970"><ele>1798.6</ele></trkpt>
<trkpt lat="39.353321" lon="67.145841"><ele>1804.4</ele></trkpt>
<trkpt lat="39.353373" lon="67.145838"><ele>1805.7</ele></trkpt>
<trkpt lat="39.353355" lon="67.145787"><ele>1807.6</ele></trkpt>
<trkpt lat="39.353334" lon="67.145598"><ele>1816.5</ele></trkpt>
<trkpt lat="39.353221" lon="67.145482"><ele>1820.6</ele></trkpt>
<trkpt lat="39.353069" lon="67.145252"><ele>1831.2</ele></trkpt>
<trkpt lat="39.352900" lon="67.144924"><ele>1849.2</ele></trkpt>
<trkpt lat="39.352723" lon="67.144856"><ele>1856.6</ele></trkpt>
<trkpt lat="39.352243" lon="67.144881"><ele>1875.8</ele></trkpt>
<trkpt lat="39.352328" lon="67.144701"><ele>1882.6</ele></trkpt>
<trkpt lat="39.352228" lon="67.144725"><ele>1886.8</ele></trkpt>
<trkpt lat="39.352270" lon="67.144541"><ele>1896.9</ele></trkpt>
<trkpt lat="39.352339" lon="67.144377"><ele>1905.2</ele></trkpt>
<trkpt lat="39.352464" lon="67.144212"><ele>1911.5</ele></trkpt>
<trkpt lat="39.352484" lon="67.144130"><ele>1915.6</ele></trkpt>
<trkpt lat="39.352478" lon="67.144095"><ele>1917.8</ele></trkpt>
<trkpt lat="39.352431" lon="67.144084"><ele>1919.9</ele></trkpt>
<trkpt lat="39.352391" lon="67.143967"><ele>1927.0</ele></trkpt>
<trkpt lat="39.352316" lon="67.143903"><ele>1932.2</ele></trkpt>
<trkpt lat="39.352308" lon="67.143827"><ele>1935.6</ele></trkpt>
<trkpt lat="39.352248" lon="67.143703"><ele>1942.3</ele></trkpt>
<trkpt lat="39.352246" lon="67.143632"><ele>1945.3</ele></trkpt>
<trkpt lat="39.352214" lon="67.143568"><ele>1948.7</ele></trkpt>
<trkpt lat="39.352044" lon="67.143515"><ele>1955.1</ele></trkpt>
<trkpt lat="39.352021" lon="67.143481"><ele>1957.1</ele></trkpt>
<trkpt lat="39.352018" lon="67.143442"><ele>1958.8</ele></trkpt>
<trkpt lat="39.351965" lon="67.143421"><ele>1961.1</ele></trkpt>
<trkpt lat="39.351922" lon="67.143366"><ele>1964.6</ele></trkpt>
<trkpt lat="39.351833" lon="67.143391"><ele>1965.8</ele></trkpt>
<trkpt lat="39.351751" lon="67.143384"><ele>1968.3</ele></trkpt>
<trkpt lat="39.351716" lon="67.143337"><ele>1971.4</ele></trkpt>
<trkpt lat="39.351669" lon="67.143214"><ele>1978.5</ele></trkpt>
<trkpt lat="39.351650" lon="67.143201"><ele>1979.6</ele></trkpt>
<trkpt lat="39.351620" lon="67.143080"><ele>1986.5</ele></trkpt>
<trkpt lat="39.351599" lon="67.143074"><ele>1987.5</ele></trkpt>
<trkpt lat="39.351540" lon="67.143128"><ele>1986.7</ele></trkpt>
<trkpt lat="39.351480" lon="67.143138"><ele>1988.3</ele></trkpt>
<trkpt lat="39.351480" lon="67.143060"><ele>1992.0</ele></trkpt>
<trkpt lat="39.351520" lon="67.142924"><ele>1997.5</ele></trkpt>
<trkpt lat="39.351440" lon="67.142816"><ele>2005.5</ele></trkpt>
<trkpt lat="39.351421" lon="67.142760"><ele>2009.0</ele></trkpt>
<trkpt lat="39.351400" lon="67.142751"><ele>2010.0</ele></trkpt>
<trkpt lat="39.351395" lon="67.142665"><ele>2014.6</ele></trkpt>
<trkpt lat="39.351562" lon="67.142487"><ele>2019.3</ele></trkpt>
<trkpt lat="39.351697" lon="67.142492"><ele>2015.7</ele></trkpt>
<trkpt lat="39.352033" lon="67.142427"><ele>2011.3</ele></trkpt>
<trkpt lat="39.352259" lon="67.142277"><ele>2014.6</ele></trkpt>
<trkpt lat="39.352342" lon="67.142088"><ele>2023.0</ele></trkpt>
<trkpt lat="39.352515" lon="67.141940"><ele>2026.7</ele></trkpt>
<trkpt lat="39.352629" lon="67.141883"><ele>2026.7</ele></trkpt>
<trkpt lat="39.352695" lon="67.141870"><ele>2025.7</ele></trkpt>
<trkpt lat="39.352828" lon="67.141791"><ele>2025.6</ele></trkpt>
<trkpt lat="39.352886" lon="67.141780"><ele>2024.5</ele></trkpt>
<trkpt lat="39.352954" lon="67.141724"><ele>2024.9</ele></trkpt>
<trkpt lat="39.353171" lon="67.141697"><ele>2020.5</ele></trkpt>
<trkpt lat="39.353464" lon="67.141624"><ele>2017.0</ele></trkpt>
<trkpt lat="39.353612" lon="67.141639"><ele>2015.2</ele></trkpt>
<trkpt lat="39.353659" lon="67.141615"><ele>2015.2</ele></trkpt>
<trkpt lat="39.353664" lon="67.141588"><ele>2015.5</ele></trkpt>
<trkpt lat="39.353472" lon="67.141398"><ele>2020.9</ele></trkpt>
<trkpt lat="39.353400" lon="67.141293"><ele>2024.3</ele></trkpt>
<trkpt lat="39.353340" lon="67.141237"><ele>2027.0</ele></trkpt>
<trkpt lat="39.353249" lon="67.141211"><ele>2030.4</ele></trkpt>
<trkpt lat="39.353188" lon="67.141247"><ele>2031.7</ele></trkpt>
<trkpt lat="39.353154" lon="67.141218"><ele>2033.4</ele></trkpt>
<trkpt lat="39.353075" lon="67.141218"><ele>2035.9</ele></trkpt>
<trkpt lat="39.353003" lon="67.141194"><ele>2038.7</ele></trkpt>
<trkpt lat="39.352845" lon="67.141097"><ele>2045.6</ele></trkpt>
<trkpt lat="39.352724" lon="67.141059"><ele>2050.2</ele></trkpt>
<trkpt lat="39.352652" lon="67.140980"><ele>2054.0</ele></trkpt>
<trkpt lat="39.352621" lon="67.140984"><ele>2055.0</ele></trkpt>
<trkpt lat="39.352593" lon="67.141019"><ele>2055.2</ele></trkpt>
<trkpt lat="39.352553" lon="67.140979"><ele>2057.4</ele></trkpt>
<trkpt lat="39.352470" lon="67.140951"><ele>2060.8</ele></trkpt>
<trkpt lat="39.352428" lon="67.140961"><ele>2062.1</ele></trkpt>
<trkpt lat="39.352361" lon="67.140856"><ele>2066.7</ele></trkpt>
<trkpt lat="39.352341" lon="67.140869"><ele>2067.2</ele></trkpt>
<trkpt lat="39.352279" lon="67.140854"><ele>2069.7</ele></trkpt>
<trkpt lat="39.352261" lon="67.140910"><ele>2069.0</ele></trkpt>
<trkpt lat="39.352187" lon="67.140923"><ele>2071.2</ele></trkpt>
<trkpt lat="39.352072" lon="67.140748"><ele>2080.1</ele></trkpt>
<trkpt lat="39.352016" lon="67.140540"><ele>2087.7</ele></trkpt>
<trkpt lat="39.351894" lon="67.140542"><ele>2093.6</ele></trkpt>
<trkpt lat="39.351844" lon="67.140509"><ele>2097.0</ele></trkpt>
<trkpt lat="39.351790" lon="67.140413"><ele>2102.8</ele></trkpt>
<trkpt lat="39.351737" lon="67.140410"><ele>2105.8</ele></trkpt>
<trkpt lat="39.351659" lon="67.140462"><ele>2108.1</ele></trkpt>
<trkpt lat="39.351626" lon="67.140463"><ele>2109.7</ele></trkpt>
<trkpt lat="39.351526" lon="67.140410"><ele>2116.9</ele></trkpt>
<trkpt lat="39.351490" lon="67.140367"><ele>2120.4</ele></trkpt>
<trkpt lat="39.351480" lon="67.140324"><ele>2122.5</ele></trkpt>
<trkpt lat="39.351437" lon="67.140330"><ele>2124.6</ele></trkpt>
<trkpt lat="39.351362" lon="67.140375"><ele>2126.9</ele></trkpt>
<trkpt lat="39.351295" lon="67.140260"><ele>2134.8</ele></trkpt>
<trkpt lat="39.351262" lon="67.140294"><ele>2135.3</ele></trkpt>
<trkpt lat="39.351138" lon="67.140276"><ele>2142.5</ele></trkpt>
<trkpt lat="39.351113" lon="67.140212"><ele>2146.2</ele></trkpt>
<trkpt lat="39.351071" lon="67.140242"><ele>2147.3</ele></trkpt>
<trkpt lat="39.351044" lon="67.140342"><ele>2145.0</ele></trkpt>
<trkpt lat="39.351022" lon="67.140366"><ele>2145.2</ele></trkpt>
<trkpt lat="39.350933" lon="67.140404"><ele>2148.3</ele></trkpt>
<trkpt lat="39.350873" lon="67.140388"><ele>2152.1</ele></trkpt>
<trkpt lat="39.350824" lon="67.140411"><ele>2153.6</ele></trkpt>
<trkpt lat="39.350784" lon="67.140400"><ele>2156.1</ele></trkpt>
<trkpt lat="39.350729" lon="67.140435"><ele>2157.5</ele></trkpt>
<trkpt lat="39.350698" lon="67.140415"><ele>2160.0</ele></trkpt>
<trkpt lat="39.350688" lon="67.140274"><ele>2166.1</ele></trkpt>
<trkpt lat="39.350642" lon="67.140237"><ele>2169.9</ele></trkpt>
<trkpt lat="39.350644" lon="67.140174"><ele>2172.2</ele></trkpt>
<trkpt lat="39.350615" lon="67.140105"><ele>2176.2</ele></trkpt>
<trkpt lat="39.350576" lon="67.140067"><ele>2179.7</ele></trkpt>
<trkpt lat="39.350568" lon="67.140002"><ele>2182.4</ele></trkpt>
<trkpt lat="39.350519" lon="67.140009"><ele>2184.8</ele></trkpt>
<trkpt lat="39.350404" lon="67.140100"><ele>2187.7</ele></trkpt>
<trkpt lat="39.350320" lon="67.140085"><ele>2192.6</ele></trkpt>
<trkpt lat="39.350272" lon="67.140108"><ele>2194.2</ele></trkpt>
<trkpt lat="39.350250" lon="67.140044"><ele>2197.8</ele></trkpt>
<trkpt lat="39.350227" lon="67.140092"><ele>2197.1</ele></trkpt>
<trkpt lat="39.350201" lon="67.140103"><ele>2198.0</ele></trkpt>
<trkpt lat="39.350181" lon="67.140063"><ele>2200.6</ele></trkpt>
<trkpt lat="39.350147" lon="67.140068"><ele>2202.1</ele></trkpt>
<trkpt lat="39.350082" lon="67.140039"><ele>2206.5</ele></trkpt>
<trkpt lat="39.350026" lon="67.140095"><ele>2206.9</ele></trkpt>
<trkpt lat="39.349992" lon="67.140101"><ele>2208.2</ele></trkpt>
<trkpt lat="39.349986" lon="67.140160"><ele>2206.1</ele></trkpt>
<trkpt lat="39.349956" lon="67.140208"><ele>2205.3</ele></trkpt>
<trkpt lat="39.349895" lon="67.140206"><ele>2208.1</ele></trkpt>
<trkpt lat="39.349847" lon="67.140175"><ele>2211.6</ele></trkpt>
<trkpt lat="39.349830" lon="67.140063"><ele>2217.4</ele></trkpt>
<trkpt lat="39.349791" lon="67.139999"><ele>2221.9</ele></trkpt>
<trkpt lat="39.349721" lon="67.139994"><ele>2225.4</ele></trkpt>
<trkpt lat="39.349605" lon="67.139903"><ele>2234.7</ele></trkpt>
<trkpt lat="39.349559" lon="67.139935"><ele>2235.3</ele></trkpt>
<trkpt lat="39.349535" lon="67.139931"><ele>2236.5</ele></trkpt>
<trkpt lat="39.349466" lon="67.139829"><ele>2244.2</ele></trkpt>
<trkpt lat="39.349420" lon="67.139843"><ele>2245.5</ele></trkpt>
<trkpt lat="39.349384" lon="67.139795"><ele>2249.2</ele></trkpt>
<trkpt lat="39.349323" lon="67.139764"><ele>2253.0</ele></trkpt>
<trkpt lat="39.349298" lon="67.139714"><ele>2256.2</ele></trkpt>
<trkpt lat="39.349252" lon="67.139773"><ele>2255.4</ele></trkpt>
<trkpt lat="39.349201" lon="67.139802"><ele>2256.1</ele></trkpt>
<trkpt lat="39.349153" lon="67.139642"><ele>2264.6</ele></trkpt>
<trkpt lat="39.349162" lon="67.139572"><ele>2267.0</ele></trkpt>
<trkpt lat="39.349141" lon="67.139550"><ele>2268.6</ele></trkpt>
<trkpt lat="39.349123" lon="67.139477"><ele>2271.9</ele></trkpt>
<trkpt lat="39.349142" lon="67.139332"><ele>2276.2</ele></trkpt>
<trkpt lat="39.349113" lon="67.139267"><ele>2279.2</ele></trkpt>
<trkpt lat="39.349017" lon="67.139304"><ele>2281.5</ele></trkpt>
<trkpt lat="39.348959" lon="67.139303"><ele>2283.5</ele></trkpt>
<trkpt lat="39.348884" lon="67.139210"><ele>2288.8</ele></trkpt>
<trkpt lat="39.348749" lon="67.139103"><ele>2296.0</ele></trkpt>
<trkpt lat="39.348678" lon="67.139185"><ele>2295.7</ele></trkpt>
<trkpt lat="39.348584" lon="67.139257"><ele>2295.6</ele></trkpt>
<trkpt lat="39.348518" lon="67.139279"><ele>2296.0</ele></trkpt>
<trkpt lat="39.348460" lon="67.139273"><ele>2296.9</ele></trkpt>
<trkpt lat="39.348436" lon="67.139180"><ele>2300.1</ele></trkpt>
<trkpt lat="39.348394" lon="67.139119"><ele>2302.3</ele></trkpt>
<trkpt lat="39.348305" lon="67.138920"><ele>2309.1</ele></trkpt>
<trkpt lat="39.348268" lon="67.138884"><ele>2310.2</ele></trkpt>
<trkpt lat="39.348241" lon="67.138803"><ele>2312.9</ele></trkpt>
<trkpt lat="39.348180" lon="67.138755"><ele>2314.5</ele></trkpt>
<trkpt lat="39.348088" lon="67.138635"><ele>2318.6</ele></trkpt>
<trkpt lat="39.348010" lon="67.138439"><ele>2326.5</ele></trkpt>
<trkpt lat="39.347881" lon="67.138254"><ele>2334.1</ele></trkpt>
<trkpt lat="39.347830" lon="67.138097"><ele>2340.6</ele></trkpt>
<trkpt lat="39.347789" lon="67.138057"><ele>2342.2</ele></trkpt>
<trkpt lat="39.347788" lon="67.137961"><ele>2346.0</ele></trkpt>
<trkpt lat="39.347769" lon="67.137914"><ele>2347.8</ele></trkpt>
<trkpt lat="39.347779" lon="67.137838"><ele>2350.7</ele></trkpt>
<trkpt lat="39.347759" lon="67.137794"><ele>2352.3</ele></trkpt>
<trkpt lat="39.347760" lon="67.137755"><ele>2353.7</ele></trkpt>
<trkpt lat="39.347648" lon="67.137511"><ele>2362.1</ele></trkpt>
<trkpt lat="39.347660" lon="67.137465"><ele>2363.6</ele></trkpt>
<trkpt lat="39.347587" lon="67.137348"><ele>2367.7</ele></trkpt>
<trkpt lat="39.347580" lon="67.137305"><ele>2369.2</ele></trkpt>
<trkpt lat="39.347495" lon="67.137260"><ele>2371.3</ele></trkpt>
<trkpt lat="39.347108" lon="67.137203"><ele>2374.3</ele></trkpt>
<trkpt lat="39.346908" lon="67.137119"><ele>2377.1</ele></trkpt>
<trkpt lat="39.346743" lon="67.136848"><ele>2388.4</ele></trkpt>
<trkpt lat="39.346654" lon="67.136805"><ele>2390.3</ele></trkpt>
<trkpt lat="39.346605" lon="67.136732"><ele>2393.4</ele></trkpt>
<trkpt lat="39.346417" lon="67.136579"><ele>2399.4</ele></trkpt>
<trkpt lat="39.346380" lon="67.136526"><ele>2401.5</ele></trkpt>
<trkpt lat="39.346079" lon="67.136444"><ele>2403.7</ele></trkpt>
<trkpt lat="39.346012" lon="67.136348"><ele>2407.7</ele></trkpt>
<trkpt lat="39.345934" lon="67.136324"><ele>2408.8</ele></trkpt>
<trkpt lat="39.345868" lon="67.136263"><ele>2411.5</ele></trkpt>
<trkpt lat="39.345799" lon="67.136248"><ele>2412.5</ele></trkpt>
<trkpt lat="39.345723" lon="67.136169"><ele>2416.4</ele></trkpt>
<trkpt lat="39.345709" lon="67.136119"><ele>2418.6</ele></trkpt>
<trkpt lat="39.345549" lon="67.135983"><ele>2425.4</ele></trkpt>
<trkpt lat="39.345449" lon="67.135955"><ele>2427.4</ele></trkpt>
<trkpt lat="39.345337" lon="67.135982"><ele>2427.4</ele></trkpt>
<trkpt lat="39.345186" lon="67.135947"><ele>2429.8</ele></trkpt>
<trkpt lat="39.345024" lon="67.135936"><ele>2430.9</ele></trkpt>
<trkpt lat="39.344800" lon="67.135857"><ele>2433.3</ele></trkpt>
<trkpt lat="39.344665" lon="67.135765"><ele>2435.0</ele></trkpt>
<trkpt lat="39.344551" lon="67.135605"><ele>2437.0</ele></trkpt>
<trkpt lat="39.344493" lon="67.135551"><ele>2437.1</ele></trkpt>
<trkpt lat="39.344403" lon="67.135528"><ele>2436.3</ele></trkpt>
<trkpt lat="39.344298" lon="67.135464"><ele>2435.4</ele></trkpt>
<trkpt lat="39.344143" lon="67.135257"><ele>2433.8</ele></trkpt>
<trkpt lat="39.344032" lon="67.135261"><ele>2432.2</ele></trkpt>
<trkpt lat="39.343900" lon="67.135174"><ele>2430.2</ele></trkpt>
<trkpt lat="39.343838" lon="67.135179"><ele>2429.3</ele></trkpt>
<trkpt lat="39.343757" lon="67.135134"><ele>2428.0</ele></trkpt>
<trkpt lat="39.343561" lon="67.135110"><ele>2424.9</ele></trkpt>
<trkpt lat="39.343505" lon="67.135053"><ele>2423.6</ele></trkpt>
<trkpt lat="39.343441" lon="67.135064"><ele>2422.5</ele></trkpt>
<trkpt lat="39.343360" lon="67.135122"><ele>2421.4</ele></trkpt>
<trkpt lat="39.343297" lon="67.135074"><ele>2419.9</ele></trkpt>
<trkpt lat="39.343238" lon="67.135048"><ele>2418.4</ele></trkpt>
<trkpt lat="39.343200" lon="67.135051"><ele>2417.6</ele></trkpt>
<trkpt lat="39.343147" lon="67.135000"><ele>2415.9</ele></trkpt>
<trkpt lat="39.343104" lon="67.135025"><ele>2415.0</ele></trkpt>
<trkpt lat="39.342997" lon="67.134986"><ele>2412.0</ele></trkpt>
<trkpt lat="39.342935" lon="67.135045"><ele>2410.9</ele></trkpt>
<trkpt lat="39.342891" lon="67.135023"><ele>2409.7</ele></trkpt>
<trkpt lat="39.342845" lon="67.135046"><ele>2408.7</ele></trkpt>
<trkpt lat="39.342774" lon="67.135008"><ele>2406.7</ele></trkpt>
<trkpt lat="39.342683" lon="67.135031"><ele>2404.7</ele></trkpt>
<trkpt lat="39.342417" lon="67.135020"><ele>2399.8</ele></trkpt>
<trkpt lat="39.342190" lon="67.134958"><ele>2396.1</ele></trkpt>
<trkpt lat="39.342191" lon="67.134740"><ele>2396.1</ele></trkpt>
<trkpt lat="39.342250" lon="67.134487"><ele>2397.1</ele></trkpt>
<trkpt lat="39.342251" lon="67.134178"><ele>2397.4</ele></trkpt>
<trkpt lat="39.342288" lon="67.133766"><ele>2396.1</ele></trkpt>
<trkpt lat="39.342257" lon="67.133580"><ele>2395.3</ele></trkpt>
<trkpt lat="39.342321" lon="67.132975"><ele>2394.3</ele></trkpt>
<trkpt lat="39.342329" lon="67.132570"><ele>2394.5</ele></trkpt>
<trkpt lat="39.342387" lon="67.132120"><ele>2395.0</ele></trkpt>
<trkpt lat="39.342408" lon="67.131786"><ele>2395.3</ele></trkpt>
<trkpt lat="39.342429" lon="67.131738"><ele>2395.2</ele></trkpt>
<trkpt lat="39.342476" lon="67.131700"><ele>2395.1</ele></trkpt>
<trkpt lat="39.342501" lon="67.131567"><ele>2395.0</ele></trkpt>
<trkpt lat="39.342529" lon="67.131300"><ele>2394.9</ele></trkpt>
<trkpt lat="39.342522" lon="67.130962"><ele>2394.9</ele></trkpt>
<trkpt lat="39.342569" lon="67.130559"><ele>2393.7</ele></trkpt>
<trkpt lat="39.342593" lon="67.130485"><ele>2393.2</ele></trkpt>
<trkpt lat="39.342632" lon="67.130450"><ele>2392.7</ele></trkpt>
<trkpt lat="39.342951" lon="67.130322"><ele>2390.7</ele></trkpt>
<trkpt lat="39.342977" lon="67.130283"><ele>2390.7</ele></trkpt>
<trkpt lat="39.342656" lon="67.129435"><ele>2391.9</ele></trkpt>
<trkpt lat="39.342614" lon="67.129003"><ele>2390.5</ele></trkpt>
<trkpt lat="39.342560" lon="67.128772"><ele>2388.4</ele></trkpt>
<trkpt lat="39.342530" lon="67.128529"><ele>2386.1</ele></trkpt>
<trkpt lat="39.342495" lon="67.128403"><ele>2385.3</ele></trkpt>
<trkpt lat="39.342400" lon="67.127766"><ele>2386.2</ele></trkpt>
<trkpt lat="39.342358" lon="67.127648"><ele>2386.9</ele></trkpt>
<trkpt lat="39.342328" lon="67.127481"><ele>2387.5</ele></trkpt>
<trkpt lat="39.342320" lon="67.127244"><ele>2387.8</ele></trkpt>
<trkpt lat="39.342239" lon="67.126880"><ele>2389.9</ele></trkpt>
<trkpt lat="39.342186" lon="67.126733"><ele>2391.3</ele></trkpt>
<trkpt lat="39.342166" lon="67.126609"><ele>2391.8</ele></trkpt>
<trkpt lat="39.342157" lon="67.126391"><ele>2391.2</ele></trkpt>
<trkpt lat="39.342097" lon="67.126184"><ele>2391.4</ele></trkpt>
<trkpt lat="39.342110" lon="67.126165"><ele>2391.0</ele></trkpt>
<trkpt lat="39.342186" lon="67.126160"><ele>2389.4</ele></trkpt>
<trkpt lat="39.342204" lon="67.126133"><ele>2388.9</ele></trkpt>
<trkpt lat="39.342182" lon="67.125982"><ele>2388.4</ele></trkpt>
<trkpt lat="39.342327" lon="67.126119"><ele>2386.8</ele></trkpt>
<trkpt lat="39.342405" lon="67.126122"><ele>2385.7</ele></trkpt>
<trkpt lat="39.342499" lon="67.126171"><ele>2384.7</ele></trkpt>
<trkpt lat="39.342725" lon="67.126370"><ele>2383.3</ele></trkpt>
<trkpt lat="39.342853" lon="67.126437"><ele>2383.1</ele></trkpt>
<trkpt lat="39.342869" lon="67.126467"><ele>2383.1</ele></trkpt>
<trkpt lat="39.343188" lon="67.126728"><ele>2383.9</ele></trkpt>
<trkpt lat="39.343597" lon="67.127134"><ele>2386.1</ele></trkpt>
<trkpt lat="39.343682" lon="67.127258"><ele>2387.0</ele></trkpt>
<trkpt lat="39.343715" lon="67.127350"><ele>2387.7</ele></trkpt>
<trkpt lat="39.343800" lon="67.127431"><ele>2388.6</ele></trkpt>
<trkpt lat="39.343902" lon="67.127578"><ele>2390.5</ele></trkpt>
<trkpt lat="39.344077" lon="67.127773"><ele>2394.3</ele></trkpt>
<trkpt lat="39.344144" lon="67.127910"><ele>2396.9</ele></trkpt>
<trkpt lat="39.344121" lon="67.128082"><ele>2399.0</ele></trkpt>
<trkpt lat="39.344072" lon="67.128269"><ele>2400.5</ele></trkpt>
<trkpt lat="39.344064" lon="67.128391"><ele>2401.2</ele></trkpt>
<trkpt lat="39.344074" lon="67.128479"><ele>2401.7</ele></trkpt>
<trkpt lat="39.344130" lon="67.128573"><ele>2402.6</ele></trkpt>
<trkpt lat="39.344108" lon="67.128716"><ele>2402.5</ele></trkpt>
<trkpt lat="39.344115" lon="67.128835"><ele>2402.5</ele></trkpt>
<trkpt lat="39.344254" lon="67.128991"><ele>2404.2</ele></trkpt>
<trkpt lat="39.344374" lon="67.129086"><ele>2406.4</ele></trkpt>
<trkpt lat="39.344590" lon="67.129331"><ele>2411.4</ele></trkpt>
<trkpt lat="39.344622" lon="67.129377"><ele>2412.2</ele></trkpt>
<trkpt lat="39.344685" lon="67.129536"><ele>2413.9</ele></trkpt>
<trkpt lat="39.344742" lon="67.129574"><ele>2415.1</ele></trkpt>
<trkpt lat="39.344890" lon="67.129737"><ele>2418.2</ele></trkpt>
<trkpt lat="39.344923" lon="67.129803"><ele>2419.0</ele></trkpt>
<trkpt lat="39.345011" lon="67.129868"><ele>2420.3</ele></trkpt>
<trkpt lat="39.345298" lon="67.130265"><ele>2427.0</ele></trkpt>
<trkpt lat="39.345325" lon="67.130340"><ele>2428.4</ele></trkpt>
<trkpt lat="39.345472" lon="67.130508"><ele>2433.3</ele></trkpt>
<trkpt lat="39.345623" lon="67.130578"><ele>2436.3</ele></trkpt>
<trkpt lat="39.345749" lon="67.130722"><ele>2439.9</ele></trkpt>
<trkpt lat="39.345771" lon="67.130847"><ele>2442.4</ele></trkpt>
<trkpt lat="39.345813" lon="67.130909"><ele>2443.5</ele></trkpt>
<trkpt lat="39.345833" lon="67.130993"><ele>2444.9</ele></trkpt>
<trkpt lat="39.345896" lon="67.131093"><ele>2446.2</ele></trkpt>
<trkpt lat="39.345934" lon="67.131188"><ele>2447.4</ele></trkpt>
<trkpt lat="39.346043" lon="67.131300"><ele>2447.3</ele></trkpt>
<trkpt lat="39.346078" lon="67.131377"><ele>2447.7</ele></trkpt>
<trkpt lat="39.346233" lon="67.131482"><ele>2445.1</ele></trkpt>
<trkpt lat="39.346215" lon="67.131561"><ele>2446.6</ele></trkpt>
<trkpt lat="39.346206" lon="67.131761"><ele>2449.0</ele></trkpt>
<trkpt lat="39.346226" lon="67.131930"><ele>2449.7</ele></trkpt>
<trkpt lat="39.346218" lon="67.132019"><ele>2450.3</ele></trkpt>
<trkpt lat="39.346197" lon="67.132041"><ele>2450.7</ele></trkpt>
<trkpt lat="39.346253" lon="67.132143"><ele>2450.4</ele></trkpt>
<trkpt lat="39.346412" lon="67.132357"><ele>2450.6</ele></trkpt>
<trkpt lat="39.346484" lon="67.132432"><ele>2451.0</ele></trkpt>
<trkpt lat="39.346547" lon="67.132465"><ele>2451.1</ele></trkpt>
<trkpt lat="39.346577" lon="67.132616"><ele>2452.5</ele></trkpt>
<trkpt lat="39.346631" lon="67.132631"><ele>2452.6</ele></trkpt>
<trkpt lat="39.346694" lon="67.132685"><ele>2452.9</ele></trkpt>
<trkpt lat="39.346763" lon="67.132712"><ele>2453.2</ele></trkpt>
<trkpt lat="39.346917" lon="67.132869"><ele>2454.7</ele></trkpt>
<trkpt lat="39.347052" lon="67.132930"><ele>2454.9</ele></trkpt>
<trkpt lat="39.347127" lon="67.132989"><ele>2454.7</ele></trkpt>
<trkpt lat="39.347140" lon="67.133159"><ele>2454.5</ele></trkpt>
<trkpt lat="39.347101" lon="67.133383"><ele>2454.2</ele></trkpt>
<trkpt lat="39.347070" lon="67.133482"><ele>2453.9</ele></trkpt>
<trkpt lat="39.346951" lon="67.133697"><ele>2453.5</ele></trkpt>
<trkpt lat="39.346898" lon="67.133838"><ele>2453.0</ele></trkpt>
<trkpt lat="39.346826" lon="67.134231"><ele>2450.8</ele></trkpt>
<trkpt lat="39.346761" lon="67.134415"><ele>2450.2</ele></trkpt>
<trkpt lat="39.346780" lon="67.134614"><ele>2447.5</ele></trkpt>
<trkpt lat="39.346833" lon="67.134773"><ele>2444.4</ele></trkpt>
<trkpt lat="39.346852" lon="67.134894"><ele>2442.2</ele></trkpt>
<trkpt lat="39.347047" lon="67.134979"><ele>2436.8</ele></trkpt>
<trkpt lat="39.347074" lon="67.134976"><ele>2436.2</ele></trkpt>
<trkpt lat="39.347127" lon="67.134924"><ele>2435.8</ele></trkpt>
<trkpt lat="39.347276" lon="67.134902"><ele>2432.3</ele></trkpt>
<trkpt lat="39.347362" lon="67.134979"><ele>2428.7</ele></trkpt>
<trkpt lat="39.347439" lon="67.135170"><ele>2423.0</ele></trkpt>
<trkpt lat="39.347467" lon="67.135309"><ele>2419.4</ele></trkpt>
<trkpt lat="39.347513" lon="67.135370"><ele>2416.5</ele></trkpt>
<trkpt lat="39.347579" lon="67.135507"><ele>2411.1</ele></trkpt>
<trkpt lat="39.347642" lon="67.135713"><ele>2404.1</ele></trkpt>
<trkpt lat="39.347659" lon="67.135727"><ele>2403.0</ele></trkpt>
<trkpt lat="39.347712" lon="67.135711"><ele>2401.0</ele></trkpt>
<trkpt lat="39.347726" lon="67.135735"><ele>2399.9</ele></trkpt>
<trkpt lat="39.347754" lon="67.135876"><ele>2395.8</ele></trkpt>
<trkpt lat="39.347730" lon="67.136032"><ele>2394.0</ele></trkpt>
<trkpt lat="39.347773" lon="67.136053"><ele>2391.7</ele></trkpt>
<trkpt lat="39.347798" lon="67.136258"><ele>2387.2</ele></trkpt>
<trkpt lat="39.347848" lon="67.136332"><ele>2383.8</ele></trkpt>
<trkpt lat="39.347844" lon="67.136419"><ele>2382.6</ele></trkpt>
<trkpt lat="39.347861" lon="67.136515"><ele>2380.3</ele></trkpt>
<trkpt lat="39.347938" lon="67.136445"><ele>2378.0</ele></trkpt>
<trkpt lat="39.348012" lon="67.136443"><ele>2374.7</ele></trkpt>
<trkpt lat="39.348053" lon="67.136523"><ele>2371.7</ele></trkpt>
<trkpt lat="39.348100" lon="67.136523"><ele>2369.6</ele></trkpt>
<trkpt lat="39.348109" lon="67.136609"><ele>2368.1</ele></trkpt>
<trkpt lat="39.348164" lon="67.136635"><ele>2365.2</ele></trkpt>
<trkpt lat="39.348190" lon="67.136726"><ele>2363.1</ele></trkpt>
<trkpt lat="39.348244" lon="67.136724"><ele>2360.7</ele></trkpt>
<trkpt lat="39.348263" lon="67.136765"><ele>2359.5</ele></trkpt>
<trkpt lat="39.348272" lon="67.136854"><ele>2358.6</ele></trkpt>
<trkpt lat="39.348335" lon="67.136912"><ele>2355.6</ele></trkpt>
<trkpt lat="39.348364" lon="67.137011"><ele>2354.0</ele></trkpt>
<trkpt lat="39.348412" lon="67.136962"><ele>2351.7</ele></trkpt>
<trkpt lat="39.348442" lon="67.137009"><ele>2350.0</ele></trkpt>
<trkpt lat="39.348468" lon="67.136994"><ele>2348.6</ele></trkpt>
<trkpt lat="39.348538" lon="67.137100"><ele>2344.4</ele></trkpt>
<trkpt lat="39.348595" lon="67.137119"><ele>2340.7</ele></trkpt>
<trkpt lat="39.348626" lon="67.137234"><ele>2338.4</ele></trkpt>
<trkpt lat="39.348626" lon="67.137288"><ele>2338.2</ele></trkpt>
<trkpt lat="39.348676" lon="67.137282"><ele>2334.8</ele></trkpt>
<trkpt lat="39.348726" lon="67.137383"><ele>2330.7</ele></trkpt>
<trkpt lat="39.348768" lon="67.137372"><ele>2327.8</ele></trkpt>
<trkpt lat="39.348812" lon="67.137398"><ele>2324.4</ele></trkpt>
<trkpt lat="39.348843" lon="67.137453"><ele>2321.7</ele></trkpt>
<trkpt lat="39.348957" lon="67.137437"><ele>2313.8</ele></trkpt>
<trkpt lat="39.349022" lon="67.137632"><ele>2307.2</ele></trkpt>
<trkpt lat="39.349037" lon="67.137830"><ele>2303.8</ele></trkpt>
<trkpt lat="39.349026" lon="67.137884"><ele>2303.8</ele></trkpt>
<trkpt lat="39.348967" lon="67.138009"><ele>2305.6</ele></trkpt>
<trkpt lat="39.348983" lon="67.138155"><ele>2302.6</ele></trkpt>
<trkpt lat="39.348949" lon="67.138237"><ele>2303.2</ele></trkpt>
<trkpt lat="39.348973" lon="67.138310"><ele>2300.8</ele></trkpt>
<trkpt lat="39.349041" lon="67.138389"><ele>2296.3</ele></trkpt>
<trkpt lat="39.349058" lon="67.138444"><ele>2294.9</ele></trkpt>
<trkpt lat="39.349107" lon="67.138466"><ele>2292.3</ele></trkpt>
<trkpt lat="39.349204" lon="67.138455"><ele>2288.0</ele></trkpt>
<trkpt lat="39.349235" lon="67.138479"><ele>2286.3</ele></trkpt>
<trkpt lat="39.349244" lon="67.138543"><ele>2285.4</ele></trkpt>
<trkpt lat="39.349261" lon="67.138561"><ele>2284.5</ele></trkpt>
<trkpt lat="39.349314" lon="67.138545"><ele>2282.1</ele></trkpt>
<trkpt lat="39.349383" lon="67.138597"><ele>2278.5</ele></trkpt>
<trkpt lat="39.349435" lon="67.138578"><ele>2276.1</ele></trkpt>
<trkpt lat="39.349464" lon="67.138632"><ele>2274.4</ele></trkpt>
<trkpt lat="39.349502" lon="67.138638"><ele>2272.5</ele></trkpt>
<trkpt lat="39.349528" lon="67.138699"><ele>2270.9</ele></trkpt>
<trkpt lat="39.349565" lon="67.138710"><ele>2269.0</ele></trkpt>
<trkpt lat="39.349683" lon="67.138579"><ele>2263.6</ele></trkpt>
<trkpt lat="39.349724" lon="67.138577"><ele>2261.5</ele></trkpt>
<trkpt lat="39.349769" lon="67.138528"><ele>2259.4</ele></trkpt>
<trkpt lat="39.349804" lon="67.138576"><ele>2257.3</ele></trkpt>
<trkpt lat="39.349848" lon="67.138703"><ele>2254.4</ele></trkpt>
<trkpt lat="39.349915" lon="67.138642"><ele>2251.2</ele></trkpt>
<trkpt lat="39.349997" lon="67.138695"><ele>2246.5</ele></trkpt>
<trkpt lat="39.350022" lon="67.138683"><ele>2245.2</ele></trkpt>
<trkpt lat="39.350037" lon="67.138643"><ele>2244.7</ele></trkpt>
<trkpt lat="39.350081" lon="67.138641"><ele>2242.3</ele></trkpt>
<trkpt lat="39.350075" lon="67.138602"><ele>2242.9</ele></trkpt>
<trkpt lat="39.350091" lon="67.138562"><ele>2242.3</ele></trkpt>
<trkpt lat="39.350133" lon="67.138524"><ele>2240.4</ele></trkpt>
<trkpt lat="39.350183" lon="67.138569"><ele>2237.4</ele></trkpt>
<trkpt lat="39.350235" lon="67.138671"><ele>2233.6</ele></trkpt>
<trkpt lat="39.350259" lon="67.138686"><ele>2232.1</ele></trkpt>
<trkpt lat="39.350276" lon="67.138673"><ele>2231.2</ele></trkpt>
<trkpt lat="39.350320" lon="67.138722"><ele>2228.2</ele></trkpt>
<trkpt lat="39.350381" lon="67.138713"><ele>2224.7</ele></trkpt>
<trkpt lat="39.350466" lon="67.138762"><ele>2218.9</ele></trkpt>
<trkpt lat="39.350566" lon="67.138853"><ele>2211.1</ele></trkpt>
<trkpt lat="39.350540" lon="67.138877"><ele>2212.3</ele></trkpt>
<trkpt lat="39.350556" lon="67.138927"><ele>2210.3</ele></trkpt>
<trkpt lat="39.350612" lon="67.138950"><ele>2206.2</ele></trkpt>
<trkpt lat="39.350622" lon="67.138984"><ele>2204.9</ele></trkpt>
<trkpt lat="39.350592" lon="67.139051"><ele>2205.4</ele></trkpt>
<trkpt lat="39.350612" lon="67.139052"><ele>2204.1</ele></trkpt>
<trkpt lat="39.350630" lon="67.139088"><ele>2202.1</ele></trkpt>
<trkpt lat="39.350659" lon="67.139074"><ele>2200.5</ele></trkpt>
<trkpt lat="39.350753" lon="67.139156"><ele>2192.4</ele></trkpt>
<trkpt lat="39.350780" lon="67.139267"><ele>2188.1</ele></trkpt>
<trkpt lat="39.350929" lon="67.139287"><ele>2178.4</ele></trkpt>
<trkpt lat="39.350967" lon="67.139327"><ele>2175.3</ele></trkpt>
<trkpt lat="39.351011" lon="67.139402"><ele>2171.2</ele></trkpt>
<trkpt lat="39.351053" lon="67.139580"><ele>2165.6</ele></trkpt>
<trkpt lat="39.351130" lon="67.139649"><ele>2159.9</ele></trkpt>
<trkpt lat="39.351167" lon="67.139631"><ele>2158.1</ele></trkpt>
<trkpt lat="39.351173" lon="67.139668"><ele>2157.2</ele></trkpt>
<trkpt lat="39.351233" lon="67.139707"><ele>2153.1</ele></trkpt>
<trkpt lat="39.351279" lon="67.139782"><ele>2149.1</ele></trkpt>
<trkpt lat="39.351360" lon="67.139827"><ele>2143.7</ele></trkpt>
<trkpt lat="39.351372" lon="67.139933"><ele>2140.7</ele></trkpt>
<trkpt lat="39.351469" lon="67.139944"><ele>2134.9</ele></trkpt>
<trkpt lat="39.351487" lon="67.140071"><ele>2130.5</ele></trkpt>
<trkpt lat="39.351521" lon="67.140084"><ele>2128.2</ele></trkpt>
<trkpt lat="39.351512" lon="67.140130"><ele>2127.3</ele></trkpt>
<trkpt lat="39.351534" lon="67.140151"><ele>2125.4</ele></trkpt>
<trkpt lat="39.351544" lon="67.140267"><ele>2121.1</ele></trkpt>
<trkpt lat="39.351592" lon="67.140277"><ele>2118.1</ele></trkpt>
<trkpt lat="39.351706" lon="67.140404"><ele>2107.6</ele></trkpt>
<trkpt lat="39.351753" lon="67.140370"><ele>2106.2</ele></trkpt>
<trkpt lat="39.351816" lon="67.140368"><ele>2102.8</ele></trkpt>
<trkpt lat="39.351867" lon="67.140461"><ele>2097.3</ele></trkpt>
<trkpt lat="39.351952" lon="67.140542"><ele>2090.7</ele></trkpt>
<trkpt lat="39.352043" lon="67.140774"><ele>2080.5</ele></trkpt>
<trkpt lat="39.352059" lon="67.140760"><ele>2080.3</ele></trkpt>
<trkpt lat="39.352130" lon="67.140773"><ele>2077.2</ele></trkpt>
<trkpt lat="39.352197" lon="67.140876"><ele>2072.1</ele></trkpt>
<trkpt lat="39.352247" lon="67.140913"><ele>2069.4</ele></trkpt>
<trkpt lat="39.352274" lon="67.140896"><ele>2068.9</ele></trkpt>
<trkpt lat="39.352303" lon="67.140845"><ele>2069.1</ele></trkpt>
<trkpt lat="39.352299" lon="67.140799"><ele>2070.2</ele></trkpt>
<trkpt lat="39.352318" lon="67.140774"><ele>2069.9</ele></trkpt>
<trkpt lat="39.352317" lon="67.140677"><ele>2071.6</ele></trkpt>
<trkpt lat="39.352340" lon="67.140636"><ele>2071.2</ele></trkpt>
<trkpt lat="39.352345" lon="67.140582"><ele>2071.6</ele></trkpt>
<trkpt lat="39.352410" lon="67.140382"><ele>2070.0</ele></trkpt>
<trkpt lat="39.352424" lon="67.140217"><ele>2070.3</ele></trkpt>
<trkpt lat="39.352506" lon="67.140348"><ele>2065.3</ele></trkpt>
<trkpt lat="39.352588" lon="67.140380"><ele>2061.2</ele></trkpt>
<trkpt lat="39.352629" lon="67.140445"><ele>2059.4</ele></trkpt>
<trkpt lat="39.352680" lon="67.140472"><ele>2057.2</ele></trkpt>
<trkpt lat="39.352704" lon="67.140520"><ele>2056.3</ele></trkpt>
<trkpt lat="39.352854" lon="67.140611"><ele>2050.5</ele></trkpt>
<trkpt lat="39.353001" lon="67.140741"><ele>2044.9</ele></trkpt>
<trkpt lat="39.353102" lon="67.140770"><ele>2041.0</ele></trkpt>
<trkpt lat="39.353229" lon="67.140841"><ele>2035.5</ele></trkpt>
<trkpt lat="39.353280" lon="67.140896"><ele>2033.0</ele></trkpt>
<trkpt lat="39.353439" lon="67.140990"><ele>2025.4</ele></trkpt>
<trkpt lat="39.353660" lon="67.141182"><ele>2016.0</ele></trkpt>
<trkpt lat="39.353848" lon="67.141269"><ele>2010.3</ele></trkpt>
<trkpt lat="39.353938" lon="67.141356"><ele>2009.1</ele></trkpt>
<trkpt lat="39.354079" lon="67.141433"><ele>2006.5</ele></trkpt>
<trkpt lat="39.354159" lon="67.141499"><ele>2005.3</ele></trkpt>
<trkpt lat="39.354210" lon="67.141512"><ele>2003.7</ele></trkpt>
<trkpt lat="39.354318" lon="67.141625"><ele>2000.9</ele></trkpt>
<trkpt lat="39.354377" lon="67.141635"><ele>1998.3</ele></trkpt>
<trkpt lat="39.354422" lon="67.141687"><ele>1996.5</ele></trkpt>
<trkpt lat="39.354458" lon="67.141902"><ele>1994.8</ele></trkpt>
<trkpt lat="39.354499" lon="67.142007"><ele>1992.4</ele></trkpt>
<trkpt lat="39.354515" lon="67.142181"><ele>1990.3</ele></trkpt>
<trkpt lat="39.354606" lon="67.142447"><ele>1985.1</ele></trkpt>
<trkpt lat="39.354657" lon="67.142698"><ele>1982.2</ele></trkpt>
<trkpt lat="39.354805" lon="67.142872"><ele>1979.8</ele></trkpt>
<trkpt lat="39.354865" lon="67.142906"><ele>1979.3</ele></trkpt>
<trkpt lat="39.354924" lon="67.143040"><ele>1978.8</ele></trkpt>
<trkpt lat="39.354963" lon="67.142932"><ele>1978.4</ele></trkpt>
<trkpt lat="39.355019" lon="67.142894"><ele>1977.5</ele></trkpt>
<trkpt lat="39.355027" lon="67.142855"><ele>1977.1</ele></trkpt>
<trkpt lat="39.355090" lon="67.142873"><ele>1976.2</ele></trkpt>
<trkpt lat="39.355272" lon="67.142863"><ele>1972.0</ele></trkpt>
<trkpt lat="39.355243" lon="67.142765"><ele>1971.4</ele></trkpt>
<trkpt lat="39.355273" lon="67.142743"><ele>1970.3</ele></trkpt>
<trkpt lat="39.355318" lon="67.142766"><ele>1969.3</ele></trkpt>
<trkpt lat="39.355340" lon="67.142748"><ele>1968.4</ele></trkpt>
<trkpt lat="39.355348" lon="67.142672"><ele>1966.9</ele></trkpt>
<trkpt lat="39.355434" lon="67.142643"><ele>1963.6</ele></trkpt>
<trkpt lat="39.355429" lon="67.142551"><ele>1962.2</ele></trkpt>
<trkpt lat="39.355450" lon="67.142511"><ele>1960.8</ele></trkpt>
<trkpt lat="39.355525" lon="67.142479"><ele>1957.6</ele></trkpt>
<trkpt lat="39.355542" lon="67.142343"><ele>1954.5</ele></trkpt>
<trkpt lat="39.355572" lon="67.142326"><ele>1953.1</ele></trkpt>
<trkpt lat="39.355825" lon="67.142493"><ele>1948.1</ele></trkpt>
<trkpt lat="39.355875" lon="67.142488"><ele>1946.6</ele></trkpt>
<trkpt lat="39.355920" lon="67.142511"><ele>1946.2</ele></trkpt>
<trkpt lat="39.356067" lon="67.142672"><ele>1947.0</ele></trkpt>
<trkpt lat="39.356118" lon="67.142682"><ele>1946.4</ele></trkpt>
<trkpt lat="39.356201" lon="67.142791"><ele>1945.8</ele></trkpt>
<trkpt lat="39.356243" lon="67.142788"><ele>1944.8</ele></trkpt>
<trkpt lat="39.356218" lon="67.142713"><ele>1945.1</ele></trkpt>
<trkpt lat="39.356225" lon="67.142699"><ele>1944.8</ele></trkpt>
<trkpt lat="39.356253" lon="67.142705"><ele>1944.4</ele></trkpt>
<trkpt lat="39.356248" lon="67.142663"><ele>1944.2</ele></trkpt>
<trkpt lat="39.356378" lon="67.142712"><ele>1941.7</ele></trkpt>
<trkpt lat="39.356451" lon="67.142814"><ele>1938.8</ele></trkpt>
<trkpt lat="39.356562" lon="67.142882"><ele>1933.1</ele></trkpt>
<trkpt lat="39.356635" lon="67.142951"><ele>1927.9</ele></trkpt>
<trkpt lat="39.356737" lon="67.143116"><ele>1918.1</ele></trkpt>
<trkpt lat="39.356785" lon="67.143121"><ele>1915.3</ele></trkpt>
<trkpt lat="39.356841" lon="67.143190"><ele>1910.9</ele></trkpt>
<trkpt lat="39.357048" lon="67.143231"><ele>1899.8</ele></trkpt>
<trkpt lat="39.357084" lon="67.143299"><ele>1897.8</ele></trkpt>
<trkpt lat="39.357139" lon="67.143341"><ele>1895.2</ele></trkpt>
<trkpt lat="39.357173" lon="67.143399"><ele>1893.6</ele></trkpt>
<trkpt lat="39.357233" lon="67.143427"><ele>1890.8</ele></trkpt>
<trkpt lat="39.357278" lon="67.143565"><ele>1888.2</ele></trkpt>
<trkpt lat="39.357325" lon="67.143634"><ele>1885.5</ele></trkpt>
<trkpt lat="39.357365" lon="67.143736"><ele>1882.5</ele></trkpt>
<trkpt lat="39.357376" lon="67.143815"><ele>1880.7</ele></trkpt>
<trkpt lat="39.357526" lon="67.143888"><ele>1872.7</ele></trkpt>
<trkpt lat="39.357547" lon="67.143964"><ele>1870.3</ele></trkpt>
<trkpt lat="39.357499" lon="67.144044"><ele>1870.8</ele></trkpt>
<trkpt lat="39.357554" lon="67.144106"><ele>1867.0</ele></trkpt>
<trkpt lat="39.357562" lon="67.144206"><ele>1864.4</ele></trkpt>
<trkpt lat="39.357665" lon="67.144237"><ele>1859.2</ele></trkpt>
<trkpt lat="39.357727" lon="67.144209"><ele>1857.1</ele></trkpt>
<trkpt lat="39.357831" lon="67.144211"><ele>1852.4</ele></trkpt>
<trkpt lat="39.357959" lon="67.144122"><ele>1848.2</ele></trkpt>
<trkpt lat="39.358069" lon="67.144148"><ele>1843.1</ele></trkpt>
<trkpt lat="39.358090" lon="67.144203"><ele>1841.5</ele></trkpt>
<trkpt lat="39.358086" lon="67.144242"><ele>1841.0</ele></trkpt>
<trkpt lat="39.358136" lon="67.144258"><ele>1838.8</ele></trkpt>
<trkpt lat="39.358290" lon="67.144259"><ele>1833.3</ele></trkpt>
<trkpt lat="39.358420" lon="67.144326"><ele>1828.6</ele></trkpt>
<trkpt lat="39.358505" lon="67.144407"><ele>1825.1</ele></trkpt>
<trkpt lat="39.358599" lon="67.144452"><ele>1822.4</ele></trkpt>
<trkpt lat="39.358635" lon="67.144419"><ele>1822.8</ele></trkpt>
<trkpt lat="39.358654" lon="67.144423"><ele>1822.4</ele></trkpt>
<trkpt lat="39.358700" lon="67.144510"><ele>1819.0</ele></trkpt>
<trkpt lat="39.358738" lon="67.144522"><ele>1818.0</ele></trkpt>
<trkpt lat="39.358743" lon="67.144580"><ele>1815.8</ele></trkpt>
<trkpt lat="39.358809" lon="67.144505"><ele>1817.6</ele></trkpt>
<trkpt lat="39.358847" lon="67.144516"><ele>1816.5</ele></trkpt>
<trkpt lat="39.358912" lon="67.144623"><ele>1811.0</ele></trkpt>
<trkpt lat="39.358922" lon="67.144684"><ele>1808.1</ele></trkpt>
<trkpt lat="39.359006" lon="67.144719"><ele>1804.8</ele></trkpt>
<trkpt lat="39.359057" lon="67.144704"><ele>1804.3</ele></trkpt>
<trkpt lat="39.359092" lon="67.144768"><ele>1800.7</ele></trkpt>
<trkpt lat="39.359136" lon="67.144805"><ele>1798.1</ele></trkpt>
<trkpt lat="39.359152" lon="67.144855"><ele>1795.7</ele></trkpt>
<trkpt lat="39.359096" lon="67.144894"><ele>1795.1</ele></trkpt>
<trkpt lat="39.359048" lon="67.144981"><ele>1792.5</ele></trkpt>
<trkpt lat="39.358775" lon="67.145202"><ele>1789.3</ele></trkpt>
<trkpt lat="39.358773" lon="67.145232"><ele>1788.1</ele></trkpt>
<trkpt lat="39.358796" lon="67.145251"><ele>1786.8</ele></trkpt>
<trkpt lat="39.358793" lon="67.145298"><ele>1784.9</ele></trkpt>
<trkpt lat="39.358825" lon="67.145294"><ele>1784.5</ele></trkpt>
<trkpt lat="39.358838" lon="67.145331"><ele>1782.7</ele></trkpt>
<trkpt lat="39.358797" lon="67.145372"><ele>1781.7</ele></trkpt>
<trkpt lat="39.358794" lon="67.145425"><ele>1779.5</ele></trkpt>
<trkpt lat="39.358810" lon="67.145456"><ele>1777.8</ele></trkpt>
<trkpt lat="39.358720" lon="67.145581"><ele>1773.6</ele></trkpt>
<trkpt lat="39.358714" lon="67.145629"><ele>1771.4</ele></trkpt>
<trkpt lat="39.358732" lon="67.145629"><ele>1771.2</ele></trkpt>
<trkpt lat="39.358722" lon="67.145715"><ele>1767.2</ele></trkpt>
<trkpt lat="39.358697" lon="67.145699"><ele>1768.3</ele></trkpt>
<trkpt lat="39.358568" lon="67.145732"><ele>1768.9</ele></trkpt>
<trkpt lat="39.358474" lon="67.145684"><ele>1773.2</ele></trkpt>
<trkpt lat="39.358422" lon="67.145703"><ele>1773.4</ele></trkpt>
<trkpt lat="39.358391" lon="67.145754"><ele>1771.5</ele></trkpt>
<trkpt lat="39.358401" lon="67.145781"><ele>1770.0</ele></trkpt>
<trkpt lat="39.358480" lon="67.145778"><ele>1768.3</ele></trkpt>
<trkpt lat="39.358482" lon="67.145823"><ele>1766.0</ele></trkpt>
<trkpt lat="39.358510" lon="67.145861"><ele>1763.6</ele></trkpt>
<trkpt lat="39.358489" lon="67.145984"><ele>1757.7</ele></trkpt>
<trkpt lat="39.358424" lon="67.146055"><ele>1755.5</ele></trkpt>
<trkpt lat="39.358502" lon="67.146052"><ele>1753.9</ele></trkpt>
<trkpt lat="39.358543" lon="67.146103"><ele>1750.3</ele></trkpt>
<trkpt lat="39.358525" lon="67.146145"><ele>1748.4</ele></trkpt>
<trkpt lat="39.358549" lon="67.146165"><ele>1746.8</ele></trkpt>
<trkpt lat="39.358540" lon="67.146209"><ele>1744.6</ele></trkpt>
<trkpt lat="39.358570" lon="67.146282"><ele>1740.0</ele></trkpt>
<trkpt lat="39.358544" lon="67.146403"><ele>1734.0</ele></trkpt>
<trkpt lat="39.358514" lon="67.146433"><ele>1733.2</ele></trkpt>
<trkpt lat="39.358534" lon="67.146496"><ele>1729.4</ele></trkpt>
<trkpt lat="39.358533" lon="67.146551"><ele>1726.5</ele></trkpt>
<trkpt lat="39.358511" lon="67.146556"><ele>1726.8</ele></trkpt>
<trkpt lat="39.358509" lon="67.146573"><ele>1726.0</ele></trkpt>
<trkpt lat="39.358537" lon="67.146642"><ele>1721.8</ele></trkpt>
<trkpt lat="39.358503" lon="67.146674"><ele>1721.1</ele></trkpt>
<trkpt lat="39.358429" lon="67.146633"><ele>1725.0</ele></trkpt>
<trkpt lat="39.358405" lon="67.146641"><ele>1725.3</ele></trkpt>
<trkpt lat="39.358356" lon="67.146705"><ele>1723.4</ele></trkpt>
<trkpt lat="39.358313" lon="67.146802"><ele>1719.7</ele></trkpt>
<trkpt lat="39.358214" lon="67.146911"><ele>1717.4</ele></trkpt>
<trkpt lat="39.358115" lon="67.146948"><ele>1719.6</ele></trkpt>
<trkpt lat="39.358080" lon="67.146982"><ele>1719.6</ele></trkpt>
<trkpt lat="39.358012" lon="67.146992"><ele>1722.5</ele></trkpt>
<trkpt lat="39.357794" lon="67.147277"><ele>1722.6</ele></trkpt>
<trkpt lat="39.357743" lon="67.147368"><ele>1722.1</ele></trkpt>
<trkpt lat="39.357697" lon="67.147399"><ele>1723.9</ele></trkpt>
<trkpt lat="39.357684" lon="67.147519"><ele>1719.8</ele></trkpt>
<trkpt lat="39.357613" lon="67.147542"><ele>1723.5</ele></trkpt>
<trkpt lat="39.357582" lon="67.147570"><ele>1724.3</ele></trkpt>
<trkpt lat="39.357575" lon="67.147741"><ele>1717.4</ele></trkpt>
<trkpt lat="39.357511" lon="67.147842"><ele>1716.8</ele></trkpt>
<trkpt lat="39.357478" lon="67.147952"><ele>1713.7</ele></trkpt>
<trkpt lat="39.357430" lon="67.148044"><ele>1712.2</ele></trkpt>
<trkpt lat="39.357376" lon="67.148113"><ele>1712.0</ele></trkpt>
<trkpt lat="39.357366" lon="67.148193"><ele>1709.0</ele></trkpt>
<trkpt lat="39.357336" lon="67.148241"><ele>1708.5</ele></trkpt>
<trkpt lat="39.357336" lon="67.148323"><ele>1705.0</ele></trkpt>
<trkpt lat="39.357408" lon="67.148430"><ele>1696.8</ele></trkpt>
<trkpt lat="39.357411" lon="67.148522"><ele>1692.9</ele></trkpt>
<trkpt lat="39.357397" lon="67.148545"><ele>1692.7</ele></trkpt>
<trkpt lat="39.357408" lon="67.148555"><ele>1691.7</ele></trkpt>
<trkpt lat="39.357448" lon="67.148526"><ele>1690.8</ele></trkpt>
<trkpt lat="39.357473" lon="67.148479"><ele>1691.4</ele></trkpt>
<trkpt lat="39.357545" lon="67.148457"><ele>1688.5</ele></trkpt>
<trkpt lat="39.357636" lon="67.148473"><ele>1682.5</ele></trkpt>
<trkpt lat="39.357663" lon="67.148432"><ele>1682.6</ele></trkpt>
<trkpt lat="39.357730" lon="67.148385"><ele>1680.4</ele></trkpt>
<trkpt lat="39.357832" lon="67.148402"><ele>1673.4</ele></trkpt>
<trkpt lat="39.357855" lon="67.148436"><ele>1670.6</ele></trkpt>
<trkpt lat="39.357874" lon="67.148523"><ele>1666.0</ele></trkpt>
<trkpt lat="39.357796" lon="67.148637"><ele>1666.0</ele></trkpt>
<trkpt lat="39.357894" lon="67.148654"><ele>1659.5</ele></trkpt>
<trkpt lat="39.357896" lon="67.148727"><ele>1656.4</ele></trkpt>
<trkpt lat="39.357915" lon="67.148747"><ele>1654.5</ele></trkpt>
<trkpt lat="39.357916" lon="67.148777"><ele>1653.3</ele></trkpt>
<trkpt lat="39.357972" lon="67.148789"><ele>1649.7</ele></trkpt>
<trkpt lat="39.357993" lon="67.148814"><ele>1647.6</ele></trkpt>
<trkpt lat="39.357968" lon="67.148899"><ele>1645.6</ele></trkpt>
<trkpt lat="39.358046" lon="67.149038"><ele>1636.2</ele></trkpt>
<trkpt lat="39.358053" lon="67.149125"><ele>1632.6</ele></trkpt>
<trkpt lat="39.358111" lon="67.149161"><ele>1628.6</ele></trkpt>
<trkpt lat="39.358136" lon="67.149106"><ele>1629.7</ele></trkpt>
<trkpt lat="39.358181" lon="67.149152"><ele>1626.3</ele></trkpt>
<trkpt lat="39.358271" lon="67.149023"><ele>1628.6</ele></trkpt>
<trkpt lat="39.358340" lon="67.149008"><ele>1628.0</ele></trkpt>
<trkpt lat="39.358534" lon="67.148823"><ele>1635.2</ele></trkpt>
<trkpt lat="39.358609" lon="67.148803"><ele>1637.1</ele></trkpt>
<trkpt lat="39.358673" lon="67.148863"><ele>1636.1</ele></trkpt>
<trkpt lat="39.358676" lon="67.148903"><ele>1634.6</ele></trkpt>
<trkpt lat="39.358637" lon="67.149041"><ele>1628.4</ele></trkpt>
<trkpt lat="39.358630" lon="67.149132"><ele>1624.8</ele></trkpt>
<trkpt lat="39.358658" lon="67.149299"><ele>1619.0</ele></trkpt>
<trkpt lat="39.358647" lon="67.149325"><ele>1617.7</ele></trkpt>
<trkpt lat="39.358611" lon="67.149330"><ele>1616.8</ele></trkpt>
<trkpt lat="39.358613" lon="67.149390"><ele>1614.5</ele></trkpt>
<trkpt lat="39.358592" lon="67.149411"><ele>1613.3</ele></trkpt>
<trkpt lat="39.358660" lon="67.149548"><ele>1609.2</ele></trkpt>
<trkpt lat="39.358650" lon="67.149694"><ele>1603.3</ele></trkpt>
<trkpt lat="39.358618" lon="67.149809"><ele>1598.2</ele></trkpt>
<trkpt lat="39.358625" lon="67.150035"><ele>1590.2</ele></trkpt>
<trkpt lat="39.358595" lon="67.150112"><ele>1587.2</ele></trkpt>
<trkpt lat="39.358618" lon="67.150198"><ele>1584.8</ele></trkpt>
<trkpt lat="39.358607" lon="67.150284"><ele>1582.0</ele></trkpt>
<trkpt lat="39.358639" lon="67.150356"><ele>1580.2</ele></trkpt>
<trkpt lat="39.358643" lon="67.150446"><ele>1577.5</ele></trkpt>
<trkpt lat="39.358714" lon="67.150564"><ele>1574.6</ele></trkpt>
<trkpt lat="39.358707" lon="67.150589"><ele>1573.7</ele></trkpt>
<trkpt lat="39.358645" lon="67.150644"><ele>1571.4</ele></trkpt>
<trkpt lat="39.358706" lon="67.150659"><ele>1571.4</ele></trkpt>
<trkpt lat="39.358762" lon="67.150811"><ele>1567.0</ele></trkpt>
<trkpt lat="39.358762" lon="67.150894"><ele>1564.2</ele></trkpt>
<trkpt lat="39.358776" lon="67.150897"><ele>1564.2</ele></trkpt>
<trkpt lat="39.358785" lon="67.150972"><ele>1561.7</ele></trkpt>
<trkpt lat="39.358813" lon="67.151028"><ele>1560.1</ele></trkpt>
<trkpt lat="39.358776" lon="67.151103"><ele>1557.1</ele></trkpt>
<trkpt lat="39.358772" lon="67.151173"><ele>1554.6</ele></trkpt>
<trkpt lat="39.358831" lon="67.151337"><ele>1549.6</ele></trkpt>
<trkpt lat="39.358782" lon="67.151571"><ele>1541.4</ele></trkpt>
<trkpt lat="39.358710" lon="67.151685"><ele>1537.5</ele></trkpt>
<trkpt lat="39.358673" lon="67.151878"><ele>1532.0</ele></trkpt>
<trkpt lat="39.358627" lon="67.151976"><ele>1529.7</ele></trkpt>
<trkpt lat="39.358617" lon="67.152032"><ele>1528.4</ele></trkpt>
<trkpt lat="39.358585" lon="67.152094"><ele>1527.3</ele></trkpt>
<trkpt lat="39.358524" lon="67.152159"><ele>1526.8</ele></trkpt>
<trkpt lat="39.358464" lon="67.152308"><ele>1525.3</ele></trkpt>
<trkpt lat="39.358484" lon="67.152322"><ele>1524.6</ele></trkpt>
<trkpt lat="39.358603" lon="67.152294"><ele>1522.8</ele></trkpt>
<trkpt lat="39.358639" lon="67.152305"><ele>1521.9</ele></trkpt>
<trkpt lat="39.358650" lon="67.152327"><ele>1521.3</ele></trkpt>
<trkpt lat="39.358633" lon="67.152403"><ele>1520.1</ele></trkpt>
<trkpt lat="39.358735" lon="67.152441"><ele>1517.5</ele></trkpt>
<trkpt lat="39.358738" lon="67.152527"><ele>1515.8</ele></trkpt>
<trkpt lat="39.358831" lon="67.152561"><ele>1513.6</ele></trkpt>
<trkpt lat="39.358824" lon="67.152633"><ele>1512.3</ele></trkpt>
<trkpt lat="39.358892" lon="67.152849"><ele>1507.3</ele></trkpt>
<trkpt lat="39.358881" lon="67.152958"><ele>1505.8</ele></trkpt>
<trkpt lat="39.358920" lon="67.153042"><ele>1503.9</ele></trkpt>
<trkpt lat="39.358979" lon="67.153099"><ele>1502.2</ele></trkpt>
<trkpt lat="39.358973" lon="67.153191"><ele>1501.2</ele></trkpt>
<trkpt lat="39.359014" lon="67.153338"><ele>1498.9</ele></trkpt>
<trkpt lat="39.358996" lon="67.153470"><ele>1498.6</ele></trkpt>
<trkpt lat="39.359050" lon="67.153665"><ele>1496.5</ele></trkpt>
<trkpt lat="39.359089" lon="67.153701"><ele>1495.1</ele></trkpt>
<trkpt lat="39.359129" lon="67.153673"><ele>1493.9</ele></trkpt>
<trkpt lat="39.359207" lon="67.153722"><ele>1491.1</ele></trkpt>
<trkpt lat="39.359203" lon="67.153671"><ele>1491.6</ele></trkpt>
<trkpt lat="39.359232" lon="67.153673"><ele>1490.8</ele></trkpt>
<trkpt lat="39.359388" lon="67.153881"><ele>1482.7</ele></trkpt>
<trkpt lat="39.359465" lon="67.153918"><ele>1478.9</ele></trkpt>
<trkpt lat="39.359516" lon="67.153911"><ele>1477.1</ele></trkpt>
<trkpt lat="39.359494" lon="67.153983"><ele>1476.2</ele></trkpt>
<trkpt lat="39.359584" lon="67.154035"><ele>1470.9</ele></trkpt>
<trkpt lat="39.359624" lon="67.154100"><ele>1467.2</ele></trkpt>
<trkpt lat="39.359638" lon="67.154169"><ele>1464.7</ele></trkpt>
<trkpt lat="39.359699" lon="67.154218"><ele>1460.3</ele></trkpt>
<trkpt lat="39.359682" lon="67.154317"><ele>1458.6</ele></trkpt>
<trkpt lat="39.359729" lon="67.154455"><ele>1452.6</ele></trkpt>
<trkpt lat="39.359746" lon="67.154616"><ele>1448.3</ele></trkpt>
<trkpt lat="39.359876" lon="67.154706"><ele>1439.5</ele></trkpt>
<trkpt lat="39.359935" lon="67.154781"><ele>1435.3</ele></trkpt>
<trkpt lat="39.359951" lon="67.154855"><ele>1433.5</ele></trkpt>
<trkpt lat="39.360023" lon="67.154886"><ele>1429.5</ele></trkpt>
<trkpt lat="39.360163" lon="67.154872"><ele>1423.0</ele></trkpt>
<trkpt lat="39.360323" lon="67.154977"><ele>1414.5</ele></trkpt>
<trkpt lat="39.360514" lon="67.155134"><ele>1404.2</ele></trkpt>
<trkpt lat="39.360573" lon="67.155151"><ele>1401.3</ele></trkpt>
<trkpt lat="39.360613" lon="67.155214"><ele>1398.6</ele></trkpt>
<trkpt lat="39.360687" lon="67.155239"><ele>1394.8</ele></trkpt>
<trkpt lat="39.360789" lon="67.155200"><ele>1391.4</ele></trkpt>
<trkpt lat="39.360895" lon="67.155191"><ele>1387.7</ele></trkpt>
<trkpt lat="39.360914" lon="67.155219"><ele>1386.3</ele></trkpt>
<trkpt lat="39.360906" lon="67.155258"><ele>1385.7</ele></trkpt>
<trkpt lat="39.360942" lon="67.155273"><ele>1384.0</ele></trkpt>
<trkpt lat="39.361043" lon="67.155386"><ele>1377.8</ele></trkpt>
<trkpt lat="39.361203" lon="67.155504"><ele>1370.0</ele></trkpt>
<trkpt lat="39.361355" lon="67.155520"><ele>1365.8</ele></trkpt>
<trkpt lat="39.361393" lon="67.155498"><ele>1365.4</ele></trkpt>
<trkpt lat="39.361545" lon="67.155484"><ele>1364.1</ele></trkpt>
<trkpt lat="39.361596" lon="67.155527"><ele>1363.2</ele></trkpt>
<trkpt lat="39.361596" lon="67.155640"><ele>1361.0</ele></trkpt>
<trkpt lat="39.361638" lon="67.155809"><ele>1358.2</ele></trkpt>
<trkpt lat="39.361696" lon="67.155941"><ele>1356.6</ele></trkpt>
<trkpt lat="39.361670" lon="67.156061"><ele>1355.0</ele></trkpt>
<trkpt lat="39.361692" lon="67.156149"><ele>1354.0</ele></trkpt>
<trkpt lat="39.361675" lon="67.156335"><ele>1352.3</ele></trkpt>
<trkpt lat="39.361702" lon="67.156540"><ele>1350.3</ele></trkpt>
<trkpt lat="39.361753" lon="67.156646"><ele>1349.0</ele></trkpt>
<trkpt lat="39.361759" lon="67.156763"><ele>1347.8</ele></trkpt>
<trkpt lat="39.361820" lon="67.156856"><ele>1346.5</ele></trkpt>
<trkpt lat="39.361827" lon="67.156924"><ele>1345.6</ele></trkpt>
<trkpt lat="39.361888" lon="67.157102"><ele>1343.2</ele></trkpt>
<trkpt lat="39.361910" lon="67.157228"><ele>1341.7</ele></trkpt>
<trkpt lat="39.361990" lon="67.157357"><ele>1340.0</ele></trkpt>
<trkpt lat="39.362028" lon="67.157507"><ele>1338.5</ele></trkpt>
<trkpt lat="39.362095" lon="67.157645"><ele>1336.9</ele></trkpt>
<trkpt lat="39.362125" lon="67.157821"><ele>1335.5</ele></trkpt>
<trkpt lat="39.362190" lon="67.157953"><ele>1333.2</ele></trkpt>
<trkpt lat="39.362200" lon="67.158069"><ele>1332.0</ele></trkpt>
<trkpt lat="39.362273" lon="67.158299"><ele>1327.0</ele></trkpt>
<trkpt lat="39.362379" lon="67.158500"><ele>1319.9</ele></trkpt>
<trkpt lat="39.362637" lon="67.158869"><ele>1308.2</ele></trkpt>
<trkpt lat="39.362647" lon="67.158947"><ele>1306.7</ele></trkpt>
<trkpt lat="39.362705" lon="67.159105"><ele>1304.1</ele></trkpt>
<trkpt lat="39.362798" lon="67.159276"><ele>1302.4</ele></trkpt>
<trkpt lat="39.362857" lon="67.159514"><ele>1301.1</ele></trkpt>
<trkpt lat="39.362850" lon="67.159645"><ele>1300.5</ele></trkpt>
<trkpt lat="39.362861" lon="67.159759"><ele>1300.1</ele></trkpt>
<trkpt lat="39.362911" lon="67.159941"><ele>1299.7</ele></trkpt>
<trkpt lat="39.362915" lon="67.160028"><ele>1299.3</ele></trkpt>
<trkpt lat="39.362849" lon="67.160101"><ele>1298.5</ele></trkpt>
<trkpt lat="39.362835" lon="67.160173"><ele>1298.1</ele></trkpt>
<trkpt lat="39.362836" lon="67.160292"><ele>1297.7</ele></trkpt>
<trkpt lat="39.362744" lon="67.160513"><ele>1295.5</ele></trkpt>
<trkpt lat="39.362721" lon="67.160726"><ele>1293.4</ele></trkpt>
<trkpt lat="39.362696" lon="67.160795"><ele>1292.4</ele></trkpt>
<trkpt lat="39.362657" lon="67.161030"><ele>1289.0</ele></trkpt>
<trkpt lat="39.362569" lon="67.161171"><ele>1286.5</ele></trkpt>
<trkpt lat="39.362514" lon="67.161302"><ele>1284.7</ele></trkpt>
<trkpt lat="39.362482" lon="67.161417"><ele>1283.4</ele></trkpt>
<trkpt lat="39.362482" lon="67.161506"><ele>1282.2</ele></trkpt>
<trkpt lat="39.362525" lon="67.161578"><ele>1280.8</ele></trkpt>
<trkpt lat="39.362545" lon="67.161776"><ele>1278.6</ele></trkpt>
<trkpt lat="39.362626" lon="67.161937"><ele>1277.3</ele></trkpt>
<trkpt lat="39.362659" lon="67.162137"><ele>1275.8</ele></trkpt>
<trkpt lat="39.362729" lon="67.162225"><ele>1275.5</ele></trkpt>
<trkpt lat="39.362762" lon="67.162395"><ele>1273.8</ele></trkpt>
<trkpt lat="39.362848" lon="67.162640"><ele>1270.6</ele></trkpt>
<trkpt lat="39.362901" lon="67.162869"><ele>1266.7</ele></trkpt>
<trkpt lat="39.362900" lon="67.162995"><ele>1264.4</ele></trkpt>
<trkpt lat="39.362946" lon="67.163180"><ele>1260.8</ele></trkpt>
<trkpt lat="39.362947" lon="67.163271"><ele>1259.1</ele></trkpt>
<trkpt lat="39.362973" lon="67.163411"><ele>1256.4</ele></trkpt>
<trkpt lat="39.362969" lon="67.163554"><ele>1254.0</ele></trkpt>
<trkpt lat="39.363087" lon="67.163841"><ele>1246.6</ele></trkpt>
<trkpt lat="39.363102" lon="67.163916"><ele>1244.8</ele></trkpt>
<trkpt lat="39.363156" lon="67.163987"><ele>1242.2</ele></trkpt>
<trkpt lat="39.363265" lon="67.164405"><ele>1232.0</ele></trkpt>
<trkpt lat="39.363364" lon="67.164596"><ele>1227.8</ele></trkpt>
<trkpt lat="39.363422" lon="67.164843"><ele>1224.1</ele></trkpt>
<trkpt lat="39.363415" lon="67.165023"><ele>1222.4</ele></trkpt>
<trkpt lat="39.363480" lon="67.165129"><ele>1221.6</ele></trkpt>
<trkpt lat="39.363520" lon="67.165160"><ele>1221.3</ele></trkpt>
<trkpt lat="39.363908" lon="67.165347"><ele>1219.1</ele></trkpt>
<trkpt lat="39.364129" lon="67.165434"><ele>1218.1</ele></trkpt>
<trkpt lat="39.364412" lon="67.165586"><ele>1217.4</ele></trkpt>
<trkpt lat="39.364476" lon="67.165642"><ele>1217.0</ele></trkpt>
<trkpt lat="39.364523" lon="67.165635"><ele>1217.6</ele></trkpt>
<trkpt lat="39.364617" lon="67.165659"><ele>1218.2</ele></trkpt>
<trkpt lat="39.364697" lon="67.165725"><ele>1217.8</ele></trkpt>
<trkpt lat="39.364756" lon="67.165825"><ele>1216.6</ele></trkpt>
<trkpt lat="39.364866" lon="67.165947"><ele>1215.2</ele></trkpt>
<trkpt lat="39.364994" lon="67.166009"><ele>1214.9</ele></trkpt>
<trkpt lat="39.365111" lon="67.166109"><ele>1213.6</ele></trkpt>
<trkpt lat="39.365186" lon="67.166290"><ele>1209.9</ele></trkpt>
<trkpt lat="39.365198" lon="67.166403"><ele>1207.3</ele></trkpt>
<trkpt lat="39.365262" lon="67.166483"><ele>1205.8</ele></trkpt>
<trkpt lat="39.365351" lon="67.166642"><ele>1202.7</ele></trkpt>
<trkpt lat="39.365455" lon="67.166926"><ele>1197.7</ele></trkpt>
<trkpt lat="39.365472" lon="67.167094"><ele>1195.3</ele></trkpt>
<trkpt lat="39.365467" lon="67.167242"><ele>1193.8</ele></trkpt>
<trkpt lat="39.365516" lon="67.167326"><ele>1192.9</ele></trkpt>
<trkpt lat="39.365459" lon="67.167335"><ele>1193.2</ele></trkpt>
<trkpt lat="39.365452" lon="67.167473"><ele>1192.9</ele></trkpt>
<trkpt lat="39.365427" lon="67.167504"><ele>1193.1</ele></trkpt>
</trkseg></trk>
</gpx>