<?xml version='1.0' encoding='utf-8'?>
<gpx xmlns="http://www.topografix.com/GPX/1/1" version="1.1" creator="Sayr">
<trk><name>К Каттакулю и входу в Киевскую, туда и обратно</name><trkseg>
<trkpt lat="39.369069" lon="67.172775"><ele>1154.5</ele></trkpt>
<trkpt lat="39.369041" lon="67.172594"><ele>1140.0</ele></trkpt>
<trkpt lat="39.369078" lon="67.172591"><ele>1145.0</ele></trkpt>
<trkpt lat="39.369096" lon="67.172521"><ele>1142.0</ele></trkpt>
<trkpt lat="39.369086" lon="67.172483"><ele>1142.0</ele></trkpt>
<trkpt lat="39.368953" lon="67.172196"><ele>1146.0</ele></trkpt>
<trkpt lat="39.368877" lon="67.171993"><ele>1147.0</ele></trkpt>
<trkpt lat="39.368675" lon="67.171679"><ele>1150.0</ele></trkpt>
<trkpt lat="39.368597" lon="67.171482"><ele>1146.0</ele></trkpt>
<trkpt lat="39.368600" lon="67.171442"><ele>1144.0</ele></trkpt>
<trkpt lat="39.368633" lon="67.171442"><ele>1143.0</ele></trkpt>
<trkpt lat="39.368664" lon="67.171413"><ele>1140.0</ele></trkpt>
<trkpt lat="39.368550" lon="67.171219"><ele>1150.0</ele></trkpt>
<trkpt lat="39.368476" lon="67.171140"><ele>1148.0</ele></trkpt>
<trkpt lat="39.368381" lon="67.171073"><ele>1150.0</ele></trkpt>
<trkpt lat="39.368302" lon="67.170979"><ele>1148.0</ele></trkpt>
<trkpt lat="39.368202" lon="67.170943"><ele>1155.0</ele></trkpt>
<trkpt lat="39.368085" lon="67.170840"><ele>1158.0</ele></trkpt>
<trkpt lat="39.368053" lon="67.170745"><ele>1158.0</ele></trkpt>
<trkpt lat="39.367910" lon="67.170538"><ele>1156.0</ele></trkpt>
<trkpt lat="39.367900" lon="67.170453"><ele>1154.0</ele></trkpt>
<trkpt lat="39.367872" lon="67.170387"><ele>1154.0</ele></trkpt>
<trkpt lat="39.367834" lon="67.170046"><ele>1158.0</ele></trkpt>
<trkpt lat="39.367804" lon="67.169942"><ele>1157.0</ele></trkpt>
<trkpt lat="39.367810" lon="67.169895"><ele>1158.4</ele></trkpt>
<trkpt lat="39.367790" lon="67.169857"><ele>1158.0</ele></trkpt>
<trkpt lat="39.367784" lon="67.169759"><ele>1156.0</ele></trkpt>
<trkpt lat="39.367742" lon="67.169656"><ele>1160.0</ele></trkpt>
<trkpt lat="39.367738" lon="67.169587"><ele>1160.0</ele></trkpt>
<trkpt lat="39.367687" lon="67.169470"><ele>1164.0</ele></trkpt>
<trkpt lat="39.367685" lon="67.169391"><ele>1163.0</ele></trkpt>
<trkpt lat="39.367619" lon="67.169310"><ele>1162.0</ele></trkpt>
<trkpt lat="39.367511" lon="67.169230"><ele>1156.0</ele></trkpt>
<trkpt lat="39.367517" lon="67.169174"><ele>1157.0</ele></trkpt>
<trkpt lat="39.367477" lon="67.169187"><ele>1163.0</ele></trkpt>
<trkpt lat="39.367432" lon="67.169169"><ele>1166.0</ele></trkpt>
<trkpt lat="39.367413" lon="67.169138"><ele>1164.0</ele></trkpt>
<trkpt lat="39.367449" lon="67.169021"><ele>1164.0</ele></trkpt>
<trkpt lat="39.367372" lon="67.168941"><ele>1167.0</ele></trkpt>
<trkpt lat="39.367314" lon="67.168912"><ele>1167.0</ele></trkpt>
<trkpt lat="39.367177" lon="67.168797"><ele>1167.0</ele></trkpt>
<trkpt lat="39.367131" lon="67.168795"><ele>1167.0</ele></trkpt>
<trkpt lat="39.367112" lon="67.168750"><ele>1166.0</ele></trkpt>
<trkpt lat="39.367004" lon="67.168628"><ele>1166.0</ele></trkpt>
<trkpt lat="39.367007" lon="67.168568"><ele>1169.0</ele></trkpt>
<trkpt lat="39.366884" lon="67.168567"><ele>1172.0</ele></trkpt>
<trkpt lat="39.366798" lon="67.168486"><ele>1170.0</ele></trkpt>
<trkpt lat="39.366611" lon="67.168366"><ele>1174.0</ele></trkpt>
<trkpt lat="39.366546" lon="67.168279"><ele>1176.0</ele></trkpt>
<trkpt lat="39.366268" lon="67.167996"><ele>1180.0</ele></trkpt>
<trkpt lat="39.366234" lon="67.167992"><ele>1179.6</ele></trkpt>
<trkpt lat="39.366146" lon="67.167891"><ele>1175.0</ele></trkpt>
<trkpt lat="39.366125" lon="67.167823"><ele>1179.0</ele></trkpt>
<trkpt lat="39.366132" lon="67.167782"><ele>1179.0</ele></trkpt>
<trkpt lat="39.366119" lon="67.167706"><ele>1180.0</ele></trkpt>
<trkpt lat="39.366016" lon="67.167467"><ele>1181.5</ele></trkpt>
<trkpt lat="39.365816" lon="67.167132"><ele>1182.0</ele></trkpt>
<trkpt lat="39.365718" lon="67.166982"><ele>1184.0</ele></trkpt>
<trkpt lat="39.365607" lon="67.166871"><ele>1187.1</ele></trkpt>
<trkpt lat="39.365557" lon="67.166778"><ele>1188.0</ele></trkpt>
<trkpt lat="39.365401" lon="67.166611"><ele>1190.0</ele></trkpt>
<trkpt lat="39.365269" lon="67.166435"><ele>1192.0</ele></trkpt>
<trkpt lat="39.365191" lon="67.166303"><ele>1191.0</ele></trkpt>
<trkpt lat="39.365048" lon="67.166159"><ele>1193.0</ele></trkpt>
<trkpt lat="39.364942" lon="67.166003"><ele>1194.0</ele></trkpt>
<trkpt lat="39.364793" lon="67.165931"><ele>1197.0</ele></trkpt>
<trkpt lat="39.364582" lon="67.165680"><ele>1197.0</ele></trkpt>
<trkpt lat="39.364305" lon="67.165596"><ele>1201.0</ele></trkpt>
<trkpt lat="39.364096" lon="67.165472"><ele>1203.0</ele></trkpt>
<trkpt lat="39.364046" lon="67.165408"><ele>1203.0</ele></trkpt>
<trkpt lat="39.364028" lon="67.165335"><ele>1206.0</ele></trkpt>
<trkpt lat="39.363974" lon="67.165316"><ele>1206.0</ele></trkpt>
<trkpt lat="39.363890" lon="67.165250"><ele>1208.0</ele></trkpt>
<trkpt lat="39.363593" lon="67.165119"><ele>1212.0</ele></trkpt>
<trkpt lat="39.363509" lon="67.165038"><ele>1212.0</ele></trkpt>
<trkpt lat="39.363450" lon="67.165010"><ele>1215.0</ele></trkpt>
<trkpt lat="39.363367" lon="67.164840"><ele>1215.0</ele></trkpt>
<trkpt lat="39.363192" lon="67.164265"><ele>1221.0</ele></trkpt>
<trkpt lat="39.363137" lon="67.164217"><ele>1224.0</ele></trkpt>
<trkpt lat="39.363075" lon="67.164088"><ele>1224.0</ele></trkpt>
<trkpt lat="39.363021" lon="67.163872"><ele>1227.0</ele></trkpt>
<trkpt lat="39.363021" lon="67.163806"><ele>1227.0</ele></trkpt>
<trkpt lat="39.362989" lon="67.163672"><ele>1228.0</ele></trkpt>
<trkpt lat="39.362938" lon="67.163546"><ele>1230.0</ele></trkpt>
<trkpt lat="39.362926" lon="67.163359"><ele>1232.0</ele></trkpt>
<trkpt lat="39.362891" lon="67.163212"><ele>1236.0</ele></trkpt>
<trkpt lat="39.362900" lon="67.163139"><ele>1236.0</ele></trkpt>
<trkpt lat="39.362870" lon="67.163078"><ele>1238.0</ele></trkpt>
<trkpt lat="39.362848" lon="67.162952"><ele>1240.0</ele></trkpt>
<trkpt lat="39.362849" lon="67.162850"><ele>1240.0</ele></trkpt>
<trkpt lat="39.362676" lon="67.162320"><ele>1246.0</ele></trkpt>
<trkpt lat="39.362680" lon="67.162271"><ele>1247.5</ele></trkpt>
<trkpt lat="39.362657" lon="67.162175"><ele>1248.0</ele></trkpt>
<trkpt lat="39.362574" lon="67.162029"><ele>1252.0</ele></trkpt>
<trkpt lat="39.362568" lon="67.161924"><ele>1252.0</ele></trkpt>
<trkpt lat="39.362467" lon="67.161734"><ele>1254.0</ele></trkpt>
<trkpt lat="39.362463" lon="67.161556"><ele>1256.0</ele></trkpt>
<trkpt lat="39.362453" lon="67.161522"><ele>1259.0</ele></trkpt>
<trkpt lat="39.362422" lon="67.161497"><ele>1256.0</ele></trkpt>
<trkpt lat="39.362417" lon="67.161466"><ele>1260.0</ele></trkpt>
<trkpt lat="39.362457" lon="67.161331"><ele>1262.0</ele></trkpt>
<trkpt lat="39.362456" lon="67.161282"><ele>1263.7</ele></trkpt>
<trkpt lat="39.362610" lon="67.161019"><ele>1268.0</ele></trkpt>
<trkpt lat="39.362632" lon="67.160835"><ele>1269.0</ele></trkpt>
<trkpt lat="39.362661" lon="67.160789"><ele>1271.6</ele></trkpt>
<trkpt lat="39.362674" lon="67.160563"><ele>1272.0</ele></trkpt>
<trkpt lat="39.362699" lon="67.160541"><ele>1272.0</ele></trkpt>
<trkpt lat="39.362758" lon="67.160420"><ele>1274.0</ele></trkpt>
<trkpt lat="39.362804" lon="67.160266"><ele>1276.0</ele></trkpt>
<trkpt lat="39.362808" lon="67.160121"><ele>1276.0</ele></trkpt>
<trkpt lat="39.362861" lon="67.159900"><ele>1276.0</ele></trkpt>
<trkpt lat="39.363007" lon="67.159717"><ele>1282.0</ele></trkpt>
<trkpt lat="39.363201" lon="67.159638"><ele>1289.0</ele></trkpt>
<trkpt lat="39.363167" lon="67.159600"><ele>1288.0</ele></trkpt>
<trkpt lat="39.363188" lon="67.159568"><ele>1292.0</ele></trkpt>
<trkpt lat="39.363236" lon="67.159555"><ele>1295.7</ele></trkpt>
<trkpt lat="39.363483" lon="67.159362"><ele>1300.0</ele></trkpt>
<trkpt lat="39.363509" lon="67.159304"><ele>1302.0</ele></trkpt>
<trkpt lat="39.363560" lon="67.159252"><ele>1304.0</ele></trkpt>
<trkpt lat="39.363585" lon="67.159116"><ele>1304.0</ele></trkpt>
<trkpt lat="39.363622" lon="67.159024"><ele>1308.0</ele></trkpt>
<trkpt lat="39.363724" lon="67.158858"><ele>1311.0</ele></trkpt>
<trkpt lat="39.363813" lon="67.158770"><ele>1311.0</ele></trkpt>
<trkpt lat="39.363907" lon="67.158722"><ele>1312.0</ele></trkpt>
<trkpt lat="39.363920" lon="67.158688"><ele>1315.0</ele></trkpt>
<trkpt lat="39.363864" lon="67.158662"><ele>1317.0</ele></trkpt>
<trkpt lat="39.363672" lon="67.158706"><ele>1322.0</ele></trkpt>
<trkpt lat="39.363534" lon="67.158762"><ele>1322.0</ele></trkpt>
<trkpt lat="39.363428" lon="67.158839"><ele>1320.0</ele></trkpt>
<trkpt lat="39.363399" lon="67.158796"><ele>1323.9</ele></trkpt>
<trkpt lat="39.363380" lon="67.158804"><ele>1322.0</ele></trkpt>
<trkpt lat="39.363353" lon="67.158753"><ele>1323.0</ele></trkpt>
<trkpt lat="39.363393" lon="67.158634"><ele>1330.0</ele></trkpt>
<trkpt lat="39.363290" lon="67.158487"><ele>1335.0</ele></trkpt>
<trkpt lat="39.363362" lon="67.158450"><ele>1340.0</ele></trkpt>
<trkpt lat="39.363325" lon="67.158273"><ele>1342.0</ele></trkpt>
<trkpt lat="39.363338" lon="67.158151"><ele>1344.0</ele></trkpt>
<trkpt lat="39.363376" lon="67.158175"><ele>1346.0</ele></trkpt>
<trkpt lat="39.363496" lon="67.158160"><ele>1348.0</ele></trkpt>
<trkpt lat="39.363540" lon="67.158088"><ele>1351.8</ele></trkpt>
<trkpt lat="39.363623" lon="67.158019"><ele>1352.0</ele></trkpt>
<trkpt lat="39.363661" lon="67.157961"><ele>1356.0</ele></trkpt>
<trkpt lat="39.363667" lon="67.157924"><ele>1356.0</ele></trkpt>
<trkpt lat="39.363657" lon="67.157807"><ele>1356.0</ele></trkpt>
<trkpt lat="39.363575" lon="67.157553"><ele>1365.0</ele></trkpt>
<trkpt lat="39.363551" lon="67.157377"><ele>1365.0</ele></trkpt>
<trkpt lat="39.363504" lon="67.157323"><ele>1368.0</ele></trkpt>
<trkpt lat="39.363467" lon="67.157231"><ele>1372.3</ele></trkpt>
<trkpt lat="39.363461" lon="67.157103"><ele>1374.0</ele></trkpt>
<trkpt lat="39.363543" lon="67.157000"><ele>1375.0</ele></trkpt>
<trkpt lat="39.363527" lon="67.156933"><ele>1376.0</ele></trkpt>
<trkpt lat="39.363574" lon="67.156761"><ele>1384.0</ele></trkpt>
<trkpt lat="39.363482" lon="67.156728"><ele>1385.0</ele></trkpt>
<trkpt lat="39.363440" lon="67.156672"><ele>1384.0</ele></trkpt>
<trkpt lat="39.363441" lon="67.156598"><ele>1386.0</ele></trkpt>
<trkpt lat="39.363399" lon="67.156508"><ele>1385.0</ele></trkpt>
<trkpt lat="39.363386" lon="67.156407"><ele>1390.0</ele></trkpt>
<trkpt lat="39.363350" lon="67.156320"><ele>1396.0</ele></trkpt>
<trkpt lat="39.363306" lon="67.156294"><ele>1395.0</ele></trkpt>
<trkpt lat="39.363181" lon="67.156164"><ele>1402.7</ele></trkpt>
<trkpt lat="39.363180" lon="67.156144"><ele>1403.0</ele></trkpt>
<trkpt lat="39.363314" lon="67.156040"><ele>1405.0</ele></trkpt>
<trkpt lat="39.363353" lon="67.155948"><ele>1407.0</ele></trkpt>
<trkpt lat="39.363395" lon="67.155898"><ele>1405.0</ele></trkpt>
<trkpt lat="39.363404" lon="67.155841"><ele>1410.0</ele></trkpt>
<trkpt lat="39.363330" lon="67.155790"><ele>1410.0</ele></trkpt>
<trkpt lat="39.363319" lon="67.155761"><ele>1411.0</ele></trkpt>
<trkpt lat="39.363352" lon="67.155696"><ele>1414.0</ele></trkpt>
<trkpt lat="39.363331" lon="67.155589"><ele>1415.0</ele></trkpt>
<trkpt lat="39.363297" lon="67.155537"><ele>1416.0</ele></trkpt>
<trkpt lat="39.363155" lon="67.155542"><ele>1421.0</ele></trkpt>
<trkpt lat="39.363082" lon="67.155486"><ele>1421.0</ele></trkpt>
<trkpt lat="39.363067" lon="67.155389"><ele>1426.0</ele></trkpt>
<trkpt lat="39.363081" lon="67.155334"><ele>1428.0</ele></trkpt>
<trkpt lat="39.363106" lon="67.155312"><ele>1430.0</ele></trkpt>
<trkpt lat="39.363118" lon="67.155251"><ele>1430.0</ele></trkpt>
<trkpt lat="39.363122" lon="67.155099"><ele>1434.0</ele></trkpt>
<trkpt lat="39.363186" lon="67.155043"><ele>1439.0</ele></trkpt>
<trkpt lat="39.363216" lon="67.154871"><ele>1440.0</ele></trkpt>
<trkpt lat="39.363290" lon="67.154748"><ele>1444.0</ele></trkpt>
<trkpt lat="39.363291" lon="67.154709"><ele>1445.0</ele></trkpt>
<trkpt lat="39.363241" lon="67.154626"><ele>1443.0</ele></trkpt>
<trkpt lat="39.363220" lon="67.154525"><ele>1446.0</ele></trkpt>
<trkpt lat="39.363243" lon="67.154474"><ele>1452.0</ele></trkpt>
<trkpt lat="39.363333" lon="67.154366"><ele>1452.0</ele></trkpt>
<trkpt lat="39.363413" lon="67.154159"><ele>1460.0</ele></trkpt>
<trkpt lat="39.363456" lon="67.153990"><ele>1460.0</ele></trkpt>
<trkpt lat="39.363479" lon="67.153799"><ele>1470.0</ele></trkpt>
<trkpt lat="39.363615" lon="67.153424"><ele>1475.0</ele></trkpt>
<trkpt lat="39.363589" lon="67.153251"><ele>1476.0</ele></trkpt>
<trkpt lat="39.363632" lon="67.153093"><ele>1480.0</ele></trkpt>
<trkpt lat="39.363659" lon="67.153047"><ele>1482.0</ele></trkpt>
<trkpt lat="39.363635" lon="67.152909"><ele>1470.0</ele></trkpt>
<trkpt lat="39.363648" lon="67.152880"><ele>1482.0</ele></trkpt>
<trkpt lat="39.363761" lon="67.152834"><ele>1486.0</ele></trkpt>
<trkpt lat="39.363798" lon="67.152838"><ele>1487.8</ele></trkpt>
<trkpt lat="39.363820" lon="67.152769"><ele>1485.0</ele></trkpt>
<trkpt lat="39.363825" lon="67.152698"><ele>1490.0</ele></trkpt>
<trkpt lat="39.363814" lon="67.152666"><ele>1488.0</ele></trkpt>
<trkpt lat="39.363785" lon="67.152654"><ele>1490.0</ele></trkpt>
<trkpt lat="39.363867" lon="67.152529"><ele>1498.0</ele></trkpt>
<trkpt lat="39.363864" lon="67.152480"><ele>1495.0</ele></trkpt>
<trkpt lat="39.363820" lon="67.152386"><ele>1495.0</ele></trkpt>
<trkpt lat="39.363829" lon="67.152352"><ele>1496.0</ele></trkpt>
<trkpt lat="39.363884" lon="67.152336"><ele>1502.0</ele></trkpt>
<trkpt lat="39.363911" lon="67.152263"><ele>1504.0</ele></trkpt>
<trkpt lat="39.363916" lon="67.152223"><ele>1502.0</ele></trkpt>
<trkpt lat="39.363884" lon="67.152114"><ele>1506.0</ele></trkpt>
<trkpt lat="39.363911" lon="67.152024"><ele>1513.2</ele></trkpt>
<trkpt lat="39.363978" lon="67.151962"><ele>1510.0</ele></trkpt>
<trkpt lat="39.363983" lon="67.151925"><ele>1510.0</ele></trkpt>
<trkpt lat="39.363948" lon="67.151867"><ele>1512.0</ele></trkpt>
<trkpt lat="39.363944" lon="67.151832"><ele>1510.0</ele></trkpt>
<trkpt lat="39.363986" lon="67.151803"><ele>1516.0</ele></trkpt>
<trkpt lat="39.363988" lon="67.151770"><ele>1518.0</ele></trkpt>
<trkpt lat="39.363944" lon="67.151606"><ele>1520.0</ele></trkpt>
<trkpt lat="39.364051" lon="67.151408"><ele>1524.0</ele></trkpt>
<trkpt lat="39.364042" lon="67.151374"><ele>1521.0</ele></trkpt>
<trkpt lat="39.364057" lon="67.151252"><ele>1530.0</ele></trkpt>
<trkpt lat="39.364038" lon="67.151161"><ele>1530.0</ele></trkpt>
<trkpt lat="39.363979" lon="67.151079"><ele>1530.0</ele></trkpt>
<trkpt lat="39.364014" lon="67.151005"><ele>1539.0</ele></trkpt>
<trkpt lat="39.363996" lon="67.150974"><ele>1540.0</ele></trkpt>
<trkpt lat="39.363962" lon="67.150723"><ele>1541.0</ele></trkpt>
<trkpt lat="39.363920" lon="67.150592"><ele>1546.0</ele></trkpt>
<trkpt lat="39.364019" lon="67.150565"><ele>1554.0</ele></trkpt>
<trkpt lat="39.364026" lon="67.150463"><ele>1555.0</ele></trkpt>
<trkpt lat="39.363926" lon="67.150361"><ele>1555.0</ele></trkpt>
<trkpt lat="39.363900" lon="67.150282"><ele>1560.0</ele></trkpt>
<trkpt lat="39.363914" lon="67.150252"><ele>1563.0</ele></trkpt>
<trkpt lat="39.363963" lon="67.150233"><ele>1565.0</ele></trkpt>
<trkpt lat="39.363998" lon="67.150154"><ele>1566.0</ele></trkpt>
<trkpt lat="39.363927" lon="67.149879"><ele>1570.0</ele></trkpt>
<trkpt lat="39.363951" lon="67.149784"><ele>1574.0</ele></trkpt>
<trkpt lat="39.363960" lon="67.149657"><ele>1577.0</ele></trkpt>
<trkpt lat="39.364019" lon="67.149628"><ele>1578.0</ele></trkpt>
<trkpt lat="39.364039" lon="67.149493"><ele>1584.0</ele></trkpt>
<trkpt lat="39.364006" lon="67.149371"><ele>1582.0</ele></trkpt>
<trkpt lat="39.364013" lon="67.149340"><ele>1584.0</ele></trkpt>
<trkpt lat="39.364058" lon="67.149302"><ele>1589.0</ele></trkpt>
<trkpt lat="39.364028" lon="67.149195"><ele>1595.1</ele></trkpt>
<trkpt lat="39.364040" lon="67.149156"><ele>1595.0</ele></trkpt>
<trkpt lat="39.363962" lon="67.149001"><ele>1596.0</ele></trkpt>
<trkpt lat="39.363948" lon="67.148891"><ele>1602.0</ele></trkpt>
<trkpt lat="39.363976" lon="67.148876"><ele>1602.0</ele></trkpt>
<trkpt lat="39.364098" lon="67.148878"><ele>1605.0</ele></trkpt>
<trkpt lat="39.364036" lon="67.148779"><ele>1608.0</ele></trkpt>
<trkpt lat="39.363975" lon="67.148624"><ele>1611.0</ele></trkpt>
<trkpt lat="39.364028" lon="67.148595"><ele>1616.0</ele></trkpt>
<trkpt lat="39.364008" lon="67.148503"><ele>1617.0</ele></trkpt>
<trkpt lat="39.364018" lon="67.148472"><ele>1620.0</ele></trkpt>
<trkpt lat="39.363985" lon="67.148413"><ele>1620.0</ele></trkpt>
<trkpt lat="39.364004" lon="67.148333"><ele>1623.0</ele></trkpt>
<trkpt lat="39.363879" lon="67.148225"><ele>1627.0</ele></trkpt>
<trkpt lat="39.363787" lon="67.148090"><ele>1631.5</ele></trkpt>
<trkpt lat="39.363710" lon="67.148040"><ele>1630.0</ele></trkpt>
<trkpt lat="39.363481" lon="67.147815"><ele>1638.0</ele></trkpt>
<trkpt lat="39.363492" lon="67.147776"><ele>1638.0</ele></trkpt>
<trkpt lat="39.363568" lon="67.147729"><ele>1646.0</ele></trkpt>
<trkpt lat="39.363581" lon="67.147683"><ele>1645.0</ele></trkpt>
<trkpt lat="39.363703" lon="67.147621"><ele>1650.0</ele></trkpt>
<trkpt lat="39.363679" lon="67.147531"><ele>1653.8</ele></trkpt>
<trkpt lat="39.363579" lon="67.147343"><ele>1660.0</ele></trkpt>
<trkpt lat="39.363579" lon="67.147290"><ele>1662.9</ele></trkpt>
<trkpt lat="39.363729" lon="67.147278"><ele>1665.0</ele></trkpt>
<trkpt lat="39.363797" lon="67.147243"><ele>1667.0</ele></trkpt>
<trkpt lat="39.363823" lon="67.147199"><ele>1666.0</ele></trkpt>
<trkpt lat="39.363785" lon="67.147096"><ele>1670.0</ele></trkpt>
<trkpt lat="39.363798" lon="67.146997"><ele>1675.0</ele></trkpt>
<trkpt lat="39.363820" lon="67.146961"><ele>1676.0</ele></trkpt>
<trkpt lat="39.363805" lon="67.146928"><ele>1673.0</ele></trkpt>
<trkpt lat="39.363717" lon="67.146886"><ele>1678.0</ele></trkpt>
<trkpt lat="39.363657" lon="67.146889"><ele>1680.0</ele></trkpt>
<trkpt lat="39.363522" lon="67.146836"><ele>1680.0</ele></trkpt>
<trkpt lat="39.363451" lon="67.146886"><ele>1680.0</ele></trkpt>
<trkpt lat="39.363346" lon="67.146901"><ele>1681.0</ele></trkpt>
<trkpt lat="39.363080" lon="67.146909"><ele>1686.0</ele></trkpt>
<trkpt lat="39.363063" lon="67.146883"><ele>1688.0</ele></trkpt>
<trkpt lat="39.362928" lon="67.146880"><ele>1690.0</ele></trkpt>
<trkpt lat="39.362913" lon="67.146850"><ele>1692.0</ele></trkpt>
<trkpt lat="39.362925" lon="67.146786"><ele>1694.0</ele></trkpt>
<trkpt lat="39.362961" lon="67.146750"><ele>1692.0</ele></trkpt>
<trkpt lat="39.362947" lon="67.146719"><ele>1694.0</ele></trkpt>
<trkpt lat="39.362892" lon="67.146685"><ele>1700.0</ele></trkpt>
<trkpt lat="39.362877" lon="67.146620"><ele>1701.0</ele></trkpt>
<trkpt lat="39.362746" lon="67.146751"><ele>1701.0</ele></trkpt>
<trkpt lat="39.362660" lon="67.146766"><ele>1704.0</ele></trkpt>
<trkpt lat="39.362648" lon="67.146648"><ele>1705.0</ele></trkpt>
<trkpt lat="39.362659" lon="67.146570"><ele>1709.0</ele></trkpt>
<trkpt lat="39.362643" lon="67.146462"><ele>1710.0</ele></trkpt>
<trkpt lat="39.362368" lon="67.146365"><ele>1719.0</ele></trkpt>
<trkpt lat="39.362147" lon="67.146221"><ele>1721.0</ele></trkpt>
<trkpt lat="39.362048" lon="67.146123"><ele>1729.0</ele></trkpt>
<trkpt lat="39.362007" lon="67.146103"><ele>1730.0</ele></trkpt>
<trkpt lat="39.361915" lon="67.145993"><ele>1732.0</ele></trkpt>
<trkpt lat="39.361891" lon="67.146011"><ele>1736.0</ele></trkpt>
<trkpt lat="39.361855" lon="67.145988"><ele>1737.0</ele></trkpt>
<trkpt lat="39.361818" lon="67.145989"><ele>1735.0</ele></trkpt>
<trkpt lat="39.361732" lon="67.145794"><ele>1746.0</ele></trkpt>
<trkpt lat="39.361709" lon="67.145786"><ele>1746.0</ele></trkpt>
<trkpt lat="39.361556" lon="67.145604"><ele>1751.0</ele></trkpt>
<trkpt lat="39.361549" lon="67.145571"><ele>1750.0</ele></trkpt>
<trkpt lat="39.361468" lon="67.145444"><ele>1753.0</ele></trkpt>
<trkpt lat="39.361425" lon="67.145425"><ele>1753.0</ele></trkpt>
<trkpt lat="39.361390" lon="67.145474"><ele>1760.0</ele></trkpt>
<trkpt lat="39.361363" lon="67.145474"><ele>1761.0</ele></trkpt>
<trkpt lat="39.361368" lon="67.145565"><ele>1764.0</ele></trkpt>
<trkpt lat="39.361319" lon="67.145537"><ele>1760.0</ele></trkpt>
<trkpt lat="39.361235" lon="67.145534"><ele>1764.0</ele></trkpt>
<trkpt lat="39.360983" lon="67.145572"><ele>1775.2</ele></trkpt>
<trkpt lat="39.360905" lon="67.145594"><ele>1774.0</ele></trkpt>
<trkpt lat="39.360882" lon="67.145620"><ele>1774.0</ele></trkpt>
<trkpt lat="39.360701" lon="67.145481"><ele>1776.0</ele></trkpt>
<trkpt lat="39.360654" lon="67.145475"><ele>1776.0</ele></trkpt>
<trkpt lat="39.360551" lon="67.145528"><ele>1778.0</ele></trkpt>
<trkpt lat="39.360405" lon="67.145501"><ele>1780.0</ele></trkpt>
<trkpt lat="39.360327" lon="67.145446"><ele>1782.0</ele></trkpt>
<trkpt lat="39.360133" lon="67.145399"><ele>1784.0</ele></trkpt>
<trkpt lat="39.359967" lon="67.145301"><ele>1788.0</ele></trkpt>
<trkpt lat="39.359867" lon="67.145283"><ele>1789.0</ele></trkpt>
<trkpt lat="39.359814" lon="67.145239"><ele>1792.0</ele></trkpt>
<trkpt lat="39.359749" lon="67.145219"><ele>1791.0</ele></trkpt>
<trkpt lat="39.359726" lon="67.145186"><ele>1791.0</ele></trkpt>
<trkpt lat="39.359663" lon="67.145169"><ele>1792.0</ele></trkpt>
<trkpt lat="39.359582" lon="67.145118"><ele>1794.0</ele></trkpt>
<trkpt lat="39.359241" lon="67.144780"><ele>1795.0</ele></trkpt>
<trkpt lat="39.359197" lon="67.144762"><ele>1796.0</ele></trkpt>
<trkpt lat="39.359136" lon="67.144677"><ele>1800.3</ele></trkpt>
<trkpt lat="39.359124" lon="67.144634"><ele>1800.0</ele></trkpt>
<trkpt lat="39.359018" lon="67.144555"><ele>1800.0</ele></trkpt>
<trkpt lat="39.358940" lon="67.144441"><ele>1806.0</ele></trkpt>
<trkpt lat="39.358860" lon="67.144267"><ele>1810.0</ele></trkpt>
<trkpt lat="39.358661" lon="67.144138"><ele>1812.0</ele></trkpt>
<trkpt lat="39.358596" lon="67.144065"><ele>1812.0</ele></trkpt>
<trkpt lat="39.358558" lon="67.144061"><ele>1815.0</ele></trkpt>
<trkpt lat="39.358503" lon="67.144025"><ele>1815.0</ele></trkpt>
<trkpt lat="39.358452" lon="67.143953"><ele>1820.0</ele></trkpt>
<trkpt lat="39.358436" lon="67.143890"><ele>1820.0</ele></trkpt>
<trkpt lat="39.358351" lon="67.143789"><ele>1824.0</ele></trkpt>
<trkpt lat="39.358254" lon="67.143547"><ele>1828.9</ele></trkpt>
<trkpt lat="39.358225" lon="67.143535"><ele>1827.0</ele></trkpt>
<trkpt lat="39.358172" lon="67.143434"><ele>1828.0</ele></trkpt>
<trkpt lat="39.358086" lon="67.143348"><ele>1828.0</ele></trkpt>
<trkpt lat="39.358074" lon="67.143315"><ele>1831.0</ele></trkpt>
<trkpt lat="39.358014" lon="67.143263"><ele>1831.0</ele></trkpt>
<trkpt lat="39.357970" lon="67.143255"><ele>1831.7</ele></trkpt>
<trkpt lat="39.357931" lon="67.143189"><ele>1834.0</ele></trkpt>
<trkpt lat="39.357816" lon="67.143114"><ele>1834.0</ele></trkpt>
<trkpt lat="39.357738" lon="67.143038"><ele>1840.9</ele></trkpt>
<trkpt lat="39.357543" lon="67.142794"><ele>1843.0</ele></trkpt>
<trkpt lat="39.357336" lon="67.142650"><ele>1845.0</ele></trkpt>
<trkpt lat="39.357200" lon="67.142531"><ele>1855.0</ele></trkpt>
<trkpt lat="39.357192" lon="67.142501"><ele>1856.0</ele></trkpt>
<trkpt lat="39.357126" lon="67.142428"><ele>1854.0</ele></trkpt>
<trkpt lat="39.356921" lon="67.141939"><ele>1861.7</ele></trkpt>
<trkpt lat="39.356860" lon="67.141888"><ele>1859.0</ele></trkpt>
<trkpt lat="39.356794" lon="67.141770"><ele>1860.0</ele></trkpt>
<trkpt lat="39.356618" lon="67.141576"><ele>1866.0</ele></trkpt>
<trkpt lat="39.356542" lon="67.141404"><ele>1868.0</ele></trkpt>
<trkpt lat="39.356531" lon="67.141308"><ele>1871.0</ele></trkpt>
<trkpt lat="39.356559" lon="67.141216"><ele>1875.6</ele></trkpt>
<trkpt lat="39.356511" lon="67.141093"><ele>1873.0</ele></trkpt>
<trkpt lat="39.356450" lon="67.141093"><ele>1872.0</ele></trkpt>
<trkpt lat="39.356413" lon="67.141058"><ele>1876.0</ele></trkpt>
<trkpt lat="39.356254" lon="67.141112"><ele>1878.0</ele></trkpt>
<trkpt lat="39.356206" lon="67.141147"><ele>1882.0</ele></trkpt>
<trkpt lat="39.356026" lon="67.141051"><ele>1891.0</ele></trkpt>
<trkpt lat="39.355840" lon="67.141031"><ele>1885.0</ele></trkpt>
<trkpt lat="39.355837" lon="67.141085"><ele>1890.0</ele></trkpt>
<trkpt lat="39.355688" lon="67.141115"><ele>1900.0</ele></trkpt>
<trkpt lat="39.355569" lon="67.141166"><ele>1902.0</ele></trkpt>
<trkpt lat="39.355540" lon="67.141147"><ele>1903.0</ele></trkpt>
<trkpt lat="39.355523" lon="67.141176"><ele>1904.0</ele></trkpt>
<trkpt lat="39.355497" lon="67.141175"><ele>1906.0</ele></trkpt>
<trkpt lat="39.355440" lon="67.141243"><ele>1912.0</ele></trkpt>
<trkpt lat="39.355452" lon="67.141390"><ele>1919.0</ele></trkpt>
<trkpt lat="39.355326" lon="67.141420"><ele>1922.0</ele></trkpt>
<trkpt lat="39.355399" lon="67.141577"><ele>1928.0</ele></trkpt>
<trkpt lat="39.355384" lon="67.141626"><ele>1930.0</ele></trkpt>
<trkpt lat="39.355358" lon="67.141654"><ele>1933.2</ele></trkpt>
<trkpt lat="39.355420" lon="67.141701"><ele>1932.0</ele></trkpt>
<trkpt lat="39.355407" lon="67.141831"><ele>1938.9</ele></trkpt>
<trkpt lat="39.355401" lon="67.141815"><ele>1937.0</ele></trkpt>
<trkpt lat="39.355427" lon="67.141893"><ele>1936.0</ele></trkpt>
<trkpt lat="39.355380" lon="67.141909"><ele>1935.0</ele></trkpt>
<trkpt lat="39.355350" lon="67.141894"><ele>1938.0</ele></trkpt>
<trkpt lat="39.355345" lon="67.141965"><ele>1942.0</ele></trkpt>
<trkpt lat="39.355265" lon="67.141990"><ele>1944.0</ele></trkpt>
<trkpt lat="39.355265" lon="67.142060"><ele>1944.0</ele></trkpt>
<trkpt lat="39.355231" lon="67.142124"><ele>1951.0</ele></trkpt>
<trkpt lat="39.355229" lon="67.142161"><ele>1952.0</ele></trkpt>
<trkpt lat="39.355271" lon="67.142243"><ele>1957.9</ele></trkpt>
<trkpt lat="39.355156" lon="67.142204"><ele>1958.0</ele></trkpt>
<trkpt lat="39.355044" lon="67.142231"><ele>1961.0</ele></trkpt>
<trkpt lat="39.355043" lon="67.142280"><ele>1967.0</ele></trkpt>
<trkpt lat="39.354996" lon="67.142331"><ele>1968.0</ele></trkpt>
<trkpt lat="39.354993" lon="67.142403"><ele>1968.0</ele></trkpt>
<trkpt lat="39.354923" lon="67.142541"><ele>1975.0</ele></trkpt>
<trkpt lat="39.354827" lon="67.142484"><ele>1975.0</ele></trkpt>
<trkpt lat="39.354772" lon="67.142344"><ele>1982.0</ele></trkpt>
<trkpt lat="39.354751" lon="67.142331"><ele>1981.0</ele></trkpt>
<trkpt lat="39.354706" lon="67.142355"><ele>1980.0</ele></trkpt>
<trkpt lat="39.354688" lon="67.142318"><ele>1984.0</ele></trkpt>
<trkpt lat="39.354686" lon="67.142256"><ele>1984.0</ele></trkpt>
<trkpt lat="39.354601" lon="67.142131"><ele>1986.0</ele></trkpt>
<trkpt lat="39.354567" lon="67.142040"><ele>1990.0</ele></trkpt>
<trkpt lat="39.354541" lon="67.142023"><ele>1990.0</ele></trkpt>
<trkpt lat="39.354468" lon="67.141910"><ele>1996.0</ele></trkpt>
<trkpt lat="39.354444" lon="67.141828"><ele>1995.0</ele></trkpt>
<trkpt lat="39.354396" lon="67.141773"><ele>1997.0</ele></trkpt>
<trkpt lat="39.354376" lon="67.141707"><ele>1998.0</ele></trkpt>
<trkpt lat="39.354331" lon="67.141667"><ele>2000.0</ele></trkpt>
<trkpt lat="39.354260" lon="67.141671"><ele>2003.0</ele></trkpt>
<trkpt lat="39.354177" lon="67.141561"><ele>2004.0</ele></trkpt>
<trkpt lat="39.353936" lon="67.141421"><ele>2012.0</ele></trkpt>
<trkpt lat="39.353848" lon="67.141324"><ele>2016.0</ele></trkpt>
<trkpt lat="39.353607" lon="67.141186"><ele>2020.0</ele></trkpt>
<trkpt lat="39.353187" lon="67.140858"><ele>2028.0</ele></trkpt>
<trkpt lat="39.353139" lon="67.140851"><ele>2032.0</ele></trkpt>
<trkpt lat="39.353076" lon="67.140803"><ele>2034.0</ele></trkpt>
<trkpt lat="39.352957" lon="67.140760"><ele>2036.0</ele></trkpt>
<trkpt lat="39.352873" lon="67.140662"><ele>2042.0</ele></trkpt>
<trkpt lat="39.352756" lon="67.140603"><ele>2044.0</ele></trkpt>
<trkpt lat="39.352469" lon="67.140287"><ele>2056.0</ele></trkpt>
<trkpt lat="39.352424" lon="67.140258"><ele>2055.0</ele></trkpt>
<trkpt lat="39.352392" lon="67.140180"><ele>2058.0</ele></trkpt>
<trkpt lat="39.352333" lon="67.140160"><ele>2052.0</ele></trkpt>
<trkpt lat="39.352312" lon="67.140122"><ele>2057.0</ele></trkpt>
<trkpt lat="39.352330" lon="67.140118"><ele>2052.0</ele></trkpt>
<trkpt lat="39.352337" lon="67.140061"><ele>2064.1</ele></trkpt>
<trkpt lat="39.352316" lon="67.140037"><ele>2064.0</ele></trkpt>
<trkpt lat="39.352316" lon="67.139913"><ele>2064.0</ele></trkpt>
<trkpt lat="39.352288" lon="67.139884"><ele>2068.8</ele></trkpt>
<trkpt lat="39.352311" lon="67.139831"><ele>2065.0</ele></trkpt>
<trkpt lat="39.352373" lon="67.139533"><ele>2068.0</ele></trkpt>
<trkpt lat="39.352492" lon="67.139411"><ele>2067.0</ele></trkpt>
<trkpt lat="39.352525" lon="67.139333"><ele>2070.0</ele></trkpt>
<trkpt lat="39.352516" lon="67.139296"><ele>2068.9</ele></trkpt>
<trkpt lat="39.352541" lon="67.139200"><ele>2069.0</ele></trkpt>
<trkpt lat="39.352641" lon="67.138979"><ele>2075.0</ele></trkpt>
<trkpt lat="39.352689" lon="67.138798"><ele>2076.0</ele></trkpt>
<trkpt lat="39.352699" lon="67.138672"><ele>2078.0</ele></trkpt>
<trkpt lat="39.352683" lon="67.138466"><ele>2079.0</ele></trkpt>
<trkpt lat="39.352625" lon="67.138291"><ele>2079.0</ele></trkpt>
<trkpt lat="39.352597" lon="67.138175"><ele>2084.9</ele></trkpt>
<trkpt lat="39.352603" lon="67.138149"><ele>2084.0</ele></trkpt>
<trkpt lat="39.352566" lon="67.138108"><ele>2084.0</ele></trkpt>
<trkpt lat="39.352517" lon="67.137903"><ele>2087.0</ele></trkpt>
<trkpt lat="39.352509" lon="67.137767"><ele>2088.0</ele></trkpt>
<trkpt lat="39.352533" lon="67.137749"><ele>2089.0</ele></trkpt>
<trkpt lat="39.352592" lon="67.137615"><ele>2092.0</ele></trkpt>
<trkpt lat="39.352642" lon="67.137575"><ele>2096.0</ele></trkpt>
<trkpt lat="39.352684" lon="67.137329"><ele>2103.0</ele></trkpt>
<trkpt lat="39.352718" lon="67.137261"><ele>2106.0</ele></trkpt>
<trkpt lat="39.352688" lon="67.137153"><ele>2107.0</ele></trkpt>
<trkpt lat="39.352716" lon="67.137115"><ele>2111.0</ele></trkpt>
<trkpt lat="39.352715" lon="67.137056"><ele>2114.0</ele></trkpt>
<trkpt lat="39.352646" lon="67.137030"><ele>2121.0</ele></trkpt>
<trkpt lat="39.352497" lon="67.137067"><ele>2124.0</ele></trkpt>
<trkpt lat="39.352518" lon="67.136888"><ele>2126.0</ele></trkpt>
<trkpt lat="39.352705" lon="67.136562"><ele>2139.9</ele></trkpt>
<trkpt lat="39.352839" lon="67.136465"><ele>2140.0</ele></trkpt>
<trkpt lat="39.352866" lon="67.136398"><ele>2136.0</ele></trkpt>
<trkpt lat="39.352968" lon="67.136321"><ele>2140.0</ele></trkpt>
<trkpt lat="39.353000" lon="67.136228"><ele>2145.0</ele></trkpt>
<trkpt lat="39.353019" lon="67.136103"><ele>2150.0</ele></trkpt>
<trkpt lat="39.353022" lon="67.135944"><ele>2146.0</ele></trkpt>
<trkpt lat="39.352923" lon="67.135824"><ele>2150.0</ele></trkpt>
<trkpt lat="39.352915" lon="67.135782"><ele>2148.0</ele></trkpt>
<trkpt lat="39.352837" lon="67.135707"><ele>2148.0</ele></trkpt>
<trkpt lat="39.352774" lon="67.135680"><ele>2150.0</ele></trkpt>
<trkpt lat="39.352728" lon="67.135628"><ele>2151.0</ele></trkpt>
<trkpt lat="39.352678" lon="67.135416"><ele>2160.0</ele></trkpt>
<trkpt lat="39.352636" lon="67.135385"><ele>2156.0</ele></trkpt>
<trkpt lat="39.352641" lon="67.135349"><ele>2160.0</ele></trkpt>
<trkpt lat="39.352559" lon="67.135210"><ele>2163.0</ele></trkpt>
<trkpt lat="39.352538" lon="67.135141"><ele>2161.0</ele></trkpt>
<trkpt lat="39.352537" lon="67.135047"><ele>2169.0</ele></trkpt>
<trkpt lat="39.352519" lon="67.135038"><ele>2168.0</ele></trkpt>
<trkpt lat="39.352491" lon="67.134957"><ele>2163.0</ele></trkpt>
<trkpt lat="39.352584" lon="67.134732"><ele>2178.1</ele></trkpt>
<trkpt lat="39.352573" lon="67.134639"><ele>2177.0</ele></trkpt>
<trkpt lat="39.352439" lon="67.134698"><ele>2190.1</ele></trkpt>
<trkpt lat="39.352418" lon="67.134687"><ele>2190.0</ele></trkpt>
<trkpt lat="39.352420" lon="67.134533"><ele>2191.0</ele></trkpt>
<trkpt lat="39.352393" lon="67.134496"><ele>2190.0</ele></trkpt>
<trkpt lat="39.352325" lon="67.134506"><ele>2196.0</ele></trkpt>
<trkpt lat="39.352316" lon="67.134434"><ele>2194.0</ele></trkpt>
<trkpt lat="39.352330" lon="67.134311"><ele>2200.0</ele></trkpt>
<trkpt lat="39.352285" lon="67.134317"><ele>2203.0</ele></trkpt>
<trkpt lat="39.352162" lon="67.134431"><ele>2208.0</ele></trkpt>
<trkpt lat="39.352128" lon="67.134374"><ele>2208.0</ele></trkpt>
<trkpt lat="39.352097" lon="67.134222"><ele>2214.0</ele></trkpt>
<trkpt lat="39.352035" lon="67.134234"><ele>2215.0</ele></trkpt>
<trkpt lat="39.351973" lon="67.134213"><ele>2218.6</ele></trkpt>
<trkpt lat="39.351921" lon="67.134137"><ele>2223.0</ele></trkpt>
<trkpt lat="39.351900" lon="67.134165"><ele>2222.0</ele></trkpt>
<trkpt lat="39.351843" lon="67.134181"><ele>2223.0</ele></trkpt>
<trkpt lat="39.351806" lon="67.134080"><ele>2229.6</ele></trkpt>
<trkpt lat="39.351774" lon="67.134071"><ele>2230.0</ele></trkpt>
<trkpt lat="39.351746" lon="67.134093"><ele>2229.0</ele></trkpt>
<trkpt lat="39.351580" lon="67.134050"><ele>2240.0</ele></trkpt>
<trkpt lat="39.351561" lon="67.134028"><ele>2242.0</ele></trkpt>
<trkpt lat="39.351512" lon="67.134037"><ele>2242.0</ele></trkpt>
<trkpt lat="39.351483" lon="67.133857"><ele>2247.6</ele></trkpt>
<trkpt lat="39.351499" lon="67.133785"><ele>2245.0</ele></trkpt>
<trkpt lat="39.351416" lon="67.133749"><ele>2244.0</ele></trkpt>
<trkpt lat="39.351257" lon="67.134076"><ele>2250.0</ele></trkpt>
<trkpt lat="39.351135" lon="67.134465"><ele>2260.0</ele></trkpt>
<trkpt lat="39.351088" lon="67.134561"><ele>2260.0</ele></trkpt>
<trkpt lat="39.350963" lon="67.134659"><ele>2260.0</ele></trkpt>
<trkpt lat="39.350867" lon="67.134772"><ele>2268.0</ele></trkpt>
<trkpt lat="39.350790" lon="67.134796"><ele>2270.0</ele></trkpt>
<trkpt lat="39.350743" lon="67.134830"><ele>2274.0</ele></trkpt>
<trkpt lat="39.350702" lon="67.134890"><ele>2275.0</ele></trkpt>
<trkpt lat="39.350564" lon="67.134970"><ele>2285.0</ele></trkpt>
<trkpt lat="39.350512" lon="67.134811"><ele>2288.0</ele></trkpt>
<trkpt lat="39.350482" lon="67.134801"><ele>2289.3</ele></trkpt>
<trkpt lat="39.350314" lon="67.134930"><ele>2296.0</ele></trkpt>
<trkpt lat="39.350201" lon="67.134973"><ele>2304.4</ele></trkpt>
<trkpt lat="39.350165" lon="67.135015"><ele>2304.0</ele></trkpt>
<trkpt lat="39.350067" lon="67.135042"><ele>2305.0</ele></trkpt>
<trkpt lat="39.349981" lon="67.135136"><ele>2310.8</ele></trkpt>
<trkpt lat="39.349951" lon="67.135315"><ele>2311.0</ele></trkpt>
<trkpt lat="39.349936" lon="67.135338"><ele>2310.0</ele></trkpt>
<trkpt lat="39.349693" lon="67.135643"><ele>2310.0</ele></trkpt>
<trkpt lat="39.349540" lon="67.135715"><ele>2319.0</ele></trkpt>
<trkpt lat="39.349478" lon="67.135701"><ele>2316.0</ele></trkpt>
<trkpt lat="39.349382" lon="67.135728"><ele>2320.0</ele></trkpt>
<trkpt lat="39.349204" lon="67.135838"><ele>2323.0</ele></trkpt>
<trkpt lat="39.349084" lon="67.135867"><ele>2331.0</ele></trkpt>
<trkpt lat="39.349058" lon="67.135831"><ele>2332.8</ele></trkpt>
<trkpt lat="39.349002" lon="67.135814"><ele>2336.0</ele></trkpt>
<trkpt lat="39.348910" lon="67.135714"><ele>2336.0</ele></trkpt>
<trkpt lat="39.348867" lon="67.135703"><ele>2341.0</ele></trkpt>
<trkpt lat="39.348828" lon="67.135740"><ele>2343.2</ele></trkpt>
<trkpt lat="39.348811" lon="67.135690"><ele>2344.0</ele></trkpt>
<trkpt lat="39.348778" lon="67.135672"><ele>2344.0</ele></trkpt>
<trkpt lat="39.348704" lon="67.135688"><ele>2348.0</ele></trkpt>
<trkpt lat="39.348669" lon="67.135716"><ele>2352.0</ele></trkpt>
<trkpt lat="39.348571" lon="67.135864"><ele>2356.0</ele></trkpt>
<trkpt lat="39.348506" lon="67.136029"><ele>2356.0</ele></trkpt>
<trkpt lat="39.348446" lon="67.136094"><ele>2361.0</ele></trkpt>
<trkpt lat="39.348349" lon="67.136130"><ele>2354.0</ele></trkpt>
<trkpt lat="39.348310" lon="67.136104"><ele>2363.0</ele></trkpt>
<trkpt lat="39.348207" lon="67.136350"><ele>2368.0</ele></trkpt>
<trkpt lat="39.348115" lon="67.136522"><ele>2372.0</ele></trkpt>
<trkpt lat="39.347909" lon="67.136737"><ele>2376.0</ele></trkpt>
<trkpt lat="39.347760" lon="67.136989"><ele>2376.0</ele></trkpt>
<trkpt lat="39.347644" lon="67.137061"><ele>2380.0</ele></trkpt>
<trkpt lat="39.347538" lon="67.137086"><ele>2380.8</ele></trkpt>
<trkpt lat="39.347414" lon="67.137090"><ele>2379.0</ele></trkpt>
<trkpt lat="39.347141" lon="67.136973"><ele>2385.0</ele></trkpt>
<trkpt lat="39.346940" lon="67.137011"><ele>2385.0</ele></trkpt>
<trkpt lat="39.346865" lon="67.136996"><ele>2385.0</ele></trkpt>
<trkpt lat="39.346795" lon="67.136934"><ele>2376.0</ele></trkpt>
<trkpt lat="39.346764" lon="67.136840"><ele>2389.7</ele></trkpt>
<trkpt lat="39.346659" lon="67.136782"><ele>2394.0</ele></trkpt>
<trkpt lat="39.346446" lon="67.136702"><ele>2398.0</ele></trkpt>
<trkpt lat="39.346328" lon="67.136688"><ele>2398.0</ele></trkpt>
<trkpt lat="39.345947" lon="67.136591"><ele>2397.0</ele></trkpt>
<trkpt lat="39.345885" lon="67.136556"><ele>2394.0</ele></trkpt>
<trkpt lat="39.345950" lon="67.136434"><ele>2400.0</ele></trkpt>
<trkpt lat="39.345944" lon="67.136360"><ele>2401.0</ele></trkpt>
<trkpt lat="39.345972" lon="67.136323"><ele>2403.0</ele></trkpt>
<trkpt lat="39.345954" lon="67.136278"><ele>2406.0</ele></trkpt>
<trkpt lat="39.345981" lon="67.136237"><ele>2404.0</ele></trkpt>
<trkpt lat="39.345953" lon="67.136085"><ele>2411.0</ele></trkpt>
<trkpt lat="39.345983" lon="67.136074"><ele>2411.0</ele></trkpt>
<trkpt lat="39.346041" lon="67.136003"><ele>2413.0</ele></trkpt>
<trkpt lat="39.346039" lon="67.135929"><ele>2421.8</ele></trkpt>
<trkpt lat="39.346082" lon="67.135885"><ele>2422.5</ele></trkpt>
<trkpt lat="39.346079" lon="67.135704"><ele>2426.8</ele></trkpt>
<trkpt lat="39.346132" lon="67.135538"><ele>2430.0</ele></trkpt>
<trkpt lat="39.346181" lon="67.135288"><ele>2440.6</ele></trkpt>
<trkpt lat="39.346227" lon="67.135155"><ele>2442.0</ele></trkpt>
<trkpt lat="39.346153" lon="67.135114"><ele>2443.3</ele></trkpt>
<trkpt lat="39.346113" lon="67.135118"><ele>2444.0</ele></trkpt>
<trkpt lat="39.346090" lon="67.135092"><ele>2447.5</ele></trkpt>
<trkpt lat="39.346127" lon="67.135044"><ele>2448.0</ele></trkpt>
<trkpt lat="39.346159" lon="67.134963"><ele>2449.8</ele></trkpt>
<trkpt lat="39.346187" lon="67.134768"><ele>2452.0</ele></trkpt>
<trkpt lat="39.346177" lon="67.134693"><ele>2451.0</ele></trkpt>
<trkpt lat="39.346109" lon="67.134548"><ele>2454.0</ele></trkpt>
<trkpt lat="39.346080" lon="67.134561"><ele>2456.0</ele></trkpt>
<trkpt lat="39.346006" lon="67.134724"><ele>2459.0</ele></trkpt>
<trkpt lat="39.345915" lon="67.134859"><ele>2460.0</ele></trkpt>
<trkpt lat="39.345866" lon="67.134847"><ele>2460.0</ele></trkpt>
<trkpt lat="39.345789" lon="67.134878"><ele>2460.0</ele></trkpt>
<trkpt lat="39.345835" lon="67.134852"><ele>2460.0</ele></trkpt>
<trkpt lat="39.345918" lon="67.134854"><ele>2456.0</ele></trkpt>
<trkpt lat="39.345696" lon="67.134820"><ele>2460.0</ele></trkpt>
<trkpt lat="39.345608" lon="67.134839"><ele>2457.0</ele></trkpt>
<trkpt lat="39.345559" lon="67.134889"><ele>2457.0</ele></trkpt>
<trkpt lat="39.345418" lon="67.134854"><ele>2454.0</ele></trkpt>
<trkpt lat="39.345354" lon="67.134887"><ele>2454.0</ele></trkpt>
<trkpt lat="39.345287" lon="67.134872"><ele>2454.0</ele></trkpt>
<trkpt lat="39.345199" lon="67.134800"><ele>2451.0</ele></trkpt>
<trkpt lat="39.345165" lon="67.134801"><ele>2452.0</ele></trkpt>
<trkpt lat="39.345111" lon="67.134854"><ele>2450.0</ele></trkpt>
<trkpt lat="39.345028" lon="67.134893"><ele>2449.0</ele></trkpt>
<trkpt lat="39.344906" lon="67.134791"><ele>2444.0</ele></trkpt>
<trkpt lat="39.344831" lon="67.134897"><ele>2442.0</ele></trkpt>
<trkpt lat="39.344719" lon="67.134990"><ele>2440.0</ele></trkpt>
<trkpt lat="39.344580" lon="67.134958"><ele>2437.0</ele></trkpt>
<trkpt lat="39.344466" lon="67.134978"><ele>2436.0</ele></trkpt>
<trkpt lat="39.344397" lon="67.135017"><ele>2434.0</ele></trkpt>
<trkpt lat="39.344314" lon="67.135030"><ele>2434.0</ele></trkpt>
<trkpt lat="39.344013" lon="67.135148"><ele>2430.0</ele></trkpt>
<trkpt lat="39.343993" lon="67.135113"><ele>2430.0</ele></trkpt>
<trkpt lat="39.343932" lon="67.135090"><ele>2427.0</ele></trkpt>
<trkpt lat="39.343828" lon="67.135158"><ele>2427.0</ele></trkpt>
<trkpt lat="39.343807" lon="67.135192"><ele>2427.0</ele></trkpt>
<trkpt lat="39.343637" lon="67.135250"><ele>2424.0</ele></trkpt>
<trkpt lat="39.343565" lon="67.135297"><ele>2424.0</ele></trkpt>
<trkpt lat="39.343532" lon="67.135275"><ele>2421.0</ele></trkpt>
<trkpt lat="39.343394" lon="67.135015"><ele>2416.0</ele></trkpt>
<trkpt lat="39.343298" lon="67.134943"><ele>2412.0</ele></trkpt>
<trkpt lat="39.343201" lon="67.134994"><ele>2412.0</ele></trkpt>
<trkpt lat="39.343107" lon="67.134887"><ele>2409.0</ele></trkpt>
<trkpt lat="39.343047" lon="67.134906"><ele>2408.0</ele></trkpt>
<trkpt lat="39.342997" lon="67.134791"><ele>2404.0</ele></trkpt>
<trkpt lat="39.342948" lon="67.134744"><ele>2403.0</ele></trkpt>
<trkpt lat="39.342843" lon="67.134694"><ele>2400.0</ele></trkpt>
<trkpt lat="39.342823" lon="67.134657"><ele>2400.0</ele></trkpt>
<trkpt lat="39.342787" lon="67.134639"><ele>2398.0</ele></trkpt>
<trkpt lat="39.342747" lon="67.134653"><ele>2392.0</ele></trkpt>
<trkpt lat="39.342682" lon="67.134593"><ele>2396.0</ele></trkpt>
<trkpt lat="39.342591" lon="67.134637"><ele>2395.0</ele></trkpt>
<trkpt lat="39.342514" lon="67.134635"><ele>2383.0</ele></trkpt>
<trkpt lat="39.342470" lon="67.134680"><ele>2391.0</ele></trkpt>
<trkpt lat="39.342354" lon="67.134707"><ele>2388.0</ele></trkpt>
<trkpt lat="39.342248" lon="67.134589"><ele>2386.0</ele></trkpt>
<trkpt lat="39.342120" lon="67.134527"><ele>2385.0</ele></trkpt>
<trkpt lat="39.342183" lon="67.134168"><ele>2384.0</ele></trkpt>
<trkpt lat="39.342211" lon="67.134094"><ele>2384.0</ele></trkpt>
<trkpt lat="39.342228" lon="67.133824"><ele>2385.0</ele></trkpt>
<trkpt lat="39.342216" lon="67.133709"><ele>2387.0</ele></trkpt>
<trkpt lat="39.342233" lon="67.133651"><ele>2387.0</ele></trkpt>
<trkpt lat="39.342235" lon="67.133452"><ele>2390.0</ele></trkpt>
<trkpt lat="39.342279" lon="67.133194"><ele>2388.0</ele></trkpt>
<trkpt lat="39.342275" lon="67.133121"><ele>2385.0</ele></trkpt>
<trkpt lat="39.342298" lon="67.133085"><ele>2384.0</ele></trkpt>
<trkpt lat="39.342313" lon="67.132998"><ele>2382.0</ele></trkpt>
<trkpt lat="39.342316" lon="67.132798"><ele>2382.0</ele></trkpt>
<trkpt lat="39.342345" lon="67.132698"><ele>2380.0</ele></trkpt>
<trkpt lat="39.342334" lon="67.132541"><ele>2382.0</ele></trkpt>
<trkpt lat="39.342356" lon="67.132433"><ele>2382.0</ele></trkpt>
<trkpt lat="39.342346" lon="67.132324"><ele>2382.0</ele></trkpt>
<trkpt lat="39.342392" lon="67.132137"><ele>2382.0</ele></trkpt>
<trkpt lat="39.342387" lon="67.131966"><ele>2382.0</ele></trkpt>
<trkpt lat="39.342434" lon="67.131672"><ele>2382.0</ele></trkpt>
<trkpt lat="39.342471" lon="67.131571"><ele>2382.0</ele></trkpt>
<trkpt lat="39.342575" lon="67.131063"><ele>2382.0</ele></trkpt>
<trkpt lat="39.342625" lon="67.130692"><ele>2382.0</ele></trkpt>
<trkpt lat="39.342625" lon="67.130541"><ele>2382.0</ele></trkpt>
<trkpt lat="39.342834" lon="67.130454"><ele>2382.0</ele></trkpt>
<trkpt lat="39.342966" lon="67.130349"><ele>2382.0</ele></trkpt>
<trkpt lat="39.342986" lon="67.130278"><ele>2382.0</ele></trkpt>
<trkpt lat="39.342936" lon="67.130072"><ele>2380.0</ele></trkpt>
<trkpt lat="39.342635" lon="67.129583"><ele>2384.0</ele></trkpt>
<trkpt lat="39.342586" lon="67.129380"><ele>2385.0</ele></trkpt>
<trkpt lat="39.342551" lon="67.129308"><ele>2384.0</ele></trkpt>
<trkpt lat="39.342554" lon="67.129199"><ele>2385.0</ele></trkpt>
<trkpt lat="39.342503" lon="67.129039"><ele>2380.0</ele></trkpt>
<trkpt lat="39.342472" lon="67.128860"><ele>2378.0</ele></trkpt>
<trkpt lat="39.342473" lon="67.128817"><ele>2378.0</ele></trkpt>
<trkpt lat="39.342531" lon="67.128725"><ele>2376.0</ele></trkpt>
<trkpt lat="39.342566" lon="67.128592"><ele>2376.0</ele></trkpt>
<trkpt lat="39.342504" lon="67.128229"><ele>2375.0</ele></trkpt>
<trkpt lat="39.342464" lon="67.128142"><ele>2374.0</ele></trkpt>
<trkpt lat="39.342404" lon="67.127753"><ele>2376.0</ele></trkpt>
<trkpt lat="39.342402" lon="67.127531"><ele>2378.0</ele></trkpt>
<trkpt lat="39.342379" lon="67.127428"><ele>2380.0</ele></trkpt>
<trkpt lat="39.342360" lon="67.127183"><ele>2380.0</ele></trkpt>
<trkpt lat="39.342360" lon="67.126857"><ele>2380.0</ele></trkpt>
<trkpt lat="39.342317" lon="67.126610"><ele>2376.0</ele></trkpt>
<trkpt lat="39.342300" lon="67.125945"><ele>2376.0</ele></trkpt>
<trkpt lat="39.342277" lon="67.125919"><ele>2375.0</ele></trkpt>
<trkpt lat="39.342043" lon="67.125851"><ele>2370.0</ele></trkpt>
<trkpt lat="39.342011" lon="67.125803"><ele>2374.0</ele></trkpt>
<trkpt lat="39.341969" lon="67.125778"><ele>2373.0</ele></trkpt>
<trkpt lat="39.341992" lon="67.125811"><ele>2374.0</ele></trkpt>
<trkpt lat="39.342008" lon="67.125779"><ele>2372.0</ele></trkpt>
<trkpt lat="39.342022" lon="67.125826"><ele>2374.5</ele></trkpt>
<trkpt lat="39.342211" lon="67.125924"><ele>2375.0</ele></trkpt>
<trkpt lat="39.342345" lon="67.125972"><ele>2375.0</ele></trkpt>
<trkpt lat="39.342406" lon="67.126016"><ele>2376.0</ele></trkpt>
<trkpt lat="39.342563" lon="67.126215"><ele>2376.0</ele></trkpt>
<trkpt lat="39.343037" lon="67.126648"><ele>2375.0</ele></trkpt>
<trkpt lat="39.343252" lon="67.126808"><ele>2376.0</ele></trkpt>
<trkpt lat="39.343367" lon="67.126960"><ele>2376.0</ele></trkpt>
<trkpt lat="39.343429" lon="67.127006"><ele>2376.0</ele></trkpt>
<trkpt lat="39.343580" lon="67.127224"><ele>2376.0</ele></trkpt>
<trkpt lat="39.343630" lon="67.127351"><ele>2376.0</ele></trkpt>
<trkpt lat="39.343682" lon="67.127561"><ele>2376.0</ele></trkpt>
<trkpt lat="39.343681" lon="67.127787"><ele>2379.0</ele></trkpt>
<trkpt lat="39.343724" lon="67.127985"><ele>2383.0</ele></trkpt>
<trkpt lat="39.343810" lon="67.128140"><ele>2384.0</ele></trkpt>
<trkpt lat="39.343917" lon="67.128441"><ele>2386.0</ele></trkpt>
<trkpt lat="39.343946" lon="67.128710"><ele>2391.0</ele></trkpt>
<trkpt lat="39.344007" lon="67.129019"><ele>2394.0</ele></trkpt>
<trkpt lat="39.344097" lon="67.129227"><ele>2394.0</ele></trkpt>
<trkpt lat="39.344134" lon="67.129378"><ele>2394.5</ele></trkpt>
<trkpt lat="39.344129" lon="67.129522"><ele>2392.0</ele></trkpt>
<trkpt lat="39.344093" lon="67.129789"><ele>2397.0</ele></trkpt>
<trkpt lat="39.344127" lon="67.129884"><ele>2400.0</ele></trkpt>
<trkpt lat="39.344135" lon="67.129959"><ele>2397.0</ele></trkpt>
<trkpt lat="39.344167" lon="67.130017"><ele>2397.0</ele></trkpt>
<trkpt lat="39.344224" lon="67.130286"><ele>2401.0</ele></trkpt>
<trkpt lat="39.344280" lon="67.130455"><ele>2401.0</ele></trkpt>
<trkpt lat="39.344303" lon="67.130612"><ele>2403.0</ele></trkpt>
<trkpt lat="39.344320" lon="67.130642"><ele>2402.0</ele></trkpt>
<trkpt lat="39.344365" lon="67.130862"><ele>2404.0</ele></trkpt>
<trkpt lat="39.344447" lon="67.131113"><ele>2410.0</ele></trkpt>
<trkpt lat="39.344452" lon="67.131165"><ele>2410.0</ele></trkpt>
<trkpt lat="39.344533" lon="67.131368"><ele>2412.0</ele></trkpt>
<trkpt lat="39.344577" lon="67.131424"><ele>2410.0</ele></trkpt>
<trkpt lat="39.344711" lon="67.131751"><ele>2416.0</ele></trkpt>
<trkpt lat="39.344793" lon="67.131896"><ele>2420.0</ele></trkpt>
<trkpt lat="39.344861" lon="67.131951"><ele>2421.6</ele></trkpt>
<trkpt lat="39.344873" lon="67.132027"><ele>2420.0</ele></trkpt>
<trkpt lat="39.344978" lon="67.132168"><ele>2424.0</ele></trkpt>
<trkpt lat="39.344998" lon="67.132233"><ele>2423.0</ele></trkpt>
<trkpt lat="39.345174" lon="67.132448"><ele>2429.0</ele></trkpt>
<trkpt lat="39.345231" lon="67.132486"><ele>2430.0</ele></trkpt>
<trkpt lat="39.345264" lon="67.132561"><ele>2431.0</ele></trkpt>
<trkpt lat="39.345449" lon="67.132661"><ele>2432.0</ele></trkpt>
<trkpt lat="39.345565" lon="67.132794"><ele>2436.0</ele></trkpt>
<trkpt lat="39.345687" lon="67.132854"><ele>2436.0</ele></trkpt>
<trkpt lat="39.345733" lon="67.132942"><ele>2436.0</ele></trkpt>
<trkpt lat="39.345785" lon="67.132989"><ele>2436.0</ele></trkpt>
<trkpt lat="39.345833" lon="67.133093"><ele>2440.0</ele></trkpt>
<trkpt lat="39.345884" lon="67.133126"><ele>2439.0</ele></trkpt>
<trkpt lat="39.345978" lon="67.133149"><ele>2441.0</ele></trkpt>
<trkpt lat="39.346105" lon="67.133336"><ele>2444.0</ele></trkpt>
<trkpt lat="39.346167" lon="67.133360"><ele>2440.0</ele></trkpt>
<trkpt lat="39.346274" lon="67.133475"><ele>2444.0</ele></trkpt>
<trkpt lat="39.346359" lon="67.133508"><ele>2448.0</ele></trkpt>
<trkpt lat="39.346405" lon="67.133563"><ele>2448.0</ele></trkpt>
<trkpt lat="39.346464" lon="67.133596"><ele>2449.0</ele></trkpt>
<trkpt lat="39.346482" lon="67.133664"><ele>2451.0</ele></trkpt>
<trkpt lat="39.346518" lon="67.133725"><ele>2454.0</ele></trkpt>
<trkpt lat="39.346579" lon="67.133759"><ele>2450.0</ele></trkpt>
<trkpt lat="39.346641" lon="67.133865"><ele>2455.0</ele></trkpt>
<trkpt lat="39.346706" lon="67.133922"><ele>2452.0</ele></trkpt>
<trkpt lat="39.346738" lon="67.134086"><ele>2452.0</ele></trkpt>
<trkpt lat="39.346734" lon="67.134148"><ele>2450.0</ele></trkpt>
<trkpt lat="39.346754" lon="67.134176"><ele>2451.0</ele></trkpt>
<trkpt lat="39.346732" lon="67.134363"><ele>2448.0</ele></trkpt>
<trkpt lat="39.346702" lon="67.134413"><ele>2446.0</ele></trkpt>
<trkpt lat="39.346679" lon="67.134504"><ele>2448.0</ele></trkpt>
<trkpt lat="39.346687" lon="67.134572"><ele>2445.0</ele></trkpt>
<trkpt lat="39.346703" lon="67.134598"><ele>2444.0</ele></trkpt>
<trkpt lat="39.346733" lon="67.134606"><ele>2444.0</ele></trkpt>
<trkpt lat="39.346797" lon="67.134593"><ele>2440.0</ele></trkpt>
<trkpt lat="39.346857" lon="67.134622"><ele>2440.0</ele></trkpt>
<trkpt lat="39.347050" lon="67.134655"><ele>2430.0</ele></trkpt>
<trkpt lat="39.346884" lon="67.134849"><ele>2436.0</ele></trkpt>
<trkpt lat="39.346868" lon="67.134912"><ele>2436.0</ele></trkpt>
<trkpt lat="39.347180" lon="67.135634"><ele>2427.0</ele></trkpt>
<trkpt lat="39.347208" lon="67.135769"><ele>2424.0</ele></trkpt>
<trkpt lat="39.347252" lon="67.135841"><ele>2422.0</ele></trkpt>
<trkpt lat="39.347290" lon="67.135848"><ele>2417.0</ele></trkpt>
<trkpt lat="39.347302" lon="67.135973"><ele>2417.0</ele></trkpt>
<trkpt lat="39.347341" lon="67.136025"><ele>2415.0</ele></trkpt>
<trkpt lat="39.347375" lon="67.136130"><ele>2412.0</ele></trkpt>
<trkpt lat="39.347373" lon="67.136169"><ele>2406.0</ele></trkpt>
<trkpt lat="39.347408" lon="67.136163"><ele>2405.0</ele></trkpt>
<trkpt lat="39.347426" lon="67.136272"><ele>2403.0</ele></trkpt>
<trkpt lat="39.347452" lon="67.136285"><ele>2404.0</ele></trkpt>
<trkpt lat="39.347483" lon="67.136384"><ele>2398.0</ele></trkpt>
<trkpt lat="39.347559" lon="67.136358"><ele>2395.0</ele></trkpt>
<trkpt lat="39.347536" lon="67.136430"><ele>2394.0</ele></trkpt>
<trkpt lat="39.347551" lon="67.136556"><ele>2394.0</ele></trkpt>
<trkpt lat="39.347586" lon="67.136543"><ele>2393.0</ele></trkpt>
<trkpt lat="39.347689" lon="67.136898"><ele>2376.0</ele></trkpt>
<trkpt lat="39.347804" lon="67.136898"><ele>2376.0</ele></trkpt>
<trkpt lat="39.347932" lon="67.136690"><ele>2374.0</ele></trkpt>
<trkpt lat="39.348147" lon="67.136504"><ele>2371.0</ele></trkpt>
<trkpt lat="39.348234" lon="67.136341"><ele>2370.0</ele></trkpt>
<trkpt lat="39.348336" lon="67.136054"><ele>2364.0</ele></trkpt>
<trkpt lat="39.348340" lon="67.136002"><ele>2365.9</ele></trkpt>
<trkpt lat="39.348396" lon="67.136069"><ele>2360.0</ele></trkpt>
<trkpt lat="39.348481" lon="67.136129"><ele>2358.0</ele></trkpt>
<trkpt lat="39.348506" lon="67.135858"><ele>2355.0</ele></trkpt>
<trkpt lat="39.348580" lon="67.135738"><ele>2351.0</ele></trkpt>
<trkpt lat="39.348675" lon="67.135666"><ele>2350.0</ele></trkpt>
<trkpt lat="39.348681" lon="67.135629"><ele>2349.3</ele></trkpt>
<trkpt lat="39.348943" lon="67.135499"><ele>2343.0</ele></trkpt>
<trkpt lat="39.348954" lon="67.135548"><ele>2343.0</ele></trkpt>
<trkpt lat="39.348931" lon="67.135647"><ele>2340.0</ele></trkpt>
<trkpt lat="39.348940" lon="67.135691"><ele>2337.0</ele></trkpt>
<trkpt lat="39.348980" lon="67.135744"><ele>2336.0</ele></trkpt>
<trkpt lat="39.349102" lon="67.135690"><ele>2333.0</ele></trkpt>
<trkpt lat="39.349143" lon="67.135694"><ele>2328.0</ele></trkpt>
<trkpt lat="39.349177" lon="67.135718"><ele>2328.0</ele></trkpt>
<trkpt lat="39.349150" lon="67.135786"><ele>2329.0</ele></trkpt>
<trkpt lat="39.349161" lon="67.135814"><ele>2328.0</ele></trkpt>
<trkpt lat="39.349196" lon="67.135811"><ele>2328.0</ele></trkpt>
<trkpt lat="39.349307" lon="67.135727"><ele>2321.0</ele></trkpt>
<trkpt lat="39.349440" lon="67.135682"><ele>2317.0</ele></trkpt>
<trkpt lat="39.349609" lon="67.135663"><ele>2312.0</ele></trkpt>
<trkpt lat="39.349700" lon="67.135614"><ele>2308.0</ele></trkpt>
<trkpt lat="39.349768" lon="67.135516"><ele>2307.0</ele></trkpt>
<trkpt lat="39.349949" lon="67.135349"><ele>2309.0</ele></trkpt>
<trkpt lat="39.350025" lon="67.135233"><ele>2310.0</ele></trkpt>
<trkpt lat="39.350095" lon="67.135185"><ele>2304.0</ele></trkpt>
<trkpt lat="39.350128" lon="67.135119"><ele>2300.0</ele></trkpt>
<trkpt lat="39.350308" lon="67.135002"><ele>2292.0</ele></trkpt>
<trkpt lat="39.350448" lon="67.134977"><ele>2286.0</ele></trkpt>
<trkpt lat="39.350725" lon="67.134806"><ele>2276.0</ele></trkpt>
<trkpt lat="39.350768" lon="67.134801"><ele>2274.0</ele></trkpt>
<trkpt lat="39.350866" lon="67.134744"><ele>2271.0</ele></trkpt>
<trkpt lat="39.351068" lon="67.134576"><ele>2264.0</ele></trkpt>
<trkpt lat="39.351183" lon="67.134413"><ele>2260.0</ele></trkpt>
<trkpt lat="39.351237" lon="67.134233"><ele>2256.0</ele></trkpt>
<trkpt lat="39.351239" lon="67.134133"><ele>2256.0</ele></trkpt>
<trkpt lat="39.351265" lon="67.134069"><ele>2254.0</ele></trkpt>
<trkpt lat="39.351336" lon="67.133938"><ele>2252.0</ele></trkpt>
<trkpt lat="39.351383" lon="67.133887"><ele>2250.0</ele></trkpt>
<trkpt lat="39.351434" lon="67.133741"><ele>2247.0</ele></trkpt>
<trkpt lat="39.351467" lon="67.133735"><ele>2246.0</ele></trkpt>
<trkpt lat="39.351484" lon="67.133798"><ele>2246.0</ele></trkpt>
<trkpt lat="39.351451" lon="67.133871"><ele>2245.0</ele></trkpt>
<trkpt lat="39.351452" lon="67.133903"><ele>2248.0</ele></trkpt>
<trkpt lat="39.351477" lon="67.133930"><ele>2247.9</ele></trkpt>
<trkpt lat="39.351472" lon="67.133982"><ele>2247.0</ele></trkpt>
<trkpt lat="39.351523" lon="67.134085"><ele>2244.0</ele></trkpt>
<trkpt lat="39.351566" lon="67.134027"><ele>2237.0</ele></trkpt>
<trkpt lat="39.351640" lon="67.134023"><ele>2236.0</ele></trkpt>
<trkpt lat="39.351639" lon="67.134052"><ele>2236.0</ele></trkpt>
<trkpt lat="39.351695" lon="67.134012"><ele>2234.0</ele></trkpt>
<trkpt lat="39.351715" lon="67.134037"><ele>2232.0</ele></trkpt>
<trkpt lat="39.351711" lon="67.134082"><ele>2230.0</ele></trkpt>
<trkpt lat="39.351753" lon="67.134040"><ele>2232.0</ele></trkpt>
<trkpt lat="39.351795" lon="67.134055"><ele>2229.0</ele></trkpt>
<trkpt lat="39.351789" lon="67.134108"><ele>2229.0</ele></trkpt>
<trkpt lat="39.351811" lon="67.134144"><ele>2228.0</ele></trkpt>
<trkpt lat="39.351910" lon="67.134093"><ele>2225.0</ele></trkpt>
<trkpt lat="39.351948" lon="67.134223"><ele>2219.0</ele></trkpt>
<trkpt lat="39.352037" lon="67.134169"><ele>2214.0</ele></trkpt>
<trkpt lat="39.352074" lon="67.134309"><ele>2212.0</ele></trkpt>
<trkpt lat="39.352116" lon="67.134349"><ele>2208.0</ele></trkpt>
<trkpt lat="39.352202" lon="67.134272"><ele>2204.0</ele></trkpt>
<trkpt lat="39.352314" lon="67.134296"><ele>2202.0</ele></trkpt>
<trkpt lat="39.352325" lon="67.134325"><ele>2201.0</ele></trkpt>
<trkpt lat="39.352288" lon="67.134443"><ele>2199.0</ele></trkpt>
<trkpt lat="39.352296" lon="67.134473"><ele>2196.0</ele></trkpt>
<trkpt lat="39.352364" lon="67.134463"><ele>2189.0</ele></trkpt>
<trkpt lat="39.352379" lon="67.134501"><ele>2190.0</ele></trkpt>
<trkpt lat="39.352378" lon="67.134642"><ele>2191.0</ele></trkpt>
<trkpt lat="39.352416" lon="67.134640"><ele>2188.0</ele></trkpt>
<trkpt lat="39.352470" lon="67.134606"><ele>2184.0</ele></trkpt>
<trkpt lat="39.352548" lon="67.134606"><ele>2183.0</ele></trkpt>
<trkpt lat="39.352540" lon="67.134750"><ele>2180.0</ele></trkpt>
<trkpt lat="39.352471" lon="67.134889"><ele>2180.0</ele></trkpt>
<trkpt lat="39.352476" lon="67.134955"><ele>2174.0</ele></trkpt>
<trkpt lat="39.352503" lon="67.134985"><ele>2169.0</ele></trkpt>
<trkpt lat="39.352485" lon="67.135106"><ele>2169.0</ele></trkpt>
<trkpt lat="39.352536" lon="67.135131"><ele>2168.0</ele></trkpt>
<trkpt lat="39.352543" lon="67.135210"><ele>2166.0</ele></trkpt>
<trkpt lat="39.352591" lon="67.135271"><ele>2160.0</ele></trkpt>
<trkpt lat="39.352653" lon="67.135223"><ele>2164.0</ele></trkpt>
<trkpt lat="39.352684" lon="67.135253"><ele>2164.0</ele></trkpt>
<trkpt lat="39.352722" lon="67.135445"><ele>2156.0</ele></trkpt>
<trkpt lat="39.352736" lon="67.135615"><ele>2156.0</ele></trkpt>
<trkpt lat="39.352750" lon="67.135643"><ele>2155.0</ele></trkpt>
<trkpt lat="39.352820" lon="67.135660"><ele>2154.0</ele></trkpt>
<trkpt lat="39.352963" lon="67.135847"><ele>2156.0</ele></trkpt>
<trkpt lat="39.353011" lon="67.135950"><ele>2150.0</ele></trkpt>
<trkpt lat="39.352996" lon="67.136011"><ele>2152.0</ele></trkpt>
<trkpt lat="39.352993" lon="67.136208"><ele>2154.0</ele></trkpt>
<trkpt lat="39.352933" lon="67.136357"><ele>2152.0</ele></trkpt>
<trkpt lat="39.352621" lon="67.136672"><ele>2145.0</ele></trkpt>
<trkpt lat="39.352484" lon="67.136904"><ele>2135.0</ele></trkpt>
<trkpt lat="39.352488" lon="67.137020"><ele>2130.0</ele></trkpt>
<trkpt lat="39.352564" lon="67.136983"><ele>2126.0</ele></trkpt>
<trkpt lat="39.352734" lon="67.137028"><ele>2120.0</ele></trkpt>
<trkpt lat="39.352679" lon="67.137174"><ele>2118.0</ele></trkpt>
<trkpt lat="39.352681" lon="67.137206"><ele>2112.0</ele></trkpt>
<trkpt lat="39.352700" lon="67.137230"><ele>2112.0</ele></trkpt>
<trkpt lat="39.352696" lon="67.137267"><ele>2112.0</ele></trkpt>
<trkpt lat="39.352634" lon="67.137371"><ele>2108.0</ele></trkpt>
<trkpt lat="39.352618" lon="67.137508"><ele>2104.0</ele></trkpt>
<trkpt lat="39.352573" lon="67.137604"><ele>2103.0</ele></trkpt>
<trkpt lat="39.352504" lon="67.137699"><ele>2096.0</ele></trkpt>
<trkpt lat="39.352482" lon="67.137762"><ele>2094.0</ele></trkpt>
<trkpt lat="39.352490" lon="67.137865"><ele>2094.0</ele></trkpt>
<trkpt lat="39.352549" lon="67.138053"><ele>2092.0</ele></trkpt>
<trkpt lat="39.352581" lon="67.138083"><ele>2089.0</ele></trkpt>
<trkpt lat="39.352637" lon="67.138366"><ele>2087.0</ele></trkpt>
<trkpt lat="39.352692" lon="67.138496"><ele>2087.0</ele></trkpt>
<trkpt lat="39.352701" lon="67.138780"><ele>2086.8</ele></trkpt>
<trkpt lat="39.352648" lon="67.138982"><ele>2083.0</ele></trkpt>
<trkpt lat="39.352522" lon="67.139250"><ele>2077.0</ele></trkpt>
<trkpt lat="39.352511" lon="67.139335"><ele>2076.0</ele></trkpt>
<trkpt lat="39.352407" lon="67.139463"><ele>2073.0</ele></trkpt>
<trkpt lat="39.352360" lon="67.139566"><ele>2073.0</ele></trkpt>
<trkpt lat="39.352395" lon="67.139781"><ele>2069.0</ele></trkpt>
<trkpt lat="39.352383" lon="67.139832"><ele>2069.0</ele></trkpt>
<trkpt lat="39.352392" lon="67.139881"><ele>2067.0</ele></trkpt>
<trkpt lat="39.352342" lon="67.140004"><ele>2064.0</ele></trkpt>
<trkpt lat="39.352347" lon="67.140037"><ele>2064.0</ele></trkpt>
<trkpt lat="39.352404" lon="67.140225"><ele>2064.0</ele></trkpt>
<trkpt lat="39.352455" lon="67.140281"><ele>2064.0</ele></trkpt>
<trkpt lat="39.352466" lon="67.140326"><ele>2064.0</ele></trkpt>
<trkpt lat="39.352502" lon="67.140339"><ele>2062.0</ele></trkpt>
<trkpt lat="39.352543" lon="67.140388"><ele>2058.0</ele></trkpt>
<trkpt lat="39.352555" lon="67.140431"><ele>2056.0</ele></trkpt>
<trkpt lat="39.352585" lon="67.140421"><ele>2058.0</ele></trkpt>
<trkpt lat="39.352614" lon="67.140435"><ele>2057.0</ele></trkpt>
<trkpt lat="39.352659" lon="67.140497"><ele>2055.0</ele></trkpt>
<trkpt lat="39.352792" lon="67.140583"><ele>2051.0</ele></trkpt>
<trkpt lat="39.353002" lon="67.140762"><ele>2045.0</ele></trkpt>
<trkpt lat="39.353073" lon="67.140768"><ele>2040.0</ele></trkpt>
<trkpt lat="39.353126" lon="67.140810"><ele>2040.0</ele></trkpt>
<trkpt lat="39.353195" lon="67.140835"><ele>2037.0</ele></trkpt>
<trkpt lat="39.353566" lon="67.141123"><ele>2028.0</ele></trkpt>
<trkpt lat="39.353795" lon="67.141253"><ele>2020.0</ele></trkpt>
<trkpt lat="39.353901" lon="67.141346"><ele>2019.0</ele></trkpt>
<trkpt lat="39.354033" lon="67.141411"><ele>2013.0</ele></trkpt>
<trkpt lat="39.354234" lon="67.141550"><ele>2010.0</ele></trkpt>
<trkpt lat="39.354272" lon="67.141606"><ele>2006.0</ele></trkpt>
<trkpt lat="39.354305" lon="67.141614"><ele>2007.0</ele></trkpt>
<trkpt lat="39.354394" lon="67.141704"><ele>2004.0</ele></trkpt>
<trkpt lat="39.354413" lon="67.141821"><ele>2003.0</ele></trkpt>
<trkpt lat="39.354438" lon="67.141788"><ele>1998.0</ele></trkpt>
<trkpt lat="39.354516" lon="67.141908"><ele>2000.0</ele></trkpt>
<trkpt lat="39.354583" lon="67.142040"><ele>1995.0</ele></trkpt>
<trkpt lat="39.354602" lon="67.142114"><ele>1995.0</ele></trkpt>
<trkpt lat="39.354652" lon="67.142193"><ele>1994.0</ele></trkpt>
<trkpt lat="39.354685" lon="67.142214"><ele>1991.0</ele></trkpt>
<trkpt lat="39.354685" lon="67.142288"><ele>1989.0</ele></trkpt>
<trkpt lat="39.354753" lon="67.142286"><ele>1989.0</ele></trkpt>
<trkpt lat="39.354797" lon="67.142349"><ele>1986.0</ele></trkpt>
<trkpt lat="39.354823" lon="67.142422"><ele>1985.0</ele></trkpt>
<trkpt lat="39.354925" lon="67.142495"><ele>1980.0</ele></trkpt>
<trkpt lat="39.355016" lon="67.142376"><ele>1971.0</ele></trkpt>
<trkpt lat="39.355011" lon="67.142290"><ele>1968.0</ele></trkpt>
<trkpt lat="39.355028" lon="67.142265"><ele>1968.0</ele></trkpt>
<trkpt lat="39.355074" lon="67.142252"><ele>1964.0</ele></trkpt>
<trkpt lat="39.355245" lon="67.142361"><ele>1960.0</ele></trkpt>
<trkpt lat="39.355293" lon="67.142358"><ele>1962.0</ele></trkpt>
<trkpt lat="39.355325" lon="67.142393"><ele>1961.0</ele></trkpt>
<trkpt lat="39.355373" lon="67.142339"><ele>1953.0</ele></trkpt>
<trkpt lat="39.355459" lon="67.142415"><ele>1954.0</ele></trkpt>
<trkpt lat="39.355492" lon="67.142406"><ele>1954.0</ele></trkpt>
<trkpt lat="39.355579" lon="67.142443"><ele>1948.0</ele></trkpt>
<trkpt lat="39.355754" lon="67.142458"><ele>1941.0</ele></trkpt>
<trkpt lat="39.355816" lon="67.142494"><ele>1937.0</ele></trkpt>
<trkpt lat="39.355886" lon="67.142477"><ele>1935.0</ele></trkpt>
<trkpt lat="39.355906" lon="67.142368"><ele>1934.0</ele></trkpt>
<trkpt lat="39.355855" lon="67.142251"><ele>1930.0</ele></trkpt>
<trkpt lat="39.355886" lon="67.142072"><ele>1924.0</ele></trkpt>
<trkpt lat="39.355846" lon="67.141899"><ele>1916.0</ele></trkpt>
<trkpt lat="39.355893" lon="67.141824"><ele>1916.0</ele></trkpt>
<trkpt lat="39.355817" lon="67.141572"><ele>1915.0</ele></trkpt>
<trkpt lat="39.355823" lon="67.141526"><ele>1912.0</ele></trkpt>
<trkpt lat="39.355869" lon="67.141518"><ele>1910.0</ele></trkpt>
<trkpt lat="39.355899" lon="67.141451"><ele>1910.0</ele></trkpt>
<trkpt lat="39.355903" lon="67.141259"><ele>1902.0</ele></trkpt>
<trkpt lat="39.355888" lon="67.141165"><ele>1901.0</ele></trkpt>
<trkpt lat="39.355964" lon="67.141168"><ele>1900.0</ele></trkpt>
<trkpt lat="39.356070" lon="67.141269"><ele>1897.0</ele></trkpt>
<trkpt lat="39.356101" lon="67.141280"><ele>1896.0</ele></trkpt>
<trkpt lat="39.356162" lon="67.141357"><ele>1896.0</ele></trkpt>
<trkpt lat="39.356190" lon="67.141342"><ele>1894.0</ele></trkpt>
<trkpt lat="39.356251" lon="67.141203"><ele>1890.0</ele></trkpt>
<trkpt lat="39.356310" lon="67.141162"><ele>1890.2</ele></trkpt>
<trkpt lat="39.356327" lon="67.141036"><ele>1887.0</ele></trkpt>
<trkpt lat="39.356364" lon="67.140980"><ele>1887.0</ele></trkpt>
<trkpt lat="39.356355" lon="67.140941"><ele>1884.0</ele></trkpt>
<trkpt lat="39.356426" lon="67.141065"><ele>1885.0</ele></trkpt>
<trkpt lat="39.356480" lon="67.141094"><ele>1884.0</ele></trkpt>
<trkpt lat="39.356507" lon="67.141076"><ele>1881.0</ele></trkpt>
<trkpt lat="39.356535" lon="67.141095"><ele>1880.0</ele></trkpt>
<trkpt lat="39.356552" lon="67.141193"><ele>1879.0</ele></trkpt>
<trkpt lat="39.356519" lon="67.141372"><ele>1876.0</ele></trkpt>
<trkpt lat="39.356567" lon="67.141527"><ele>1875.0</ele></trkpt>
<trkpt lat="39.356653" lon="67.141635"><ele>1872.0</ele></trkpt>
<trkpt lat="39.356693" lon="67.141652"><ele>1872.0</ele></trkpt>
<trkpt lat="39.356739" lon="67.141726"><ele>1870.0</ele></trkpt>
<trkpt lat="39.356792" lon="67.141757"><ele>1868.0</ele></trkpt>
<trkpt lat="39.356825" lon="67.141863"><ele>1867.0</ele></trkpt>
<trkpt lat="39.356920" lon="67.141915"><ele>1865.0</ele></trkpt>
<trkpt lat="39.356941" lon="67.141946"><ele>1865.0</ele></trkpt>
<trkpt lat="39.357020" lon="67.142178"><ele>1864.0</ele></trkpt>
<trkpt lat="39.357206" lon="67.142561"><ele>1862.0</ele></trkpt>
<trkpt lat="39.357473" lon="67.142720"><ele>1857.0</ele></trkpt>
<trkpt lat="39.357634" lon="67.142876"><ele>1852.0</ele></trkpt>
<trkpt lat="39.357762" lon="67.143057"><ele>1850.0</ele></trkpt>
<trkpt lat="39.357804" lon="67.143076"><ele>1847.0</ele></trkpt>
<trkpt lat="39.357820" lon="67.143110"><ele>1846.0</ele></trkpt>
<trkpt lat="39.357939" lon="67.143166"><ele>1843.0</ele></trkpt>
<trkpt lat="39.358004" lon="67.143256"><ele>1842.0</ele></trkpt>
<trkpt lat="39.358078" lon="67.143294"><ele>1841.0</ele></trkpt>
<trkpt lat="39.358171" lon="67.143447"><ele>1838.0</ele></trkpt>
<trkpt lat="39.358181" lon="67.143491"><ele>1837.9</ele></trkpt>
<trkpt lat="39.358259" lon="67.143540"><ele>1836.0</ele></trkpt>
<trkpt lat="39.358307" lon="67.143593"><ele>1836.0</ele></trkpt>
<trkpt lat="39.358344" lon="67.143764"><ele>1833.0</ele></trkpt>
<trkpt lat="39.358444" lon="67.143865"><ele>1830.0</ele></trkpt>
<trkpt lat="39.358464" lon="67.143897"><ele>1832.0</ele></trkpt>
<trkpt lat="39.358467" lon="67.143939"><ele>1828.0</ele></trkpt>
<trkpt lat="39.358520" lon="67.144031"><ele>1828.0</ele></trkpt>
<trkpt lat="39.358639" lon="67.144080"><ele>1825.0</ele></trkpt>
<trkpt lat="39.358685" lon="67.144135"><ele>1823.0</ele></trkpt>
<trkpt lat="39.358715" lon="67.144139"><ele>1821.0</ele></trkpt>
<trkpt lat="39.358892" lon="67.144279"><ele>1818.0</ele></trkpt>
<trkpt lat="39.358918" lon="67.144346"><ele>1816.0</ele></trkpt>
<trkpt lat="39.358925" lon="67.144427"><ele>1816.0</ele></trkpt>
<trkpt lat="39.359002" lon="67.144491"><ele>1815.0</ele></trkpt>
<trkpt lat="39.359007" lon="67.144543"><ele>1812.0</ele></trkpt>
<trkpt lat="39.359040" lon="67.144600"><ele>1808.0</ele></trkpt>
<trkpt lat="39.359124" lon="67.144594"><ele>1808.0</ele></trkpt>
<trkpt lat="39.359155" lon="67.144621"><ele>1808.0</ele></trkpt>
<trkpt lat="39.359173" lon="67.144727"><ele>1806.0</ele></trkpt>
<trkpt lat="39.359210" lon="67.144785"><ele>1804.0</ele></trkpt>
<trkpt lat="39.359277" lon="67.144813"><ele>1803.0</ele></trkpt>
<trkpt lat="39.359476" lon="67.144983"><ele>1802.0</ele></trkpt>
<trkpt lat="39.359550" lon="67.145056"><ele>1802.0</ele></trkpt>
<trkpt lat="39.359616" lon="67.145165"><ele>1800.0</ele></trkpt>
<trkpt lat="39.359836" lon="67.145251"><ele>1797.6</ele></trkpt>
<trkpt lat="39.359893" lon="67.145327"><ele>1797.0</ele></trkpt>
<trkpt lat="39.360048" lon="67.145399"><ele>1797.0</ele></trkpt>
<trkpt lat="39.360101" lon="67.145453"><ele>1794.0</ele></trkpt>
<trkpt lat="39.360318" lon="67.145522"><ele>1792.0</ele></trkpt>
<trkpt lat="39.360463" lon="67.145654"><ele>1791.0</ele></trkpt>
<trkpt lat="39.360748" lon="67.145662"><ele>1790.0</ele></trkpt>
<trkpt lat="39.360808" lon="67.145699"><ele>1788.0</ele></trkpt>
<trkpt lat="39.361093" lon="67.145733"><ele>1783.0</ele></trkpt>
<trkpt lat="39.361216" lon="67.145829"><ele>1782.0</ele></trkpt>
<trkpt lat="39.361269" lon="67.145979"><ele>1782.0</ele></trkpt>
<trkpt lat="39.361353" lon="67.146060"><ele>1782.0</ele></trkpt>
<trkpt lat="39.361393" lon="67.146146"><ele>1777.0</ele></trkpt>
<trkpt lat="39.361417" lon="67.146169"><ele>1775.0</ele></trkpt>
<trkpt lat="39.361454" lon="67.146168"><ele>1776.0</ele></trkpt>
<trkpt lat="39.361464" lon="67.146296"><ele>1770.0</ele></trkpt>
<trkpt lat="39.361520" lon="67.146287"><ele>1764.0</ele></trkpt>
<trkpt lat="39.361579" lon="67.146249"><ele>1764.0</ele></trkpt>
<trkpt lat="39.361610" lon="67.146264"><ele>1762.0</ele></trkpt>
<trkpt lat="39.361638" lon="67.146318"><ele>1762.0</ele></trkpt>
<trkpt lat="39.361635" lon="67.146362"><ele>1759.0</ele></trkpt>
<trkpt lat="39.361670" lon="67.146367"><ele>1758.0</ele></trkpt>
<trkpt lat="39.361750" lon="67.146296"><ele>1755.0</ele></trkpt>
<trkpt lat="39.361817" lon="67.146380"><ele>1749.0</ele></trkpt>
<trkpt lat="39.361890" lon="67.146325"><ele>1745.0</ele></trkpt>
<trkpt lat="39.361919" lon="67.146359"><ele>1740.0</ele></trkpt>
<trkpt lat="39.361954" lon="67.146370"><ele>1744.0</ele></trkpt>
<trkpt lat="39.362042" lon="67.146504"><ele>1737.0</ele></trkpt>
<trkpt lat="39.362170" lon="67.146434"><ele>1732.0</ele></trkpt>
<trkpt lat="39.362257" lon="67.146310"><ele>1728.0</ele></trkpt>
<trkpt lat="39.362307" lon="67.146324"><ele>1727.0</ele></trkpt>
<trkpt lat="39.362379" lon="67.146404"><ele>1728.0</ele></trkpt>
<trkpt lat="39.362547" lon="67.146521"><ele>1718.0</ele></trkpt>
<trkpt lat="39.362572" lon="67.146449"><ele>1716.0</ele></trkpt>
<trkpt lat="39.362608" lon="67.146425"><ele>1713.0</ele></trkpt>
<trkpt lat="39.362659" lon="67.146465"><ele>1716.0</ele></trkpt>
<trkpt lat="39.362651" lon="67.146513"><ele>1710.0</ele></trkpt>
<trkpt lat="39.362662" lon="67.146566"><ele>1714.0</ele></trkpt>
<trkpt lat="39.362639" lon="67.146745"><ele>1710.0</ele></trkpt>
<trkpt lat="39.362734" lon="67.146734"><ele>1708.0</ele></trkpt>
<trkpt lat="39.362830" lon="67.146672"><ele>1707.0</ele></trkpt>
<trkpt lat="39.362871" lon="67.146614"><ele>1704.0</ele></trkpt>
<trkpt lat="39.362890" lon="67.146642"><ele>1704.0</ele></trkpt>
<trkpt lat="39.362886" lon="67.146680"><ele>1704.0</ele></trkpt>
<trkpt lat="39.362910" lon="67.146713"><ele>1703.0</ele></trkpt>
<trkpt lat="39.362971" lon="67.146720"><ele>1700.0</ele></trkpt>
<trkpt lat="39.362966" lon="67.146756"><ele>1701.0</ele></trkpt>
<trkpt lat="39.362930" lon="67.146775"><ele>1700.0</ele></trkpt>
<trkpt lat="39.362913" lon="67.146807"><ele>1699.0</ele></trkpt>
<trkpt lat="39.362919" lon="67.146878"><ele>1696.0</ele></trkpt>
<trkpt lat="39.363107" lon="67.146863"><ele>1692.0</ele></trkpt>
<trkpt lat="39.363213" lon="67.146886"><ele>1689.0</ele></trkpt>
<trkpt lat="39.363386" lon="67.146890"><ele>1689.0</ele></trkpt>
<trkpt lat="39.363564" lon="67.146858"><ele>1683.0</ele></trkpt>
<trkpt lat="39.363679" lon="67.146873"><ele>1683.0</ele></trkpt>
<trkpt lat="39.363783" lon="67.146923"><ele>1681.0</ele></trkpt>
<trkpt lat="39.363915" lon="67.147126"><ele>1676.0</ele></trkpt>
<trkpt lat="39.363981" lon="67.147170"><ele>1680.0</ele></trkpt>
<trkpt lat="39.363928" lon="67.147192"><ele>1679.0</ele></trkpt>
<trkpt lat="39.363869" lon="67.147190"><ele>1676.0</ele></trkpt>
<trkpt lat="39.363833" lon="67.147212"><ele>1675.0</ele></trkpt>
<trkpt lat="39.363772" lon="67.147319"><ele>1676.0</ele></trkpt>
<trkpt lat="39.363581" lon="67.147386"><ele>1669.0</ele></trkpt>
<trkpt lat="39.363728" lon="67.147624"><ele>1659.0</ele></trkpt>
<trkpt lat="39.363600" lon="67.147703"><ele>1653.0</ele></trkpt>
<trkpt lat="39.363482" lon="67.147825"><ele>1649.0</ele></trkpt>
<trkpt lat="39.363884" lon="67.148185"><ele>1638.0</ele></trkpt>
<trkpt lat="39.364012" lon="67.148348"><ele>1630.0</ele></trkpt>
<trkpt lat="39.364013" lon="67.148382"><ele>1628.0</ele></trkpt>
<trkpt lat="39.363990" lon="67.148406"><ele>1628.0</ele></trkpt>
<trkpt lat="39.364008" lon="67.148453"><ele>1628.0</ele></trkpt>
<trkpt lat="39.364039" lon="67.148472"><ele>1625.0</ele></trkpt>
<trkpt lat="39.364016" lon="67.148515"><ele>1625.0</ele></trkpt>
<trkpt lat="39.364038" lon="67.148597"><ele>1620.0</ele></trkpt>
<trkpt lat="39.363993" lon="67.148612"><ele>1622.0</ele></trkpt>
<trkpt lat="39.364030" lon="67.148760"><ele>1615.0</ele></trkpt>
<trkpt lat="39.364107" lon="67.148867"><ele>1608.0</ele></trkpt>
<trkpt lat="39.364036" lon="67.148866"><ele>1610.0</ele></trkpt>
<trkpt lat="39.364005" lon="67.148900"><ele>1611.7</ele></trkpt>
<trkpt lat="39.363981" lon="67.148889"><ele>1610.0</ele></trkpt>
<trkpt lat="39.363972" lon="67.148976"><ele>1608.0</ele></trkpt>
<trkpt lat="39.364049" lon="67.149196"><ele>1603.0</ele></trkpt>
<trkpt lat="39.364071" lon="67.149337"><ele>1596.0</ele></trkpt>
<trkpt lat="39.364035" lon="67.149338"><ele>1594.0</ele></trkpt>
<trkpt lat="39.364011" lon="67.149362"><ele>1593.0</ele></trkpt>
<trkpt lat="39.364038" lon="67.149608"><ele>1584.0</ele></trkpt>
<trkpt lat="39.363950" lon="67.149642"><ele>1581.0</ele></trkpt>
<trkpt lat="39.363950" lon="67.149828"><ele>1578.0</ele></trkpt>
<trkpt lat="39.363929" lon="67.149896"><ele>1577.0</ele></trkpt>
<trkpt lat="39.363958" lon="67.149944"><ele>1576.0</ele></trkpt>
<trkpt lat="39.363961" lon="67.150020"><ele>1573.0</ele></trkpt>
<trkpt lat="39.364028" lon="67.150117"><ele>1570.0</ele></trkpt>
<trkpt lat="39.363999" lon="67.150140"><ele>1570.0</ele></trkpt>
<trkpt lat="39.364001" lon="67.150195"><ele>1568.0</ele></trkpt>
<trkpt lat="39.363953" lon="67.150202"><ele>1568.0</ele></trkpt>
<trkpt lat="39.363909" lon="67.150260"><ele>1567.0</ele></trkpt>
<trkpt lat="39.363915" lon="67.150315"><ele>1566.0</ele></trkpt>
<trkpt lat="39.363943" lon="67.150379"><ele>1563.0</ele></trkpt>
<trkpt lat="39.364032" lon="67.150454"><ele>1560.0</ele></trkpt>
<trkpt lat="39.364037" lon="67.150491"><ele>1560.0</ele></trkpt>
<trkpt lat="39.364038" lon="67.150522"><ele>1558.0</ele></trkpt>
<trkpt lat="39.364019" lon="67.150547"><ele>1556.0</ele></trkpt>
<trkpt lat="39.363930" lon="67.150595"><ele>1554.0</ele></trkpt>
<trkpt lat="39.363941" lon="67.150665"><ele>1557.0</ele></trkpt>
<trkpt lat="39.363982" lon="67.150753"><ele>1550.0</ele></trkpt>
<trkpt lat="39.363984" lon="67.150898"><ele>1548.0</ele></trkpt>
<trkpt lat="39.364031" lon="67.151003"><ele>1543.0</ele></trkpt>
<trkpt lat="39.364006" lon="67.151038"><ele>1540.0</ele></trkpt>
<trkpt lat="39.363971" lon="67.151050"><ele>1540.0</ele></trkpt>
<trkpt lat="39.363997" lon="67.151111"><ele>1541.0</ele></trkpt>
<trkpt lat="39.364042" lon="67.151156"><ele>1539.0</ele></trkpt>
<trkpt lat="39.364063" lon="67.151278"><ele>1533.0</ele></trkpt>
<trkpt lat="39.364035" lon="67.151307"><ele>1532.0</ele></trkpt>
<trkpt lat="39.364064" lon="67.151378"><ele>1531.0</ele></trkpt>
<trkpt lat="39.364058" lon="67.151416"><ele>1530.0</ele></trkpt>
<trkpt lat="39.363979" lon="67.151560"><ele>1530.0</ele></trkpt>
<trkpt lat="39.364019" lon="67.151581"><ele>1530.0</ele></trkpt>
<trkpt lat="39.364026" lon="67.151608"><ele>1530.0</ele></trkpt>
<trkpt lat="39.364006" lon="67.151635"><ele>1527.0</ele></trkpt>
<trkpt lat="39.363955" lon="67.151653"><ele>1526.0</ele></trkpt>
<trkpt lat="39.363944" lon="67.151691"><ele>1524.0</ele></trkpt>
<trkpt lat="39.364018" lon="67.151746"><ele>1524.0</ele></trkpt>
<trkpt lat="39.364010" lon="67.151818"><ele>1522.0</ele></trkpt>
<trkpt lat="39.363938" lon="67.151857"><ele>1521.0</ele></trkpt>
<trkpt lat="39.363931" lon="67.151893"><ele>1522.0</ele></trkpt>
<trkpt lat="39.364024" lon="67.151940"><ele>1518.0</ele></trkpt>
<trkpt lat="39.363891" lon="67.152098"><ele>1515.0</ele></trkpt>
<trkpt lat="39.363939" lon="67.152238"><ele>1509.0</ele></trkpt>
<trkpt lat="39.363913" lon="67.152270"><ele>1509.0</ele></trkpt>
<trkpt lat="39.363900" lon="67.152341"><ele>1509.0</ele></trkpt>
<trkpt lat="39.363881" lon="67.152367"><ele>1509.0</ele></trkpt>
<trkpt lat="39.363823" lon="67.152395"><ele>1507.0</ele></trkpt>
<trkpt lat="39.363892" lon="67.152502"><ele>1500.0</ele></trkpt>
<trkpt lat="39.363891" lon="67.152534"><ele>1500.0</ele></trkpt>
<trkpt lat="39.363857" lon="67.152589"><ele>1501.0</ele></trkpt>
<trkpt lat="39.363812" lon="67.152619"><ele>1500.0</ele></trkpt>
<trkpt lat="39.363793" lon="67.152661"><ele>1500.0</ele></trkpt>
<trkpt lat="39.363829" lon="67.152688"><ele>1499.0</ele></trkpt>
<trkpt lat="39.363827" lon="67.152773"><ele>1496.0</ele></trkpt>
<trkpt lat="39.363810" lon="67.152800"><ele>1492.0</ele></trkpt>
<trkpt lat="39.363821" lon="67.152837"><ele>1494.0</ele></trkpt>
<trkpt lat="39.363723" lon="67.152962"><ele>1490.5</ele></trkpt>
<trkpt lat="39.363704" lon="67.153030"><ele>1488.0</ele></trkpt>
<trkpt lat="39.363628" lon="67.153106"><ele>1488.0</ele></trkpt>
<trkpt lat="39.363639" lon="67.153179"><ele>1485.0</ele></trkpt>
<trkpt lat="39.363619" lon="67.153250"><ele>1481.0</ele></trkpt>
<trkpt lat="39.363618" lon="67.153328"><ele>1480.0</ele></trkpt>
<trkpt lat="39.363580" lon="67.153509"><ele>1476.1</ele></trkpt>
<trkpt lat="39.363543" lon="67.153559"><ele>1475.0</ele></trkpt>
<trkpt lat="39.363516" lon="67.153661"><ele>1473.0</ele></trkpt>
<trkpt lat="39.363512" lon="67.153698"><ele>1473.0</ele></trkpt>
<trkpt lat="39.363529" lon="67.153740"><ele>1473.0</ele></trkpt>
<trkpt lat="39.363494" lon="67.153816"><ele>1470.0</ele></trkpt>
<trkpt lat="39.363429" lon="67.154142"><ele>1465.7</ele></trkpt>
<trkpt lat="39.363382" lon="67.154236"><ele>1461.0</ele></trkpt>
<trkpt lat="39.363354" lon="67.154348"><ele>1458.0</ele></trkpt>
<trkpt lat="39.363281" lon="67.154467"><ele>1458.0</ele></trkpt>
<trkpt lat="39.363248" lon="67.154486"><ele>1457.0</ele></trkpt>
<trkpt lat="39.363230" lon="67.154531"><ele>1455.0</ele></trkpt>
<trkpt lat="39.363224" lon="67.154582"><ele>1454.0</ele></trkpt>
<trkpt lat="39.363253" lon="67.154622"><ele>1453.0</ele></trkpt>
<trkpt lat="39.363244" lon="67.154661"><ele>1453.5</ele></trkpt>
<trkpt lat="39.363255" lon="67.154702"><ele>1453.0</ele></trkpt>
<trkpt lat="39.363305" lon="67.154706"><ele>1453.0</ele></trkpt>
<trkpt lat="39.363326" lon="67.154744"><ele>1449.0</ele></trkpt>
<trkpt lat="39.363214" lon="67.154925"><ele>1444.0</ele></trkpt>
<trkpt lat="39.363183" lon="67.155082"><ele>1442.0</ele></trkpt>
<trkpt lat="39.363121" lon="67.155150"><ele>1438.0</ele></trkpt>
<trkpt lat="39.363122" lon="67.155195"><ele>1438.6</ele></trkpt>
<trkpt lat="39.363084" lon="67.155292"><ele>1435.0</ele></trkpt>
<trkpt lat="39.363097" lon="67.155347"><ele>1434.0</ele></trkpt>
<trkpt lat="39.363063" lon="67.155490"><ele>1430.0</ele></trkpt>
<trkpt lat="39.363094" lon="67.155545"><ele>1428.0</ele></trkpt>
<trkpt lat="39.363341" lon="67.155564"><ele>1423.0</ele></trkpt>
<trkpt lat="39.363360" lon="67.155670"><ele>1422.0</ele></trkpt>
<trkpt lat="39.363323" lon="67.155766"><ele>1420.0</ele></trkpt>
<trkpt lat="39.363322" lon="67.155808"><ele>1418.0</ele></trkpt>
<trkpt lat="39.363398" lon="67.155824"><ele>1416.0</ele></trkpt>
<trkpt lat="39.363442" lon="67.155859"><ele>1413.0</ele></trkpt>
<trkpt lat="39.363324" lon="67.156049"><ele>1410.0</ele></trkpt>
<trkpt lat="39.363181" lon="67.156155"><ele>1408.0</ele></trkpt>
<trkpt lat="39.363165" lon="67.156185"><ele>1408.0</ele></trkpt>
<trkpt lat="39.363232" lon="67.156207"><ele>1404.0</ele></trkpt>
<trkpt lat="39.363253" lon="67.156241"><ele>1404.0</ele></trkpt>
<trkpt lat="39.363457" lon="67.156295"><ele>1401.0</ele></trkpt>
<trkpt lat="39.363477" lon="67.156327"><ele>1400.0</ele></trkpt>
<trkpt lat="39.363422" lon="67.156404"><ele>1397.0</ele></trkpt>
<trkpt lat="39.363418" lon="67.156445"><ele>1396.0</ele></trkpt>
<trkpt lat="39.363397" lon="67.156477"><ele>1395.0</ele></trkpt>
<trkpt lat="39.363401" lon="67.156554"><ele>1393.0</ele></trkpt>
<trkpt lat="39.363436" lon="67.156584"><ele>1392.0</ele></trkpt>
<trkpt lat="39.363444" lon="67.156613"><ele>1392.0</ele></trkpt>
<trkpt lat="39.363416" lon="67.156681"><ele>1389.0</ele></trkpt>
<trkpt lat="39.363406" lon="67.156849"><ele>1383.0</ele></trkpt>
<trkpt lat="39.363422" lon="67.156891"><ele>1383.0</ele></trkpt>
<trkpt lat="39.363423" lon="67.156954"><ele>1379.0</ele></trkpt>
<trkpt lat="39.363482" lon="67.157093"><ele>1380.0</ele></trkpt>
<trkpt lat="39.363528" lon="67.157262"><ele>1377.0</ele></trkpt>
<trkpt lat="39.363538" lon="67.157388"><ele>1374.0</ele></trkpt>
<trkpt lat="39.363578" lon="67.157462"><ele>1373.0</ele></trkpt>
<trkpt lat="39.363588" lon="67.157536"><ele>1373.0</ele></trkpt>
<trkpt lat="39.363638" lon="67.157636"><ele>1371.0</ele></trkpt>
<trkpt lat="39.363610" lon="67.157704"><ele>1370.0</ele></trkpt>
<trkpt lat="39.363634" lon="67.157773"><ele>1370.0</ele></trkpt>
<trkpt lat="39.363627" lon="67.157855"><ele>1367.0</ele></trkpt>
<trkpt lat="39.363552" lon="67.157979"><ele>1366.0</ele></trkpt>
<trkpt lat="39.363577" lon="67.158044"><ele>1365.0</ele></trkpt>
<trkpt lat="39.363559" lon="67.158071"><ele>1364.0</ele></trkpt>
<trkpt lat="39.363566" lon="67.158141"><ele>1362.0</ele></trkpt>
<trkpt lat="39.363552" lon="67.158169"><ele>1364.0</ele></trkpt>
<trkpt lat="39.363457" lon="67.158198"><ele>1360.0</ele></trkpt>
<trkpt lat="39.363387" lon="67.158191"><ele>1359.0</ele></trkpt>
<trkpt lat="39.363360" lon="67.158250"><ele>1356.0</ele></trkpt>
<trkpt lat="39.363348" lon="67.158357"><ele>1358.0</ele></trkpt>
<trkpt lat="39.363372" lon="67.158432"><ele>1356.0</ele></trkpt>
<trkpt lat="39.363401" lon="67.158468"><ele>1354.0</ele></trkpt>
<trkpt lat="39.363337" lon="67.158502"><ele>1352.0</ele></trkpt>
<trkpt lat="39.363338" lon="67.158541"><ele>1352.0</ele></trkpt>
<trkpt lat="39.363409" lon="67.158682"><ele>1348.0</ele></trkpt>
<trkpt lat="39.363443" lon="67.158693"><ele>1348.0</ele></trkpt>
<trkpt lat="39.363440" lon="67.158734"><ele>1348.0</ele></trkpt>
<trkpt lat="39.363377" lon="67.158771"><ele>1339.0</ele></trkpt>
<trkpt lat="39.363432" lon="67.158885"><ele>1344.0</ele></trkpt>
<trkpt lat="39.363471" lon="67.158868"><ele>1341.0</ele></trkpt>
<trkpt lat="39.363567" lon="67.158761"><ele>1331.0</ele></trkpt>
<trkpt lat="39.363685" lon="67.158688"><ele>1326.0</ele></trkpt>
<trkpt lat="39.363752" lon="67.158676"><ele>1326.0</ele></trkpt>
<trkpt lat="39.363915" lon="67.158714"><ele>1324.0</ele></trkpt>
<trkpt lat="39.363950" lon="67.158758"><ele>1325.0</ele></trkpt>
<trkpt lat="39.363928" lon="67.158791"><ele>1323.0</ele></trkpt>
<trkpt lat="39.363786" lon="67.158888"><ele>1322.0</ele></trkpt>
<trkpt lat="39.363759" lon="67.158926"><ele>1322.0</ele></trkpt>
<trkpt lat="39.363670" lon="67.159083"><ele>1320.0</ele></trkpt>
<trkpt lat="39.363625" lon="67.159263"><ele>1317.0</ele></trkpt>
<trkpt lat="39.363578" lon="67.159352"><ele>1314.0</ele></trkpt>
<trkpt lat="39.363448" lon="67.159466"><ele>1314.0</ele></trkpt>
<trkpt lat="39.363341" lon="67.159517"><ele>1310.0</ele></trkpt>
<trkpt lat="39.363298" lon="67.159570"><ele>1308.0</ele></trkpt>
<trkpt lat="39.363209" lon="67.159634"><ele>1304.0</ele></trkpt>
<trkpt lat="39.363253" lon="67.159673"><ele>1302.0</ele></trkpt>
<trkpt lat="39.363223" lon="67.159708"><ele>1302.0</ele></trkpt>
<trkpt lat="39.363149" lon="67.159708"><ele>1300.0</ele></trkpt>
<trkpt lat="39.363020" lon="67.159764"><ele>1296.0</ele></trkpt>
<trkpt lat="39.362951" lon="67.159836"><ele>1292.0</ele></trkpt>
<trkpt lat="39.362911" lon="67.160000"><ele>1290.5</ele></trkpt>
<trkpt lat="39.362847" lon="67.160136"><ele>1291.0</ele></trkpt>
<trkpt lat="39.362867" lon="67.160210"><ele>1290.0</ele></trkpt>
<trkpt lat="39.362868" lon="67.160286"><ele>1290.0</ele></trkpt>
<trkpt lat="39.362721" lon="67.160607"><ele>1281.0</ele></trkpt>
<trkpt lat="39.362688" lon="67.160760"><ele>1280.0</ele></trkpt>
<trkpt lat="39.362685" lon="67.160853"><ele>1282.0</ele></trkpt>
<trkpt lat="39.362642" lon="67.160938"><ele>1282.0</ele></trkpt>
<trkpt lat="39.362641" lon="67.161019"><ele>1280.0</ele></trkpt>
<trkpt lat="39.362610" lon="67.161086"><ele>1278.0</ele></trkpt>
<trkpt lat="39.362563" lon="67.161132"><ele>1278.0</ele></trkpt>
<trkpt lat="39.362498" lon="67.161292"><ele>1272.0</ele></trkpt>
<trkpt lat="39.362467" lon="67.161503"><ele>1270.0</ele></trkpt>
<trkpt lat="39.362505" lon="67.161563"><ele>1269.0</ele></trkpt>
<trkpt lat="39.362500" lon="67.161639"><ele>1269.0</ele></trkpt>
<trkpt lat="39.362524" lon="67.161766"><ele>1266.0</ele></trkpt>
<trkpt lat="39.362637" lon="67.161982"><ele>1260.0</ele></trkpt>
<trkpt lat="39.362627" lon="67.162001"><ele>1265.0</ele></trkpt>
<trkpt lat="39.362645" lon="67.162045"><ele>1264.0</ele></trkpt>
<trkpt lat="39.362613" lon="67.162046"><ele>1263.0</ele></trkpt>
<trkpt lat="39.362682" lon="67.162105"><ele>1263.0</ele></trkpt>
<trkpt lat="39.362750" lon="67.162275"><ele>1261.0</ele></trkpt>
<trkpt lat="39.362791" lon="67.162571"><ele>1258.0</ele></trkpt>
<trkpt lat="39.362823" lon="67.162624"><ele>1255.0</ele></trkpt>
<trkpt lat="39.362838" lon="67.162839"><ele>1257.0</ele></trkpt>
<trkpt lat="39.362874" lon="67.162890"><ele>1256.0</ele></trkpt>
<trkpt lat="39.362884" lon="67.162934"><ele>1256.0</ele></trkpt>
<trkpt lat="39.362875" lon="67.162965"><ele>1256.0</ele></trkpt>
<trkpt lat="39.362903" lon="67.163132"><ele>1254.0</ele></trkpt>
<trkpt lat="39.362921" lon="67.163168"><ele>1252.0</ele></trkpt>
<trkpt lat="39.362923" lon="67.163275"><ele>1250.0</ele></trkpt>
<trkpt lat="39.362949" lon="67.163347"><ele>1250.0</ele></trkpt>
<trkpt lat="39.363005" lon="67.163709"><ele>1244.0</ele></trkpt>
<trkpt lat="39.363044" lon="67.163740"><ele>1243.8</ele></trkpt>
<trkpt lat="39.363121" lon="67.163928"><ele>1239.0</ele></trkpt>
<trkpt lat="39.363191" lon="67.164258"><ele>1232.0</ele></trkpt>
<trkpt lat="39.363303" lon="67.164433"><ele>1231.0</ele></trkpt>
<trkpt lat="39.363372" lon="67.164588"><ele>1230.0</ele></trkpt>
<trkpt lat="39.363379" lon="67.164676"><ele>1229.0</ele></trkpt>
<trkpt lat="39.363417" lon="67.164803"><ele>1226.0</ele></trkpt>
<trkpt lat="39.363465" lon="67.164889"><ele>1226.0</ele></trkpt>
<trkpt lat="39.363536" lon="67.165093"><ele>1224.0</ele></trkpt>
<trkpt lat="39.363894" lon="67.165257"><ele>1221.0</ele></trkpt>
<trkpt lat="39.364035" lon="67.165300"><ele>1219.0</ele></trkpt>
<trkpt lat="39.364110" lon="67.165371"><ele>1218.0</ele></trkpt>
<trkpt lat="39.364180" lon="67.165406"><ele>1218.0</ele></trkpt>
<trkpt lat="39.364297" lon="67.165439"><ele>1218.0</ele></trkpt>
<trkpt lat="39.364320" lon="67.165476"><ele>1218.0</ele></trkpt>
<trkpt lat="39.364401" lon="67.165534"><ele>1216.0</ele></trkpt>
<trkpt lat="39.364445" lon="67.165643"><ele>1215.0</ele></trkpt>
<trkpt lat="39.364516" lon="67.165679"><ele>1216.0</ele></trkpt>
<trkpt lat="39.364584" lon="67.165671"><ele>1213.0</ele></trkpt>
<trkpt lat="39.364682" lon="67.165723"><ele>1212.0</ele></trkpt>
<trkpt lat="39.364715" lon="67.165754"><ele>1209.0</ele></trkpt>
<trkpt lat="39.364760" lon="67.165868"><ele>1210.0</ele></trkpt>
<trkpt lat="39.364847" lon="67.165967"><ele>1210.0</ele></trkpt>
<trkpt lat="39.364927" lon="67.166021"><ele>1208.0</ele></trkpt>
<trkpt lat="39.364978" lon="67.166013"><ele>1208.4</ele></trkpt>
<trkpt lat="39.365068" lon="67.166156"><ele>1206.0</ele></trkpt>
<trkpt lat="39.365224" lon="67.166310"><ele>1205.0</ele></trkpt>
<trkpt lat="39.365285" lon="67.166399"><ele>1204.9</ele></trkpt>
<trkpt lat="39.365393" lon="67.166490"><ele>1202.0</ele></trkpt>
<trkpt lat="39.365496" lon="67.166660"><ele>1202.0</ele></trkpt>
<trkpt lat="39.365575" lon="67.166744"><ele>1201.0</ele></trkpt>
<trkpt lat="39.365619" lon="67.166838"><ele>1200.0</ele></trkpt>
<trkpt lat="39.365753" lon="67.166976"><ele>1199.0</ele></trkpt>
<trkpt lat="39.365861" lon="67.167117"><ele>1199.0</ele></trkpt>
<trkpt lat="39.365912" lon="67.167261"><ele>1198.0</ele></trkpt>
<trkpt lat="39.366032" lon="67.167425"><ele>1196.0</ele></trkpt>
<trkpt lat="39.366101" lon="67.167594"><ele>1194.0</ele></trkpt>
<trkpt lat="39.366154" lon="67.167684"><ele>1194.0</ele></trkpt>
<trkpt lat="39.366194" lon="67.167827"><ele>1194.0</ele></trkpt>
<trkpt lat="39.366186" lon="67.167898"><ele>1192.0</ele></trkpt>
<trkpt lat="39.366235" lon="67.167997"><ele>1190.0</ele></trkpt>
<trkpt lat="39.366278" lon="67.168037"><ele>1188.0</ele></trkpt>
<trkpt lat="39.366339" lon="67.168055"><ele>1184.0</ele></trkpt>
<trkpt lat="39.366421" lon="67.168131"><ele>1185.0</ele></trkpt>
<trkpt lat="39.366558" lon="67.168322"><ele>1184.0</ele></trkpt>
<trkpt lat="39.366591" lon="67.168337"><ele>1184.0</ele></trkpt>
<trkpt lat="39.366668" lon="67.168422"><ele>1180.0</ele></trkpt>
<trkpt lat="39.366687" lon="67.168472"><ele>1184.0</ele></trkpt>
<trkpt lat="39.366762" lon="67.168495"><ele>1183.0</ele></trkpt>
<trkpt lat="39.366871" lon="67.168583"><ele>1182.0</ele></trkpt>
<trkpt lat="39.367049" lon="67.168673"><ele>1176.0</ele></trkpt>
<trkpt lat="39.367093" lon="67.168750"><ele>1177.0</ele></trkpt>
<trkpt lat="39.367053" lon="67.168753"><ele>1176.0</ele></trkpt>
<trkpt lat="39.367056" lon="67.168801"><ele>1178.0</ele></trkpt>
<trkpt lat="39.367090" lon="67.168865"><ele>1177.0</ele></trkpt>
<trkpt lat="39.367141" lon="67.168850"><ele>1178.0</ele></trkpt>
<trkpt lat="39.367200" lon="67.168859"><ele>1176.0</ele></trkpt>
<trkpt lat="39.367319" lon="67.168973"><ele>1175.0</ele></trkpt>
<trkpt lat="39.367417" lon="67.169006"><ele>1172.0</ele></trkpt>
<trkpt lat="39.367468" lon="67.169097"><ele>1172.0</ele></trkpt>
<trkpt lat="39.367460" lon="67.169067"><ele>1170.0</ele></trkpt>
<trkpt lat="39.367437" lon="67.169108"><ele>1173.0</ele></trkpt>
<trkpt lat="39.367635" lon="67.169368"><ele>1173.0</ele></trkpt>
<trkpt lat="39.367717" lon="67.169443"><ele>1172.0</ele></trkpt>
<trkpt lat="39.367729" lon="67.169516"><ele>1174.0</ele></trkpt>
<trkpt lat="39.367783" lon="67.169632"><ele>1170.0</ele></trkpt>
<trkpt lat="39.367785" lon="67.169753"><ele>1167.0</ele></trkpt>
<trkpt lat="39.367804" lon="67.169820"><ele>1168.0</ele></trkpt>
<trkpt lat="39.367791" lon="67.169907"><ele>1168.0</ele></trkpt>
<trkpt lat="39.367835" lon="67.170154"><ele>1170.0</ele></trkpt>
<trkpt lat="39.367815" lon="67.170272"><ele>1169.0</ele></trkpt>
<trkpt lat="39.367881" lon="67.170317"><ele>1169.0</ele></trkpt>
<trkpt lat="39.367903" lon="67.170351"><ele>1168.0</ele></trkpt>
<trkpt lat="39.368035" lon="67.170679"><ele>1170.0</ele></trkpt>
<trkpt lat="39.368040" lon="67.170747"><ele>1169.0</ele></trkpt>
<trkpt lat="39.368081" lon="67.170818"><ele>1170.0</ele></trkpt>
<trkpt lat="39.368082" lon="67.170866"><ele>1170.3</ele></trkpt>
<trkpt lat="39.368135" lon="67.170910"><ele>1168.0</ele></trkpt>
<trkpt lat="39.368173" lon="67.170968"><ele>1167.0</ele></trkpt>
<trkpt lat="39.368259" lon="67.171031"><ele>1162.0</ele></trkpt>
<trkpt lat="39.368351" lon="67.171062"><ele>1160.0</ele></trkpt>
<trkpt lat="39.368504" lon="67.171193"><ele>1158.0</ele></trkpt>
<trkpt lat="39.368636" lon="67.171338"><ele>1152.0</ele></trkpt>
<trkpt lat="39.368717" lon="67.171358"><ele>1154.0</ele></trkpt>
<trkpt lat="39.368826" lon="67.171438"><ele>1156.0</ele></trkpt>
<trkpt lat="39.368853" lon="67.171504"><ele>1157.0</ele></trkpt>
<trkpt lat="39.368850" lon="67.171588"><ele>1158.0</ele></trkpt>
<trkpt lat="39.369041" lon="67.171839"><ele>1158.0</ele></trkpt>
<trkpt lat="39.369073" lon="67.171857"><ele>1158.0</ele></trkpt>
<trkpt lat="39.369277" lon="67.172089"><ele>1154.0</ele></trkpt>
<trkpt lat="39.369385" lon="67.172291"><ele>1146.0</ele></trkpt>
<trkpt lat="39.369318" lon="67.172281"><ele>1147.0</ele></trkpt>
<trkpt lat="39.369298" lon="67.172314"><ele>1148.0</ele></trkpt>
<trkpt lat="39.369330" lon="67.172372"><ele>1146.0</ele></trkpt>
<trkpt lat="39.369288" lon="67.172410"><ele>1143.0</ele></trkpt>
<trkpt lat="39.369277" lon="67.172372"><ele>1144.0</ele></trkpt>
<trkpt lat="39.369212" lon="67.172582"><ele>1149.0</ele></trkpt>
<trkpt lat="39.369151" lon="67.172624"><ele>1152.9</ele></trkpt>
<trkpt lat="39.369200" lon="67.172650"><ele>1150.0</ele></trkpt>
</trkseg></trk>
</gpx>