<?xml version='1.0' encoding='utf-8'?>
<gpx xmlns="http://www.topografix.com/GPX/1/1" xmlns:ns2="https://gurumaps.app/gpx/v3" xmlns:xsi="http://www.w3.org/2001/XMLSchema-instance" version="1.1" creator="com.bodunov.galileo/v5.7.3" xsi:schemaLocation="http://www.topografix.com/GPX/1/1 http://www.topografix.com/GPX/1/1/gpx.xsd https://gurumaps.app/gpx/v3 https://gurumaps.app/gpx/v3/schema.xsd">
 <trk>
  <name>Qoraqanish | Караканыш</name>
  <type>TrackStyle_E53935C8</type>
  <extensions>
   <ns2:time>2025-06-20T06:18:02.142Z</ns2:time>
  </extensions>
  <trkseg>
   <trkpt lat="42.1520230807" lon="70.8732994205"><ele>2183.312</ele></trkpt>
   <trkpt lat="42.1519138645" lon="70.8734264902"><ele>2180.203</ele></trkpt>
   <trkpt lat="42.1517864596" lon="70.8735347843"><ele>2181.614</ele></trkpt>
   <trkpt lat="42.1516427938" lon="70.8735705751"><ele>2187.884</ele></trkpt>
   <trkpt lat="42.1513562584" lon="70.8734573356"><ele>2189.654</ele></trkpt>
   <trkpt lat="42.1512851799" lon="70.8736431623"><ele>2183.79</ele></trkpt>
   <trkpt lat="42.1511329645" lon="70.8736515443"><ele>2183.44</ele></trkpt>
   <trkpt lat="42.1509913942" lon="70.8736957169"><ele>2184.094</ele></trkpt>
   <trkpt lat="42.1508442918" lon="70.8737139894"><ele>2185.19</ele></trkpt>
   <trkpt lat="42.150693669" lon="70.8737019195"><ele>2186.524</ele></trkpt>
   <trkpt lat="42.1505590975" lon="70.8736323497"><ele>2189.625</ele></trkpt>
   <trkpt lat="42.1504120789" lon="70.8736793722"><ele>2189.088</ele></trkpt>
   <trkpt lat="42.1502680778" lon="70.8736704874"><ele>2188.485</ele></trkpt>
   <trkpt lat="42.1501201792" lon="70.8736916936"><ele>2189.159</ele></trkpt>
   <trkpt lat="42.1498300815" lon="70.8737960483"><ele>2190.144</ele></trkpt>
   <trkpt lat="42.1496971864" lon="70.8738748382"><ele>2189.62</ele></trkpt>
   <trkpt lat="42.1495543588" lon="70.8739069408"><ele>2187.652</ele></trkpt>
   <trkpt lat="42.1492609922" lon="70.873814237"><ele>2177.062</ele></trkpt>
   <trkpt lat="42.1491186675" lon="70.8738690546"><ele>2179.041</ele></trkpt>
   <trkpt lat="42.148827564" lon="70.8738534643"><ele>2184.084</ele></trkpt>
   <trkpt lat="42.1486898912" lon="70.8739171668"><ele>2182.71</ele></trkpt>
   <trkpt lat="42.1484012604" lon="70.8739193461"><ele>2189.276</ele></trkpt>
   <trkpt lat="42.148252272" lon="70.8738991457"><ele>2188.665</ele></trkpt>
   <trkpt lat="42.1481015654" lon="70.873873497"><ele>2201.889</ele></trkpt>
   <trkpt lat="42.1478448696" lon="70.8736588365"><ele>2194.474</ele></trkpt>
   <trkpt lat="42.1477043889" lon="70.873612736"><ele>2198.216</ele></trkpt>
   <trkpt lat="42.147337974" lon="70.8732793878"><ele>2201.3</ele></trkpt>
   <trkpt lat="42.1472004689" lon="70.8732088959"><ele>2195.386</ele></trkpt>
   <trkpt lat="42.1470788894" lon="70.8731003503"><ele>2200.924</ele></trkpt>
   <trkpt lat="42.1469934778" lon="70.8729338857"><ele>2199.745</ele></trkpt>
   <trkpt lat="42.1465849858" lon="70.872718387"><ele>2202.142</ele></trkpt>
   <trkpt lat="42.1464696927" lon="70.872599783"><ele>2200.861</ele></trkpt>
   <trkpt lat="42.1458900841" lon="70.8724199912"><ele>2206.235</ele></trkpt>
   <trkpt lat="42.1454452984" lon="70.872349248"><ele>2207.352</ele></trkpt>
   <trkpt lat="42.1452994952" lon="70.8723475716"><ele>2207.079</ele></trkpt>
   <trkpt lat="42.1450096909" lon="70.872374226"><ele>2209.222</ele></trkpt>
   <trkpt lat="42.14472479" lon="70.8724695283"><ele>2209.383</ele></trkpt>
   <trkpt lat="42.1445895899" lon="70.8725452169"><ele>2210.197</ele></trkpt>
   <trkpt lat="42.1440173993" lon="70.8727425269"><ele>2211.911</ele></trkpt>
   <trkpt lat="42.1438838756" lon="70.8728298663"><ele>2212.406</ele></trkpt>
   <trkpt lat="42.1437359769" lon="70.872877727"><ele>2212.864</ele></trkpt>
   <trkpt lat="42.1435868628" lon="70.8728453728"><ele>2214.802</ele></trkpt>
   <trkpt lat="42.1434349827" lon="70.8728535871"><ele>2217.446</ele></trkpt>
   <trkpt lat="42.1432887604" lon="70.8728298663"><ele>2217.432</ele></trkpt>
   <trkpt lat="42.1429993752" lon="70.8729016992"><ele>2218.548</ele></trkpt>
   <trkpt lat="42.1428607805" lon="70.872979148"><ele>2219.607</ele></trkpt>
   <trkpt lat="42.1427199645" lon="70.873019884"><ele>2220.669</ele></trkpt>
   <trkpt lat="42.1425792742" lon="70.8729486379"><ele>2219.408</ele></trkpt>
   <trkpt lat="42.1424360694" lon="70.8730253323"><ele>2220.077</ele></trkpt>
   <trkpt lat="42.1422950858" lon="70.8730743664"><ele>2217.334</ele></trkpt>
   <trkpt lat="42.1421315968" lon="70.8734063736"><ele>2210.773</ele></trkpt>
   <trkpt lat="42.1420277869" lon="70.8735463514"><ele>2207.923</ele></trkpt>
   <trkpt lat="42.1416691672" lon="70.8738835553"><ele>2201.783</ele></trkpt>
   <trkpt lat="42.1415405888" lon="70.8737874987"><ele>2201.409</ele></trkpt>
   <trkpt lat="42.1414661994" lon="70.8736199445"><ele>2210.473</ele></trkpt>
   <trkpt lat="42.1414806582" lon="70.8732224746"><ele>2215.708</ele></trkpt>
   <trkpt lat="42.1415126771" lon="70.8730334627"><ele>2221.275</ele></trkpt>
   <trkpt lat="42.1414571889" lon="70.8728502343"><ele>2220.459</ele></trkpt>
   <trkpt lat="42.1413642755" lon="70.8726922354"><ele>2222.236</ele></trkpt>
   <trkpt lat="42.1412240881" lon="70.8723461467"><ele>2227.136</ele></trkpt>
   <trkpt lat="42.1411155844" lon="70.8722128744"><ele>2234.152</ele></trkpt>
   <trkpt lat="42.1410646643" lon="70.8720270476"><ele>2239.533</ele></trkpt>
   <trkpt lat="42.1409882633" lon="70.8718623432"><ele>2244.618</ele></trkpt>
   <trkpt lat="42.1407113671" lon="70.8717502772"><ele>2236.468</ele></trkpt>
   <trkpt lat="42.1404595747" lon="70.8715507879"><ele>2236.036</ele></trkpt>
   <trkpt lat="42.1403231593" lon="70.871470154"><ele>2233.226</ele></trkpt>
   <trkpt lat="42.1398799661" lon="70.8709371487"><ele>2239.655</ele></trkpt>
   <trkpt lat="42.1396773755" lon="70.8706492304"><ele>2240.806</ele></trkpt>
   <trkpt lat="42.1395559637" lon="70.8705444566"><ele>2243.596</ele></trkpt>
   <trkpt lat="42.1394183747" lon="70.8704748868"><ele>2240.355</ele></trkpt>
   <trkpt lat="42.1392096653" lon="70.8701914946"><ele>2243.566</ele></trkpt>
   <trkpt lat="42.1390801649" lon="70.8701003833"><ele>2242.61</ele></trkpt>
   <trkpt lat="42.1389871677" lon="70.8699494253"><ele>2242.243</ele></trkpt>
   <trkpt lat="42.1389393909" lon="70.8697584855"><ele>2245.196</ele></trkpt>
   <trkpt lat="42.1388479862" lon="70.8696050967"><ele>2243.545</ele></trkpt>
   <trkpt lat="42.1387434639" lon="70.869462269"><ele>2242.342</ele></trkpt>
   <trkpt lat="42.1384918811" lon="70.8692598461"><ele>2242.056</ele></trkpt>
   <trkpt lat="42.1383881969" lon="70.869124646"><ele>2242.2</ele></trkpt>
   <trkpt lat="42.1383026596" lon="70.8689628753"><ele>2246.327</ele></trkpt>
   <trkpt lat="42.138149187" lon="70.8687595303"><ele>2240.651</ele></trkpt>
   <trkpt lat="42.1380886696" lon="70.8685800737"><ele>2239.749</ele></trkpt>
   <trkpt lat="42.1379809622" lon="70.8684448736"><ele>2238.398</ele></trkpt>
   <trkpt lat="42.1376892719" lon="70.867955119"><ele>2236.708</ele></trkpt>
   <trkpt lat="42.1375766611" lon="70.8675885784"><ele>2236.46</ele></trkpt>
   <trkpt lat="42.1374213863" lon="70.8672590858"><ele>2235.782</ele></trkpt>
   <trkpt lat="42.1373136788" lon="70.8671227961"><ele>2233.064</ele></trkpt>
   <trkpt lat="42.1372683747" lon="70.8669289226"><ele>2231.78</ele></trkpt>
   <trkpt lat="42.1371932728" lon="70.866748125"><ele>2233.519</ele></trkpt>
   <trkpt lat="42.1370721962" lon="70.8666287667"><ele>2233.17</ele></trkpt>
   <trkpt lat="42.1367856609" lon="70.8665056365"><ele>2233.382</ele></trkpt>
   <trkpt lat="42.1366687752" lon="70.8663922294"><ele>2229.464</ele></trkpt>
   <trkpt lat="42.1365267858" lon="70.8663478891"><ele>2228.299</ele></trkpt>
   <trkpt lat="42.1362638874" lon="70.8661727911"><ele>2226.799</ele></trkpt>
   <trkpt lat="42.1361444872" lon="70.8660623177"><ele>2227.741</ele></trkpt>
   <trkpt lat="42.1357368752" lon="70.8658081784"><ele>2225.091</ele></trkpt>
   <trkpt lat="42.1356071653" lon="70.8657028178"><ele>2230.141</ele></trkpt>
   <trkpt lat="42.135398875" lon="70.8654132231"><ele>2229.309</ele></trkpt>
   <trkpt lat="42.1352120843" lon="70.8651081218"><ele>2229.168</ele></trkpt>
   <trkpt lat="42.1351643912" lon="70.8649199481"><ele>2228.331</ele></trkpt>
   <trkpt lat="42.1350240782" lon="70.8645731887"><ele>2229.599</ele></trkpt>
   <trkpt lat="42.1349629741" lon="70.8643825843"><ele>2229.701</ele></trkpt>
   <trkpt lat="42.1348865731" lon="70.8642161197"><ele>2229.807</ele></trkpt>
   <trkpt lat="42.134768472" lon="70.8640860325"><ele>2231.064</ele></trkpt>
   <trkpt lat="42.1346972678" lon="70.8639170534"><ele>2233.115</ele></trkpt>
   <trkpt lat="42.1345960982" lon="70.8637658438"><ele>2232.829</ele></trkpt>
   <trkpt lat="42.1343133766" lon="70.8636559571"><ele>2232.64</ele></trkpt>
   <trkpt lat="42.1341654779" lon="70.8636897361"><ele>2230.304</ele></trkpt>
   <trkpt lat="42.1338871987" lon="70.8637988685"><ele>2232.446</ele></trkpt>
   <trkpt lat="42.1337473886" lon="70.8637394408"><ele>2231.788</ele></trkpt>
   <trkpt lat="42.1335946703" lon="70.8637437994"><ele>2231.873</ele></trkpt>
   <trkpt lat="42.1333076739" lon="70.8636607348"><ele>2231.478</ele></trkpt>
   <trkpt lat="42.1331730606" lon="70.8635804361"><ele>2231.703</ele></trkpt>
   <trkpt lat="42.1329202624" lon="70.8633778455"><ele>2232.946</ele></trkpt>
   <trkpt lat="42.1328093698" lon="70.8632544639"><ele>2232.348</ele></trkpt>
   <trkpt lat="42.1326768938" lon="70.8631755902"><ele>2233.062</ele></trkpt>
   <trkpt lat="42.1325704856" lon="70.8630439943"><ele>2234.442</ele></trkpt>
   <trkpt lat="42.1324476907" lon="70.8629282402"><ele>2233.897</ele></trkpt>
   <trkpt lat="42.1323152985" lon="70.8628395597"><ele>2233.482</ele></trkpt>
   <trkpt lat="42.1321994606" lon="70.8627197823"><ele>2233.856</ele></trkpt>
   <trkpt lat="42.1319115842" lon="70.8626639588"><ele>2236.641</ele></trkpt>
   <trkpt lat="42.1317745819" lon="70.8625815647"><ele>2237.673</ele></trkpt>
   <trkpt lat="42.1314862864" lon="70.8625234781"><ele>2240.478</ele></trkpt>
   <trkpt lat="42.1310991682" lon="70.8622431873"><ele>2242.803</ele></trkpt>
   <trkpt lat="42.1309605734" lon="70.8621778923"><ele>2242.569</ele></trkpt>
   <trkpt lat="42.1308374852" lon="70.8620743758"><ele>2243.222</ele></trkpt>
   <trkpt lat="42.1305472618" lon="70.8620456258"><ele>2242.287</ele></trkpt>
   <trkpt lat="42.130497599" lon="70.8618634871"><ele>2242.441</ele></trkpt>
   <trkpt lat="42.1302536856" lon="70.8616337391"><ele>2244.848</ele></trkpt>
   <trkpt lat="42.1301356684" lon="70.8614962759"><ele>2245.485</ele></trkpt>
   <trkpt lat="42.129992296" lon="70.8614080983"><ele>2245.168</ele></trkpt>
   <trkpt lat="42.1297697983" lon="70.861153959"><ele>2244.185</ele></trkpt>
   <trkpt lat="42.1295126835" lon="70.8609598341"><ele>2243.925</ele></trkpt>
   <trkpt lat="42.1293983962" lon="70.8608413978"><ele>2244.567</ele></trkpt>
   <trkpt lat="42.1292938739" lon="70.8607031802"><ele>2245.723</ele></trkpt>
   <trkpt lat="42.1292128628" lon="70.8605301777"><ele>2245.095</ele></trkpt>
   <trkpt lat="42.128835761" lon="70.8602352186"><ele>2246.435</ele></trkpt>
   <trkpt lat="42.1287156902" lon="70.8598764731"><ele>2241.664</ele></trkpt>
   <trkpt lat="42.1285796938" lon="70.8598075739"><ele>2239.595</ele></trkpt>
   <trkpt lat="42.1284951623" lon="70.8596421989"><ele>2240.621</ele></trkpt>
   <trkpt lat="42.128376768" lon="70.8595173924"><ele>2241.378</ele></trkpt>
   <trkpt lat="42.1282384665" lon="70.8594437993"><ele>2242.639</ele></trkpt>
   <trkpt lat="42.1280948845" lon="70.8594238503"><ele>2240.929</ele></trkpt>
   <trkpt lat="42.1278117858" lon="70.8593151371"><ele>2243.448</ele></trkpt>
   <trkpt lat="42.1276786811" lon="70.8592216788"><ele>2248.525</ele></trkpt>
   <trkpt lat="42.1275624661" lon="70.8591048351"><ele>2244.077</ele></trkpt>
   <trkpt lat="42.1274130586" lon="70.8590609978"><ele>2245.911</ele></trkpt>
   <trkpt lat="42.1271157944" lon="70.859011796"><ele>2243.746</ele></trkpt>
   <trkpt lat="42.1269809715" lon="70.8589280608"><ele>2245.595</ele></trkpt>
   <trkpt lat="42.1268522674" lon="70.8588202695"><ele>2246.717</ele></trkpt>
   <trkpt lat="42.1267058775" lon="70.8587674635"><ele>2246.044</ele></trkpt>
   <trkpt lat="42.1265780953" lon="70.8586781962"><ele>2248.637</ele></trkpt>
   <trkpt lat="42.1265071844" lon="70.8585031821"><ele>2247.66</ele></trkpt>
   <trkpt lat="42.1263555977" lon="70.8584827303"><ele>2247.867</ele></trkpt>
   <trkpt lat="42.1260941662" lon="70.858297574"><ele>2246.961</ele></trkpt>
   <trkpt lat="42.1259829802" lon="70.858166984"><ele>2249.913</ele></trkpt>
   <trkpt lat="42.1257303916" lon="70.8579417622"><ele>2248.405</ele></trkpt>
   <trkpt lat="42.1255933894" lon="70.8578747908"><ele>2249.735</ele></trkpt>
   <trkpt lat="42.1255498873" lon="70.8576858627"><ele>2243.825</ele></trkpt>
   <trkpt lat="42.1253011962" lon="70.8574707831"><ele>2246.873</ele></trkpt>
   <trkpt lat="42.1252308721" lon="70.857295769"><ele>2243.467</ele></trkpt>
   <trkpt lat="42.1251277746" lon="70.8574310529"><ele>2249.442</ele></trkpt>
   <trkpt lat="42.1249757688" lon="70.8574206593"><ele>2255.249</ele></trkpt>
   <trkpt lat="42.1248337794" lon="70.8573778278"><ele>2255.07</ele></trkpt>
   <trkpt lat="42.1245750719" lon="70.8575628164"><ele>2255.169</ele></trkpt>
   <trkpt lat="42.1244613714" lon="70.8576884611"><ele>2255.838</ele></trkpt>
   <trkpt lat="42.1243333798" lon="70.8577874514"><ele>2254.451</ele></trkpt>
   <trkpt lat="42.1241848944" lon="70.8578211466"><ele>2257.62</ele></trkpt>
   <trkpt lat="42.124071571" lon="70.8579411755"><ele>2258.732</ele></trkpt>
   <trkpt lat="42.1240518736" lon="70.8581421735"><ele>2257.851</ele></trkpt>
   <trkpt lat="42.1239492791" lon="70.8582864261"><ele>2256.369</ele></trkpt>
   <trkpt lat="42.1238276996" lon="70.8583963967"><ele>2258.35</ele></trkpt>
   <trkpt lat="42.1237578783" lon="70.8585666331"><ele>2260.972</ele></trkpt>
   <trkpt lat="42.1236682758" lon="70.8587258893"><ele>2262.376</ele></trkpt>
   <trkpt lat="42.1235418767" lon="70.8588462534"><ele>2263.728</ele></trkpt>
   <trkpt lat="42.1234465744" lon="70.8589984688"><ele>2263.689</ele></trkpt>
   <trkpt lat="42.1233390765" lon="70.8591277177"><ele>2262.392</ele></trkpt>
   <trkpt lat="42.1232070615" lon="70.8592227685"><ele>2261.602</ele></trkpt>
   <trkpt lat="42.1230612583" lon="70.8595704498"><ele>2261.913</ele></trkpt>
   <trkpt lat="42.1229318836" lon="70.8596552747"><ele>2264.174</ele></trkpt>
   <trkpt lat="42.1228379644" lon="70.8598032991"><ele>2266.182</ele></trkpt>
   <trkpt lat="42.122710769" lon="70.859893656"><ele>2265.575</ele></trkpt>
   <trkpt lat="42.1225675642" lon="70.8599253396"><ele>2269.605</ele></trkpt>
   <trkpt lat="42.1224354654" lon="70.8600082366"><ele>2265.779</ele></trkpt>
   <trkpt lat="42.1223042886" lon="70.8601148544"><ele>2266.2</ele></trkpt>
   <trkpt lat="42.122197587" lon="70.8602463665"><ele>2266.609</ele></trkpt>
   <trkpt lat="42.1220496883" lon="70.8605864203"><ele>2268.991</ele></trkpt>
   <trkpt lat="42.1219534641" lon="70.860731092"><ele>2270.025</ele></trkpt>
   <trkpt lat="42.1219120994" lon="70.8609171702"><ele>2274.196</ele></trkpt>
   <trkpt lat="42.1217952976" lon="70.8610315832"><ele>2277.42</ele></trkpt>
   <trkpt lat="42.1217866642" lon="70.8612356825"><ele>2278.601</ele></trkpt>
   <trkpt lat="42.1217191899" lon="70.8614141333"><ele>2275.741</ele></trkpt>
   <trkpt lat="42.1216252707" lon="70.8615628282"><ele>2280.16</ele></trkpt>
   <trkpt lat="42.121607962" lon="70.8617638263"><ele>2281.738</ele></trkpt>
   <trkpt lat="42.1213332871" lon="70.8622240766"><ele>2279.409</ele></trkpt>
   <trkpt lat="42.1211907947" lon="70.8622691712"><ele>2275.14</ele></trkpt>
   <trkpt lat="42.1210562652" lon="70.8623507271"><ele>2279.364</ele></trkpt>
   <trkpt lat="42.1210147748" lon="70.8625401581"><ele>2276.845</ele></trkpt>
   <trkpt lat="42.1209229929" lon="70.8627025994"><ele>2277.9</ele></trkpt>
   <trkpt lat="42.1208539679" lon="70.8628835647"><ele>2277.087</ele></trkpt>
   <trkpt lat="42.1205752697" lon="70.8633341758"><ele>2278.686</ele></trkpt>
   <trkpt lat="42.1204647962" lon="70.8634696274"><ele>2281.929</ele></trkpt>
   <trkpt lat="42.1202280912" lon="70.8636988724"><ele>2282.722</ele></trkpt>
   <trkpt lat="42.1201306935" lon="70.863845891"><ele>2284.074</ele></trkpt>
   <trkpt lat="42.1200139755" lon="70.8639634891"><ele>2283.532</ele></trkpt>
   <trkpt lat="42.1199139794" lon="70.8641078255"><ele>2281.344</ele></trkpt>
   <trkpt lat="42.1197846886" lon="70.8641961707"><ele>2280.471</ele></trkpt>
   <trkpt lat="42.1197666675" lon="70.8644004377"><ele>2280.253</ele></trkpt>
   <trkpt lat="42.1196431601" lon="70.8645069717"><ele>2279.984</ele></trkpt>
   <trkpt lat="42.1195382606" lon="70.8646517272"><ele>2283.392</ele></trkpt>
   <trkpt lat="42.1194109814" lon="70.8647442634"><ele>2287.64</ele></trkpt>
   <trkpt lat="42.1192677766" lon="70.8647976561"><ele>2293.518</ele></trkpt>
   <trkpt lat="42.1191509748" lon="70.8651595867"><ele>2284.612</ele></trkpt>
   <trkpt lat="42.1190573908" lon="70.8653087846"><ele>2289.434</ele></trkpt>
   <trkpt lat="42.1189787686" lon="70.8654754168"><ele>2293.252</ele></trkpt>
   <trkpt lat="42.1187708974" lon="70.8657569649"><ele>2292.61</ele></trkpt>
   <trkpt lat="42.1186440792" lon="70.8658624931"><ele>2298.179</ele></trkpt>
   <trkpt lat="42.1185624813" lon="70.8660239285"><ele>2292.0</ele></trkpt>
   <trkpt lat="42.1181352976" lon="70.8665634717"><ele>2299.657</ele></trkpt>
   <trkpt lat="42.1180632971" lon="70.8667382343"><ele>2292.51</ele></trkpt>
   <trkpt lat="42.1179295638" lon="70.8668228916"><ele>2292.235</ele></trkpt>
   <trkpt lat="42.1177827967" lon="70.8668315249"><ele>2295.871</ele></trkpt>
   <trkpt lat="42.1176595827" lon="70.8669641266"><ele>2296.371</ele></trkpt>
   <trkpt lat="42.1176327606" lon="70.8671584191"><ele>2296.524</ele></trkpt>
   <trkpt lat="42.1174940821" lon="70.8672438307"><ele>2299.4</ele></trkpt>
   <trkpt lat="42.1175801642" lon="70.8674052662"><ele>2297.598</ele></trkpt>
   <trkpt lat="42.11745058" lon="70.8674907616"><ele>2299.577</ele></trkpt>
   <trkpt lat="42.1173105603" lon="70.867541053"><ele>2307.498</ele></trkpt>
   <trkpt lat="42.1172649627" lon="70.8677268798"><ele>2306.011</ele></trkpt>
   <trkpt lat="42.1171558723" lon="70.8678689531"><ele>2303.055</ele></trkpt>
   <trkpt lat="42.1170215942" lon="70.8679518501"><ele>2308.497</ele></trkpt>
   <trkpt lat="42.1169276749" lon="70.868102892"><ele>2312.884</ele></trkpt>
   <trkpt lat="42.1167917624" lon="70.8681763175"><ele>2313.276</ele></trkpt>
   <trkpt lat="42.1164469728" lon="70.8685504856"><ele>2312.233</ele></trkpt>
   <trkpt lat="42.1161924982" lon="70.868736983"><ele>2314.792</ele></trkpt>
   <trkpt lat="42.1160834916" lon="70.8688668186"><ele>2316.391</ele></trkpt>
   <trkpt lat="42.1159547874" lon="70.8689585167"><ele>2318.356</ele></trkpt>
   <trkpt lat="42.1158139715" lon="70.8690028569"><ele>2311.098</ele></trkpt>
   <trkpt lat="42.1157134725" lon="70.8691540665"><ele>2314.162</ele></trkpt>
   <trkpt lat="42.1152138691" lon="70.8695774364"><ele>2318.932</ele></trkpt>
   <trkpt lat="42.1151052816" lon="70.8697061824"><ele>2323.121</ele></trkpt>
   <trkpt lat="42.1149740629" lon="70.8697881574"><ele>2321.311</ele></trkpt>
   <trkpt lat="42.114891082" lon="70.8699522751"><ele>2320.472</ele></trkpt>
   <trkpt lat="42.1148240687" lon="70.8701383534"><ele>2323.173</ele></trkpt>
   <trkpt lat="42.1147776749" lon="70.8703295446"><ele>2328.764</ele></trkpt>
   <trkpt lat="42.1147074764" lon="70.8705045587"><ele>2325.645</ele></trkpt>
   <trkpt lat="42.1146124676" lon="70.8706518287"><ele>2325.808</ele></trkpt>
   <trkpt lat="42.1144979708" lon="70.8707755456"><ele>2324.981</ele></trkpt>
   <trkpt lat="42.1143554784" lon="70.8711169406"><ele>2322.672</ele></trkpt>
   <trkpt lat="42.1142705697" lon="70.8712782922"><ele>2322.081</ele></trkpt>
   <trkpt lat="42.1141599705" lon="70.8714037693"><ele>2330.18</ele></trkpt>
   <trkpt lat="42.11411299" lon="70.8715874168"><ele>2329.87</ele></trkpt>
   <trkpt lat="42.1139956852" lon="70.8717025841"><ele>2328.649</ele></trkpt>
   <trkpt lat="42.1139199966" lon="70.8718745808"><ele>2331.259</ele></trkpt>
   <trkpt lat="42.1137024862" lon="70.8721584758"><ele>2342.91</ele></trkpt>
   <trkpt lat="42.1134608779" lon="70.8723887267"><ele>2349.134</ele></trkpt>
   <trkpt lat="42.1133742928" lon="70.8725582926"><ele>2353.736</ele></trkpt>
   <trkpt lat="42.1132367877" lon="70.8726347356"><ele>2357.749</ele></trkpt>
   <trkpt lat="42.1131098857" lon="70.8727444547"><ele>2358.887</ele></trkpt>
   <trkpt lat="42.1129644597" lon="70.8727522499"><ele>2358.941</ele></trkpt>
   <trkpt lat="42.1128248591" lon="70.8728068999"><ele>2360.985</ele></trkpt>
   <trkpt lat="42.1126858871" lon="70.8728938202"><ele>2364.947</ele></trkpt>
   <trkpt lat="42.1125769643" lon="70.8730352229"><ele>2364.992</ele></trkpt>
   <trkpt lat="42.1124581927" lon="70.8731544974"><ele>2367.238</ele></trkpt>
   <trkpt lat="42.1121882954" lon="70.8733153461"><ele>2372.826</ele></trkpt>
   <trkpt lat="42.1119316835" lon="70.8734959761"><ele>2383.104</ele></trkpt>
   <trkpt lat="42.1117904903" lon="70.87355993"><ele>2384.213</ele></trkpt>
   <trkpt lat="42.1114988839" lon="70.8736333555"><ele>2388.985</ele></trkpt>
   <trkpt lat="42.111224167" lon="70.8737700644"><ele>2390.715</ele></trkpt>
   <trkpt lat="42.1111102989" lon="70.8738990619"><ele>2400.121</ele></trkpt>
   <trkpt lat="42.1110213669" lon="70.8740544623"><ele>2393.732</ele></trkpt>
   <trkpt lat="42.1108850771" lon="70.874121769"><ele>2397.614</ele></trkpt>
   <trkpt lat="42.1107584685" lon="70.8742189991"><ele>2397.943</ele></trkpt>
   <trkpt lat="42.1103939814" lon="70.8745484917"><ele>2400.02</ele></trkpt>
   <trkpt lat="42.1103167841" lon="70.8747167165"><ele>2405.992</ele></trkpt>
   <trkpt lat="42.109918979" lon="70.8749867814"><ele>2408.356</ele></trkpt>
   <trkpt lat="42.109773972" lon="70.8749690956"><ele>2408.811</ele></trkpt>
   <trkpt lat="42.1096374728" lon="70.8750377434"><ele>2408.024</ele></trkpt>
   <trkpt lat="42.1095126662" lon="70.8751372366"><ele>2406.418</ele></trkpt>
   <trkpt lat="42.1094003906" lon="70.875272269"><ele>2409.421</ele></trkpt>
   <trkpt lat="42.1091493945" lon="70.875476536"><ele>2408.378</ele></trkpt>
   <trkpt lat="42.1090049743" lon="70.8755139193"><ele>2405.457</ele></trkpt>
   <trkpt lat="42.1088619791" lon="70.8755764483"><ele>2406.105</ele></trkpt>
   <trkpt lat="42.1087601809" lon="70.8757202818"><ele>2410.973</ele></trkpt>
   <trkpt lat="42.1086395653" lon="70.8758279892"><ele>2417.356</ele></trkpt>
   <trkpt lat="42.1081104995" lon="70.8761452443"><ele>2441.209</ele></trkpt>
   <trkpt lat="42.1079679653" lon="70.8761999781"><ele>2437.179</ele></trkpt>
   <trkpt lat="42.1078357827" lon="70.8762821207"><ele>2438.189</ele></trkpt>
   <trkpt lat="42.1079141954" lon="70.8764535307"><ele>2440.424</ele></trkpt>
   <trkpt lat="42.1082315761" lon="70.8768735478"><ele>2450.854</ele></trkpt>
   <trkpt lat="42.1084544928" lon="70.8771368234"><ele>2461.033</ele></trkpt>
   <trkpt lat="42.1084966957" lon="70.8773274279"><ele>2465.311</ele></trkpt>
   <trkpt lat="42.1084313588" lon="70.8775006818"><ele>2471.001</ele></trkpt>
   <trkpt lat="42.1084163971" lon="70.8776944714"><ele>2481.002</ele></trkpt>
   <trkpt lat="42.1082494715" lon="70.8780127323"><ele>2496.858</ele></trkpt>
   <trkpt lat="42.1081022853" lon="70.8780139896"><ele>2495.863</ele></trkpt>
   <trkpt lat="42.1082508964" lon="70.877995717"><ele>2493.517</ele></trkpt>
   <trkpt lat="42.1083493838" lon="70.8778528894"><ele>2489.156</ele></trkpt>
   <trkpt lat="42.1083192928" lon="70.8776607762"><ele>2476.239</ele></trkpt>
   <trkpt lat="42.1082358928" lon="70.8775029449"><ele>2464.616</ele></trkpt>
   <trkpt lat="42.1081691729" lon="70.8773281823"><ele>2460.947</ele></trkpt>
   <trkpt lat="42.1082055922" lon="70.8771389189"><ele>2455.871</ele></trkpt>
   <trkpt lat="42.1081452844" lon="70.8769530921"><ele>2448.962</ele></trkpt>
   <trkpt lat="42.1079738745" lon="70.8766355856"><ele>2439.801</ele></trkpt>
   <trkpt lat="42.1078517921" lon="70.8765319853"><ele>2438.076</ele></trkpt>
   <trkpt lat="42.1077538915" lon="70.8763893253"><ele>2431.459</ele></trkpt>
   </trkseg>
 </trk>
</gpx>