<?xml version='1.0' encoding='utf-8'?>
<gpx xmlns="http://www.topografix.com/GPX/1/0" xmlns:xsi="http://www.w3.org/2001/XMLSchema-instance" creator="Health" xsi:schemaLocation="http://www.topografix.com/GPX/1/0 http://www.topografix.com/GPX/1/0/gpx.xsd" version="1.0"><metadata /><trk><type>Mountain hike</type><extensions><totalTime>35462.0</totalTime><cumulativeDecrease>1691.800048828125</cumulativeDecrease><cumulativeClimb>1370.300048828125</cumulativeClimb><totalDistance>14420.0</totalDistance></extensions><trkseg><trkpt lat="41.53724216023456" lon="70.03081745798482"><ele>1592.9</ele></trkpt><trkpt lat="41.53667053789007" lon="70.03250871832414"><ele>1627.2</ele></trkpt><trkpt lat="41.536400469299316" lon="70.03319539953763"><ele>1634.6</ele></trkpt><trkpt lat="41.53641636483939" lon="70.03321296092903"><ele>1635.6</ele></trkpt><trkpt lat="41.53635051250385" lon="70.03320009285102"><ele>1635.8</ele></trkpt><trkpt lat="41.53634400303242" lon="70.0333308907322"><ele>1637.1</ele></trkpt><trkpt lat="41.53617248533059" lon="70.03373160971722"><ele>1641.5</ele></trkpt><trkpt lat="41.536129340897" lon="70.03397973140407"><ele>1643.4</ele></trkpt><trkpt lat="41.53623409840108" lon="70.03442495930035"><ele>1646.2</ele></trkpt><trkpt lat="41.536256806066525" lon="70.03473106111345"><ele>1647.6</ele></trkpt><trkpt lat="41.536423479195406" lon="70.03501702908027"><ele>1649.0</ele></trkpt><trkpt lat="41.53654155842074" lon="70.03536672596793"><ele>1650.0</ele></trkpt><trkpt lat="41.53663435632362" lon="70.03544256978611"><ele>1650.4</ele></trkpt><trkpt lat="41.536810868926246" lon="70.0353859524311"><ele>1648.8</ele></trkpt><trkpt lat="41.53695074681102" lon="70.03548404954059"><ele>1648.8</ele></trkpt><trkpt lat="41.53728954219966" lon="70.03614423243522"><ele>1649.6</ele></trkpt><trkpt lat="41.537291510180985" lon="70.03633043426242"><ele>1652.0</ele></trkpt><trkpt lat="41.537145274075094" lon="70.0369016043576"><ele>1653.7</ele></trkpt><trkpt lat="41.537167073223976" lon="70.03719937296246"><ele>1655.9</ele></trkpt><trkpt lat="41.537138461840065" lon="70.03750864867051"><ele>1663.1</ele></trkpt><trkpt lat="41.53715617364917" lon="70.03807269974831"><ele>1671.7</ele></trkpt><trkpt lat="41.53713482864846" lon="70.03811402834434"><ele>1669.7</ele></trkpt><trkpt lat="41.537277431524494" lon="70.03870700051758"><ele>1675.9</ele></trkpt><trkpt lat="41.5372712248141" lon="70.03908137082858"><ele>1679.2</ele></trkpt><trkpt lat="41.53734040687735" lon="70.03999723993566"><ele>1690.2</ele></trkpt><trkpt lat="41.53749920769579" lon="70.04040143110738"><ele>1696.2</ele></trkpt><trkpt lat="41.537537356207686" lon="70.040702535078"><ele>1700.7</ele></trkpt><trkpt lat="41.53763757174293" lon="70.04103421596767"><ele>1706.8</ele></trkpt><trkpt lat="41.53779016579056" lon="70.0413387918589"><ele>1714.6</ele></trkpt><trkpt lat="41.537961986087126" lon="70.04154133832566"><ele>1722.1</ele></trkpt><trkpt lat="41.53812896217495" lon="70.04155072378832"><ele>1728.9</ele></trkpt><trkpt lat="41.53832031100719" lon="70.04136437682376"><ele>1733.7</ele></trkpt><trkpt lat="41.53869210806972" lon="70.04118847476157"><ele>1739.6</ele></trkpt><trkpt lat="41.53918137960376" lon="70.04141070429351"><ele>1742.8</ele></trkpt><trkpt lat="41.53944554346755" lon="70.04167652780232"><ele>1744.7</ele></trkpt><trkpt lat="41.539658085886394" lon="70.04178900133108"><ele>1749.5</ele></trkpt><trkpt lat="41.53972545163476" lon="70.04187407532855"><ele>1749.6</ele></trkpt><trkpt lat="41.53982808962767" lon="70.04212551310376"><ele>1752.6</ele></trkpt><trkpt lat="41.53990907973875" lon="70.04219015023945"><ele>1754.8</ele></trkpt><trkpt lat="41.540019741748786" lon="70.04218878795054"><ele>1758.1</ele></trkpt><trkpt lat="41.54018581031061" lon="70.042480493751"><ele>1765.2</ele></trkpt><trkpt lat="41.54037307237813" lon="70.04249427052628"><ele>1768.7</ele></trkpt><trkpt lat="41.54055397611752" lon="70.04243099341745"><ele>1771.6</ele></trkpt><trkpt lat="41.54066842216369" lon="70.04243356623802"><ele>1774.7</ele></trkpt><trkpt lat="41.54076878974488" lon="70.0425091056103"><ele>1778.0</ele></trkpt><trkpt lat="41.54101448541379" lon="70.04253362907266"><ele>1778.4</ele></trkpt><trkpt lat="41.54104824418333" lon="70.0426385314393"><ele>1780.6</ele></trkpt><trkpt lat="41.54112075689711" lon="70.04267758553978"><ele>1782.2</ele></trkpt><trkpt lat="41.54119584387795" lon="70.04278248710808"><ele>1784.3</ele></trkpt><trkpt lat="41.5412068952186" lon="70.04289329144036"><ele>1786.5</ele></trkpt><trkpt lat="41.54128924808467" lon="70.04305495653226"><ele>1787.5</ele></trkpt><trkpt lat="41.54132770048927" lon="70.04334861535044"><ele>1794.9</ele></trkpt><trkpt lat="41.54151163222449" lon="70.04370282004658"><ele>1803.4</ele></trkpt><trkpt lat="41.541670434278586" lon="70.04422338685717"><ele>1810.7</ele></trkpt><trkpt lat="41.54178049081896" lon="70.04430361526832"><ele>1813.6</ele></trkpt><trkpt lat="41.54181440095592" lon="70.04438111670653"><ele>1815.5</ele></trkpt><trkpt lat="41.54209642532883" lon="70.0444698270227"><ele>1820.8</ele></trkpt><trkpt lat="41.542431592589665" lon="70.04479165187591"><ele>1824.0</ele></trkpt><trkpt lat="41.54270559536072" lon="70.04497814893449"><ele>1832.4</ele></trkpt><trkpt lat="41.54271922047043" lon="70.04534930972316"><ele>1841.0</ele></trkpt><trkpt lat="41.54277614293745" lon="70.04572848337328"><ele>1848.2</ele></trkpt><trkpt lat="41.54286954701965" lon="70.04566883819213"><ele>1852.0</ele></trkpt><trkpt lat="41.54289240726014" lon="70.04559510174364"><ele>1852.0</ele></trkpt><trkpt lat="41.5428759059951" lon="70.04556269675203"><ele>1851.9</ele></trkpt><trkpt lat="41.542770697146416" lon="70.04571558593842"><ele>1852.0</ele></trkpt><trkpt lat="41.54275237867567" lon="70.04566258733787"><ele>1853.4</ele></trkpt><trkpt lat="41.54289755474859" lon="70.04557903277572"><ele>1854.4</ele></trkpt><trkpt lat="41.54324922003748" lon="70.04557902638872"><ele>1860.4</ele></trkpt><trkpt lat="41.54353412370309" lon="70.04562519464986"><ele>1868.4</ele></trkpt><trkpt lat="41.543725623236675" lon="70.04548214872607"><ele>1870.0</ele></trkpt><trkpt lat="41.544076228928695" lon="70.04536680205575"><ele>1873.0</ele></trkpt><trkpt lat="41.54423881332571" lon="70.04525554903836"><ele>1878.3</ele></trkpt><trkpt lat="41.544700071217164" lon="70.0451561004845"><ele>1895.1</ele></trkpt><trkpt lat="41.54485523943226" lon="70.04524752845924"><ele>1904.5</ele></trkpt><trkpt lat="41.544927906252475" lon="70.04506724859029"><ele>1910.1</ele></trkpt><trkpt lat="41.545048716229246" lon="70.04488544795554"><ele>1921.1</ele></trkpt><trkpt lat="41.54517254727964" lon="70.04484246173948"><ele>1928.9</ele></trkpt><trkpt lat="41.54538826694523" lon="70.04494888247675"><ele>1941.0</ele></trkpt><trkpt lat="41.545427173825594" lon="70.0450053420202"><ele>1943.3</ele></trkpt><trkpt lat="41.545653942839834" lon="70.04502319841033"><ele>1953.0</ele></trkpt><trkpt lat="41.54570193246266" lon="70.04509252678041"><ele>1956.4</ele></trkpt><trkpt lat="41.545772325659044" lon="70.0450843497204"><ele>1960.2</ele></trkpt><trkpt lat="41.54584968369902" lon="70.04516972390579"><ele>1964.0</ele></trkpt><trkpt lat="41.54596201236922" lon="70.04522467399372"><ele>1969.6</ele></trkpt><trkpt lat="41.54602877115389" lon="70.04520923228"><ele>1972.3</ele></trkpt><trkpt lat="41.54613065420209" lon="70.04531231928156"><ele>1978.4</ele></trkpt><trkpt lat="41.546172740121996" lon="70.04528537608645"><ele>1981.4</ele></trkpt><trkpt lat="41.546241471140256" lon="70.04535273819916"><ele>1985.5</ele></trkpt><trkpt lat="41.546552727727" lon="70.04545854246014"><ele>2000.9</ele></trkpt><trkpt lat="41.54662403351033" lon="70.04551697544635"><ele>2004.6</ele></trkpt><trkpt lat="41.54673757775128" lon="70.04542841668777"><ele>2009.5</ele></trkpt><trkpt lat="41.54678238987837" lon="70.04546610676954"><ele>2011.0</ele></trkpt><trkpt lat="41.54682705061315" lon="70.04545202934065"><ele>2013.6</ele></trkpt><trkpt lat="41.54685081920758" lon="70.04549214314707"><ele>2014.8</ele></trkpt><trkpt lat="41.546915917905736" lon="70.04545429738276"><ele>2017.6</ele></trkpt><trkpt lat="41.547013111775996" lon="70.04561778269644"><ele>2023.3</ele></trkpt><trkpt lat="41.54711590716214" lon="70.0456073340017"><ele>2026.8</ele></trkpt><trkpt lat="41.54722930001078" lon="70.04576551799174"><ele>2031.6</ele></trkpt><trkpt lat="41.54728728326983" lon="70.04578700857158"><ele>2033.2</ele></trkpt><trkpt lat="41.547284104031064" lon="70.0457509695232"><ele>2024.6</ele></trkpt><trkpt lat="41.54738917030203" lon="70.04571069803836"><ele>2029.9</ele></trkpt><trkpt lat="41.54754843502401" lon="70.04589947311851"><ele>2042.3</ele></trkpt><trkpt lat="41.547795658684656" lon="70.04602982279711"><ele>2053.4</ele></trkpt><trkpt lat="41.54791253355668" lon="70.04606554502476"><ele>2056.7</ele></trkpt><trkpt lat="41.54797642111626" lon="70.04597563023118"><ele>2060.0</ele></trkpt><trkpt lat="41.54810782965112" lon="70.04600453036936"><ele>2064.3</ele></trkpt><trkpt lat="41.548264066526684" lon="70.0457717596646"><ele>2065.6</ele></trkpt><trkpt lat="41.54846829476807" lon="70.04534448875337"><ele>2065.6</ele></trkpt><trkpt lat="41.54866586174733" lon="70.04460966615201"><ele>2065.0</ele></trkpt><trkpt lat="41.54901709083708" lon="70.04424340164631"><ele>2077.1</ele></trkpt><trkpt lat="41.54918907221524" lon="70.04392480567593"><ele>2076.6</ele></trkpt><trkpt lat="41.54976027026422" lon="70.04319892510809"><ele>2093.5</ele></trkpt><trkpt lat="41.550538264148436" lon="70.04237706657642"><ele>2118.9</ele></trkpt><trkpt lat="41.551154851706926" lon="70.04208706769546"><ele>2121.2</ele></trkpt><trkpt lat="41.55140494166246" lon="70.04185035576035"><ele>2118.6</ele></trkpt><trkpt lat="41.55157298713907" lon="70.04160092768728"><ele>2123.0</ele></trkpt><trkpt lat="41.55166018911611" lon="70.04158700327967"><ele>2125.4</ele></trkpt><trkpt lat="41.55189514999875" lon="70.04133122176151"><ele>2132.3</ele></trkpt><trkpt lat="41.55195389021939" lon="70.04132002193175"><ele>2133.2</ele></trkpt><trkpt lat="41.551947380349574" lon="70.04122890658618"><ele>2136.8</ele></trkpt><trkpt lat="41.55220898628074" lon="70.04107392280417"><ele>2140.1</ele></trkpt><trkpt lat="41.552190516417554" lon="70.04103320749094"><ele>2137.3</ele></trkpt><trkpt lat="41.5522344201907" lon="70.04103123983636"><ele>2136.9</ele></trkpt><trkpt lat="41.5522217032357" lon="70.04105802914525"><ele>2138.1</ele></trkpt><trkpt lat="41.552197177679645" lon="70.04096600711513"><ele>2137.5</ele></trkpt><trkpt lat="41.55216765617701" lon="70.04105409124145"><ele>2139.0</ele></trkpt><trkpt lat="41.552214436404306" lon="70.04088442839048"><ele>2140.2</ele></trkpt><trkpt lat="41.55219414983323" lon="70.04105847842904"><ele>2143.1</ele></trkpt><trkpt lat="41.55211982098433" lon="70.04098790340107"><ele>2138.7</ele></trkpt><trkpt lat="41.552109062468325" lon="70.0410329928619"><ele>2127.6</ele></trkpt><trkpt lat="41.55201037090967" lon="70.04105390588603"><ele>2122.1</ele></trkpt><trkpt lat="41.552048640099684" lon="70.04106978098277"><ele>2107.2</ele></trkpt><trkpt lat="41.55203219022837" lon="70.04104958303384"><ele>2099.2</ele></trkpt><trkpt lat="41.55184016649887" lon="70.041190401566"><ele>2094.9</ele></trkpt><trkpt lat="41.55185404648552" lon="70.04131452261167"><ele>2090.2</ele></trkpt><trkpt lat="41.55170764204323" lon="70.04137081749087"><ele>2085.4</ele></trkpt><trkpt lat="41.55152100588836" lon="70.04158043334269"><ele>2081.1</ele></trkpt><trkpt lat="41.55149808200331" lon="70.04164773604316"><ele>2079.8</ele></trkpt><trkpt lat="41.551398966546174" lon="70.04169430661727"><ele>2076.3</ele></trkpt><trkpt lat="41.55133292802043" lon="70.04181856005965"><ele>2073.7</ele></trkpt><trkpt lat="41.551071650570755" lon="70.04203695061942"><ele>2075.5</ele></trkpt><trkpt lat="41.55085309653218" lon="70.04208359397849"><ele>2075.4</ele></trkpt><trkpt lat="41.5504676038741" lon="70.04245900829402"><ele>2075.2</ele></trkpt><trkpt lat="41.550193025314215" lon="70.04265693917193"><ele>2074.1</ele></trkpt><trkpt lat="41.55014199893072" lon="70.04277880521565"><ele>2073.7</ele></trkpt><trkpt lat="41.549937464020275" lon="70.04302309197206"><ele>2071.6</ele></trkpt><trkpt lat="41.5496829625722" lon="70.04315473654364"><ele>2069.6</ele></trkpt><trkpt lat="41.54938226823926" lon="70.04357384849132"><ele>2068.8</ele></trkpt><trkpt lat="41.54922637936685" lon="70.04371909991798"><ele>2068.4</ele></trkpt><trkpt lat="41.54898396749202" lon="70.0441663845538"><ele>2079.5</ele></trkpt><trkpt lat="41.54859428584826" lon="70.04456791475137"><ele>2087.1</ele></trkpt><trkpt lat="41.54832071992371" lon="70.04526504979911"><ele>2101.2</ele></trkpt><trkpt lat="41.547971457838514" lon="70.04582157182895"><ele>2116.7</ele></trkpt><trkpt lat="41.54777419434111" lon="70.04583110412555"><ele>2115.0</ele></trkpt><trkpt lat="41.54768563023157" lon="70.04589240885615"><ele>2109.1</ele></trkpt><trkpt lat="41.54734454432775" lon="70.04571106023312"><ele>2096.5</ele></trkpt><trkpt lat="41.547269607419516" lon="70.04572029300715"><ele>2094.3</ele></trkpt><trkpt lat="41.54724962363309" lon="70.04567352117671"><ele>2093.9</ele></trkpt><trkpt lat="41.5472638545113" lon="70.04556302115726"><ele>2089.9</ele></trkpt><trkpt lat="41.54722509807706" lon="70.04551942591634"><ele>2088.4</ele></trkpt><trkpt lat="41.5471707482337" lon="70.04551231055818"><ele>2087.4</ele></trkpt><trkpt lat="41.54709535485772" lon="70.04561115168389"><ele>2084.0</ele></trkpt><trkpt lat="41.547007850096016" lon="70.04555211579371"><ele>2079.6</ele></trkpt><trkpt lat="41.54695032101393" lon="70.04545206047713"><ele>2076.5</ele></trkpt><trkpt lat="41.54689188357792" lon="70.04545705389535"><ele>2074.1</ele></trkpt><trkpt lat="41.54683935044243" lon="70.04537819322867"><ele>2071.7</ele></trkpt><trkpt lat="41.54679892869266" lon="70.04539590537958"><ele>2070.6</ele></trkpt><trkpt lat="41.54662588726945" lon="70.04532445985978"><ele>2061.3</ele></trkpt><trkpt lat="41.54655412730916" lon="70.0454049889911"><ele>2056.8</ele></trkpt><trkpt lat="41.54648842304173" lon="70.04540302007246"><ele>2053.8</ele></trkpt><trkpt lat="41.54639622785707" lon="70.04531538050628"><ele>2048.3</ele></trkpt><trkpt lat="41.54619700343069" lon="70.04523682082585"><ele>2035.8</ele></trkpt><trkpt lat="41.54614053827806" lon="70.04524832536764"><ele>2032.4</ele></trkpt><trkpt lat="41.546062727903724" lon="70.0451883837243"><ele>2028.5</ele></trkpt><trkpt lat="41.54601231779654" lon="70.0452227428647"><ele>2024.7</ele></trkpt><trkpt lat="41.545912101806856" lon="70.0451372223111"><ele>2018.1</ele></trkpt><trkpt lat="41.54574179819424" lon="70.04508938851279"><ele>2010.9</ele></trkpt><trkpt lat="41.54567640114366" lon="70.04502460327906"><ele>2007.0</ele></trkpt><trkpt lat="41.5456275047605" lon="70.04505063899124"><ele>2003.9</ele></trkpt><trkpt lat="41.54556997906482" lon="70.0449581550363"><ele>1999.8</ele></trkpt><trkpt lat="41.545371669316985" lon="70.04495951466387"><ele>1990.0</ele></trkpt><trkpt lat="41.545209389796206" lon="70.04486082749087"><ele>1983.8</ele></trkpt><trkpt lat="41.545038477377304" lon="70.04504187419622"><ele>1972.9</ele></trkpt><trkpt lat="41.544983979279046" lon="70.0450455078537"><ele>1970.0</ele></trkpt><trkpt lat="41.54498291953279" lon="70.04509591560371"><ele>1967.8</ele></trkpt><trkpt lat="41.54484425318032" lon="70.04505519796189"><ele>1960.6</ele></trkpt><trkpt lat="41.544809736527874" lon="70.04518976464182"><ele>1957.1</ele></trkpt><trkpt lat="41.544773555854704" lon="70.04522639528385"><ele>1954.6</ele></trkpt><trkpt lat="41.54464987380623" lon="70.0451685741168"><ele>1950.1</ele></trkpt><trkpt lat="41.54457751106547" lon="70.04508183923927"><ele>1946.6</ele></trkpt><trkpt lat="41.544470482222124" lon="70.04519158626074"><ele>1942.5</ele></trkpt><trkpt lat="41.544126389836116" lon="70.04527741205857"><ele>1931.8</ele></trkpt><trkpt lat="41.54397440359879" lon="70.04538488531641"><ele>1927.2</ele></trkpt><trkpt lat="41.54376988347895" lon="70.04544664165948"><ele>1923.8</ele></trkpt><trkpt lat="41.54349088117568" lon="70.04546238236361"><ele>1921.8</ele></trkpt><trkpt lat="41.5431570802803" lon="70.04556683098873"><ele>1914.2</ele></trkpt><trkpt lat="41.54294453641726" lon="70.04557137412513"><ele>1909.6</ele></trkpt><trkpt lat="41.54281358918078" lon="70.04560800729534"><ele>1907.0</ele></trkpt><trkpt lat="41.54271488905651" lon="70.04568672518646"><ele>1903.2</ele></trkpt><trkpt lat="41.54259136258357" lon="70.04564312901411"><ele>1906.0</ele></trkpt><trkpt lat="41.5425843987361" lon="70.04558029713084"><ele>1885.9</ele></trkpt><trkpt lat="41.542589395230486" lon="70.04564933649034"><ele>1885.4</ele></trkpt><trkpt lat="41.542636778537094" lon="70.04561860395519"><ele>1882.6</ele></trkpt><trkpt lat="41.54274002237319" lon="70.04567551976831"><ele>1879.1</ele></trkpt><trkpt lat="41.54280511723674" lon="70.04565856713538"><ele>1879.0</ele></trkpt><trkpt lat="41.543137555850215" lon="70.04603366922089"><ele>1865.2</ele></trkpt><trkpt lat="41.54320083530072" lon="70.04636986517085"><ele>1856.5</ele></trkpt><trkpt lat="41.5430638347618" lon="70.04644206821271"><ele>1850.5</ele></trkpt><trkpt lat="41.54292320115575" lon="70.04646432123792"><ele>1846.0</ele></trkpt><trkpt lat="41.542784081124324" lon="70.04662991957645"><ele>1845.0</ele></trkpt><trkpt lat="41.5429875403027" lon="70.04668168934914"><ele>1839.8</ele></trkpt><trkpt lat="41.54301615131003" lon="70.04683866553523"><ele>1837.1</ele></trkpt><trkpt lat="41.54309880698544" lon="70.04686575656213"><ele>1832.8</ele></trkpt><trkpt lat="41.5431184864434" lon="70.0472419097045"><ele>1822.4</ele></trkpt><trkpt lat="41.543170713806234" lon="70.04727611875091"><ele>1821.0</ele></trkpt><trkpt lat="41.54337023633605" lon="70.04725644034262"><ele>1815.3</ele></trkpt><trkpt lat="41.54342866978805" lon="70.04745518655797"><ele>1809.2</ele></trkpt><trkpt lat="41.54353463714214" lon="70.04752981345747"><ele>1805.1</ele></trkpt><trkpt lat="41.54355401431346" lon="70.04758248858415"><ele>1803.2</ele></trkpt><trkpt lat="41.54345849263115" lon="70.04797362677147"><ele>1803.2</ele></trkpt><trkpt lat="41.543489373726494" lon="70.04825880767648"><ele>1800.7</ele></trkpt><trkpt lat="41.54342685273161" lon="70.04835431998978"><ele>1799.0</ele></trkpt><trkpt lat="41.54321703711755" lon="70.04851704312426"><ele>1792.2</ele></trkpt><trkpt lat="41.54318933471316" lon="70.04866039003433"><ele>1791.3</ele></trkpt><trkpt lat="41.54311424840461" lon="70.04882084313088"><ele>1787.6</ele></trkpt><trkpt lat="41.54314301194966" lon="70.04926571641687"><ele>1782.5</ele></trkpt><trkpt lat="41.54305278795279" lon="70.04941148545477"><ele>1781.1</ele></trkpt><trkpt lat="41.542807850266406" lon="70.0496320322845"><ele>1774.9</ele></trkpt><trkpt lat="41.542659950575924" lon="70.04987225632496"><ele>1765.1</ele></trkpt><trkpt lat="41.542436814529204" lon="70.05012807722947"><ele>1750.9</ele></trkpt><trkpt lat="41.54239185494401" lon="70.0502011897502"><ele>1747.3</ele></trkpt><trkpt lat="41.542386556362175" lon="70.0503166902402"><ele>1740.1</ele></trkpt><trkpt lat="41.54240215011985" lon="70.05028035033871"><ele>1734.2</ele></trkpt><trkpt lat="41.54234189986038" lon="70.05028822042465"><ele>1732.8</ele></trkpt><trkpt lat="41.54213253922008" lon="70.05045291261085"><ele>1726.7</ele></trkpt><trkpt lat="41.542012796459574" lon="70.05061291396186"><ele>1720.6</ele></trkpt><trkpt lat="41.54188654263403" lon="70.05088280683971"><ele>1712.4</ele></trkpt><trkpt lat="41.54189380911685" lon="70.05103327030548"><ele>1708.9</ele></trkpt><trkpt lat="41.54183098553653" lon="70.05121067843005"><ele>1707.3</ele></trkpt><trkpt lat="41.54174545420361" lon="70.05179860136552"><ele>1700.5</ele></trkpt><trkpt lat="41.54163766904608" lon="70.05211118266672"><ele>1696.7</ele></trkpt><trkpt lat="41.54136381619823" lon="70.05236018959853"><ele>1690.7</ele></trkpt><trkpt lat="41.54085017148398" lon="70.05320728194418"><ele>1677.4</ele></trkpt><trkpt lat="41.54069545809325" lon="70.0533931742359"><ele>1670.4</ele></trkpt><trkpt lat="41.54046278091899" lon="70.053832621386"><ele>1654.1</ele></trkpt><trkpt lat="41.54037815776571" lon="70.05390830785831"><ele>1653.3</ele></trkpt><trkpt lat="41.54026673899327" lon="70.05412038342797"><ele>1649.3</ele></trkpt><trkpt lat="41.54011944220779" lon="70.05460705189195"><ele>1638.9</ele></trkpt><trkpt lat="41.54001347353399" lon="70.054737840276"><ele>1633.3</ele></trkpt><trkpt lat="41.539900086487094" lon="70.05509675071015"><ele>1624.7</ele></trkpt><trkpt lat="41.53988343442735" lon="70.05518333921947"><ele>1623.6</ele></trkpt><trkpt lat="41.53992718474149" lon="70.05534894474343"><ele>1617.5</ele></trkpt><trkpt lat="41.53992748730203" lon="70.0554836710978"><ele>1614.2</ele></trkpt><trkpt lat="41.53986996170595" lon="70.05569015859508"><ele>1608.1</ele></trkpt><trkpt lat="41.53972463329455" lon="70.0558668221046"><ele>1603.7</ele></trkpt><trkpt lat="41.539360405406114" lon="70.05606618013911"><ele>1592.4</ele></trkpt><trkpt lat="41.5392883466452" lon="70.05621528437642"><ele>1590.2</ele></trkpt><trkpt lat="41.53913575231122" lon="70.05630034905955"><ele>1585.9</ele></trkpt><trkpt lat="41.53864299996142" lon="70.05679744745652"><ele>1573.0</ele></trkpt><trkpt lat="41.53850811738362" lon="70.0570980912321"><ele>1569.9</ele></trkpt><trkpt lat="41.53849040515433" lon="70.05768089806622"><ele>1562.6</ele></trkpt><trkpt lat="41.53844408168116" lon="70.05786603336811"><ele>1559.3</ele></trkpt><trkpt lat="41.53809256947781" lon="70.0584618866666"><ele>1551.0</ele></trkpt><trkpt lat="41.53808166989054" lon="70.0585769398021"><ele>1549.1</ele></trkpt><trkpt lat="41.53812875016346" lon="70.05876375035476"><ele>1546.8</ele></trkpt><trkpt lat="41.538087271032936" lon="70.05896599769788"><ele>1543.6</ele></trkpt><trkpt lat="41.53814047541214" lon="70.05910429357367"><ele>1536.8</ele></trkpt><trkpt lat="41.538154636675465" lon="70.05908180529482"><ele>1536.6</ele></trkpt><trkpt lat="41.53815160903445" lon="70.05913902967873"><ele>1535.0</ele></trkpt><trkpt lat="41.53800976276471" lon="70.05978875765796"><ele>1530.1</ele></trkpt><trkpt lat="41.53788532563462" lon="70.05989337287674"><ele>1526.5</ele></trkpt><trkpt lat="41.53795693027458" lon="70.06006640512392"><ele>1525.0</ele></trkpt><trkpt lat="41.53814661361077" lon="70.06017979817769"><ele>1521.7</ele></trkpt><trkpt lat="41.53825576100041" lon="70.0604360878597"><ele>1518.2</ele></trkpt><trkpt lat="41.53832252125417" lon="70.06074475740377"><ele>1514.7</ele></trkpt><trkpt lat="41.53851008552116" lon="70.06109112102148"><ele>1509.6</ele></trkpt><trkpt lat="41.53854202757041" lon="70.06153026798366"><ele>1505.9</ele></trkpt><trkpt lat="41.538604700318665" lon="70.06169330141877"><ele>1501.2</ele></trkpt><trkpt lat="41.53867312568877" lon="70.06211156003977"><ele>1498.3</ele></trkpt><trkpt lat="41.53871778419499" lon="70.06214078099042"><ele>1497.8</ele></trkpt><trkpt lat="41.53877061707732" lon="70.06225462299545"><ele>1498.4</ele></trkpt><trkpt lat="41.53880407293773" lon="70.06223251793517"><ele>1498.4</ele></trkpt><trkpt lat="41.538860236239465" lon="70.06227006537448"><ele>1499.9</ele></trkpt><trkpt lat="41.53885418063377" lon="70.06232895782382"><ele>1502.0</ele></trkpt><trkpt lat="41.5388034671568" lon="70.06235453979455"><ele>1500.0</ele></trkpt><trkpt lat="41.53886417179242" lon="70.0623449957885"><ele>1499.3</ele></trkpt><trkpt lat="41.53887068131364" lon="70.06227763074838"><ele>1498.4</ele></trkpt><trkpt lat="41.53888339735977" lon="70.06232546042185"><ele>1498.6</ele></trkpt><trkpt lat="41.53880785716063" lon="70.06228413162619"><ele>1499.6</ele></trkpt><trkpt lat="41.538821784283094" lon="70.06220193336497"><ele>1500.6</ele></trkpt><trkpt lat="41.53864330349314" lon="70.0621023287294"><ele>1503.4</ele></trkpt><trkpt lat="41.53854717527044" lon="70.06183438441163"><ele>1506.0</ele></trkpt><trkpt lat="41.53852931194763" lon="70.06169027745135"><ele>1506.6</ele></trkpt><trkpt lat="41.53849055782909" lon="70.06168740384409"><ele>1505.9</ele></trkpt><trkpt lat="41.538441357926736" lon="70.06160626555487"><ele>1507.4</ele></trkpt><trkpt lat="41.53842818757914" lon="70.06133544124287"><ele>1510.9</ele></trkpt><trkpt lat="41.53836748279411" lon="70.06112531875749"><ele>1513.1</ele></trkpt><trkpt lat="41.53836733151383" lon="70.06101162684644"><ele>1512.4</ele></trkpt><trkpt lat="41.53830178234878" lon="70.06075957545572"><ele>1511.8</ele></trkpt><trkpt lat="41.53825712415382" lon="70.06072339349879"><ele>1509.7</ele></trkpt><trkpt lat="41.53817961565529" lon="70.06045256386432"><ele>1511.6</ele></trkpt><trkpt lat="41.538108465366584" lon="70.06034628749931"><ele>1512.1</ele></trkpt><trkpt lat="41.53807622048913" lon="70.06012436773575"><ele>1510.4</ele></trkpt><trkpt lat="41.53799916634809" lon="70.06004595189539"><ele>1510.2</ele></trkpt><trkpt lat="41.53781811192915" lon="70.05996418981148"><ele>1508.9</ele></trkpt><trkpt lat="41.53773288330928" lon="70.06004760718687"><ele>1507.5</ele></trkpt><trkpt lat="41.537744691182" lon="70.0599965800332"><ele>1500.5</ele></trkpt><trkpt lat="41.53770412054235" lon="70.05995372980648"><ele>1499.8</ele></trkpt><trkpt lat="41.53776997214029" lon="70.05988227630296"><ele>1498.3</ele></trkpt><trkpt lat="41.537870944802116" lon="70.05986320026645"><ele>1496.1</ele></trkpt><trkpt lat="41.53794027858217" lon="70.05973331444206"><ele>1498.4</ele></trkpt><trkpt lat="41.53804458172254" lon="70.05942887733458"><ele>1499.0</ele></trkpt><trkpt lat="41.53812042470633" lon="70.05907659911034"><ele>1500.8</ele></trkpt><trkpt lat="41.5381702298854" lon="70.0589840983896"><ele>1498.9</ele></trkpt><trkpt lat="41.53810785995913" lon="70.05903753662693"><ele>1500.3</ele></trkpt><trkpt lat="41.53815978451865" lon="70.05904389645895"><ele>1499.5</ele></trkpt><trkpt lat="41.53813737937639" lon="70.0590170943097"><ele>1499.6</ele></trkpt><trkpt lat="41.53809862453582" lon="70.05904313933628"><ele>1500.8</ele></trkpt><trkpt lat="41.53815282048439" lon="70.05906812439082"><ele>1501.5</ele></trkpt><trkpt lat="41.53818355186186" lon="70.05903723377811"><ele>1502.6</ele></trkpt><trkpt lat="41.53812390649319" lon="70.05904586205138"><ele>1503.4</ele></trkpt><trkpt lat="41.53816795910641" lon="70.05902451358175"><ele>1502.7</ele></trkpt><trkpt lat="41.53812875057435" lon="70.0590547931738"><ele>1502.7</ele></trkpt><trkpt lat="41.53812526878129" lon="70.05915818608493"><ele>1503.0</ele></trkpt><trkpt lat="41.53797660993177" lon="70.05973616383245"><ele>1499.8</ele></trkpt><trkpt lat="41.537895165531694" lon="70.05985576582596"><ele>1498.4</ele></trkpt><trkpt lat="41.53776527882269" lon="70.0598811979688"><ele>1498.4</ele></trkpt><trkpt lat="41.53770321179935" lon="70.05997293890546"><ele>1499.1</ele></trkpt><trkpt lat="41.53749611987758" lon="70.0600388040705"><ele>1504.7</ele></trkpt><trkpt lat="41.53739696401154" lon="70.05994054708698"><ele>1505.9</ele></trkpt><trkpt lat="41.53702380467719" lon="70.0597914085194"><ele>1512.4</ele></trkpt><trkpt lat="41.53676282039608" lon="70.0598497011252"><ele>1517.4</ele></trkpt><trkpt lat="41.53671710273498" lon="70.0598218390038"><ele>1516.0</ele></trkpt><trkpt lat="41.53658812374808" lon="70.05993101399173"><ele>1520.6</ele></trkpt><trkpt lat="41.53676781576065" lon="70.06009513427739"><ele>1525.4</ele></trkpt><trkpt lat="41.53682882310311" lon="70.06053325080735"><ele>1533.1</ele></trkpt><trkpt lat="41.537016538002966" lon="70.06061469886491"><ele>1537.2</ele></trkpt><trkpt lat="41.536925859595684" lon="70.06076701894496"><ele>1541.5</ele></trkpt><trkpt lat="41.53681474448561" lon="70.0608109307404"><ele>1543.6</ele></trkpt><trkpt lat="41.53688634863694" lon="70.06090737941112"><ele>1546.1</ele></trkpt><trkpt lat="41.53689255533928" lon="70.061009891984"><ele>1549.2</ele></trkpt><trkpt lat="41.53677750427165" lon="70.06100701491714"><ele>1552.0</ele></trkpt><trkpt lat="41.53673148384459" lon="70.06104062824487"><ele>1553.8</ele></trkpt><trkpt lat="41.536592362496556" lon="70.06094432514398"><ele>1557.7</ele></trkpt><trkpt lat="41.5365381671954" lon="70.06099216732521"><ele>1560.5</ele></trkpt><trkpt lat="41.53648609123111" lon="70.06096355020999"><ele>1563.1</ele></trkpt><trkpt lat="41.53645536050098" lon="70.06104076795997"><ele>1572.2</ele></trkpt><trkpt lat="41.53629428859541" lon="70.06115478720362"><ele>1579.1</ele></trkpt><trkpt lat="41.53622450058236" lon="70.0612530505741"><ele>1582.8</ele></trkpt><trkpt lat="41.5361890767463" lon="70.06123715099396"><ele>1584.7</ele></trkpt><trkpt lat="41.53614123921295" lon="70.0611078546343"><ele>1587.9</ele></trkpt><trkpt lat="41.53585724162293" lon="70.0613056066103"><ele>1598.8</ele></trkpt><trkpt lat="41.535794265903284" lon="70.0614394571505"><ele>1601.6</ele></trkpt><trkpt lat="41.535622293650995" lon="70.06159600940099"><ele>1601.8</ele></trkpt><trkpt lat="41.53553661022856" lon="70.06173634511764"><ele>1605.5</ele></trkpt><trkpt lat="41.53535631214548" lon="70.06174633887333"><ele>1617.8</ele></trkpt><trkpt lat="41.53525321955231" lon="70.06194465183876"><ele>1619.4</ele></trkpt><trkpt lat="41.53517661958199" lon="70.06221153804734"><ele>1619.6</ele></trkpt><trkpt lat="41.53507988550364" lon="70.06236261293309"><ele>1621.8</ele></trkpt><trkpt lat="41.53491078986738" lon="70.06251462723675"><ele>1624.4</ele></trkpt><trkpt lat="41.53490988156326" lon="70.06259425154633"><ele>1625.3</ele></trkpt><trkpt lat="41.53496680181415" lon="70.06273064090975"><ele>1624.6</ele></trkpt><trkpt lat="41.53497921493869" lon="70.06296602708149"><ele>1629.0</ele></trkpt><trkpt lat="41.53512060800878" lon="70.06311744313824"><ele>1634.0</ele></trkpt><trkpt lat="41.535211438309496" lon="70.06329125512879"><ele>1640.4</ele></trkpt><trkpt lat="41.535064595713415" lon="70.06348351749837"><ele>1650.9</ele></trkpt><trkpt lat="41.53504415884564" lon="70.06363156681999"><ele>1652.2</ele></trkpt><trkpt lat="41.534971494702184" lon="70.06375238207296"><ele>1656.0</ele></trkpt><trkpt lat="41.53496952671407" lon="70.06386546801963"><ele>1658.5</ele></trkpt><trkpt lat="41.535041282926905" lon="70.06395964292665"><ele>1660.9</ele></trkpt><trkpt lat="41.535110919697026" lon="70.06414569130011"><ele>1662.1</ele></trkpt><trkpt lat="41.53533088011553" lon="70.064361007462"><ele>1667.0</ele></trkpt><trkpt lat="41.53547545125409" lon="70.06443989221289"><ele>1669.4</ele></trkpt><trkpt lat="41.535535399438544" lon="70.06454919281137"><ele>1671.1</ele></trkpt><trkpt lat="41.535500429443296" lon="70.06460657128106"><ele>1670.9</ele></trkpt><trkpt lat="41.53553176620958" lon="70.06462686217384"><ele>1670.1</ele></trkpt><trkpt lat="41.53550618273748" lon="70.06458325775169"><ele>1674.1</ele></trkpt><trkpt lat="41.53552434845898" lon="70.06455751557426"><ele>1677.4</ele></trkpt><trkpt lat="41.5354964941518" lon="70.06457023523832"><ele>1679.0</ele></trkpt><trkpt lat="41.535430491220694" lon="70.06451451099555"><ele>1682.7</ele></trkpt><trkpt lat="41.535293488552895" lon="70.06451905373278"><ele>1685.0</ele></trkpt><trkpt lat="41.53503356396045" lon="70.06441141428053"><ele>1688.4</ele></trkpt><trkpt lat="41.534911548671715" lon="70.06443639906888"><ele>1690.3</ele></trkpt><trkpt lat="41.534799827513034" lon="70.06456841521612"><ele>1695.5</ele></trkpt><trkpt lat="41.534406683990014" lon="70.06466168184183"><ele>1695.7</ele></trkpt><trkpt lat="41.53433507977954" lon="70.06475992924486"><ele>1696.8</ele></trkpt><trkpt lat="41.534152662515325" lon="70.06540390788061"><ele>1696.1</ele></trkpt><trkpt lat="41.53385050019979" lon="70.06591890205402"><ele>1699.2</ele></trkpt><trkpt lat="41.53383475602089" lon="70.06603561819857"><ele>1700.5</ele></trkpt><trkpt lat="41.533901971995434" lon="70.06644645914449"><ele>1704.9</ele></trkpt><trkpt lat="41.533781320831196" lon="70.0667682893202"><ele>1708.8</ele></trkpt><trkpt lat="41.53374635154558" lon="70.06713537255645"><ele>1712.0</ele></trkpt><trkpt lat="41.53382522467907" lon="70.06756574168368"><ele>1712.9</ele></trkpt><trkpt lat="41.5339937149701" lon="70.06785865695137"><ele>1714.2</ele></trkpt><trkpt lat="41.534037768044" lon="70.06799975165376"><ele>1716.9</ele></trkpt><trkpt lat="41.53390303637298" lon="70.06833128071968"><ele>1718.5</ele></trkpt><trkpt lat="41.53378404845758" lon="70.06843196102858"><ele>1718.2</ele></trkpt><trkpt lat="41.53365385850642" lon="70.06864178252772"><ele>1717.8</ele></trkpt><trkpt lat="41.53374741385643" lon="70.06874216717283"><ele>1714.7</ele></trkpt><trkpt lat="41.53376906226117" lon="70.0689061259212"><ele>1714.0</ele></trkpt><trkpt lat="41.53381190461978" lon="70.06897456982806"><ele>1711.4</ele></trkpt><trkpt lat="41.53394981488214" lon="70.06898925801164"><ele>1707.7</ele></trkpt><trkpt lat="41.53405820628129" lon="70.06911978306594"><ele>1703.8</ele></trkpt><trkpt lat="41.534349925240754" lon="70.06907284251291"><ele>1695.8</ele></trkpt><trkpt lat="41.5343973082734" lon="70.06889645816744"><ele>1695.1</ele></trkpt><trkpt lat="41.53445983013979" lon="70.0689710987723"><ele>1701.8</ele></trkpt><trkpt lat="41.53443697044711" lon="70.06891477175867"><ele>1707.2</ele></trkpt><trkpt lat="41.53440563353141" lon="70.06891446890955"><ele>1709.3</ele></trkpt><trkpt lat="41.534344019620555" lon="70.06902923409883"><ele>1711.4</ele></trkpt><trkpt lat="41.53422881327618" lon="70.06911706035102"><ele>1720.5</ele></trkpt><trkpt lat="41.53417370983275" lon="70.0690832982599"><ele>1722.0</ele></trkpt><trkpt lat="41.53414101031143" lon="70.06913251151217"><ele>1723.0</ele></trkpt><trkpt lat="41.53405699183103" lon="70.06915522519807"><ele>1723.8</ele></trkpt><trkpt lat="41.533957987004825" lon="70.06907709304592"><ele>1726.3</ele></trkpt><trkpt lat="41.5339428483454" lon="70.06901652321683"><ele>1724.9</ele></trkpt><trkpt lat="41.53382809924069" lon="70.06901879458542"><ele>1725.0</ele></trkpt><trkpt lat="41.53374105373557" lon="70.06892748849543"><ele>1724.2</ele></trkpt><trkpt lat="41.533716680542945" lon="70.06896518123847"><ele>1723.4</ele></trkpt><trkpt lat="41.533725914603046" lon="70.06904798972207"><ele>1722.5</ele></trkpt><trkpt lat="41.533881536671394" lon="70.0692478355619"><ele>1709.8</ele></trkpt><trkpt lat="41.533908180624344" lon="70.06938425153767"><ele>1704.8</ele></trkpt><trkpt lat="41.53411224791182" lon="70.06973989995664"><ele>1703.4</ele></trkpt><trkpt lat="41.53439412699289" lon="70.0698113603794"><ele>1697.7</ele></trkpt><trkpt lat="41.53444968521092" lon="70.06987949105829"><ele>1697.8</ele></trkpt><trkpt lat="41.53441304953906" lon="70.07009143383196"><ele>1704.1</ele></trkpt><trkpt lat="41.53427544176247" lon="70.0704774507285"><ele>1710.4</ele></trkpt><trkpt lat="41.534014606761836" lon="70.0706906424223"><ele>1716.6</ele></trkpt><trkpt lat="41.533946029252384" lon="70.0708694719153"><ele>1721.9</ele></trkpt><trkpt lat="41.533951630668675" lon="70.07107008312788"><ele>1725.0</ele></trkpt><trkpt lat="41.53408257952366" lon="70.07117743729519"><ele>1727.1</ele></trkpt><trkpt lat="41.53419899391901" lon="70.07116365765904"><ele>1729.2</ele></trkpt><trkpt lat="41.534241381752054" lon="70.07127994321496"><ele>1728.6</ele></trkpt><trkpt lat="41.534311926863666" lon="70.07127706588194"><ele>1728.4</ele></trkpt><trkpt lat="41.53441532296358" lon="70.07117818563597"><ele>1728.5</ele></trkpt><trkpt lat="41.53441865361952" lon="70.07113063832013"><ele>1720.1</ele></trkpt><trkpt lat="41.5344752718826" lon="70.07112912407439"><ele>1714.7</ele></trkpt><trkpt lat="41.53446497795174" lon="70.07115289773235"><ele>1713.4</ele></trkpt><trkpt lat="41.53449283289387" lon="70.07110944180735"><ele>1712.2</ele></trkpt><trkpt lat="41.53445695495551" lon="70.0711666627316"><ele>1713.6</ele></trkpt><trkpt lat="41.53452598858406" lon="70.07110700144996"><ele>1715.2</ele></trkpt><trkpt lat="41.53445483451682" lon="70.07110155016527"><ele>1717.6</ele></trkpt><trkpt lat="41.53450070312831" lon="70.07107581091539"><ele>1716.3</ele></trkpt><trkpt lat="41.53463664611221" lon="70.07113410937582"><ele>1716.9</ele></trkpt><trkpt lat="41.53476562547262" lon="70.07109564753438"><ele>1720.2</ele></trkpt><trkpt lat="41.5349385062905" lon="70.07080707620925"><ele>1728.2</ele></trkpt><trkpt lat="41.53504144772792" lon="70.07085779758643"><ele>1735.0</ele></trkpt><trkpt lat="41.53534436812557" lon="70.07071576612739"><ele>1746.9</ele></trkpt><trkpt lat="41.53537191961073" lon="70.07081024494805"><ele>1749.0</ele></trkpt><trkpt lat="41.53533694952831" lon="70.07088745657718"><ele>1752.7</ele></trkpt><trkpt lat="41.53536329031066" lon="70.07094816691975"><ele>1754.4</ele></trkpt><trkpt lat="41.53533922028862" lon="70.07100554831683"><ele>1757.4</ele></trkpt><trkpt lat="41.535372524731805" lon="70.07108139419746"><ele>1760.1</ele></trkpt><trkpt lat="41.53532317338732" lon="70.0712121765937"><ele>1764.5</ele></trkpt><trkpt lat="41.5353710105098" lon="70.07126516587978"><ele>1767.4</ele></trkpt><trkpt lat="41.53536056529869" lon="70.07149374167149"><ele>1772.5</ele></trkpt><trkpt lat="41.53542429794259" lon="70.07155172770238"><ele>1774.8</ele></trkpt><trkpt lat="41.53549257204488" lon="70.07172447679355"><ele>1779.1</ele></trkpt><trkpt lat="41.535404314965426" lon="70.0718693765373"><ele>1784.0</ele></trkpt><trkpt lat="41.53548469988072" lon="70.07196764815761"><ele>1787.5</ele></trkpt><trkpt lat="41.53548560786114" lon="70.07210891530836"><ele>1791.9</ele></trkpt><trkpt lat="41.53535723378366" lon="70.07215963641934"><ele>1795.3</ele></trkpt><trkpt lat="41.53535783936539" lon="70.07230740391564"><ele>1798.0</ele></trkpt><trkpt lat="41.53532877380762" lon="70.0723947591283"><ele>1799.6</ele></trkpt><trkpt lat="41.53534482019848" lon="70.07269346818218"><ele>1808.7</ele></trkpt><trkpt lat="41.53541581936257" lon="70.0728489639203"><ele>1813.2</ele></trkpt><trkpt lat="41.5353919007951" lon="70.07294556241885"><ele>1816.4</ele></trkpt><trkpt lat="41.5354185442874" lon="70.07299143767742"><ele>1817.2</ele></trkpt><trkpt lat="41.53552481573339" lon="70.07299113748951"><ele>1820.3</ele></trkpt><trkpt lat="41.5355956634429" lon="70.07308696901862"><ele>1822.2</ele></trkpt><trkpt lat="41.53572328060857" lon="70.0730406360267"><ele>1825.2</ele></trkpt><trkpt lat="41.53578398589159" lon="70.07314147308267"><ele>1826.7</ele></trkpt><trkpt lat="41.535681652550714" lon="70.07308968587905"><ele>1823.8</ele></trkpt><trkpt lat="41.535706327606675" lon="70.07305334398164"><ele>1829.2</ele></trkpt><trkpt lat="41.53573463564267" lon="70.07307666336577"><ele>1834.8</ele></trkpt><trkpt lat="41.535828341638016" lon="70.07326273755324"><ele>1839.8</ele></trkpt><trkpt lat="41.536008034375804" lon="70.07334738122813"><ele>1838.7</ele></trkpt><trkpt lat="41.536105526187654" lon="70.07347245526395"><ele>1837.5</ele></trkpt><trkpt lat="41.536160024373046" lon="70.0734149136602"><ele>1836.7</ele></trkpt><trkpt lat="41.53651077972686" lon="70.07329407685114"><ele>1830.0</ele></trkpt><trkpt lat="41.53664611633532" lon="70.07330089122307"><ele>1830.2</ele></trkpt><trkpt lat="41.53681157800816" lon="70.07321701638044"><ele>1831.6</ele></trkpt><trkpt lat="41.53705424503307" lon="70.07328059713679"><ele>1844.5</ele></trkpt><trkpt lat="41.537262699626574" lon="70.07314996057653"><ele>1844.7</ele></trkpt><trkpt lat="41.53749840319842" lon="70.07307319949538"><ele>1844.5</ele></trkpt><trkpt lat="41.53773879953693" lon="70.0730574534688"><ele>1843.5</ele></trkpt><trkpt lat="41.537847644054686" lon="70.07297221261159"><ele>1851.3</ele></trkpt><trkpt lat="41.53798146712902" lon="70.07302581691035"><ele>1851.4</ele></trkpt><trkpt lat="41.53819779392015" lon="70.07294693402228"><ele>1848.3</ele></trkpt><trkpt lat="41.53836128808419" lon="70.07282900435217"><ele>1846.6</ele></trkpt><trkpt lat="41.53852750683067" lon="70.07276360517032"><ele>1844.1</ele></trkpt><trkpt lat="41.538799390980756" lon="70.07241712020007"><ele>1841.3</ele></trkpt><trkpt lat="41.53891262531567" lon="70.07233053860999"><ele>1840.0</ele></trkpt><trkpt lat="41.539259595550156" lon="70.07215281778969"><ele>1832.1</ele></trkpt><trkpt lat="41.53940507557798" lon="70.07202884657183"><ele>1825.5</ele></trkpt><trkpt lat="41.5395917314537" lon="70.07195224756019"><ele>1819.2</ele></trkpt><trkpt lat="41.53971344373369" lon="70.07176334261145"><ele>1817.1</ele></trkpt><trkpt lat="41.53978141544973" lon="70.07171187555478"><ele>1815.5</ele></trkpt><trkpt lat="41.53986679661041" lon="70.07170309319565"><ele>1812.5</ele></trkpt><trkpt lat="41.540101745067915" lon="70.07180134166322"><ele>1802.8</ele></trkpt><trkpt lat="41.54050260992301" lon="70.07181904955618"><ele>1793.0</ele></trkpt><trkpt lat="41.54064097488524" lon="70.07169537666336"><ele>1789.6</ele></trkpt><trkpt lat="41.540704253240136" lon="70.0717556223534"><ele>1787.2</ele></trkpt><trkpt lat="41.54072696074372" lon="70.07186718953022"><ele>1784.9</ele></trkpt><trkpt lat="41.54087910146097" lon="70.07187762611629"><ele>1778.0</ele></trkpt><trkpt lat="41.5409220942159" lon="70.07197268455506"><ele>1774.1</ele></trkpt><trkpt lat="41.54095418722173" lon="70.07194029486558"><ele>1772.0</ele></trkpt><trkpt lat="41.54100399288012" lon="70.07203626344851"><ele>1768.6</ele></trkpt><trkpt lat="41.541060913305316" lon="70.07204080166157"><ele>1765.2</ele></trkpt><trkpt lat="41.54109043356297" lon="70.07211527647118"><ele>1763.3</ele></trkpt><trkpt lat="41.54124681338973" lon="70.07206183823384"><ele>1754.7</ele></trkpt><trkpt lat="41.54130131151289" lon="70.07218777690663"><ele>1749.5</ele></trkpt><trkpt lat="41.54142696044143" lon="70.07226452388323"><ele>1741.3</ele></trkpt><trkpt lat="41.54148373007189" lon="70.07236927881712"><ele>1736.9</ele></trkpt><trkpt lat="41.5414470934041" lon="70.0723865412185"><ele>1733.7</ele></trkpt><trkpt lat="41.54146525926253" lon="70.07248525274188"><ele>1731.5</ele></trkpt><trkpt lat="41.54162360701515" lon="70.07235584434396"><ele>1724.5</ele></trkpt><trkpt lat="41.541756975607484" lon="70.0724705786629"><ele>1719.7</ele></trkpt><trkpt lat="41.541766966753684" lon="70.07258137727354"><ele>1716.8</ele></trkpt><trkpt lat="41.54182464371718" lon="70.0726224050829"><ele>1713.8</ele></trkpt><trkpt lat="41.54190987268875" lon="70.07252779373248"><ele>1710.7</ele></trkpt><trkpt lat="41.541988441917105" lon="70.07234313159913"><ele>1705.2</ele></trkpt><trkpt lat="41.542026135716696" lon="70.07233102614929"><ele>1703.2</ele></trkpt><trkpt lat="41.54211878204052" lon="70.07242230908645"><ele>1700.9</ele></trkpt><trkpt lat="41.542234594028905" lon="70.07267432854228"><ele>1694.6</ele></trkpt><trkpt lat="41.54235085695723" lon="70.07270173239807"><ele>1689.3</ele></trkpt><trkpt lat="41.542360696511906" lon="70.07276909025278"><ele>1686.7</ele></trkpt><trkpt lat="41.542438053257065" lon="70.07277180870975"><ele>1682.3</ele></trkpt><trkpt lat="41.54243199761402" lon="70.07293134261387"><ele>1678.2</ele></trkpt><trkpt lat="41.54247574795306" lon="70.07302973505453"><ele>1676.0</ele></trkpt><trkpt lat="41.54283815641955" lon="70.07312842954592"><ele>1659.0</ele></trkpt><trkpt lat="41.54294503227695" lon="70.07327617042982"><ele>1653.7</ele></trkpt><trkpt lat="41.543336655128805" lon="70.07350066228221"><ele>1646.6</ele></trkpt><trkpt lat="41.543691177531244" lon="70.07352168020162"><ele>1638.9</ele></trkpt><trkpt lat="41.54400712306503" lon="70.07360907429238"><ele>1632.6</ele></trkpt><trkpt lat="41.54391553663687" lon="70.07357607225148"><ele>1630.1</ele></trkpt><trkpt lat="41.54390842194478" lon="70.0736506987518"><ele>1629.8</ele></trkpt><trkpt lat="41.543968220069104" lon="70.0736478214188"><ele>1625.3</ele></trkpt><trkpt lat="41.543986537444376" lon="70.07361209400175"><ele>1623.3</ele></trkpt><trkpt lat="41.544023174386055" lon="70.07363783617905"><ele>1621.0</ele></trkpt><trkpt lat="41.54396488879055" lon="70.07343484289036"><ele>1617.4</ele></trkpt><trkpt lat="41.543973367109146" lon="70.07332389817762"><ele>1614.6</ele></trkpt><trkpt lat="41.54384590099965" lon="70.0731262265711"><ele>1608.0</ele></trkpt><trkpt lat="41.543582945635016" lon="70.07258735548363"><ele>1596.3</ele></trkpt><trkpt lat="41.543545704866986" lon="70.0724122213889"><ele>1592.4</ele></trkpt><trkpt lat="41.54371147044496" lon="70.07200839706918"><ele>1582.7</ele></trkpt><trkpt lat="41.5437786840042" lon="70.07196207791573"><ele>1580.2</ele></trkpt><trkpt lat="41.5438542227467" lon="70.0719672274157"><ele>1578.1</ele></trkpt><trkpt lat="41.543882380672656" lon="70.07189715323305"><ele>1577.2</ele></trkpt><trkpt lat="41.54388253231398" lon="70.07184251238122"><ele>1576.1</ele></trkpt><trkpt lat="41.54379094498942" lon="70.07172324330887"><ele>1574.1</ele></trkpt><trkpt lat="41.543783527313494" lon="70.0715861103949"><ele>1571.5</ele></trkpt><trkpt lat="41.54383227414692" lon="70.07145458098852"><ele>1567.8</ele></trkpt><trkpt lat="41.54383454493216" lon="70.07132788386225"><ele>1565.8</ele></trkpt><trkpt lat="41.54388813397928" lon="70.07124735978732"><ele>1562.6</ele></trkpt><trkpt lat="41.543905240813565" lon="70.07109417480416"><ele>1559.5</ele></trkpt><trkpt lat="41.544014237408476" lon="70.0708335315992"><ele>1554.1</ele></trkpt><trkpt lat="41.54400954484413" lon="70.07078100776401"><ele>1552.8</ele></trkpt><trkpt lat="41.54406807557837" lon="70.07081042910609"><ele>1550.2</ele></trkpt><trkpt lat="41.54398941220523" lon="70.07064598867306"><ele>1547.4</ele></trkpt><trkpt lat="41.543928857467925" lon="70.0703555217465"><ele>1540.2</ele></trkpt><trkpt lat="41.54396034468035" lon="70.07033206105042"><ele>1538.7</ele></trkpt><trkpt lat="41.54409492353974" lon="70.07038383175464"><ele>1535.2</ele></trkpt><trkpt lat="41.544061465836755" lon="70.07003205410969"><ele>1527.1</ele></trkpt><trkpt lat="41.54412247241042" lon="70.0700123718426"><ele>1525.0</ele></trkpt><trkpt lat="41.54432290184996" lon="70.07010077638228"><ele>1517.3</ele></trkpt><trkpt lat="41.54424902135136" lon="70.0697511397051"><ele>1507.7</ele></trkpt><trkpt lat="41.544418263424916" lon="70.069830614453"><ele>1499.9</ele></trkpt><trkpt lat="41.54443900327654" lon="70.06963036224172"><ele>1491.4</ele></trkpt><trkpt lat="41.5443954037322" lon="70.06931884676729"><ele>1481.9</ele></trkpt><trkpt lat="41.54442386479141" lon="70.06905940937028"><ele>1473.0</ele></trkpt><trkpt lat="41.54450303824443" lon="70.06900688473672"><ele>1467.6</ele></trkpt><trkpt lat="41.5444651901143" lon="70.06879013150505"><ele>1460.1</ele></trkpt><trkpt lat="41.54452756116108" lon="70.0685947158319"><ele>1452.9</ele></trkpt><trkpt lat="41.54453861265114" lon="70.06846075564862"><ele>1448.9</ele></trkpt><trkpt lat="41.54449016845294" lon="70.06803799394291"><ele>1439.3</ele></trkpt><trkpt lat="41.544521202334984" lon="70.06778051575098"><ele>1431.0</ele></trkpt><trkpt lat="41.54459916355384" lon="70.06775129852603"><ele>1428.1</ele></trkpt><trkpt lat="41.54460309870838" lon="70.06765670074793"><ele>1424.3</ele></trkpt><trkpt lat="41.544660623906054" lon="70.06759796717462"><ele>1420.0</ele></trkpt><trkpt lat="41.5446765200998" lon="70.06740105668281"><ele>1413.3</ele></trkpt><trkpt lat="41.54464775610655" lon="70.06717704385372"><ele>1407.3</ele></trkpt><trkpt lat="41.54471799801022" lon="70.06703597789271"><ele>1401.3</ele></trkpt><trkpt lat="41.54473843572459" lon="70.06687749996871"><ele>1396.8</ele></trkpt><trkpt lat="41.54472753642364" lon="70.06652406463719"><ele>1387.8</ele></trkpt><trkpt lat="41.54469423081016" lon="70.0663984336038"><ele>1384.4</ele></trkpt><trkpt lat="41.54471345788397" lon="70.06622391558616"><ele>1378.2</ele></trkpt><trkpt lat="41.544658655805875" lon="70.0659880825922"><ele>1373.3</ele></trkpt><trkpt lat="41.544661835443016" lon="70.06585714983589"><ele>1369.4</ele></trkpt><trkpt lat="41.5446837860348" lon="70.06583943981398"><ele>1368.9</ele></trkpt><trkpt lat="41.544865291533775" lon="70.06588697302524"><ele>1365.2</ele></trkpt><trkpt lat="41.54485953862557" lon="70.06596750774507"><ele>1366.8</ele></trkpt><trkpt lat="41.54484000901613" lon="70.0659249691496"><ele>1367.8</ele></trkpt><trkpt lat="41.544838192308276" lon="70.06599868657025"><ele>1366.0</ele></trkpt><trkpt lat="41.544859689470094" lon="70.06596220495767"><ele>1365.6</ele></trkpt><trkpt lat="41.544809125530406" lon="70.06599080956515"><ele>1365.0</ele></trkpt><trkpt lat="41.544828200415104" lon="70.06595039091368"><ele>1364.4</ele></trkpt><trkpt lat="41.5448103377148" lon="70.0659712787226"><ele>1365.0</ele></trkpt><trkpt lat="41.54548490031534" lon="70.06614324807043"><ele>1354.3</ele></trkpt><trkpt lat="41.545958265658264" lon="70.06701223324238"><ele>1348.2</ele></trkpt><trkpt lat="41.54628631125502" lon="70.0672153670446"><ele>1345.5</ele></trkpt><trkpt lat="41.546412108363796" lon="70.06734493112504"><ele>1344.8</ele></trkpt><trkpt lat="41.54664902967737" lon="70.06740775342789"><ele>1342.9</ele></trkpt><trkpt lat="41.54684688848527" lon="70.06738731403794"><ele>1341.1</ele></trkpt><trkpt lat="41.54704292978851" lon="70.06742122196502"><ele>1339.4</ele></trkpt><trkpt lat="41.54719250221471" lon="70.06758076039327"><ele>1337.3</ele></trkpt><trkpt lat="41.54733025976506" lon="70.06765053917827"><ele>1336.6</ele></trkpt><trkpt lat="41.54759683763919" lon="70.06754746242247"><ele>1334.2</ele></trkpt><trkpt lat="41.54784177069417" lon="70.0676425200629"><ele>1332.6</ele></trkpt><trkpt lat="41.54799875795772" lon="70.06781129166436"><ele>1329.5</ele></trkpt><trkpt lat="41.548120174599376" lon="70.06806057350228"><ele>1325.5</ele></trkpt><trkpt lat="41.54817482722735" lon="70.0681960332944"><ele>1324.3</ele></trkpt><trkpt lat="41.5481079118213" lon="70.0683032035701"><ele>1313.7</ele></trkpt><trkpt lat="41.54812986360843" lon="70.06832923449191"><ele>1313.0</ele></trkpt><trkpt lat="41.54835557681063" lon="70.06826537217628"><ele>1311.9</ele></trkpt><trkpt lat="41.548731167713704" lon="70.06837539689829"><ele>1306.8</ele></trkpt><trkpt lat="41.54888769721469" lon="70.06846953348345"><ele>1305.1</ele></trkpt><trkpt lat="41.54920877413326" lon="70.06845818329359"><ele>1301.2</ele></trkpt><trkpt lat="41.54938755232944" lon="70.06851569748657"><ele>1298.9</ele></trkpt><trkpt lat="41.54950972583311" lon="70.06846409523887"><ele>1295.4</ele></trkpt><trkpt lat="41.549547725305764" lon="70.06848498544299"><ele>1295.5</ele></trkpt><trkpt lat="41.54962493538965" lon="70.06842278533806"><ele>1297.0</ele></trkpt><trkpt lat="41.549612067042354" lon="70.0684682116453"><ele>1297.1</ele></trkpt><trkpt lat="41.549651730336514" lon="70.06850060080254"><ele>1296.9</ele></trkpt><trkpt lat="41.55031099280077" lon="70.06869159109924"><ele>1292.1</ele></trkpt><trkpt lat="41.55065629239095" lon="70.06861470786731"><ele>1290.3</ele></trkpt><trkpt lat="41.55079571376282" lon="70.06863726134655"><ele>1288.9</ele></trkpt><trkpt lat="41.5510414032814" lon="70.06888624006922"><ele>1285.7</ele></trkpt><trkpt lat="41.551370662357336" lon="70.06907405470784"><ele>1283.3</ele></trkpt><trkpt lat="41.551730976081984" lon="70.06944243183912"><ele>1277.1</ele></trkpt><trkpt lat="41.551992114688964" lon="70.06953914184365"><ele>1275.4</ele></trkpt><trkpt lat="41.55219496396541" lon="70.0696614351495"><ele>1274.1</ele></trkpt><trkpt lat="41.55227489911107" lon="70.06994128213056"><ele>1272.6</ele></trkpt><trkpt lat="41.55242340890263" lon="70.07009490728286"><ele>1271.7</ele></trkpt><trkpt lat="41.552853186802665" lon="70.07022445885549"><ele>1267.9</ele></trkpt><trkpt lat="41.55336742060234" lon="70.07025820870491"><ele>1265.4</ele></trkpt><trkpt lat="41.5536343015599" lon="70.07047071140363"><ele>1265.5</ele></trkpt><trkpt lat="41.55394281799543" lon="70.07062537044779"><ele>1264.3</ele></trkpt><trkpt lat="41.55408769367408" lon="70.07075006711973"><ele>1261.5</ele></trkpt><trkpt lat="41.55437971093618" lon="70.07091607475701"><ele>1256.2</ele></trkpt><trkpt lat="41.554540940371936" lon="70.071168360603"><ele>1252.8</ele></trkpt><trkpt lat="41.55476317145113" lon="70.07137418332239"><ele>1249.6</ele></trkpt><trkpt lat="41.554746821080435" lon="70.07144970027372"><ele>1248.4</ele></trkpt><trkpt lat="41.55465053556413" lon="70.07150297963508"><ele>1247.0</ele></trkpt><trkpt lat="41.55472244472549" lon="70.07150162000738"><ele>1246.7</ele></trkpt><trkpt lat="41.55464432738333" lon="70.07151993333247"><ele>1247.5</ele></trkpt><trkpt lat="41.55469549579668" lon="70.07150207108764"><ele>1247.1</ele></trkpt><trkpt lat="41.554642358187536" lon="70.07151659613709"><ele>1247.9</ele></trkpt><trkpt lat="41.554640844264334" lon="70.07149071424467"><ele>1247.5</ele></trkpt><trkpt lat="41.55462419110898" lon="70.07153280149376"><ele>1247.1</ele></trkpt><trkpt lat="41.55478375751997" lon="70.07146046552292"><ele>1246.7</ele></trkpt><trkpt lat="41.55485899591805" lon="70.0715748759689"><ele>1246.1</ele></trkpt><trkpt lat="41.555053220613026" lon="70.07166915945454"><ele>1244.2</ele></trkpt><trkpt lat="41.555526902684626" lon="70.07200846705973"><ele>1240.1</ele></trkpt><trkpt lat="41.5558211888396" lon="70.07215722799704"><ele>1231.7</ele></trkpt></trkseg></trk></gpx>