<?xml version='1.0' encoding='utf-8'?>
<gpx xmlns="http://www.topografix.com/GPX/1/1" version="1.1" creator="Sayr">
<trk><name>От Шовуркуля через брод к озеру</name><trkseg>
<trkpt lat="42.253357" lon="71.138870"><ele>2812.3</ele></trkpt>
<trkpt lat="42.253323" lon="71.139120"><ele>2814.5</ele></trkpt>
<trkpt lat="42.253370" lon="71.139250"><ele>2816.2</ele></trkpt>
<trkpt lat="42.253365" lon="71.139320"><ele>2816.9</ele></trkpt>
<trkpt lat="42.253414" lon="71.139534"><ele>2819.9</ele></trkpt>
<trkpt lat="42.253490" lon="71.139650"><ele>2822.1</ele></trkpt>
<trkpt lat="42.253498" lon="71.139720"><ele>2822.9</ele></trkpt>
<trkpt lat="42.253530" lon="71.139770"><ele>2823.8</ele></trkpt>
<trkpt lat="42.253530" lon="71.139820"><ele>2824.3</ele></trkpt>
<trkpt lat="42.253560" lon="71.139854"><ele>2825.1</ele></trkpt>
<trkpt lat="42.253574" lon="71.139910"><ele>2825.8</ele></trkpt>
<trkpt lat="42.253647" lon="71.139984"><ele>2827.5</ele></trkpt>
<trkpt lat="42.253693" lon="71.140110"><ele>2829.0</ele></trkpt>
<trkpt lat="42.253740" lon="71.140180"><ele>2830.2</ele></trkpt>
<trkpt lat="42.253765" lon="71.140305"><ele>2831.1</ele></trkpt>
<trkpt lat="42.253815" lon="71.140366"><ele>2832.2</ele></trkpt>
<trkpt lat="42.253815" lon="71.140460"><ele>2832.4</ele></trkpt>
<trkpt lat="42.253845" lon="71.140520"><ele>2833.1</ele></trkpt>
<trkpt lat="42.253937" lon="71.140560"><ele>2835.2</ele></trkpt>
<trkpt lat="42.254025" lon="71.140640"><ele>2837.4</ele></trkpt>
<trkpt lat="42.254143" lon="71.140660"><ele>2840.5</ele></trkpt>
<trkpt lat="42.254173" lon="71.140700"><ele>2841.3</ele></trkpt>
<trkpt lat="42.254208" lon="71.140770"><ele>2842.2</ele></trkpt>
<trkpt lat="42.254208" lon="71.140980"><ele>2841.7</ele></trkpt>
<trkpt lat="42.254230" lon="71.141106"><ele>2841.7</ele></trkpt>
<trkpt lat="42.254220" lon="71.141230"><ele>2840.8</ele></trkpt>
<trkpt lat="42.254185" lon="71.141280"><ele>2839.6</ele></trkpt>
<trkpt lat="42.254190" lon="71.141360"><ele>2839.3</ele></trkpt>
<trkpt lat="42.254173" lon="71.141396"><ele>2838.7</ele></trkpt>
<trkpt lat="42.254177" lon="71.141460"><ele>2838.5</ele></trkpt>
<trkpt lat="42.254150" lon="71.141655"><ele>2837.6</ele></trkpt>
<trkpt lat="42.254200" lon="71.141810"><ele>2839.1</ele></trkpt>
<trkpt lat="42.254173" lon="71.141900"><ele>2838.7</ele></trkpt>
<trkpt lat="42.254190" lon="71.142030"><ele>2839.7</ele></trkpt>
<trkpt lat="42.254177" lon="71.142200"><ele>2840.4</ele></trkpt>
<trkpt lat="42.254074" lon="71.142540"><ele>2841.2</ele></trkpt>
<trkpt lat="42.254074" lon="71.142770"><ele>2844.6</ele></trkpt>
<trkpt lat="42.254097" lon="71.142870"><ele>2846.8</ele></trkpt>
<trkpt lat="42.254090" lon="71.143000"><ele>2849.1</ele></trkpt>
<trkpt lat="42.254066" lon="71.143110"><ele>2850.7</ele></trkpt>
<trkpt lat="42.254086" lon="71.143150"><ele>2852.0</ele></trkpt>
<trkpt lat="42.254110" lon="71.143280"><ele>2855.3</ele></trkpt>
<trkpt lat="42.254097" lon="71.143370"><ele>2856.8</ele></trkpt>
<trkpt lat="42.254066" lon="71.143430"><ele>2857.3</ele></trkpt>
<trkpt lat="42.254074" lon="71.143555"><ele>2860.6</ele></trkpt>
<trkpt lat="42.254060" lon="71.143570"><ele>2860.5</ele></trkpt>
<trkpt lat="42.254060" lon="71.143610"><ele>2861.6</ele></trkpt>
<trkpt lat="42.253940" lon="71.143760"><ele>2862.3</ele></trkpt>
<trkpt lat="42.253872" lon="71.143890"><ele>2863.7</ele></trkpt>
<trkpt lat="42.253800" lon="71.143940"><ele>2863.1</ele></trkpt>
<trkpt lat="42.253670" lon="71.144120"><ele>2863.3</ele></trkpt>
<trkpt lat="42.253635" lon="71.144140"><ele>2862.7</ele></trkpt>
<trkpt lat="42.253536" lon="71.144516"><ele>2863.0</ele></trkpt>
<trkpt lat="42.253548" lon="71.144714"><ele>2863.9</ele></trkpt>
<trkpt lat="42.253660" lon="71.144990"><ele>2868.7</ele></trkpt>
<trkpt lat="42.253670" lon="71.145210"><ele>2870.1</ele></trkpt>
<trkpt lat="42.253727" lon="71.145390"><ele>2873.4</ele></trkpt>
<trkpt lat="42.253720" lon="71.145454"><ele>2873.4</ele></trkpt>
<trkpt lat="42.253740" lon="71.145485"><ele>2874.4</ele></trkpt>
<trkpt lat="42.253742" lon="71.145610"><ele>2874.9</ele></trkpt>
<trkpt lat="42.253807" lon="71.145890"><ele>2878.8</ele></trkpt>
<trkpt lat="42.253807" lon="71.145940"><ele>2878.8</ele></trkpt>
<trkpt lat="42.253760" lon="71.146080"><ele>2876.3</ele></trkpt>
<trkpt lat="42.253716" lon="71.146454"><ele>2873.5</ele></trkpt>
<trkpt lat="42.253740" lon="71.146576"><ele>2874.8</ele></trkpt>
<trkpt lat="42.253730" lon="71.146640"><ele>2874.5</ele></trkpt>
<trkpt lat="42.253740" lon="71.146740"><ele>2875.4</ele></trkpt>
<trkpt lat="42.253710" lon="71.146810"><ele>2874.2</ele></trkpt>
<trkpt lat="42.253690" lon="71.146950"><ele>2874.0</ele></trkpt>
<trkpt lat="42.253635" lon="71.147095"><ele>2872.0</ele></trkpt>
<trkpt lat="42.253610" lon="71.147310"><ele>2872.4</ele></trkpt>
<trkpt lat="42.253567" lon="71.147470"><ele>2871.8</ele></trkpt>
<trkpt lat="42.253510" lon="71.147560"><ele>2869.8</ele></trkpt>
<trkpt lat="42.253487" lon="71.147705"><ele>2870.7</ele></trkpt>
<trkpt lat="42.253410" lon="71.147835"><ele>2868.8</ele></trkpt>
<trkpt lat="42.253403" lon="71.147934"><ele>2870.2</ele></trkpt>
<trkpt lat="42.253357" lon="71.147990"><ele>2868.9</ele></trkpt>
<trkpt lat="42.253360" lon="71.148125"><ele>2871.7</ele></trkpt>
<trkpt lat="42.253384" lon="71.148210"><ele>2874.8</ele></trkpt>
<trkpt lat="42.253387" lon="71.148315"><ele>2877.4</ele></trkpt>
<trkpt lat="42.253315" lon="71.148384"><ele>2875.4</ele></trkpt>
<trkpt lat="42.253235" lon="71.148570"><ele>2876.7</ele></trkpt>
<trkpt lat="42.253120" lon="71.148705"><ele>2875.4</ele></trkpt>
<trkpt lat="42.253060" lon="71.148850"><ele>2877.1</ele></trkpt>
<trkpt lat="42.252964" lon="71.148940"><ele>2875.3</ele></trkpt>
<trkpt lat="42.252903" lon="71.149025"><ele>2874.9</ele></trkpt>
<trkpt lat="42.252842" lon="71.149055"><ele>2872.9</ele></trkpt>
<trkpt lat="42.252785" lon="71.149140"><ele>2872.5</ele></trkpt>
<trkpt lat="42.252697" lon="71.149210"><ele>2870.2</ele></trkpt>
<trkpt lat="42.252660" lon="71.149220"><ele>2868.9</ele></trkpt>
<trkpt lat="42.252518" lon="71.149430"><ele>2867.6</ele></trkpt>
<trkpt lat="42.252470" lon="71.149530"><ele>2867.8</ele></trkpt>
<trkpt lat="42.252415" lon="71.149600"><ele>2867.3</ele></trkpt>
<trkpt lat="42.252415" lon="71.149635"><ele>2868.0</ele></trkpt>
<trkpt lat="42.252340" lon="71.149840"><ele>2869.7</ele></trkpt>
<trkpt lat="42.252304" lon="71.149880"><ele>2869.4</ele></trkpt>
<trkpt lat="42.252277" lon="71.149990"><ele>2870.8</ele></trkpt>
<trkpt lat="42.252290" lon="71.150070"><ele>2872.9</ele></trkpt>
<trkpt lat="42.252240" lon="71.150154"><ele>2873.1</ele></trkpt>
<trkpt lat="42.252200" lon="71.150185"><ele>2872.5</ele></trkpt>
<trkpt lat="42.252186" lon="71.150240"><ele>2873.2</ele></trkpt>
<trkpt lat="42.252136" lon="71.150280"><ele>2872.5</ele></trkpt>
<trkpt lat="42.252010" lon="71.150440"><ele>2872.2</ele></trkpt>
<trkpt lat="42.251900" lon="71.150510"><ele>2870.5</ele></trkpt>
<trkpt lat="42.251816" lon="71.150630"><ele>2870.5</ele></trkpt>
<trkpt lat="42.251750" lon="71.150680"><ele>2869.6</ele></trkpt>
<trkpt lat="42.251724" lon="71.150720"><ele>2869.6</ele></trkpt>
<trkpt lat="42.251720" lon="71.150760"><ele>2870.2</ele></trkpt>
<trkpt lat="42.251575" lon="71.150960"><ele>2869.5</ele></trkpt>
<trkpt lat="42.251465" lon="71.151215"><ele>2870.2</ele></trkpt>
<trkpt lat="42.251457" lon="71.151270"><ele>2870.9</ele></trkpt>
<trkpt lat="42.251423" lon="71.151310"><ele>2870.3</ele></trkpt>
<trkpt lat="42.251400" lon="71.151380"><ele>2870.7</ele></trkpt>
<trkpt lat="42.251380" lon="71.151500"><ele>2871.8</ele></trkpt>
<trkpt lat="42.251408" lon="71.151610"><ele>2874.8</ele></trkpt>
<trkpt lat="42.251358" lon="71.151720"><ele>2874.8</ele></trkpt>
<trkpt lat="42.251347" lon="71.151880"><ele>2877.2</ele></trkpt>
<trkpt lat="42.251320" lon="71.151950"><ele>2877.2</ele></trkpt>
<trkpt lat="42.251240" lon="71.152040"><ele>2874.8</ele></trkpt>
<trkpt lat="42.251194" lon="71.152140"><ele>2874.2</ele></trkpt>
<trkpt lat="42.251144" lon="71.152176"><ele>2872.3</ele></trkpt>
<trkpt lat="42.251133" lon="71.152220"><ele>2872.5</ele></trkpt>
<trkpt lat="42.251022" lon="71.152320"><ele>2868.7</ele></trkpt>
<trkpt lat="42.250877" lon="71.152510"><ele>2865.8</ele></trkpt>
<trkpt lat="42.250820" lon="71.152690"><ele>2867.7</ele></trkpt>
<trkpt lat="42.250810" lon="71.152810"><ele>2870.4</ele></trkpt>
<trkpt lat="42.250763" lon="71.152940"><ele>2872.3</ele></trkpt>
<trkpt lat="42.250687" lon="71.153050"><ele>2873.0</ele></trkpt>
<trkpt lat="42.250587" lon="71.153130"><ele>2872.5</ele></trkpt>
<trkpt lat="42.250538" lon="71.153336"><ele>2877.8</ele></trkpt>
<trkpt lat="42.250458" lon="71.153490"><ele>2881.4</ele></trkpt>
<trkpt lat="42.250404" lon="71.153550"><ele>2882.6</ele></trkpt>
<trkpt lat="42.250370" lon="71.153620"><ele>2884.8</ele></trkpt>
<trkpt lat="42.250256" lon="71.153730"><ele>2887.1</ele></trkpt>
<trkpt lat="42.250195" lon="71.153870"><ele>2892.0</ele></trkpt>
<trkpt lat="42.250072" lon="71.154000"><ele>2894.6</ele></trkpt>
<trkpt lat="42.250042" lon="71.154070"><ele>2896.6</ele></trkpt>
<trkpt lat="42.250008" lon="71.154100"><ele>2896.8</ele></trkpt>
<trkpt lat="42.249958" lon="71.154110"><ele>2895.8</ele></trkpt>
<trkpt lat="42.249880" lon="71.154190"><ele>2896.3</ele></trkpt>
<trkpt lat="42.249832" lon="71.154270"><ele>2897.4</ele></trkpt>
<trkpt lat="42.249588" lon="71.154450"><ele>2894.5</ele></trkpt>
<trkpt lat="42.249527" lon="71.154530"><ele>2894.3</ele></trkpt>
<trkpt lat="42.249508" lon="71.154580"><ele>2894.7</ele></trkpt>
<trkpt lat="42.249413" lon="71.154630"><ele>2892.4</ele></trkpt>
<trkpt lat="42.249350" lon="71.154724"><ele>2891.9</ele></trkpt>
<trkpt lat="42.249283" lon="71.154884"><ele>2892.3</ele></trkpt>
<trkpt lat="42.249250" lon="71.155120"><ele>2895.4</ele></trkpt>
<trkpt lat="42.249207" lon="71.155260"><ele>2896.4</ele></trkpt>
<trkpt lat="42.249157" lon="71.155365"><ele>2896.4</ele></trkpt>
<trkpt lat="42.249170" lon="71.155464"><ele>2898.9</ele></trkpt>
<trkpt lat="42.249165" lon="71.155610"><ele>2901.5</ele></trkpt>
<trkpt lat="42.249060" lon="71.155710"><ele>2899.4</ele></trkpt>
<trkpt lat="42.249046" lon="71.155810"><ele>2900.8</ele></trkpt>
<trkpt lat="42.248920" lon="71.156006"><ele>2899.6</ele></trkpt>
<trkpt lat="42.248860" lon="71.156160"><ele>2900.0</ele></trkpt>
<trkpt lat="42.248720" lon="71.156280"><ele>2896.9</ele></trkpt>
<trkpt lat="42.248640" lon="71.156300"><ele>2894.5</ele></trkpt>
<trkpt lat="42.248524" lon="71.156390"><ele>2892.3</ele></trkpt>
<trkpt lat="42.248455" lon="71.156400"><ele>2890.4</ele></trkpt>
<trkpt lat="42.248352" lon="71.156480"><ele>2889.2</ele></trkpt>
<trkpt lat="42.248260" lon="71.156500"><ele>2887.4</ele></trkpt>
<trkpt lat="42.248184" lon="71.156555"><ele>2887.1</ele></trkpt>
<trkpt lat="42.248150" lon="71.156560"><ele>2886.5</ele></trkpt>
<trkpt lat="42.247787" lon="71.156800"><ele>2888.0</ele></trkpt>
<trkpt lat="42.247734" lon="71.156790"><ele>2887.1</ele></trkpt>
<trkpt lat="42.247665" lon="71.156820"><ele>2887.3</ele></trkpt>
<trkpt lat="42.247658" lon="71.156840"><ele>2887.8</ele></trkpt>
<trkpt lat="42.247550" lon="71.156845"><ele>2886.7</ele></trkpt>
<trkpt lat="42.247223" lon="71.156960"><ele>2885.8</ele></trkpt>
<trkpt lat="42.247090" lon="71.157070"><ele>2887.2</ele></trkpt>
<trkpt lat="42.246970" lon="71.157135"><ele>2887.2</ele></trkpt>
<trkpt lat="42.246914" lon="71.157260"><ele>2889.6</ele></trkpt>
<trkpt lat="42.246840" lon="71.157295"><ele>2889.1</ele></trkpt>
<trkpt lat="42.246784" lon="71.157360"><ele>2889.5</ele></trkpt>
<trkpt lat="42.246685" lon="71.157360"><ele>2887.3</ele></trkpt>
<trkpt lat="42.246600" lon="71.157430"><ele>2886.6</ele></trkpt>
<trkpt lat="42.246540" lon="71.157430"><ele>2884.8</ele></trkpt>
<trkpt lat="42.246483" lon="71.157400"><ele>2882.4</ele></trkpt>
<trkpt lat="42.246390" lon="71.157480"><ele>2880.8</ele></trkpt>
<trkpt lat="42.246326" lon="71.157486"><ele>2878.7</ele></trkpt>
<trkpt lat="42.246280" lon="71.157550"><ele>2878.1</ele></trkpt>
<trkpt lat="42.246227" lon="71.157555"><ele>2876.3</ele></trkpt>
<trkpt lat="42.246200" lon="71.157600"><ele>2876.1</ele></trkpt>
<trkpt lat="42.246178" lon="71.157600"><ele>2875.3</ele></trkpt>
<trkpt lat="42.246140" lon="71.157560"><ele>2873.2</ele></trkpt>
<trkpt lat="42.246086" lon="71.157580"><ele>2871.6</ele></trkpt>
<trkpt lat="42.245945" lon="71.157560"><ele>2866.7</ele></trkpt>
<trkpt lat="42.245910" lon="71.157610"><ele>2866.5</ele></trkpt>
<trkpt lat="42.245743" lon="71.157660"><ele>2863.2</ele></trkpt>
<trkpt lat="42.245678" lon="71.157660"><ele>2861.9</ele></trkpt>
<trkpt lat="42.245630" lon="71.157710"><ele>2861.7</ele></trkpt>
<trkpt lat="42.245590" lon="71.157715"><ele>2861.0</ele></trkpt>
<trkpt lat="42.245403" lon="71.157840"><ele>2859.3</ele></trkpt>
<trkpt lat="42.245182" lon="71.157930"><ele>2856.8</ele></trkpt>
<trkpt lat="42.244870" lon="71.157910"><ele>2853.1</ele></trkpt>
<trkpt lat="42.244755" lon="71.158040"><ele>2852.7</ele></trkpt>
<trkpt lat="42.244736" lon="71.158130"><ele>2853.1</ele></trkpt>
<trkpt lat="42.244700" lon="71.158165"><ele>2853.1</ele></trkpt>
<trkpt lat="42.244630" lon="71.158295"><ele>2853.8</ele></trkpt>
<trkpt lat="42.244550" lon="71.158325"><ele>2853.6</ele></trkpt>
<trkpt lat="42.244500" lon="71.158320"><ele>2853.3</ele></trkpt>
<trkpt lat="42.244446" lon="71.158260"><ele>2852.5</ele></trkpt>
<trkpt lat="42.244370" lon="71.158240"><ele>2852.1</ele></trkpt>
<trkpt lat="42.244175" lon="71.158140"><ele>2850.8</ele></trkpt>
<trkpt lat="42.244038" lon="71.158140"><ele>2850.5</ele></trkpt>
<trkpt lat="42.243958" lon="71.158010"><ele>2849.9</ele></trkpt>
<trkpt lat="42.243824" lon="71.157950"><ele>2849.8</ele></trkpt>
<trkpt lat="42.243828" lon="71.157970"><ele>2849.8</ele></trkpt>
<trkpt lat="42.243790" lon="71.158050"><ele>2850.1</ele></trkpt>
<trkpt lat="42.243690" lon="71.158080"><ele>2850.2</ele></trkpt>
<trkpt lat="42.243595" lon="71.158080"><ele>2850.3</ele></trkpt>
<trkpt lat="42.243538" lon="71.158060"><ele>2850.4</ele></trkpt>
<trkpt lat="42.243534" lon="71.158090"><ele>2850.5</ele></trkpt>
<trkpt lat="42.243500" lon="71.158130"><ele>2850.6</ele></trkpt>
<trkpt lat="42.243385" lon="71.158220"><ele>2850.8</ele></trkpt>
<trkpt lat="42.243313" lon="71.158200"><ele>2850.9</ele></trkpt>
<trkpt lat="42.243260" lon="71.158140"><ele>2851.1</ele></trkpt>
<trkpt lat="42.243202" lon="71.158110"><ele>2851.3</ele></trkpt>
<trkpt lat="42.243065" lon="71.158090"><ele>2851.9</ele></trkpt>
<trkpt lat="42.243034" lon="71.158130"><ele>2852.1</ele></trkpt>
<trkpt lat="42.242977" lon="71.158160"><ele>2852.3</ele></trkpt>
<trkpt lat="42.242800" lon="71.158165"><ele>2853.2</ele></trkpt>
<trkpt lat="42.242676" lon="71.158140"><ele>2853.8</ele></trkpt>
<trkpt lat="42.242550" lon="71.158140"><ele>2854.1</ele></trkpt>
<trkpt lat="42.242455" lon="71.158180"><ele>2854.1</ele></trkpt>
<trkpt lat="42.242264" lon="71.158170"><ele>2853.8</ele></trkpt>
<trkpt lat="42.242184" lon="71.158290"><ele>2853.5</ele></trkpt>
<trkpt lat="42.242130" lon="71.158300"><ele>2853.3</ele></trkpt>
<trkpt lat="42.241990" lon="71.158260"><ele>2852.8</ele></trkpt>
<trkpt lat="42.241850" lon="71.158140"><ele>2852.3</ele></trkpt>
<trkpt lat="42.241695" lon="71.158134"><ele>2851.9</ele></trkpt>
<trkpt lat="42.241640" lon="71.158165"><ele>2851.9</ele></trkpt>
<trkpt lat="42.241543" lon="71.158170"><ele>2851.8</ele></trkpt>
<trkpt lat="42.241444" lon="71.158260"><ele>2851.8</ele></trkpt>
<trkpt lat="42.241356" lon="71.158300"><ele>2851.8</ele></trkpt>
<trkpt lat="42.241250" lon="71.158410"><ele>2851.8</ele></trkpt>
<trkpt lat="42.241207" lon="71.158410"><ele>2851.8</ele></trkpt>
<trkpt lat="42.241142" lon="71.158450"><ele>2851.8</ele></trkpt>
<trkpt lat="42.241093" lon="71.158420"><ele>2851.8</ele></trkpt>
<trkpt lat="42.241028" lon="71.158264"><ele>2851.8</ele></trkpt>
<trkpt lat="42.240950" lon="71.158180"><ele>2851.9</ele></trkpt>
<trkpt lat="42.240900" lon="71.158090"><ele>2852.0</ele></trkpt>
<trkpt lat="42.240700" lon="71.158000"><ele>2852.7</ele></trkpt>
<trkpt lat="42.240646" lon="71.157930"><ele>2853.1</ele></trkpt>
<trkpt lat="42.240610" lon="71.157830"><ele>2853.6</ele></trkpt>
<trkpt lat="42.240566" lon="71.157810"><ele>2854.0</ele></trkpt>
<trkpt lat="42.240387" lon="71.157900"><ele>2854.5</ele></trkpt>
<trkpt lat="42.240322" lon="71.157920"><ele>2854.8</ele></trkpt>
<trkpt lat="42.240242" lon="71.157910"><ele>2855.6</ele></trkpt>
<trkpt lat="42.240185" lon="71.158030"><ele>2855.0</ele></trkpt>
<trkpt lat="42.240170" lon="71.158040"><ele>2855.1</ele></trkpt>
<trkpt lat="42.240128" lon="71.158005"><ele>2855.8</ele></trkpt>
<trkpt lat="42.240074" lon="71.158104"><ele>2855.4</ele></trkpt>
<trkpt lat="42.239980" lon="71.158190"><ele>2855.5</ele></trkpt>
<trkpt lat="42.239860" lon="71.158134"><ele>2857.4</ele></trkpt>
<trkpt lat="42.239864" lon="71.158220"><ele>2856.3</ele></trkpt>
<trkpt lat="42.239790" lon="71.158350"><ele>2855.5</ele></trkpt>
<trkpt lat="42.239758" lon="71.158325"><ele>2856.1</ele></trkpt>
<trkpt lat="42.239716" lon="71.158330"><ele>2856.4</ele></trkpt>
<trkpt lat="42.239613" lon="71.158470"><ele>2855.8</ele></trkpt>
<trkpt lat="42.239550" lon="71.158460"><ele>2856.6</ele></trkpt>
<trkpt lat="42.239540" lon="71.158600"><ele>2855.3</ele></trkpt>
<trkpt lat="42.239450" lon="71.158585"><ele>2856.5</ele></trkpt>
<trkpt lat="42.239460" lon="71.158530"><ele>2856.9</ele></trkpt>
<trkpt lat="42.239388" lon="71.158450"><ele>2859.0</ele></trkpt>
<trkpt lat="42.239370" lon="71.158300"><ele>2861.6</ele></trkpt>
<trkpt lat="42.239300" lon="71.158280"><ele>2863.5</ele></trkpt>
<trkpt lat="42.239353" lon="71.158195"><ele>2864.0</ele></trkpt>
<trkpt lat="42.239365" lon="71.158140"><ele>2864.9</ele></trkpt>
<trkpt lat="42.239370" lon="71.158090"><ele>2865.9</ele></trkpt>
<trkpt lat="42.239340" lon="71.158070"><ele>2867.1</ele></trkpt>
<trkpt lat="42.239346" lon="71.157990"><ele>2869.0</ele></trkpt>
<trkpt lat="42.239372" lon="71.157974"><ele>2868.7</ele></trkpt>
<trkpt lat="42.239403" lon="71.157870"><ele>2870.6</ele></trkpt>
<trkpt lat="42.239403" lon="71.157776"><ele>2873.2</ele></trkpt>
<trkpt lat="42.239418" lon="71.157770"><ele>2872.9</ele></trkpt>
<trkpt lat="42.239480" lon="71.157590"><ele>2876.2</ele></trkpt>
<trkpt lat="42.239500" lon="71.157580"><ele>2875.8</ele></trkpt>
<trkpt lat="42.239517" lon="71.157524"><ele>2876.9</ele></trkpt>
<trkpt lat="42.239510" lon="71.157394"><ele>2880.9</ele></trkpt>
<trkpt lat="42.239475" lon="71.157380"><ele>2882.5</ele></trkpt>
<trkpt lat="42.239420" lon="71.157390"><ele>2884.1</ele></trkpt>
<trkpt lat="42.239380" lon="71.157290"><ele>2888.8</ele></trkpt>
<trkpt lat="42.239365" lon="71.157180"><ele>2893.1</ele></trkpt>
<trkpt lat="42.239390" lon="71.157170"><ele>2892.5</ele></trkpt>
<trkpt lat="42.239426" lon="71.157196"><ele>2890.2</ele></trkpt>
<trkpt lat="42.239426" lon="71.157104"><ele>2893.4</ele></trkpt>
<trkpt lat="42.239414" lon="71.157080"><ele>2894.7</ele></trkpt>
<trkpt lat="42.239320" lon="71.156990"><ele>2901.8</ele></trkpt>
<trkpt lat="42.239185" lon="71.156980"><ele>2908.0</ele></trkpt>
<trkpt lat="42.239174" lon="71.156940"><ele>2910.0</ele></trkpt>
<trkpt lat="42.239136" lon="71.156906"><ele>2913.1</ele></trkpt>
<trkpt lat="42.239075" lon="71.156890"><ele>2916.6</ele></trkpt>
<trkpt lat="42.239020" lon="71.156900"><ele>2919.0</ele></trkpt>
<trkpt lat="42.239002" lon="71.156880"><ele>2920.7</ele></trkpt>
<trkpt lat="42.238922" lon="71.156870"><ele>2925.2</ele></trkpt>
<trkpt lat="42.238770" lon="71.156900"><ele>2932.3</ele></trkpt>
<trkpt lat="42.238760" lon="71.156860"><ele>2934.4</ele></trkpt>
<trkpt lat="42.238777" lon="71.156800"><ele>2935.8</ele></trkpt>
<trkpt lat="42.238724" lon="71.156670"><ele>2943.7</ele></trkpt>
<trkpt lat="42.238697" lon="71.156670"><ele>2945.2</ele></trkpt>
<trkpt lat="42.238663" lon="71.156620"><ele>2948.9</ele></trkpt>
<trkpt lat="42.238660" lon="71.156586"><ele>2950.3</ele></trkpt>
<trkpt lat="42.238686" lon="71.156550"><ele>2950.2</ele></trkpt>
<trkpt lat="42.238598" lon="71.156490"><ele>2957.0</ele></trkpt>
<trkpt lat="42.238583" lon="71.156420"><ele>2960.3</ele></trkpt>
<trkpt lat="42.238533" lon="71.156390"><ele>2963.8</ele></trkpt>
<trkpt lat="42.238530" lon="71.156334"><ele>2965.9</ele></trkpt>
<trkpt lat="42.238503" lon="71.156300"><ele>2968.3</ele></trkpt>
<trkpt lat="42.238530" lon="71.156265"><ele>2968.2</ele></trkpt>
<trkpt lat="42.238520" lon="71.156235"><ele>2969.7</ele></trkpt>
<trkpt lat="42.238500" lon="71.156210"><ele>2971.5</ele></trkpt>
<trkpt lat="42.238464" lon="71.156204"><ele>2973.3</ele></trkpt>
<trkpt lat="42.238450" lon="71.156170"><ele>2975.1</ele></trkpt>
<trkpt lat="42.238373" lon="71.156150"><ele>2979.2</ele></trkpt>
<trkpt lat="42.238370" lon="71.156070"><ele>2981.9</ele></trkpt>
<trkpt lat="42.238396" lon="71.155930"><ele>2985.2</ele></trkpt>
<trkpt lat="42.238373" lon="71.155860"><ele>2988.4</ele></trkpt>
<trkpt lat="42.238390" lon="71.155690"><ele>2993.3</ele></trkpt>
<trkpt lat="42.238453" lon="71.155594"><ele>2993.8</ele></trkpt>
<trkpt lat="42.238480" lon="71.155426"><ele>2998.3</ele></trkpt>
<trkpt lat="42.238453" lon="71.155240"><ele>3005.5</ele></trkpt>
<trkpt lat="42.238410" lon="71.155220"><ele>3008.0</ele></trkpt>
<trkpt lat="42.238370" lon="71.155160"><ele>3011.6</ele></trkpt>
<trkpt lat="42.238285" lon="71.155170"><ele>3014.9</ele></trkpt>
<trkpt lat="42.238274" lon="71.155110"><ele>3017.2</ele></trkpt>
<trkpt lat="42.238205" lon="71.155040"><ele>3022.2</ele></trkpt>
<trkpt lat="42.238155" lon="71.154930"><ele>3027.5</ele></trkpt>
<trkpt lat="42.237940" lon="71.154880"><ele>3037.9</ele></trkpt>
<trkpt lat="42.237926" lon="71.154860"><ele>3039.0</ele></trkpt>
<trkpt lat="42.237854" lon="71.154900"><ele>3040.9</ele></trkpt>
<trkpt lat="42.237770" lon="71.154830"><ele>3046.3</ele></trkpt>
<trkpt lat="42.237743" lon="71.154760"><ele>3049.1</ele></trkpt>
<trkpt lat="42.237686" lon="71.154750"><ele>3051.8</ele></trkpt>
<trkpt lat="42.237680" lon="71.154710"><ele>3053.0</ele></trkpt>
<trkpt lat="42.237640" lon="71.154670"><ele>3055.6</ele></trkpt>
<trkpt lat="42.237614" lon="71.154600"><ele>3058.2</ele></trkpt>
<trkpt lat="42.237583" lon="71.154580"><ele>3060.0</ele></trkpt>
<trkpt lat="42.237507" lon="71.154580"><ele>3063.2</ele></trkpt>
<trkpt lat="42.237465" lon="71.154600"><ele>3064.4</ele></trkpt>
<trkpt lat="42.237404" lon="71.154530"><ele>3068.6</ele></trkpt>
<trkpt lat="42.237340" lon="71.154495"><ele>3072.1</ele></trkpt>
<trkpt lat="42.237263" lon="71.154495"><ele>3075.3</ele></trkpt>
<trkpt lat="42.237186" lon="71.154470"><ele>3079.2</ele></trkpt>
<trkpt lat="42.237186" lon="71.154205"><ele>3084.8</ele></trkpt>
<trkpt lat="42.237133" lon="71.154120"><ele>3088.7</ele></trkpt>
<trkpt lat="42.237133" lon="71.154050"><ele>3089.9</ele></trkpt>
<trkpt lat="42.237152" lon="71.153990"><ele>3090.1</ele></trkpt>
<trkpt lat="42.237150" lon="71.153854"><ele>3092.4</ele></trkpt>
<trkpt lat="42.237133" lon="71.153790"><ele>3094.0</ele></trkpt>
<trkpt lat="42.237133" lon="71.153496"><ele>3097.2</ele></trkpt>
<trkpt lat="42.237087" lon="71.153340"><ele>3099.8</ele></trkpt>
<trkpt lat="42.237076" lon="71.153220"><ele>3100.1</ele></trkpt>
<trkpt lat="42.237010" lon="71.153200"><ele>3102.8</ele></trkpt>
<trkpt lat="42.236940" lon="71.153130"><ele>3105.4</ele></trkpt>
<trkpt lat="42.236897" lon="71.153040"><ele>3106.8</ele></trkpt>
<trkpt lat="42.236897" lon="71.152960"><ele>3106.2</ele></trkpt>
<trkpt lat="42.236860" lon="71.152885"><ele>3107.4</ele></trkpt>
<trkpt lat="42.236720" lon="71.152750"><ele>3113.6</ele></trkpt>
<trkpt lat="42.236694" lon="71.152700"><ele>3114.8</ele></trkpt>
<trkpt lat="42.236664" lon="71.152690"><ele>3116.3</ele></trkpt>
<trkpt lat="42.236595" lon="71.152725"><ele>3119.5</ele></trkpt>
<trkpt lat="42.236540" lon="71.152720"><ele>3122.0</ele></trkpt>
<trkpt lat="42.236446" lon="71.152660"><ele>3126.4</ele></trkpt>
<trkpt lat="42.236400" lon="71.152590"><ele>3129.1</ele></trkpt>
<trkpt lat="42.236416" lon="71.152490"><ele>3129.5</ele></trkpt>
<trkpt lat="42.236410" lon="71.152390"><ele>3131.9</ele></trkpt>
<trkpt lat="42.236454" lon="71.152214"><ele>3134.3</ele></trkpt>
<trkpt lat="42.236460" lon="71.152020"><ele>3140.0</ele></trkpt>
<trkpt lat="42.236490" lon="71.151830"><ele>3142.7</ele></trkpt>
<trkpt lat="42.236410" lon="71.151730"><ele>3150.8</ele></trkpt>
<trkpt lat="42.236336" lon="71.151680"><ele>3157.5</ele></trkpt>
<trkpt lat="42.236300" lon="71.151596"><ele>3160.9</ele></trkpt>
<trkpt lat="42.236280" lon="71.151450"><ele>3161.5</ele></trkpt>
<trkpt lat="42.236230" lon="71.151375"><ele>3164.1</ele></trkpt>
<trkpt lat="42.236206" lon="71.151344"><ele>3165.2</ele></trkpt>
<trkpt lat="42.236190" lon="71.151350"><ele>3166.6</ele></trkpt>
<trkpt lat="42.236100" lon="71.151220"><ele>3169.4</ele></trkpt>
<trkpt lat="42.235940" lon="71.151050"><ele>3173.9</ele></trkpt>
<trkpt lat="42.235905" lon="71.150940"><ele>3172.5</ele></trkpt>
<trkpt lat="42.235860" lon="71.150880"><ele>3173.5</ele></trkpt>
<trkpt lat="42.235813" lon="71.150860"><ele>3175.7</ele></trkpt>
<trkpt lat="42.235806" lon="71.150820"><ele>3175.3</ele></trkpt>
<trkpt lat="42.235832" lon="71.150734"><ele>3172.3</ele></trkpt>
<trkpt lat="42.235687" lon="71.150470"><ele>3176.3</ele></trkpt>
<trkpt lat="42.235672" lon="71.150380"><ele>3175.7</ele></trkpt>
<trkpt lat="42.235680" lon="71.150330"><ele>3174.5</ele></trkpt>
<trkpt lat="42.235650" lon="71.150276"><ele>3175.2</ele></trkpt>
<trkpt lat="42.235638" lon="71.150190"><ele>3174.3</ele></trkpt>
<trkpt lat="42.235580" lon="71.150120"><ele>3175.9</ele></trkpt>
<trkpt lat="42.235416" lon="71.150055"><ele>3182.1</ele></trkpt>
<trkpt lat="42.235176" lon="71.149860"><ele>3187.9</ele></trkpt>
<trkpt lat="42.235170" lon="71.149830"><ele>3187.5</ele></trkpt>
<trkpt lat="42.235020" lon="71.149700"><ele>3189.9</ele></trkpt>
<trkpt lat="42.234930" lon="71.149536"><ele>3188.9</ele></trkpt>
<trkpt lat="42.234880" lon="71.149475"><ele>3188.9</ele></trkpt>
<trkpt lat="42.234814" lon="71.149500"><ele>3190.9</ele></trkpt>
<trkpt lat="42.234720" lon="71.149440"><ele>3191.5</ele></trkpt>
<trkpt lat="42.234676" lon="71.149345"><ele>3190.1</ele></trkpt>
<trkpt lat="42.234604" lon="71.149250"><ele>3189.4</ele></trkpt>
<trkpt lat="42.234585" lon="71.149190"><ele>3188.9</ele></trkpt>
<trkpt lat="42.234524" lon="71.149140"><ele>3189.2</ele></trkpt>
<trkpt lat="42.234460" lon="71.149160"><ele>3190.0</ele></trkpt>
<trkpt lat="42.234444" lon="71.149190"><ele>3190.5</ele></trkpt>
<trkpt lat="42.234390" lon="71.149210"><ele>3191.4</ele></trkpt>
<trkpt lat="42.234295" lon="71.149220"><ele>3192.7</ele></trkpt>
<trkpt lat="42.234203" lon="71.149280"><ele>3195.2</ele></trkpt>
<trkpt lat="42.234110" lon="71.149290"><ele>3197.0</ele></trkpt>
<trkpt lat="42.233955" lon="71.149350"><ele>3201.6</ele></trkpt>
<trkpt lat="42.233940" lon="71.149370"><ele>3202.5</ele></trkpt>
<trkpt lat="42.233845" lon="71.149380"><ele>3204.7</ele></trkpt>
<trkpt lat="42.233696" lon="71.149440"><ele>3209.6</ele></trkpt>
<trkpt lat="42.233524" lon="71.149450"><ele>3213.0</ele></trkpt>
<trkpt lat="42.233260" lon="71.149536"><ele>3219.0</ele></trkpt>
<trkpt lat="42.233130" lon="71.149550"><ele>3219.9</ele></trkpt>
<trkpt lat="42.232967" lon="71.149540"><ele>3219.4</ele></trkpt>
<trkpt lat="42.232930" lon="71.149570"><ele>3220.2</ele></trkpt>
<trkpt lat="42.232754" lon="71.149610"><ele>3220.9</ele></trkpt>
<trkpt lat="42.232670" lon="71.149680"><ele>3222.6</ele></trkpt>
<trkpt lat="42.232544" lon="71.149704"><ele>3223.7</ele></trkpt>
<trkpt lat="42.232530" lon="71.149730"><ele>3224.3</ele></trkpt>
<trkpt lat="42.232500" lon="71.149740"><ele>3224.8</ele></trkpt>
<trkpt lat="42.232480" lon="71.149870"><ele>3227.7</ele></trkpt>
<trkpt lat="42.232420" lon="71.149960"><ele>3229.8</ele></trkpt>
<trkpt lat="42.232410" lon="71.150160"><ele>3233.6</ele></trkpt>
<trkpt lat="42.232370" lon="71.150160"><ele>3233.9</ele></trkpt>
<trkpt lat="42.232320" lon="71.150270"><ele>3236.8</ele></trkpt>
<trkpt lat="42.232292" lon="71.150290"><ele>3237.5</ele></trkpt>
<trkpt lat="42.232250" lon="71.150370"><ele>3239.8</ele></trkpt>
<trkpt lat="42.232227" lon="71.150375"><ele>3240.2</ele></trkpt>
<trkpt lat="42.232210" lon="71.150406"><ele>3241.1</ele></trkpt>
<trkpt lat="42.232124" lon="71.150420"><ele>3242.6</ele></trkpt>
<trkpt lat="42.232075" lon="71.150520"><ele>3245.8</ele></trkpt>
<trkpt lat="42.232033" lon="71.150550"><ele>3247.2</ele></trkpt>
<trkpt lat="42.231922" lon="71.150540"><ele>3248.8</ele></trkpt>
<trkpt lat="42.231840" lon="71.150630"><ele>3252.3</ele></trkpt>
<trkpt lat="42.231728" lon="71.150630"><ele>3254.3</ele></trkpt>
<trkpt lat="42.231712" lon="71.150604"><ele>3254.0</ele></trkpt>
<trkpt lat="42.231660" lon="71.150600"><ele>3254.8</ele></trkpt>
<trkpt lat="42.231586" lon="71.150710"><ele>3258.3</ele></trkpt>
<trkpt lat="42.231520" lon="71.150740"><ele>3260.0</ele></trkpt>
<trkpt lat="42.231514" lon="71.150764"><ele>3260.5</ele></trkpt>
<trkpt lat="42.231426" lon="71.150696"><ele>3260.9</ele></trkpt>
<trkpt lat="42.231403" lon="71.150696"><ele>3261.4</ele></trkpt>
<trkpt lat="42.231346" lon="71.150770"><ele>3263.7</ele></trkpt>
<trkpt lat="42.231323" lon="71.150830"><ele>3265.0</ele></trkpt>
<trkpt lat="42.231285" lon="71.150826"><ele>3265.7</ele></trkpt>
<trkpt lat="42.231243" lon="71.150790"><ele>3266.0</ele></trkpt>
<trkpt lat="42.231117" lon="71.150795"><ele>3268.4</ele></trkpt>
<trkpt lat="42.231056" lon="71.150700"><ele>3268.3</ele></trkpt>
<trkpt lat="42.230846" lon="71.150635"><ele>3271.3</ele></trkpt>
<trkpt lat="42.230827" lon="71.150610"><ele>3271.3</ele></trkpt>
<trkpt lat="42.230827" lon="71.150580"><ele>3270.9</ele></trkpt>
<trkpt lat="42.230740" lon="71.150480"><ele>3271.3</ele></trkpt>
<trkpt lat="42.230630" lon="71.150440"><ele>3272.7</ele></trkpt>
<trkpt lat="42.230576" lon="71.150340"><ele>3272.5</ele></trkpt>
<trkpt lat="42.230507" lon="71.150310"><ele>3273.3</ele></trkpt>
<trkpt lat="42.230495" lon="71.150276"><ele>3273.2</ele></trkpt>
<trkpt lat="42.230484" lon="71.150290"><ele>3273.5</ele></trkpt>
<trkpt lat="42.230408" lon="71.150276"><ele>3274.4</ele></trkpt>
<trkpt lat="42.230415" lon="71.150260"><ele>3274.2</ele></trkpt>
<trkpt lat="42.230400" lon="71.150250"><ele>3274.3</ele></trkpt>
<trkpt lat="42.230340" lon="71.150240"><ele>3275.1</ele></trkpt>
<trkpt lat="42.230312" lon="71.150210"><ele>3275.2</ele></trkpt>
<trkpt lat="42.230312" lon="71.150185"><ele>3275.0</ele></trkpt>
<trkpt lat="42.230274" lon="71.150180"><ele>3275.4</ele></trkpt>
<trkpt lat="42.230230" lon="71.150140"><ele>3275.7</ele></trkpt>
<trkpt lat="42.230180" lon="71.150154"><ele>3276.4</ele></trkpt>
<trkpt lat="42.230120" lon="71.150140"><ele>3277.1</ele></trkpt>
<trkpt lat="42.230076" lon="71.150200"><ele>3278.1</ele></trkpt>
<trkpt lat="42.230030" lon="71.150230"><ele>3278.8</ele></trkpt>
<trkpt lat="42.229960" lon="71.150240"><ele>3279.7</ele></trkpt>
<trkpt lat="42.229950" lon="71.150314"><ele>3280.5</ele></trkpt>
<trkpt lat="42.229904" lon="71.150375"><ele>3281.7</ele></trkpt>
<trkpt lat="42.229813" lon="71.150380"><ele>3282.6</ele></trkpt>
<trkpt lat="42.229786" lon="71.150360"><ele>3282.7</ele></trkpt>
<trkpt lat="42.229750" lon="71.150400"><ele>3283.4</ele></trkpt>
<trkpt lat="42.229694" lon="71.150406"><ele>3283.9</ele></trkpt>
<trkpt lat="42.229687" lon="71.150380"><ele>3283.7</ele></trkpt>
<trkpt lat="42.229626" lon="71.150350"><ele>3283.9</ele></trkpt>
<trkpt lat="42.229540" lon="71.150340"><ele>3284.5</ele></trkpt>
<trkpt lat="42.229530" lon="71.150375"><ele>3284.8</ele></trkpt>
<trkpt lat="42.229378" lon="71.150360"><ele>3285.7</ele></trkpt>
<trkpt lat="42.229320" lon="71.150420"><ele>3286.4</ele></trkpt>
<trkpt lat="42.229300" lon="71.150406"><ele>3286.4</ele></trkpt>
<trkpt lat="42.229263" lon="71.150250"><ele>3285.8</ele></trkpt>
<trkpt lat="42.229230" lon="71.150220"><ele>3285.8</ele></trkpt>
<trkpt lat="42.229103" lon="71.150210"><ele>3286.3</ele></trkpt>
<trkpt lat="42.229076" lon="71.150190"><ele>3286.3</ele></trkpt>
<trkpt lat="42.229060" lon="71.150200"><ele>3286.3</ele></trkpt>
<trkpt lat="42.229057" lon="71.150246"><ele>3286.5</ele></trkpt>
<trkpt lat="42.228996" lon="71.150270"><ele>3286.6</ele></trkpt>
<trkpt lat="42.228832" lon="71.150170"><ele>3286.2</ele></trkpt>
<trkpt lat="42.228767" lon="71.150185"><ele>3286.2</ele></trkpt>
<trkpt lat="42.228740" lon="71.150210"><ele>3286.2</ele></trkpt>
<trkpt lat="42.228695" lon="71.150190"><ele>3286.0</ele></trkpt>
<trkpt lat="42.228657" lon="71.150200"><ele>3286.0</ele></trkpt>
<trkpt lat="42.228450" lon="71.150055"><ele>3285.7</ele></trkpt>
<trkpt lat="42.228300" lon="71.150100"><ele>3285.9</ele></trkpt>
<trkpt lat="42.228230" lon="71.150080"><ele>3286.1</ele></trkpt>
<trkpt lat="42.227985" lon="71.150090"><ele>3287.4</ele></trkpt>
<trkpt lat="42.227856" lon="71.150150"><ele>3288.3</ele></trkpt>
<trkpt lat="42.227657" lon="71.150150"><ele>3289.4</ele></trkpt>
<trkpt lat="42.227623" lon="71.150130"><ele>3289.6</ele></trkpt>
<trkpt lat="42.227540" lon="71.150130"><ele>3290.0</ele></trkpt>
<trkpt lat="42.227455" lon="71.150080"><ele>3290.2</ele></trkpt>
<trkpt lat="42.227425" lon="71.150040"><ele>3290.2</ele></trkpt>
<trkpt lat="42.227394" lon="71.149830"><ele>3290.3</ele></trkpt>
<trkpt lat="42.227406" lon="71.149770"><ele>3290.4</ele></trkpt>
</trkseg></trk>
</gpx>