<?xml version='1.0' encoding='utf-8'?>
<gpx xmlns="http://www.topografix.com/GPX/1/1" xmlns:xsi="http://www.w3.org/2001/XMLSchema-instance" creator="Garmin Connect" version="1.1" schemaLocation="http://www.topografix.com/GPX/1/1 http://www.topografix.com/GPX/11.xsd" xsi:schemaLocation="http://www.topografix.com/GPX/1/1 http://www.topografix.com/GPX/1/1/gpx.xsd http://www.garmin.com/xmlschemas/GpxExtensions/v3 http://www.garmin.com/xmlschemas/GpxExtensionsv3.xsd http://www.garmin.com/xmlschemas/TrackPointExtension/v1 http://www.garmin.com/xmlschemas/TrackPointExtensionv1.xsd http://www.garmin.com/xmlschemas/PowerExtension/v1 http://www.garmin.com/xmlschemas/PowerExtensionv1.xsd http://www.topografix.com/GPX/gpx_style/0/2 http://www.topografix.com/GPX/gpx_style/0/2/gpx_style.xsd">
  <metadata>
    <name>oqtosh</name>
    <author>
      <name>gpx.studio</name>
      <link href="https://gpx.studio" />
    </author>
    <link href="connect.garmin.com">
      <text>Garmin Connect</text>
    </link>
    </metadata>
  <trk>
    <name>Hiking</name>
    <type>hiking</type>
    <trkseg>
      <trkpt lat="41.63578930310905" lon="69.76629747077823">
        <ele>1016.7999877929688</ele>
        </trkpt>
    <trkpt lat="41.635846216231585" lon="69.76633292622864">
        <ele>1016.4000244140625</ele>
        </trkpt>
      <trkpt lat="41.635855101048946" lon="69.76645655930042">
        <ele>1014.4000244140625</ele>
        </trkpt>
      <trkpt lat="41.635661479085684" lon="69.76716700941324">
        <ele>1007.2000122070312</ele>
        </trkpt>
      <trkpt lat="41.635653264820576" lon="69.76740136742592">
        <ele>1007</ele>
        </trkpt>
      <trkpt lat="41.63566868752241" lon="69.76744629442692">
        <ele>1007.2000122070312</ele>
        </trkpt>
      <trkpt lat="41.63577136583626" lon="69.76751544512808">
        <ele>1007.5999755859375</ele>
        </trkpt>
      <trkpt lat="41.63602139800787" lon="69.76750890724361">
        <ele>1009</ele>
        </trkpt>
      <trkpt lat="41.63606791757047" lon="69.7676317859441">
        <ele>1009.4000244140625</ele>
        </trkpt>
      <trkpt lat="41.636069593951106" lon="69.76768459193408">
        <ele>1009.4000244140625</ele>
        </trkpt>
      <trkpt lat="41.63604780100286" lon="69.7676719352603">
        <ele>1009.4000244140625</ele>
        </trkpt>
      <trkpt lat="41.636060290038586" lon="69.76770596578717">
        <ele>1007.4000244140625</ele>
        </trkpt>
      <trkpt lat="41.63604059256613" lon="69.76768534630537">
        <ele>1008.5999755859375</ele>
        </trkpt>
      <trkpt lat="41.636019637808204" lon="69.76771057583392">
        <ele>1007.2000122070312</ele>
        </trkpt>
      <trkpt lat="41.63603078573942" lon="69.76772281341255">
        <ele>1006</ele>
        </trkpt>
      <trkpt lat="41.63604444824159" lon="69.76770588196814">
        <ele>1005.7999877929688</ele>
        </trkpt>
      <trkpt lat="41.63603313267231" lon="69.76771426387131">
        <ele>1006</ele>
        </trkpt>
      <trkpt lat="41.636026008054614" lon="69.76769892498851">
        <ele>1005.4000244140625</ele>
        </trkpt>
      <trkpt lat="41.63604796864092" lon="69.76775608956814">
        <ele>1005.4000244140625</ele>
        </trkpt>
      <trkpt lat="41.63607428781688" lon="69.7677044570446">
        <ele>1009.2000122070312</ele>
        </trkpt>
      <trkpt lat="41.636126758530736" lon="69.76795583032072">
        <ele>1010.2000122070312</ele>
        </trkpt>
      <trkpt lat="41.63617989979684" lon="69.76805180311203">
        <ele>1011.5999755859375</ele>
        </trkpt>
      <trkpt lat="41.63620378822088" lon="69.7681312635541">
        <ele>1012.4000244140625</ele>
        </trkpt>
      <trkpt lat="41.63622667081654" lon="69.76845438592136">
        <ele>1017</ele>
        </trkpt>
      <trkpt lat="41.6362548340112" lon="69.76855630986392">
        <ele>1018.5999755859375</ele>
        </trkpt>
      <trkpt lat="41.63630864582956" lon="69.76862386800349">
        <ele>1019.5999755859375</ele>
        </trkpt>
      <trkpt lat="41.6363824903965" lon="69.76864339783788">
        <ele>1021.4000244140625</ele>
        </trkpt>
      <trkpt lat="41.636510733515024" lon="69.76871405728161">
        <ele>1024.800048828125</ele>
        </trkpt>
      <trkpt lat="41.63671365939081" lon="69.76886509917676">
        <ele>1030</ele>
        </trkpt>
      <trkpt lat="41.63684584200382" lon="69.76889711804688">
        <ele>1032.800048828125</ele>
        </trkpt>
      <trkpt lat="41.63709377869964" lon="69.76901295594871">
        <ele>1037.4000244140625</ele>
        </trkpt>
      <trkpt lat="41.637325873598456" lon="69.7690604813397">
        <ele>1041.5999755859375</ele>
        </trkpt>
      <trkpt lat="41.63743743672967" lon="69.76907313801348">
        <ele>1044</ele>
        </trkpt>
      <trkpt lat="41.63783859461546" lon="69.7690549492836">
        <ele>1049.800048828125</ele>
        </trkpt>
      <trkpt lat="41.63816439919174" lon="69.76916072890162">
        <ele>1055.199951171875</ele>
        </trkpt>
      <trkpt lat="41.638363720849156" lon="69.76925770752132">
        <ele>1058.800048828125</ele>
        </trkpt>
      <trkpt lat="41.63902052678168" lon="69.76937413215637">
        <ele>1071</ele>
        </trkpt>
      <trkpt lat="41.639495780691504" lon="69.76953431032598">
        <ele>1078.800048828125</ele>
        </trkpt>
      <trkpt lat="41.63994220085442" lon="69.76963011547923">
        <ele>1085.199951171875</ele>
        </trkpt>
      <trkpt lat="41.64003448560834" lon="69.76968954317272">
        <ele>1087.5999755859375</ele>
        </trkpt>
      <trkpt lat="41.64040479809046" lon="69.76976003497839">
        <ele>1092.199951171875</ele>
        </trkpt>
      <trkpt lat="41.64070922881365" lon="69.7698560077697">
        <ele>1097.5999755859375</ele>
        </trkpt>
      <trkpt lat="41.64086563512683" lon="69.76986070163548">
        <ele>1099.5999755859375</ele>
        </trkpt>
      <trkpt lat="41.641287077218294" lon="69.76992432028055">
        <ele>1105</ele>
        </trkpt>
      <trkpt lat="41.64151540026069" lon="69.77002607658505">
        <ele>1108</ele>
        </trkpt>
      <trkpt lat="41.64164842106402" lon="69.77004937827587">
        <ele>1109.5999755859375</ele>
        </trkpt>
      <trkpt lat="41.64182452484965" lon="69.7701186966151">
        <ele>1112.199951171875</ele>
        </trkpt>
      <trkpt lat="41.642060559242964" lon="69.7702381387353">
        <ele>1115.4000244140625</ele>
        </trkpt>
      <trkpt lat="41.6423661634326" lon="69.77048205211759">
        <ele>1121.199951171875</ele>
        </trkpt>
      <trkpt lat="41.64254360832274" lon="69.77054055780172">
        <ele>1123.4000244140625</ele>
        </trkpt>
      <trkpt lat="41.64296153001487" lon="69.77073359303176">
        <ele>1129.800048828125</ele>
        </trkpt>
      <trkpt lat="41.643371656537056" lon="69.77097800932825">
        <ele>1135.4000244140625</ele>
        </trkpt>
      <trkpt lat="41.64374481886625" lon="69.77111555635929">
        <ele>1140.5999755859375</ele>
        </trkpt>
      <trkpt lat="41.64387624710798" lon="69.77113642729819">
        <ele>1142.800048828125</ele>
        </trkpt>
      <trkpt lat="41.644278494641185" lon="69.77110650390387">
        <ele>1150.5999755859375</ele>
        </trkpt>
      <trkpt lat="41.64438343606889" lon="69.77112787775695">
        <ele>1152.199951171875</ele>
        </trkpt>
      <trkpt lat="41.64446096867323" lon="69.77111035957932">
        <ele>1153</ele>
        </trkpt>
      <trkpt lat="41.64472399279475" lon="69.77112242951989">
        <ele>1157.5999755859375</ele>
        </trkpt>
      <trkpt lat="41.64492473937571" lon="69.77106618694961">
        <ele>1160.800048828125</ele>
        </trkpt>
      <trkpt lat="41.64502716623247" lon="69.77105730213225">
        <ele>1162.199951171875</ele>
        </trkpt>
      <trkpt lat="41.64520075544715" lon="69.77107146754861">
        <ele>1166.5999755859375</ele>
        </trkpt>
      <trkpt lat="41.64533679373562" lon="69.77105596102774">
        <ele>1168.4000244140625</ele>
        </trkpt>
      <trkpt lat="41.64579000324011" lon="69.77107599377632">
        <ele>1177.5999755859375</ele>
        </trkpt>
      <trkpt lat="41.64593467488885" lon="69.7710653487593">
        <ele>1180.5999755859375</ele>
        </trkpt>
      <trkpt lat="41.64669943973422" lon="69.7712408658117">
        <ele>1197.199951171875</ele>
        </trkpt>
      <trkpt lat="41.64682290516794" lon="69.77120381779969">
        <ele>1199.199951171875</ele>
        </trkpt>
      <trkpt lat="41.64690563455224" lon="69.7712101880461">
        <ele>1200.199951171875</ele>
        </trkpt>
      <trkpt lat="41.64695357903838" lon="69.77124262601137">
        <ele>1201</ele>
        </trkpt>
      <trkpt lat="41.64722817018628" lon="69.77133742533624">
        <ele>1205.5999755859375</ele>
        </trkpt>
      <trkpt lat="41.64746906608343" lon="69.77139039896429">
        <ele>1209.4000244140625</ele>
        </trkpt>
      <trkpt lat="41.647613821551204" lon="69.77145351469517">
        <ele>1211.5999755859375</ele>
        </trkpt>
      <trkpt lat="41.64776612073183" lon="69.771474217996">
        <ele>1215.199951171875</ele>
        </trkpt>
      <trkpt lat="41.64796192198992" lon="69.77156440727413">
        <ele>1218.5999755859375</ele>
        </trkpt>
      <trkpt lat="41.648674719035625" lon="69.7719908785075">
        <ele>1228.800048828125</ele>
        </trkpt>
      <trkpt lat="41.6491942293942" lon="69.77212280966341">
        <ele>1235.5999755859375</ele>
        </trkpt>
      <trkpt lat="41.64937217719853" lon="69.77222917601466">
        <ele>1237.4000244140625</ele>
        </trkpt>
      <trkpt lat="41.649434454739094" lon="69.77232405915856">
        <ele>1238.5999755859375</ele>
        </trkpt>
      <trkpt lat="41.649579629302025" lon="69.77245674468577">
        <ele>1241</ele>
        </trkpt>
      <trkpt lat="41.64968239143491" lon="69.77258490398526">
        <ele>1242.5999755859375</ele>
        </trkpt>
      <trkpt lat="41.65027926675975" lon="69.77301430888474">
        <ele>1250.800048828125</ele>
        </trkpt>
      <trkpt lat="41.65042611770332" lon="69.77318060584366">
        <ele>1255.4000244140625</ele>
        </trkpt>
      <trkpt lat="41.6506723780185" lon="69.77335654199123">
        <ele>1261</ele>
        </trkpt>
      <trkpt lat="41.650887206196785" lon="69.77343709208071">
        <ele>1262.199951171875</ele>
        </trkpt>
      <trkpt lat="41.6511853504926" lon="69.77340708486736">
        <ele>1262</ele>
        </trkpt>
      <trkpt lat="41.65150101296604" lon="69.77331857196987">
        <ele>1262</ele>
        </trkpt>
      <trkpt lat="41.651712488383055" lon="69.77323441766202">
        <ele>1263.199951171875</ele>
        </trkpt>
      <trkpt lat="41.65192052721977" lon="69.77320373989642">
        <ele>1265.4000244140625</ele>
        </trkpt>
      <trkpt lat="41.651986157521605" lon="69.77317398414016">
        <ele>1266.5999755859375</ele>
        </trkpt>
      <trkpt lat="41.652092104777694" lon="69.77317985147238">
        <ele>1267.5999755859375</ele>
        </trkpt>
      <trkpt lat="41.65227918885648" lon="69.77320323698223">
        <ele>1269.4000244140625</ele>
        </trkpt>
      <trkpt lat="41.652471888810396" lon="69.77325621061027">
        <ele>1271.199951171875</ele>
        </trkpt>
      <trkpt lat="41.65256920270622" lon="69.77325989864767">
        <ele>1272</ele>
        </trkpt>
      <trkpt lat="41.65273927152157" lon="69.7733239363879">
        <ele>1273.800048828125</ele>
        </trkpt>
      <trkpt lat="41.653030291199684" lon="69.77338344790041">
        <ele>1275.5999755859375</ele>
        </trkpt>
      <trkpt lat="41.65327923372388" lon="69.77348243817687">
        <ele>1278</ele>
        </trkpt>
      <trkpt lat="41.65338300168514" lon="69.77348545566201">
        <ele>1279.800048828125</ele>
        </trkpt>
      <trkpt lat="41.65363454259932" lon="69.77356458082795">
        <ele>1281.4000244140625</ele>
        </trkpt>
      <trkpt lat="41.653905529528856" lon="69.77361420169473">
        <ele>1284.5999755859375</ele>
        </trkpt>
      <trkpt lat="41.65413100272417" lon="69.77368326857686">
        <ele>1286.5999755859375</ele>
        </trkpt>
      <trkpt lat="41.65442135185003" lon="69.77372794412076">
        <ele>1288.5999755859375</ele>
        </trkpt>
      <trkpt lat="41.65463291108608" lon="69.7738242521882">
        <ele>1289.800048828125</ele>
        </trkpt>
      <trkpt lat="41.65494949556887" lon="69.77389784529805">
        <ele>1293.5999755859375</ele>
        </trkpt>
      <trkpt lat="41.65505209006369" lon="69.77403715252876">
        <ele>1295.5999755859375</ele>
        </trkpt>
      <trkpt lat="41.655127527192235" lon="69.77418802678585">
        <ele>1297.4000244140625</ele>
        </trkpt>
      <trkpt lat="41.65529835037887" lon="69.77432959713042">
        <ele>1300</ele>
        </trkpt>
      <trkpt lat="41.65535241365433" lon="69.77434786967933">
        <ele>1301.199951171875</ele>
        </trkpt>
      <trkpt lat="41.65548015385866" lon="69.77445012889802">
        <ele>1304.4000244140625</ele>
        </trkpt>
      <trkpt lat="41.65556506253779" lon="69.7745481133461">
        <ele>1306.800048828125</ele>
        </trkpt>
      <trkpt lat="41.65563840419054" lon="69.77474198676646">
        <ele>1308.5999755859375</ele>
        </trkpt>
      <trkpt lat="41.65582406334579" lon="69.77503258734941">
        <ele>1311</ele>
        </trkpt>
      <trkpt lat="41.65601475164294" lon="69.77521229535341">
        <ele>1309.800048828125</ele>
        </trkpt>
      <trkpt lat="41.65656862780452" lon="69.775345986709">
        <ele>1309.4000244140625</ele>
        </trkpt>
      <trkpt lat="41.656662253662944" lon="69.77535151876509">
        <ele>1309.199951171875</ele>
        </trkpt>
      <trkpt lat="41.65680164471269" lon="69.7754030674696">
        <ele>1310.4000244140625</ele>
        </trkpt>
      <trkpt lat="41.65688437409699" lon="69.77548470720649">
        <ele>1310.800048828125</ele>
        </trkpt>
      <trkpt lat="41.65698948316276" lon="69.77561940439045">
        <ele>1311.5999755859375</ele>
        </trkpt>
      <trkpt lat="41.65707296691835" lon="69.77582878433168">
        <ele>1312.4000244140625</ele>
        </trkpt>
      <trkpt lat="41.657112278044224" lon="69.77596029639244">
        <ele>1313.199951171875</ele>
        </trkpt>
      <trkpt lat="41.65713608264923" lon="69.77616196498275">
        <ele>1314.199951171875</ele>
        </trkpt>
      <trkpt lat="41.65716550312936" lon="69.77627109736204">
        <ele>1314.800048828125</ele>
        </trkpt>
      <trkpt lat="41.657269606366754" lon="69.77655583061278">
        <ele>1317.800048828125</ele>
        </trkpt>
      <trkpt lat="41.65729491971433" lon="69.77666420862079">
        <ele>1318.5999755859375</ele>
        </trkpt>
      <trkpt lat="41.657289220020175" lon="69.77671852335334">
        <ele>1319.199951171875</ele>
        </trkpt>
      <trkpt lat="41.65732283145189" lon="69.77673922665417">
        <ele>1319</ele>
        </trkpt>
      <trkpt lat="41.65728008374572" lon="69.77661198936403">
        <ele>1318</ele>
        </trkpt>
      <trkpt lat="41.65731277316809" lon="69.77659245952964">
        <ele>1318.199951171875</ele>
        </trkpt>
      <trkpt lat="41.65733523666859" lon="69.7766893543303">
        <ele>1318.800048828125</ele>
        </trkpt>
      <trkpt lat="41.65738360024989" lon="69.77679245173931">
        <ele>1319</ele>
        </trkpt>
      <trkpt lat="41.657472029328346" lon="69.77685942314565">
        <ele>1319.4000244140625</ele>
        </trkpt>
      <trkpt lat="41.657481752336025" lon="69.77688817307353">
        <ele>1319.4000244140625</ele>
        </trkpt>
      <trkpt lat="41.65761326439679" lon="69.776974003762">
        <ele>1318.199951171875</ele>
        </trkpt>
      <trkpt lat="41.65791199542582" lon="69.77741313166916">
        <ele>1310.800048828125</ele>
        </trkpt>
      <trkpt lat="41.65824274532497" lon="69.77775226347148">
        <ele>1303.800048828125</ele>
        </trkpt>
      <trkpt lat="41.65846017189324" lon="69.77808829396963">
        <ele>1301</ele>
        </trkpt>
      <trkpt lat="41.65850744582713" lon="69.77811721153557">
        <ele>1300.5999755859375</ele>
        </trkpt>
      <trkpt lat="41.65857642889023" lon="69.77820061147213">
        <ele>1300</ele>
        </trkpt>
      <trkpt lat="41.658650608733296" lon="69.7782314568758">
        <ele>1299.199951171875</ele>
        </trkpt>
      <trkpt lat="41.658735098317266" lon="69.778239922598">
        <ele>1297.800048828125</ele>
        </trkpt>
      <trkpt lat="41.65882620960474" lon="69.77820488624275">
        <ele>1296.4000244140625</ele>
        </trkpt>
      <trkpt lat="41.658916817978024" lon="69.77814964950085">
        <ele>1295</ele>
        </trkpt>
      <trkpt lat="41.6590666025877" lon="69.77801537141204">
        <ele>1293.4000244140625</ele>
        </trkpt>
      <trkpt lat="41.659204820171" lon="69.77792803198099">
        <ele>1291.4000244140625</ele>
        </trkpt>
      <trkpt lat="41.65945560671389" lon="69.77787061594427">
        <ele>1287.800048828125</ele>
        </trkpt>
      <trkpt lat="41.65963053703308" lon="69.7778807580471">
        <ele>1286.199951171875</ele>
        </trkpt>
      <trkpt lat="41.659827176481485" lon="69.77786449715495">
        <ele>1284.4000244140625</ele>
        </trkpt>
      <trkpt lat="41.65987579151988" lon="69.77781906723976">
        <ele>1284.199951171875</ele>
        </trkpt>
      <trkpt lat="41.659965394064784" lon="69.77759803645313">
        <ele>1283</ele>
        </trkpt>
      <trkpt lat="41.66006622835994" lon="69.77751228958368">
        <ele>1282</ele>
        </trkpt>
      <trkpt lat="41.6604136582464" lon="69.77734440006316">
        <ele>1278.199951171875</ele>
        </trkpt>
      <trkpt lat="41.66056243702769" lon="69.77731581777334">
        <ele>1277.5999755859375</ele>
        </trkpt>
      <trkpt lat="41.66065413504839" lon="69.7773558832705">
        <ele>1276.199951171875</ele>
        </trkpt>
      <trkpt lat="41.66078690439463" lon="69.77728094905615">
        <ele>1276</ele>
        </trkpt>
      <trkpt lat="41.66086192242801" lon="69.77721188217402">
        <ele>1277.199951171875</ele>
        </trkpt>
      <trkpt lat="41.66088874451816" lon="69.77721992880106">
        <ele>1277.199951171875</ele>
        </trkpt>
      <trkpt lat="41.66085748001933" lon="69.77723845280707">
        <ele>1278.199951171875</ele>
        </trkpt>
      <trkpt lat="41.66086368262768" lon="69.77727415971458">
        <ele>1278.800048828125</ele>
        </trkpt>
      <trkpt lat="41.66101229377091" lon="69.77750315330923">
        <ele>1280.800048828125</ele>
        </trkpt>
      <trkpt lat="41.66107373312116" lon="69.77756719104946">
        <ele>1282.800048828125</ele>
        </trkpt>
      <trkpt lat="41.66136031039059" lon="69.77763449773192">
        <ele>1289.4000244140625</ele>
        </trkpt>
      <trkpt lat="41.66144371032715" lon="69.77767053991556">
        <ele>1290.800048828125</ele>
        </trkpt>
      <trkpt lat="41.661596428602934" lon="69.77763818576932">
        <ele>1292.199951171875</ele>
        </trkpt>
      <trkpt lat="41.661771023646" lon="69.77767649106681">
        <ele>1293</ele>
        </trkpt>
      <trkpt lat="41.66210001334548" lon="69.77768177166581">
        <ele>1292.800048828125</ele>
        </trkpt>
      <trkpt lat="41.662244852632284" lon="69.77765226736665">
        <ele>1293.800048828125</ele>
        </trkpt>
      <trkpt lat="41.66227259673178" lon="69.77766542695463">
        <ele>1294.199951171875</ele>
        </trkpt>
      <trkpt lat="41.66258633136749" lon="69.77754514664412">
        <ele>1297.5999755859375</ele>
        </trkpt>
      <trkpt lat="41.662732008844614" lon="69.77752117440104">
        <ele>1301</ele>
        </trkpt>
      <trkpt lat="41.66284860111773" lon="69.77752326987684">
        <ele>1304.5999755859375</ele>
        </trkpt>
      <trkpt lat="41.662856647744775" lon="69.77754145860672">
        <ele>1305.800048828125</ele>
        </trkpt>
      <trkpt lat="41.66295706294477" lon="69.77754254825413">
        <ele>1308</ele>
        </trkpt>
      <trkpt lat="41.66303132660687" lon="69.777573896572">
        <ele>1310.199951171875</ele>
        </trkpt>
      <trkpt lat="41.66306083090603" lon="69.77755319327116">
        <ele>1311.4000244140625</ele>
        </trkpt>
      <trkpt lat="41.66313995607197" lon="69.77758345194161">
        <ele>1314.4000244140625</ele>
        </trkpt>
      <trkpt lat="41.66319343261421" lon="69.7775358427316">
        <ele>1315.5999755859375</ele>
        </trkpt>
      <trkpt lat="41.663237353786826" lon="69.7775215934962">
        <ele>1316.800048828125</ele>
        </trkpt>
      <trkpt lat="41.66330608539283" lon="69.77754439227283">
        <ele>1317.800048828125</ele>
        </trkpt>
      <trkpt lat="41.663595931604505" lon="69.77745160460472">
        <ele>1322.199951171875</ele>
        </trkpt>
      <trkpt lat="41.66367296129465" lon="69.77745587937534">
        <ele>1323.4000244140625</ele>
        </trkpt>
      <trkpt lat="41.663718055933714" lon="69.77748001925647">
        <ele>1324</ele>
        </trkpt>
      <trkpt lat="41.66392341256142" lon="69.77738463319838">
        <ele>1327</ele>
        </trkpt>
      <trkpt lat="41.664056265726686" lon="69.77737281471491">
        <ele>1330.4000244140625</ele>
        </trkpt>
      <trkpt lat="41.66411267593503" lon="69.77739687077701">
        <ele>1331.5999755859375</ele>
        </trkpt>
      <trkpt lat="41.66426137089729" lon="69.77738161571324">
        <ele>1333.800048828125</ele>
        </trkpt>
      <trkpt lat="41.66445809416473" lon="69.77726871147752">
        <ele>1333.800048828125</ele>
        </trkpt>
      <trkpt lat="41.66452984325588" lon="69.7771814558655">
        <ele>1333.800048828125</ele>
        </trkpt>
      <trkpt lat="41.66477140970528" lon="69.77701432071626">
        <ele>1332.4000244140625</ele>
        </trkpt>
      <trkpt lat="41.664814660325646" lon="69.77692706510425">
        <ele>1330.4000244140625</ele>
        </trkpt>
      <trkpt lat="41.66492136195302" lon="69.77688901126385">
        <ele>1329</ele>
        </trkpt>
      <trkpt lat="41.6649881657213" lon="69.77680502459407">
        <ele>1329.5999755859375</ele>
        </trkpt>
      <trkpt lat="41.665094112977386" lon="69.7764509730041">
        <ele>1329.199951171875</ele>
        </trkpt>
      <trkpt lat="41.665284717455506" lon="69.77622072212398">
        <ele>1330</ele>
        </trkpt>
      <trkpt lat="41.6653039958328" lon="69.77616749703884">
        <ele>1330.800048828125</ele>
        </trkpt>
      <trkpt lat="41.665298882871866" lon="69.77614494971931">
        <ele>1330.800048828125</ele>
        </trkpt>
      <trkpt lat="41.66546509601176" lon="69.77594210766256">
        <ele>1333.4000244140625</ele>
        </trkpt>
      <trkpt lat="41.66548387147486" lon="69.77588527835906">
        <ele>1334.4000244140625</ele>
        </trkpt>
      <trkpt lat="41.66552544571459" lon="69.77590514346957">
        <ele>1336.4000244140625</ele>
        </trkpt>
      <trkpt lat="41.66564321145415" lon="69.77589919231832">
        <ele>1338</ele>
        </trkpt>
      <trkpt lat="41.66583213955164" lon="69.77596867829561">
        <ele>1339.199951171875</ele>
        </trkpt>
      <trkpt lat="41.666034646332264" lon="69.77598410099745">
        <ele>1340</ele>
        </trkpt>
      <trkpt lat="41.666153920814395" lon="69.77590170688927">
        <ele>1341.199951171875</ele>
        </trkpt>
      <trkpt lat="41.66621561162174" lon="69.77580833248794">
        <ele>1342</ele>
        </trkpt>
      <trkpt lat="41.66628006845713" lon="69.7757860366255">
        <ele>1342.800048828125</ele>
        </trkpt>
      <trkpt lat="41.66630479507148" lon="69.775734487921">
        <ele>1343.5999755859375</ele>
        </trkpt>
      <trkpt lat="41.66645374149084" lon="69.77556928060949">
        <ele>1345.800048828125</ele>
        </trkpt>
      <trkpt lat="41.66654594242573" lon="69.77550256066024">
        <ele>1346.5999755859375</ele>
        </trkpt>
      <trkpt lat="41.66659732349217" lon="69.77548847906291">
        <ele>1347.5999755859375</ele>
        </trkpt>
      <trkpt lat="41.66670536622405" lon="69.77539015933871">
        <ele>1348.5999755859375</ele>
        </trkpt>
      <trkpt lat="41.66677082888782" lon="69.77537658065557">
        <ele>1349</ele>
        </trkpt>
      <trkpt lat="41.66683352552354" lon="69.77533534169197">
        <ele>1349.4000244140625</ele>
        </trkpt>
      <trkpt lat="41.666941568255424" lon="69.77535185404122">
        <ele>1351</ele>
        </trkpt>
      <trkpt lat="41.667046593502164" lon="69.77529963478446">
        <ele>1353.199951171875</ele>
        </trkpt>
      <trkpt lat="41.66719386354089" lon="69.77533483877778">
        <ele>1358</ele>
        </trkpt>
      <trkpt lat="41.667324202135205" lon="69.77533919736743">
        <ele>1362</ele>
        </trkpt>
      <trkpt lat="41.667450265958905" lon="69.77539828978479">
        <ele>1364</ele>
        </trkpt>
      <trkpt lat="41.66749938391149" lon="69.77544355206192">
        <ele>1365.4000244140625</ele>
        </trkpt>
      <trkpt lat="41.66758202947676" lon="69.77540072053671">
        <ele>1367.4000244140625</ele>
        </trkpt>
      <trkpt lat="41.667724857106805" lon="69.7754273749888">
        <ele>1371.5999755859375</ele>
        </trkpt>
      <trkpt lat="41.668101623654366" lon="69.77543659508228">
        <ele>1371.800048828125</ele>
        </trkpt>
      <trkpt lat="41.668231543153524" lon="69.77545704692602">
        <ele>1372.199951171875</ele>
        </trkpt>
      <trkpt lat="41.668335143476725" lon="69.77554061450064">
        <ele>1372.800048828125</ele>
        </trkpt>
      <trkpt lat="41.66852264665067" lon="69.77551756426692">
        <ele>1373</ele>
        </trkpt>
      <trkpt lat="41.66868072934449" lon="69.77556844241917">
        <ele>1374.4000244140625</ele>
        </trkpt>
      <trkpt lat="41.668819366022944" lon="69.77555938996375">
        <ele>1375.4000244140625</ele>
        </trkpt>
      <trkpt lat="41.66887150146067" lon="69.77557967416942">
        <ele>1376.199951171875</ele>
        </trkpt>
      <trkpt lat="41.66900728829205" lon="69.77557824924588">
        <ele>1377.5999755859375</ele>
        </trkpt>
      <trkpt lat="41.66917492635548" lon="69.7755270358175">
        <ele>1378.5999755859375</ele>
        </trkpt>
      <trkpt lat="41.66954901069403" lon="69.7755534388125">
        <ele>1382.800048828125</ele>
        </trkpt>
      <trkpt lat="41.66972620412707" lon="69.77549065835774">
        <ele>1384.800048828125</ele>
        </trkpt>
      <trkpt lat="41.66980340145528" lon="69.77543332614005">
        <ele>1386.199951171875</ele>
        </trkpt>
      <trkpt lat="41.66991261765361" lon="69.77539259009063">
        <ele>1387.4000244140625</ele>
        </trkpt>
      <trkpt lat="41.66996500454843" lon="69.77538613602519">
        <ele>1388.4000244140625</ele>
        </trkpt>
      <trkpt lat="41.670143622905016" lon="69.77543039247394">
        <ele>1390.800048828125</ele>
        </trkpt>
      <trkpt lat="41.67020891793072" lon="69.77539854124188">
        <ele>1391.199951171875</ele>
        </trkpt>
      <trkpt lat="41.67030153796077" lon="69.77540792897344">
        <ele>1392.800048828125</ele>
        </trkpt>
      <trkpt lat="41.67051183991134" lon="69.77536392398179">
        <ele>1397</ele>
        </trkpt>
      <trkpt lat="41.67066355235875" lon="69.77530759759247">
        <ele>1400.800048828125</ele>
        </trkpt>
      <trkpt lat="41.67070537805557" lon="69.77533048018813">
        <ele>1402</ele>
        </trkpt>
      <trkpt lat="41.6708368062973" lon="69.77532310411334">
        <ele>1406.5999755859375</ele>
        </trkpt>
      <trkpt lat="41.67095591314137" lon="69.77528479881585">
        <ele>1407.4000244140625</ele>
        </trkpt>
      <trkpt lat="41.67107091285288" lon="69.77521514520049">
        <ele>1408.800048828125</ele>
        </trkpt>
      <trkpt lat="41.67124081403017" lon="69.77517038583755">
        <ele>1410.800048828125</ele>
        </trkpt>
      <trkpt lat="41.67127995751798" lon="69.77514264173806">
        <ele>1410.800048828125</ele>
        </trkpt>
      <trkpt lat="41.671377355232835" lon="69.77512889541686">
        <ele>1410.800048828125</ele>
        </trkpt>
      <trkpt lat="41.67149386368692" lon="69.77504767477512">
        <ele>1412.4000244140625</ele>
        </trkpt>
      <trkpt lat="41.671691508963704" lon="69.77515605278313">
        <ele>1417</ele>
        </trkpt>
      <trkpt lat="41.67205343954265" lon="69.77521514520049">
        <ele>1422</ele>
        </trkpt>
      <trkpt lat="41.67228880338371" lon="69.77521631866693">
        <ele>1425</ele>
        </trkpt>
      <trkpt lat="41.67246675118804" lon="69.77528111077845">
        <ele>1428.5999755859375</ele>
        </trkpt>
      <trkpt lat="41.672562304884195" lon="69.7753526084125">
        <ele>1431.5999755859375</ele>
        </trkpt>
      <trkpt lat="41.67271242477" lon="69.77542410604656">
        <ele>1433.199951171875</ele>
        </trkpt>
      <trkpt lat="41.67280781082809" lon="69.77530298754573">
        <ele>1435.800048828125</ele>
        </trkpt>
      <trkpt lat="41.673061111941934" lon="69.7752941865474">
        <ele>1437.4000244140625</ele>
        </trkpt>
      <trkpt lat="41.67324023321271" lon="69.77525663562119">
        <ele>1436.800048828125</ele>
        </trkpt>
      <trkpt lat="41.67331248521805" lon="69.77527071721852">
        <ele>1438.800048828125</ele>
        </trkpt>
      <trkpt lat="41.67337937280536" lon="69.77535093203187">
        <ele>1441.4000244140625</ele>
        </trkpt>
      <trkpt lat="41.67348708026111" lon="69.77538781240582">
        <ele>1442.800048828125</ele>
        </trkpt>
      <trkpt lat="41.67352463118732" lon="69.77536970749497">
        <ele>1442.800048828125</ele>
        </trkpt>
      <trkpt lat="41.673566373065114" lon="69.77539946325123">
        <ele>1443.5999755859375</ele>
        </trkpt>
      <trkpt lat="41.67368137277663" lon="69.77532184682786">
        <ele>1443.800048828125</ele>
        </trkpt>
      <trkpt lat="41.67380861006677" lon="69.77529519237578">
        <ele>1444.4000244140625</ele>
        </trkpt>
      <trkpt lat="41.67386912740767" lon="69.77523769252002">
        <ele>1445.199951171875</ele>
        </trkpt>
      <trkpt lat="41.673908019438386" lon="69.7752302326262">
        <ele>1446</ele>
        </trkpt>
      <trkpt lat="41.67403534054756" lon="69.7752820327878">
        <ele>1448</ele>
        </trkpt>
      <trkpt lat="41.674068281427026" lon="69.77527951821685">
        <ele>1448.4000244140625</ele>
        </trkpt>
      <trkpt lat="41.67422619648278" lon="69.77520944550633">
        <ele>1450.199951171875</ele>
        </trkpt>
      <trkpt lat="41.674245642498136" lon="69.77516552433372">
        <ele>1451.199951171875</ele>
        </trkpt>
      <trkpt lat="41.674234410747886" lon="69.77516225539148">
        <ele>1452</ele>
        </trkpt>
      <trkpt lat="41.674316637218" lon="69.77515907026827">
        <ele>1454.4000244140625</ele>
        </trkpt>
      <trkpt lat="41.67442652396858" lon="69.77520416490734">
        <ele>1455.4000244140625</ele>
        </trkpt>
      <trkpt lat="41.67452861554921" lon="69.77531991899014">
        <ele>1457.800048828125</ele>
        </trkpt>
      <trkpt lat="41.674627186730504" lon="69.77535244077444">
        <ele>1459.199951171875</ele>
        </trkpt>
      <trkpt lat="41.6746652405709" lon="69.77541396394372">
        <ele>1461.5999755859375</ele>
        </trkpt>
      <trkpt lat="41.67480597272515" lon="69.77531212382019">
        <ele>1464</ele>
        </trkpt>
      <trkpt lat="41.67482726275921" lon="69.775250852108">
        <ele>1464.800048828125</ele>
        </trkpt>
      <trkpt lat="41.674884846434" lon="69.77519938722253">
        <ele>1466</ele>
        </trkpt>
      <trkpt lat="41.67503580451012" lon="69.77511238306761">
        <ele>1468.4000244140625</ele>
        </trkpt>
      <trkpt lat="41.67512968182564" lon="69.77509075775743">
        <ele>1470</ele>
        </trkpt>
      <trkpt lat="41.675364542752504" lon="69.77498623542488">
        <ele>1472.800048828125</ele>
        </trkpt>
      <trkpt lat="41.675391951575875" lon="69.774981290102">
        <ele>1474</ele>
        </trkpt>
      <trkpt lat="41.67539899237454" lon="69.77500450797379">
        <ele>1475</ele>
        </trkpt>
      <trkpt lat="41.67546923272312" lon="69.7749588266015">
        <ele>1475.5999755859375</ele>
        </trkpt>
      <trkpt lat="41.675521787256" lon="69.77489688433707">
        <ele>1475.199951171875</ele>
        </trkpt>
      <trkpt lat="41.67564734816551" lon="69.77493586018682">
        <ele>1477.4000244140625</ele>
        </trkpt>
      <trkpt lat="41.67563100345433" lon="69.77486033923924">
        <ele>1480.199951171875</ele>
        </trkpt>
      <trkpt lat="41.67574969120324" lon="69.77480677887797">
        <ele>1485.5999755859375</ele>
        </trkpt>
      <trkpt lat="41.675776932388544" lon="69.77488917298615">
        <ele>1486.199951171875</ele>
        </trkpt>
      <trkpt lat="41.67581146582961" lon="69.77493024431169">
        <ele>1485.5999755859375</ele>
        </trkpt>
      <trkpt lat="41.67596192099154" lon="69.77501976303756">
        <ele>1484.800048828125</ele>
        </trkpt>
      <trkpt lat="41.67604297399521" lon="69.77504289709032">
        <ele>1484.5999755859375</ele>
        </trkpt>
      <trkpt lat="41.67606560513377" lon="69.77508363313973">
        <ele>1485.4000244140625</ele>
        </trkpt>
      <trkpt lat="41.67608211748302" lon="69.77517021819949">
        <ele>1486.4000244140625</ele>
        </trkpt>
      <trkpt lat="41.67614623904228" lon="69.77521204389632">
        <ele>1487.5999755859375</ele>
        </trkpt>
      <trkpt lat="41.67625654488802" lon="69.77518622763455">
        <ele>1489.5999755859375</ele>
        </trkpt>
      <trkpt lat="41.67630507610738" lon="69.77514306083322">
        <ele>1490.800048828125</ele>
        </trkpt>
      <trkpt lat="41.676362408325076" lon="69.77512277662754">
        <ele>1492</ele>
        </trkpt>
      <trkpt lat="41.67647304944694" lon="69.77516334503889">
        <ele>1495.800048828125</ele>
        </trkpt>
      <trkpt lat="41.67653700336814" lon="69.77509897202253">
        <ele>1495.800048828125</ele>
        </trkpt>
      <trkpt lat="41.6766217444092" lon="69.77508807554841">
        <ele>1496.5999755859375</ele>
        </trkpt>
      <trkpt lat="41.67668268084526" lon="69.77511892095208">
        <ele>1500.5999755859375</ele>
        </trkpt>
      <trkpt lat="41.676692655310035" lon="69.77509050630033">
        <ele>1503.4000244140625</ele>
        </trkpt>
      <trkpt lat="41.676714112982154" lon="69.77509687654674">
        <ele>1503.800048828125</ele>
        </trkpt>
      <trkpt lat="41.67675853706896" lon="69.77515152655542">
        <ele>1505.5999755859375</ele>
        </trkpt>
      <trkpt lat="41.6769053041935" lon="69.77512671612203">
        <ele>1509</ele>
        </trkpt>
      <trkpt lat="41.67701343074441" lon="69.77518144994974">
        <ele>1511.199951171875</ele>
        </trkpt>
      <trkpt lat="41.67707193642855" lon="69.77515856735408">
        <ele>1511.800048828125</ele>
        </trkpt>
      <trkpt lat="41.677131028845906" lon="69.77516485378146">
        <ele>1512</ele>
        </trkpt>
      <trkpt lat="41.677156342193484" lon="69.77512227371335">
        <ele>1514</ele>
        </trkpt>
      <trkpt lat="41.67718064971268" lon="69.77512327954173">
        <ele>1515.4000244140625</ele>
        </trkpt>
      <trkpt lat="41.677298080176115" lon="69.77534766308963">
        <ele>1519.199951171875</ele>
        </trkpt>
      <trkpt lat="41.6773228906095" lon="69.77535889483988">
        <ele>1521.199951171875</ele>
        </trkpt>
      <trkpt lat="41.677337139844894" lon="69.77531924843788">
        <ele>1523.4000244140625</ele>
        </trkpt>
      <trkpt lat="41.677314257249236" lon="69.77525521069765">
        <ele>1525.5999755859375</ele>
        </trkpt>
      <trkpt lat="41.677310820668936" lon="69.77515722624958">
        <ele>1527.199951171875</ele>
        </trkpt>
      <trkpt lat="41.67729590088129" lon="69.7751211002469">
        <ele>1528.4000244140625</ele>
        </trkpt>
      <trkpt lat="41.67730285786092" lon="69.77502412162721">
        <ele>1531</ele>
        </trkpt>
      <trkpt lat="41.677343510091305" lon="69.77502688765526">
        <ele>1532.199951171875</ele>
        </trkpt>
      <trkpt lat="41.6773886885494" lon="69.77507684379816">
        <ele>1533.199951171875</ele>
        </trkpt>
      <trkpt lat="41.67743504047394" lon="69.77505815215409">
        <ele>1534.800048828125</ele>
        </trkpt>
      <trkpt lat="41.67747368104756" lon="69.77508053183556">
        <ele>1536.5999755859375</ele>
        </trkpt>
      <trkpt lat="41.67757719755173" lon="69.77500593289733">
        <ele>1549.199951171875</ele>
        </trkpt>
      <trkpt lat="41.67760376818478" lon="69.77505714632571">
        <ele>1551.800048828125</ele>
        </trkpt>
      <trkpt lat="41.677632350474596" lon="69.77500576525927">
        <ele>1554</ele>
        </trkpt>
      <trkpt lat="41.67771767824888" lon="69.77491876110435">
        <ele>1558.5999755859375</ele>
        </trkpt>
      <trkpt lat="41.67774248868227" lon="69.77492915466428">
        <ele>1560.4000244140625</ele>
        </trkpt>
      <trkpt lat="41.67776511982083" lon="69.77489395067096">
        <ele>1562</ele>
        </trkpt>
      <trkpt lat="41.677787750959396" lon="69.77477526292205">
        <ele>1564.4000244140625</ele>
        </trkpt>
      <trkpt lat="41.677778949961066" lon="69.77471281774342">
        <ele>1565.800048828125</ele>
        </trkpt>
      <trkpt lat="41.678128810599446" lon="69.77464760653675">
        <ele>1569</ele>
        </trkpt>
      <trkpt lat="41.67819016613066" lon="69.77456764318049">
        <ele>1587.800048828125</ele>
        </trkpt>
      <trkpt lat="41.67825277894735" lon="69.77459169924259">
        <ele>1591</ele>
        </trkpt>
      <trkpt lat="41.67825152166188" lon="69.77462044917047">
        <ele>1593.199951171875</ele>
        </trkpt>
      <trkpt lat="41.67833617888391" lon="69.77461969479918">
        <ele>1600</ele>
        </trkpt>
      <trkpt lat="41.678335927426815" lon="69.77457736618817">
        <ele>1600.5999755859375</ele>
        </trkpt>
      <trkpt lat="41.67830499820411" lon="69.77452824823558">
        <ele>1599.5999755859375</ele>
        </trkpt>
      <trkpt lat="41.67829594574869" lon="69.77444090880454">
        <ele>1597.4000244140625</ele>
        </trkpt>
      <trkpt lat="41.678356379270554" lon="69.77409238927066">
        <ele>1593.800048828125</ele>
        </trkpt>
      </trkseg>
  </trk>
</gpx>