<?xml version='1.0' encoding='utf-8'?>
<gpx xmlns="http://www.topografix.com/GPX/1/1" xmlns:ns2="https://gurumaps.app/gpx/v3" xmlns:xsi="http://www.w3.org/2001/XMLSchema-instance" version="1.1" creator="com.bodunov.galileo/v5.4.2" xsi:schemaLocation="http://www.topografix.com/GPX/1/1 http://www.topografix.com/GPX/1/1/gpx.xsd https://gurumaps.app/gpx/v3 https://gurumaps.app/gpx/v3/schema.xsd">
 <trk>
  <name>Пальтау, Оби Рахмат Go On Foot</name>
  <desc>Пальтау, Пещера Оби Рахмат</desc>
  <type>TrackStyle_2196F3C8</type>
  <extensions>
   <ns2:time>2023-11-05T05:08:47.719Z</ns2:time>
  </extensions>
  <trkseg>
   <trkpt lat="41.5605584838" lon="70.1161927846"><ele>928.991</ele></trkpt>
   <trkpt lat="41.5604866928" lon="70.1163994823"><ele>931.942</ele></trkpt>
   <trkpt lat="41.5605219806" lon="70.1166828745"><ele>935.77</ele></trkpt>
   <trkpt lat="41.5605679972" lon="70.1168088545"><ele>936.627</ele></trkpt>
   <trkpt lat="41.5605691707" lon="70.1169365947"><ele>940.103</ele></trkpt>
   <trkpt lat="41.560603788" lon="70.1170465653"><ele>943.815</ele></trkpt>
   <trkpt lat="41.5605762953" lon="70.1171904825"><ele>947.3</ele></trkpt>
   <trkpt lat="41.5605415942" lon="70.1172488206"><ele>946.381</ele></trkpt>
   <trkpt lat="41.5604685879" lon="70.1172956754"><ele>952.594</ele></trkpt>
   <trkpt lat="41.5604501896" lon="70.117240271"><ele>945.162</ele></trkpt>
   <trkpt lat="41.5604265945" lon="70.1173011237"><ele>950.635</ele></trkpt>
   <trkpt lat="41.5603202701" lon="70.1173914806"><ele>948.571</ele></trkpt>
   <trkpt lat="41.5601301685" lon="70.1175109227"><ele>955.761</ele></trkpt>
   <trkpt lat="41.5601518777" lon="70.1174845197"><ele>954.608</ele></trkpt>
   <trkpt lat="41.5601662945" lon="70.11747882"><ele>953.513</ele></trkpt>
   <trkpt lat="41.5601106806" lon="70.1175355655"><ele>955.443</ele></trkpt>
   <trkpt lat="41.5599176873" lon="70.117656684"><ele>959.992</ele></trkpt>
   <trkpt lat="41.559742296" lon="70.1178261661"><ele>965.896</ele></trkpt>
   <trkpt lat="41.559592679" lon="70.1179325324"><ele>968.246</ele></trkpt>
   <trkpt lat="41.5590028864" lon="70.1184249692"><ele>977.563</ele></trkpt>
   <trkpt lat="41.5587177759" lon="70.1185723231"><ele>982.561</ele></trkpt>
   <trkpt lat="41.5584127585" lon="70.1186907594"><ele>991.292</ele></trkpt>
   <trkpt lat="41.557991484" lon="70.1187866484"><ele>997.587</ele></trkpt>
   <trkpt lat="41.557927572" lon="70.1188278873"><ele>1006.414</ele></trkpt>
   <trkpt lat="41.5577029789" lon="70.1188806933"><ele>1002.39</ele></trkpt>
   <trkpt lat="41.5574189581" lon="70.119008685"><ele>1009.65</ele></trkpt>
   <trkpt lat="41.5573312834" lon="70.119013295"><ele>1016.799</ele></trkpt>
   <trkpt lat="41.5572674971" lon="70.1190562942"><ele>1017.753</ele></trkpt>
   <trkpt lat="41.5572022859" lon="70.1191307255"><ele>1020.468</ele></trkpt>
   <trkpt lat="41.5572187983" lon="70.1191241876"><ele>1019.829</ele></trkpt>
   <trkpt lat="41.5571954966" lon="70.1191178174"><ele>1019.725</ele></trkpt>
   <trkpt lat="41.5572201813" lon="70.1190733933"><ele>1013.382</ele></trkpt>
   <trkpt lat="41.5571923953" lon="70.1190782548"><ele>1018.877</ele></trkpt>
   <trkpt lat="41.5571831752" lon="70.1190587249"><ele>1011.355</ele></trkpt>
   <trkpt lat="41.5571877852" lon="70.1190821943"><ele>1022.078</ele></trkpt>
   <trkpt lat="41.557224498" lon="70.1190637541"><ele>1020.644</ele></trkpt>
   <trkpt lat="41.5572526612" lon="70.1190740638"><ele>1015.77</ele></trkpt>
   <trkpt lat="41.557242561" lon="70.1191236847"><ele>1012.297</ele></trkpt>
   <trkpt lat="41.5572866917" lon="70.1191662648"><ele>1011.05</ele></trkpt>
   <trkpt lat="41.5574709678" lon="70.1196559355"><ele>1014.347</ele></trkpt>
   <trkpt lat="41.5578991993" lon="70.1203456823"><ele>1025.402</ele></trkpt>
   <trkpt lat="41.5580149953" lon="70.1204620232"><ele>1023.056</ele></trkpt>
   <trkpt lat="41.5581398856" lon="70.1205229596"><ele>1020.864</ele></trkpt>
   <trkpt lat="41.55819529" lon="70.1205818844"><ele>1024.197</ele></trkpt>
   <trkpt lat="41.5584174943" lon="70.1207272266"><ele>1033.199</ele></trkpt>
   <trkpt lat="41.5586242758" lon="70.1210235269"><ele>1035.494</ele></trkpt>
   <trkpt lat="41.5587151775" lon="70.1211271272"><ele>1037.98</ele></trkpt>
   <trkpt lat="41.558923384" lon="70.1212942623"><ele>1044.078</ele></trkpt>
   <trkpt lat="41.5590217876" lon="70.1214233436"><ele>1048.754</ele></trkpt>
   <trkpt lat="41.5593720673" lon="70.1217487291"><ele>1048.017</ele></trkpt>
   <trkpt lat="41.5595016934" lon="70.1218300336"><ele>1053.792</ele></trkpt>
   <trkpt lat="41.5599213753" lon="70.1219058898"><ele>1055.094</ele></trkpt>
   <trkpt lat="41.5600732973" lon="70.1219605398"><ele>1059.808</ele></trkpt>
   <trkpt lat="41.5603278976" lon="70.1221113303"><ele>1058.221</ele></trkpt>
   <trkpt lat="41.5604531652" lon="70.1222393219"><ele>1058.558</ele></trkpt>
   <trkpt lat="41.5604484713" lon="70.1222722628"><ele>1055.097</ele></trkpt>
   <trkpt lat="41.5604343897" lon="70.1222725981"><ele>1058.148</ele></trkpt>
   <trkpt lat="41.5604478846" lon="70.1222972409"><ele>1054.922</ele></trkpt>
   <trkpt lat="41.5605377805" lon="70.1223760308"><ele>1061.723</ele></trkpt>
   <trkpt lat="41.5608601904" lon="70.1225575828"><ele>1065.756</ele></trkpt>
   <trkpt lat="41.5608365953" lon="70.1225543977"><ele>1062.718</ele></trkpt>
   <trkpt lat="41.5608485815" lon="70.1225726702"><ele>1057.549</ele></trkpt>
   <trkpt lat="41.5609134993" lon="70.1225831476"><ele>1063.589</ele></trkpt>
   <trkpt lat="41.5610588834" lon="70.1226610993"><ele>1065.933</ele></trkpt>
   <trkpt lat="41.5612096738" lon="70.1227003266"><ele>1068.752</ele></trkpt>
   <trkpt lat="41.5612251804" lon="70.1227138215"><ele>1067.083</ele></trkpt>
   <trkpt lat="41.5612152897" lon="70.1227270649"><ele>1069.413</ele></trkpt>
   <trkpt lat="41.5612349872" lon="70.1227017515"><ele>1066.94</ele></trkpt>
   <trkpt lat="41.5614730751" lon="70.122695046"><ele>1067.058</ele></trkpt>
   <trkpt lat="41.5617444812" lon="70.1226514601"><ele>1067.013</ele></trkpt>
   <trkpt lat="41.5617954851" lon="70.1226530527"><ele>1062.271</ele></trkpt>
   <trkpt lat="41.5618368917" lon="70.1226901845"><ele>1063.933</ele></trkpt>
   <trkpt lat="41.5618543679" lon="70.1228452497"><ele>1065.948</ele></trkpt>
   <trkpt lat="41.5618044956" lon="70.1229691342"><ele>1063.909</ele></trkpt>
   <trkpt lat="41.5617998856" lon="70.1230721478"><ele>1064.525</ele></trkpt>
   <trkpt lat="41.5618359696" lon="70.1233048294"><ele>1060.745</ele></trkpt>
   <trkpt lat="41.5618424656" lon="70.1234568772"><ele>1061.808</ele></trkpt>
   <trkpt lat="41.5619322777" lon="70.1235748944"><ele>1059.161</ele></trkpt>
   <trkpt lat="41.5620989938" lon="70.124001198"><ele>1067.925</ele></trkpt>
   <trkpt lat="41.5623361597" lon="70.1244610292"><ele>1074.257</ele></trkpt>
   <trkpt lat="41.5624395924" lon="70.1247173478"><ele>1072.801</ele></trkpt>
   <trkpt lat="41.5625776843" lon="70.12531657"><ele>1083.436</ele></trkpt>
   <trkpt lat="41.5627589848" lon="70.1257908181"><ele>1080.244</ele></trkpt>
   <trkpt lat="41.5628165685" lon="70.1262445305"><ele>1075.766</ele></trkpt>
   <trkpt lat="41.5628581846" lon="70.1263532438"><ele>1075.267</ele></trkpt>
   <trkpt lat="41.5628655607" lon="70.1264239871"><ele>1075.991</ele></trkpt>
   <trkpt lat="41.5631166825" lon="70.1268337783"><ele>1082.142</ele></trkpt>
   <trkpt lat="41.5632095959" lon="70.1270526298"><ele>1083.017</ele></trkpt>
   <trkpt lat="41.5632695685" lon="70.1271455851"><ele>1077.78</ele></trkpt>
   <trkpt lat="41.5633482745" lon="70.1273208507"><ele>1077.124</ele></trkpt>
   <trkpt lat="41.563474967" lon="70.1276919176"><ele>1076.504</ele></trkpt>
   <trkpt lat="41.5634989811" lon="70.1276947674"><ele>1076.757</ele></trkpt>
   <trkpt lat="41.5635113864" lon="70.1276486669"><ele>1078.244</ele></trkpt>
   <trkpt lat="41.5634981849" lon="70.1276660175"><ele>1073.605</ele></trkpt>
   <trkpt lat="41.563470776" lon="70.1276185759"><ele>1075.987</ele></trkpt>
   <trkpt lat="41.5635792798" lon="70.1278697816"><ele>1069.902</ele></trkpt>
   <trkpt lat="41.563693567" lon="70.1282066502"><ele>1073.714</ele></trkpt>
   <trkpt lat="41.5638172839" lon="70.1283307862"><ele>1070.772</ele></trkpt>
   <trkpt lat="41.5642416597" lon="70.1285760407"><ele>1069.433</ele></trkpt>
   <trkpt lat="41.5643694837" lon="70.1286250748"><ele>1067.999</ele></trkpt>
   <trkpt lat="41.564522663" lon="70.1286141784"><ele>1067.997</ele></trkpt>
   <trkpt lat="41.564580079" lon="70.1287204609"><ele>1067.835</ele></trkpt>
   <trkpt lat="41.5645815878" lon="70.1287673996"><ele>1066.016</ele></trkpt>
   <trkpt lat="41.5645603815" lon="70.1287929644"><ele>1065.211</ele></trkpt>
   <trkpt lat="41.5643124868" lon="70.1288348739"><ele>1059.901</ele></trkpt>
   <trkpt lat="41.5642388936" lon="70.1288274978"><ele>1058.271</ele></trkpt>
   <trkpt lat="41.5641264923" lon="70.1288625342"><ele>1053.651</ele></trkpt>
   <trkpt lat="41.5640933838" lon="70.128890865"><ele>1052.005</ele></trkpt>
   <trkpt lat="41.5640097743" lon="70.1290125702"><ele>1053.357</ele></trkpt>
   <trkpt lat="41.5640083913" lon="70.1290936232"><ele>1052.69</ele></trkpt>
   <trkpt lat="41.5640331598" lon="70.1292562322"><ele>1054.031</ele></trkpt>
   <trkpt lat="41.5642584654" lon="70.1295632613"><ele>1058.709</ele></trkpt>
   <trkpt lat="41.5642976927" lon="70.1296679512"><ele>1059.156</ele></trkpt>
   <trkpt lat="41.5643411948" lon="70.1298810192"><ele>1062.315</ele></trkpt>
   <trkpt lat="41.5643837748" lon="70.1300111902"><ele>1059.734</ele></trkpt>
   <trkpt lat="41.5644533866" lon="70.130125687"><ele>1058.441</ele></trkpt>
   <trkpt lat="41.5645233754" lon="70.1301637408"><ele>1055.28</ele></trkpt>
   <trkpt lat="41.5645264767" lon="70.1302141999"><ele>1055.225</ele></trkpt>
   <trkpt lat="41.5644834776" lon="70.1302088355"><ele>1053.46</ele></trkpt>
   <trkpt lat="41.5644755986" lon="70.1302270242"><ele>1062.697</ele></trkpt>
   <trkpt lat="41.5645408936" lon="70.1303958357"><ele>1061.796</ele></trkpt>
   <trkpt lat="41.5645582861" lon="70.1304881205"><ele>1063.38</ele></trkpt>
   <trkpt lat="41.5644762691" lon="70.1307006855"><ele>1067.576</ele></trkpt>
   <trkpt lat="41.5644939969" lon="70.1309239794"><ele>1068.837</ele></trkpt>
   <trkpt lat="41.5646009919" lon="70.1311475248"><ele>1074.16</ele></trkpt>
   <trkpt lat="41.5646512833" lon="70.1312933699"><ele>1075.92</ele></trkpt>
   <trkpt lat="41.5647072744" lon="70.1314046816"><ele>1076.676</ele></trkpt>
   <trkpt lat="41.5647880759" lon="70.1315130596"><ele>1078.408</ele></trkpt>
   <trkpt lat="41.5648654828" lon="70.1318276324"><ele>1080.463</ele></trkpt>
   <trkpt lat="41.5649282633" lon="70.1319408719"><ele>1083.098</ele></trkpt>
   <trkpt lat="41.5649210967" lon="70.1319652633"><ele>1075.715</ele></trkpt>
   <trkpt lat="41.5650362641" lon="70.1320692827"><ele>1081.912</ele></trkpt>
   <trkpt lat="41.5652122841" lon="70.1323120226"><ele>1084.93</ele></trkpt>
   <trkpt lat="41.5652453926" lon="70.132374384"><ele>1085.676</ele></trkpt>
   <trkpt lat="41.565270664" lon="70.13248645"><ele>1087.532</ele></trkpt>
   <trkpt lat="41.5653744739" lon="70.132623997"><ele>1090.069</ele></trkpt>
   <trkpt lat="41.5654414872" lon="70.1326855202"><ele>1090.516</ele></trkpt>
   <trkpt lat="41.565530964" lon="70.132701362"><ele>1091.305</ele></trkpt>
   <trkpt lat="41.5655437883" lon="70.132728687"><ele>1085.8</ele></trkpt>
   <trkpt lat="41.5655664614" lon="70.1326959976"><ele>1089.681</ele></trkpt>
   <trkpt lat="41.565617591" lon="70.1326885377"><ele>1090.665</ele></trkpt>
   <trkpt lat="41.5656687625" lon="70.1326915552"><ele>1091.224</ele></trkpt>
   <trkpt lat="41.5656661641" lon="70.1327033737"><ele>1086.939</ele></trkpt>
   <trkpt lat="41.5657357758" lon="70.1327243284"><ele>1090.34</ele></trkpt>
   <trkpt lat="41.5658443634" lon="70.1328482968"><ele>1094.084</ele></trkpt>
   <trkpt lat="41.5658933975" lon="70.1329326187"><ele>1095.172</ele></trkpt>
   <trkpt lat="41.5659536634" lon="70.1331496262"><ele>1095.729</ele></trkpt>
   <trkpt lat="41.5660197966" lon="70.1332857483"><ele>1095.057</ele></trkpt>
   <trkpt lat="41.5660401646" lon="70.133500325"><ele>1098.366</ele></trkpt>
   <trkpt lat="41.5660633825" lon="70.1335253869"><ele>1096.302</ele></trkpt>
   <trkpt lat="41.5660577666" lon="70.1341154729"><ele>1103.133</ele></trkpt>
   <trkpt lat="41.5661321979" lon="70.1344985259"><ele>1105.074</ele></trkpt>
   <trkpt lat="41.5661538652" lon="70.1347692613"><ele>1109.936</ele></trkpt>
   <trkpt lat="41.5661912904" lon="70.134916699"><ele>1108.968</ele></trkpt>
   <trkpt lat="41.5662593933" lon="70.1350302738"><ele>1111.771</ele></trkpt>
   <trkpt lat="41.5663678971" lon="70.1351126679"><ele>1112.11</ele></trkpt>
   <trkpt lat="41.5665317633" lon="70.1352765341"><ele>1112.904</ele></trkpt>
   <trkpt lat="41.5666726631" lon="70.1354656298"><ele>1113.244</ele></trkpt>
   <trkpt lat="41.566735695" lon="70.1354989898"><ele>1114.609</ele></trkpt>
   <trkpt lat="41.5667593738" lon="70.1354772807"><ele>1112.914</ele></trkpt>
   <trkpt lat="41.5668125989" lon="70.1354948827"><ele>1112.023</ele></trkpt>
   <trkpt lat="41.5669370702" lon="70.1354905241"><ele>1111.983</ele></trkpt>
   <trkpt lat="41.5670006888" lon="70.1355276559"><ele>1112.128</ele></trkpt>
   <trkpt lat="41.5671498867" lon="70.1357092918"><ele>1118.758</ele></trkpt>
   <trkpt lat="41.567164094" lon="70.1357026701"><ele>1113.688</ele></trkpt>
   <trkpt lat="41.5672389863" lon="70.1358358585"><ele>1119.252</ele></trkpt>
   <trkpt lat="41.5672802672" lon="70.1358738285"><ele>1118.509</ele></trkpt>
   <trkpt lat="41.5673308939" lon="70.1359983836"><ele>1122.724</ele></trkpt>
   <trkpt lat="41.5673596857" lon="70.1359971263"><ele>1120.407</ele></trkpt>
   <trkpt lat="41.5673835742" lon="70.135943566"><ele>1116.103</ele></trkpt>
   <trkpt lat="41.5673836999" lon="70.1359724835"><ele>1118.041</ele></trkpt>
   <trkpt lat="41.5674055767" lon="70.1359803625"><ele>1116.57</ele></trkpt>
   <trkpt lat="41.5674144615" lon="70.1360676181"><ele>1124.69</ele></trkpt>
   <trkpt lat="41.5674378889" lon="70.1360691269"><ele>1121.569</ele></trkpt>
   <trkpt lat="41.5674263638" lon="70.1360858907"><ele>1117.162</ele></trkpt>
   <trkpt lat="41.5674464804" lon="70.1361578912"><ele>1120.353</ele></trkpt>
   <trkpt lat="41.5674390624" lon="70.136250176"><ele>1123.76</ele></trkpt>
   <trkpt lat="41.5674738892" lon="70.1362816919"><ele>1119.482</ele></trkpt>
   <trkpt lat="41.56749388" lon="70.1364191552"><ele>1122.121</ele></trkpt>
   <trkpt lat="41.5675351609" lon="70.1365335681"><ele>1125.049</ele></trkpt>
   <trkpt lat="41.5676652899" lon="70.1366797485"><ele>1124.848</ele></trkpt>
   <trkpt lat="41.5677077862" lon="70.1367048942"><ele>1127.68</ele></trkpt>
   <trkpt lat="41.5677930721" lon="70.1367113483"><ele>1125.608</ele></trkpt>
   <trkpt lat="41.5678408908" lon="70.1367501565"><ele>1125.027</ele></trkpt>
   <trkpt lat="41.56785887" lon="70.1368735381"><ele>1124.944</ele></trkpt>
   <trkpt lat="41.5678827584" lon="70.1368658268"><ele>1125.658</ele></trkpt>
   <trkpt lat="41.5679078622" lon="70.1368878712"><ele>1123.864</ele></trkpt>
   <trkpt lat="41.5679618836" lon="70.1369965845"><ele>1130.113</ele></trkpt>
   <trkpt lat="41.5679985963" lon="70.1371578523"><ele>1128.718</ele></trkpt>
   <trkpt lat="41.5680072716" lon="70.1372764562"><ele>1130.366</ele></trkpt>
   <trkpt lat="41.5680249993" lon="70.1373213832"><ele>1133.002</ele></trkpt>
   <trkpt lat="41.5680352671" lon="70.1373127498"><ele>1129.457</ele></trkpt>
   <trkpt lat="41.568078392" lon="70.1373831578"><ele>1129.208</ele></trkpt>
   <trkpt lat="41.568108986" lon="70.1374627859"><ele>1129.888</ele></trkpt>
   <trkpt lat="41.5682077667" lon="70.137840223"><ele>1136.228</ele></trkpt>
   <trkpt lat="41.5682551664" lon="70.1378577412"><ele>1133.456</ele></trkpt>
   <trkpt lat="41.5682818627" lon="70.137926389"><ele>1137.039</ele></trkpt>
   <trkpt lat="41.5683542824" lon="70.1379505289"><ele>1136.474</ele></trkpt>
   <trkpt lat="41.568365095" lon="70.1380780176"><ele>1139.48</ele></trkpt>
   <trkpt lat="41.5684129976" lon="70.138197795"><ele>1139.042</ele></trkpt>
   <trkpt lat="41.5684948888" lon="70.1383100287"><ele>1139.226</ele></trkpt>
   <trkpt lat="41.5686364591" lon="70.1386678521"><ele>1142.29</ele></trkpt>
   <trkpt lat="41.5686574977" lon="70.1387711172"><ele>1147.318</ele></trkpt>
   <trkpt lat="41.5687032629" lon="70.138847644"><ele>1144.05</ele></trkpt>
   <trkpt lat="41.5687685999" lon="70.138848566"><ele>1142.988</ele></trkpt>
   <trkpt lat="41.5688080786" lon="70.1389304572"><ele>1144.694</ele></trkpt>
   <trkpt lat="41.5688851921" lon="70.1389913936"><ele>1148.666</ele></trkpt>
   <trkpt lat="41.5689225754" lon="70.1390756317"><ele>1148.033</ele></trkpt>
   <trkpt lat="41.5689335976" lon="70.139171856"><ele>1146.875</ele></trkpt>
   <trkpt lat="41.5689786923" lon="70.1392341335"><ele>1147.56</ele></trkpt>
   <trkpt lat="41.5690194702" lon="70.1392601174"><ele>1148.032</ele></trkpt>
   <trkpt lat="41.569027894" lon="70.1393186231"><ele>1148.983</ele></trkpt>
   <trkpt lat="41.5690001918" lon="70.1395246503"><ele>1148.781</ele></trkpt>
   <trkpt lat="41.5690276845" lon="70.1395610277"><ele>1151.894</ele></trkpt>
   <trkpt lat="41.5690401735" lon="70.1396889356"><ele>1151.089</ele></trkpt>
   <trkpt lat="41.5690668699" lon="70.1397852436"><ele>1152.286</ele></trkpt>
   <trkpt lat="41.5691055943" lon="70.1398271532"><ele>1150.738</ele></trkpt>
   <trkpt lat="41.5691786845" lon="70.1398395584"><ele>1154.31</ele></trkpt>
   <trkpt lat="41.5692126731" lon="70.1397969783"><ele>1153.205</ele></trkpt>
   <trkpt lat="41.5692339631" lon="70.1397977327"><ele>1152.975</ele></trkpt>
   <trkpt lat="41.5692847994" lon="70.1399251376"><ele>1150.087</ele></trkpt>
   <trkpt lat="41.5693365995" lon="70.1399925281"><ele>1156.089</ele></trkpt>
   <trkpt lat="41.5693705881" lon="70.1401049294"><ele>1151.498</ele></trkpt>
   <trkpt lat="41.5695940916" lon="70.1402919297"><ele>1157.604</ele></trkpt>
   <trkpt lat="41.5696052814" lon="70.1403491781"><ele>1153.295</ele></trkpt>
   <trkpt lat="41.5695849972" lon="70.1403851365"><ele>1158.608</ele></trkpt>
   <trkpt lat="41.5696021801" lon="70.1404469949"><ele>1161.422</ele></trkpt>
   <trkpt lat="41.5696326902" lon="70.1404614956"><ele>1155.459</ele></trkpt>
   <trkpt lat="41.5696836941" lon="70.140448336"><ele>1160.018</ele></trkpt>
   <trkpt lat="41.5697176827" lon="70.1404152275"><ele>1160.253</ele></trkpt>
   <trkpt lat="41.5697342789" lon="70.1404215977"><ele>1157.677</ele></trkpt>
   <trkpt lat="41.5697789964" lon="70.1405215938"><ele>1165.183</ele></trkpt>
   <trkpt lat="41.5697824749" lon="70.1406096876"><ele>1164.981</ele></trkpt>
   <trkpt lat="41.5698116858" lon="70.140625278"><ele>1157.824</ele></trkpt>
   <trkpt lat="41.5698718679" lon="70.1407283754"><ele>1159.89</ele></trkpt>
   <trkpt lat="41.5699271884" lon="70.1407791697"><ele>1157.121</ele></trkpt>
   <trkpt lat="41.5699755939" lon="70.1407738891"><ele>1164.257</ele></trkpt>
   <trkpt lat="41.5700054754" lon="70.1408116915"><ele>1161.678</ele></trkpt>
   <trkpt lat="41.5700618856" lon="70.1408102666"><ele>1167.211</ele></trkpt>
   <trkpt lat="41.5701201817" lon="70.1409140345"><ele>1164.884</ele></trkpt>
   <trkpt lat="41.5701417651" lon="70.1409859513"><ele>1168.05</ele></trkpt>
   <trkpt lat="41.5701923918" lon="70.141053258"><ele>1168.995</ele></trkpt>
   <trkpt lat="41.570233086" lon="70.1412245841"><ele>1165.081</ele></trkpt>
   <trkpt lat="41.5703125883" lon="70.1414052979"><ele>1166.134</ele></trkpt>
   <trkpt lat="41.5703119597" lon="70.1414508954"><ele>1163.608</ele></trkpt>
   <trkpt lat="41.570346996" lon="70.1415867661"><ele>1163.86</ele></trkpt>
   <trkpt lat="41.5703290588" lon="70.1415928849"><ele>1160.567</ele></trkpt>
   <trkpt lat="41.5703320763" lon="70.1416241494"><ele>1163.808</ele></trkpt>
   <trkpt lat="41.5704182841" lon="70.1417881832"><ele>1165.037</ele></trkpt>
   <trkpt lat="41.5704418792" lon="70.1417796337"><ele>1164.701</ele></trkpt>
   <trkpt lat="41.5704415858" lon="70.1417639595"><ele>1170.167</ele></trkpt>
   <trkpt lat="41.5704496744" lon="70.141773934"><ele>1169.444</ele></trkpt>
   <trkpt lat="41.5704501773" lon="70.1418235549"><ele>1167.507</ele></trkpt>
   <trkpt lat="41.5704928831" lon="70.14191936"><ele>1172.315</ele></trkpt>
   <trkpt lat="41.5704832858" lon="70.141972166"><ele>1169.536</ele></trkpt>
   <trkpt lat="41.5705032766" lon="70.1419891813"><ele>1168.554</ele></trkpt>
   <trkpt lat="41.5705034862" lon="70.1420233794"><ele>1167.056</ele></trkpt>
   <trkpt lat="41.570470671" lon="70.1420956314"><ele>1170.935</ele></trkpt>
   <trkpt lat="41.5704928831" lon="70.1421700627"><ele>1171.011</ele></trkpt>
   <trkpt lat="41.5704523985" lon="70.1421932806"><ele>1172.21</ele></trkpt>
   <trkpt lat="41.5704480818" lon="70.1422634371"><ele>1172.868</ele></trkpt>
   <trkpt lat="41.5704180746" lon="70.14224265"><ele>1175.981</ele></trkpt>
   <trkpt lat="41.5703740696" lon="70.142147264"><ele>1172.615</ele></trkpt>
   <trkpt lat="41.570372477" lon="70.1421299972"><ele>1172.695</ele></trkpt>
   <trkpt lat="41.5704043702" lon="70.1421637763"><ele>1171.75</ele></trkpt>
   <trkpt lat="41.5704121653" lon="70.1422194321"><ele>1177.459</ele></trkpt>
   <trkpt lat="41.5704472855" lon="70.142287577"><ele>1173.356</ele></trkpt>
   <trkpt lat="41.5704492972" lon="70.1424034987"><ele>1173.691</ele></trkpt>
   <trkpt lat="41.570514676" lon="70.14245664"><ele>1176.856</ele></trkpt>
   <trkpt lat="41.5705399894" lon="70.1425250363"><ele>1175.79</ele></trkpt>
   <trkpt lat="41.5705876824" lon="70.1425758307"><ele>1179.88</ele></trkpt>
   <trkpt lat="41.5705983693" lon="70.1426367671"><ele>1179.742</ele></trkpt>
   <trkpt lat="41.5706287956" lon="70.1426626672"><ele>1183.255</ele></trkpt>
   <trkpt lat="41.5706351659" lon="70.1427652617"><ele>1181.873</ele></trkpt>
   <trkpt lat="41.5706692802" lon="70.1429076702"><ele>1183.169</ele></trkpt>
   <trkpt lat="41.5707186915" lon="70.1430074987"><ele>1183.678</ele></trkpt>
   <trkpt lat="41.5706635805" lon="70.1430914854"><ele>1185.055</ele></trkpt>
   <trkpt lat="41.5707199907" lon="70.143286197"><ele>1188.546</ele></trkpt>
   <trkpt lat="41.5707109802" lon="70.1433986821"><ele>1187.101</ele></trkpt>
   <trkpt lat="41.5707321864" lon="70.1434604567"><ele>1185.874</ele></trkpt>
   <trkpt lat="41.570826399" lon="70.1435523224"><ele>1187.596</ele></trkpt>
   <trkpt lat="41.5708377984" lon="70.1436277595"><ele>1189.552</ele></trkpt>
   <trkpt lat="41.5708245969" lon="70.1437541586"><ele>1187.645</ele></trkpt>
   <trkpt lat="41.5708698592" lon="70.1439064578"><ele>1192.392</ele></trkpt>
   <trkpt lat="41.57096118" lon="70.1440060348"><ele>1193.274</ele></trkpt>
   <trkpt lat="41.5709923607" lon="70.1441721641"><ele>1195.267</ele></trkpt>
   <trkpt lat="41.5710487709" lon="70.1443182607"><ele>1195.941</ele></trkpt>
   <trkpt lat="41.5711389602" lon="70.1444478449"><ele>1191.854</ele></trkpt>
   <trkpt lat="41.5712491822" lon="70.1446692948"><ele>1196.879</ele></trkpt>
   <trkpt lat="41.5712601625" lon="70.1448142179"><ele>1196.488</ele></trkpt>
   <trkpt lat="41.5713708874" lon="70.1450334885"><ele>1201.699</ele></trkpt>
   <trkpt lat="41.5713850947" lon="70.1451104344"><ele>1201.95</ele></trkpt>
   <trkpt lat="41.5714364758" lon="70.1452309661"><ele>1203.498</ele></trkpt>
   <trkpt lat="41.5714916706" lon="70.1452835207"><ele>1200.08</ele></trkpt>
   <trkpt lat="41.5715641741" lon="70.145450572"><ele>1201.197</ele></trkpt>
   <trkpt lat="41.5716261583" lon="70.1455471315"><ele>1204.654</ele></trkpt>
   <trkpt lat="41.5716627872" lon="70.1456684177"><ele>1203.363</ele></trkpt>
   <trkpt lat="41.5717197841" lon="70.1457101595"><ele>1204.792</ele></trkpt>
   <trkpt lat="41.5717394816" lon="70.1457524882"><ele>1202.777</ele></trkpt>
   <trkpt lat="41.5717379729" lon="70.1459612814"><ele>1208.667</ele></trkpt>
   <trkpt lat="41.5717664713" lon="70.1460798853"><ele>1206.903</ele></trkpt>
   <trkpt lat="41.5717137911" lon="70.1462670532"><ele>1205.289</ele></trkpt>
   <trkpt lat="41.5717243942" lon="70.1463286602"><ele>1211.313</ele></trkpt>
   <trkpt lat="41.5716995838" lon="70.1463873335"><ele>1206.549</ele></trkpt>
   <trkpt lat="41.5717109831" lon="70.1464445819"><ele>1209.141</ele></trkpt>
   <trkpt lat="41.5716881844" lon="70.1463755988"><ele>1203.822</ele></trkpt>
   <trkpt lat="41.571680473" lon="70.1463965536"><ele>1208.756</ele></trkpt>
   <trkpt lat="41.5716699956" lon="70.1463792869"><ele>1207.482</ele></trkpt>
   <trkpt lat="41.571659183" lon="70.146394039"><ele>1207.468</ele></trkpt>
   <trkpt lat="41.5717011763" lon="70.1463703182"><ele>1207.492</ele></trkpt>
   <trkpt lat="41.5716899865" lon="70.1463309233"><ele>1204.292</ele></trkpt>
   <trkpt lat="41.5716031919" lon="70.1463668817"><ele>1209.034</ele></trkpt>
   <trkpt lat="41.5715640903" lon="70.1464066957"><ele>1212.923</ele></trkpt>
   <trkpt lat="41.5714828696" lon="70.1464274828"><ele>1210.134</ele></trkpt>
   <trkpt lat="41.5714676984" lon="70.1464798697"><ele>1210.2</ele></trkpt>
   <trkpt lat="41.5713599909" lon="70.1465395489"><ele>1212.583</ele></trkpt>
   <trkpt lat="41.5713692949" lon="70.1465018303"><ele>1206.397</ele></trkpt>
   <trkpt lat="41.5714139704" lon="70.1465206896"><ele>1212.522</ele></trkpt>
   <trkpt lat="41.5714026967" lon="70.1465222821"><ele>1212.618</ele></trkpt>
   <trkpt lat="41.5714056723" lon="70.1464812946"><ele>1214.523</ele></trkpt>
   <trkpt lat="41.5714391999" lon="70.1465551392"><ele>1212.977</ele></trkpt>
   <trkpt lat="41.571371097" lon="70.1466614217"><ele>1213.232</ele></trkpt>
   <trkpt lat="41.5713896629" lon="70.146667792"><ele>1210.919</ele></trkpt>
   <trkpt lat="41.5713825802" lon="70.1466509444"><ele>1212.291</ele></trkpt>
   <trkpt lat="41.5713934766" lon="70.1466521178"><ele>1211.651</ele></trkpt>
   <trkpt lat="41.5713769643" lon="70.146647424"><ele>1213.204</ele></trkpt>
   <trkpt lat="41.571396997" lon="70.1466587395"><ele>1211.51</ele></trkpt>
   <trkpt lat="41.571421095" lon="70.1466291514"><ele>1213.422</ele></trkpt>
   <trkpt lat="41.5714230648" lon="70.1466635172"><ele>1214.897</ele></trkpt>
   <trkpt lat="41.5714245735" lon="70.1466359407"><ele>1211.63</ele></trkpt>
   <trkpt lat="41.5714086898" lon="70.1466196799"><ele>1211.726</ele></trkpt>
   <trkpt lat="41.571396075" lon="70.1466302411"><ele>1212.892</ele></trkpt>
   <trkpt lat="41.5714135932" lon="70.1466546324"><ele>1211.52</ele></trkpt>
   <trkpt lat="41.571479475" lon="70.1466535427"><ele>1213.109</ele></trkpt>
   <trkpt lat="41.5714671955" lon="70.1466857293"><ele>1213.214</ele></trkpt>
   <trkpt lat="41.5714867672" lon="70.1466691331"><ele>1211.938</ele></trkpt>
   <trkpt lat="41.5714469951" lon="70.1466204342"><ele>1214.312</ele></trkpt>
   <trkpt lat="41.5715185766" lon="70.1466914289"><ele>1217.786</ele></trkpt>
   <trkpt lat="41.5715326582" lon="70.1466537942"><ele>1210.063</ele></trkpt>
   <trkpt lat="41.5715135893" lon="70.1467028283"><ele>1212.796</ele></trkpt>
   <trkpt lat="41.5715300598" lon="70.1467588194"><ele>1211.482</ele></trkpt>
   <trkpt lat="41.5715256593" lon="70.1468040817"><ele>1213.481</ele></trkpt>
   <trkpt lat="41.5715356756" lon="70.1467748289"><ele>1205.788</ele></trkpt>
   <trkpt lat="41.5715038663" lon="70.1467332546"><ele>1212.711</ele></trkpt>
   <trkpt lat="41.5715063809" lon="70.1467028283"><ele>1217.338</ele></trkpt>
   <trkpt lat="41.5714940595" lon="70.1467078575"><ele>1212.466</ele></trkpt>
   <trkpt lat="41.5714846718" lon="70.1467453246"><ele>1214.018</ele></trkpt>
   <trkpt lat="41.571494269" lon="70.1467539579"><ele>1214.075</ele></trkpt>
   <trkpt lat="41.5715750706" lon="70.1466942788"><ele>1213.992</ele></trkpt>
   <trkpt lat="41.5715429679" lon="70.14663812"><ele>1212.158</ele></trkpt>
   <trkpt lat="41.5715384836" lon="70.1464671292"><ele>1210.787</ele></trkpt>
   <trkpt lat="41.5715950614" lon="70.1464588311"><ele>1211.927</ele></trkpt>
   <trkpt lat="41.5716379768" lon="70.1464262255"><ele>1212.185</ele></trkpt>
   <trkpt lat="41.5716530642" lon="70.1464365353"><ele>1214.06</ele></trkpt>
   <trkpt lat="41.5715830753" lon="70.1464415644"><ele>1209.834</ele></trkpt>
   <trkpt lat="41.5715569657" lon="70.1464152452"><ele>1210.994</ele></trkpt>
   <trkpt lat="41.5715758669" lon="70.1463835616"><ele>1211.877</ele></trkpt>
   <trkpt lat="41.5716697861" lon="70.1463300851"><ele>1212.724</ele></trkpt>
   <trkpt lat="41.5716995838" lon="70.1463365392"><ele>1209.871</ele></trkpt>
   <trkpt lat="41.5717039843" lon="70.146282895"><ele>1210.854</ele></trkpt>
   <trkpt lat="41.5716704985" lon="70.1462569949"><ele>1210.557</ele></trkpt>
   <trkpt lat="41.5716608594" lon="70.1463105553"><ele>1209.9</ele></trkpt>
   <trkpt lat="41.5716995838" lon="70.1463439991"><ele>1211.324</ele></trkpt>
   <trkpt lat="41.5717136654" lon="70.1463926979"><ele>1212.488</ele></trkpt>
   <trkpt lat="41.5715709634" lon="70.1464809594"><ele>1213.611</ele></trkpt>
   <trkpt lat="41.5714272976" lon="70.14640284"><ele>1211.552</ele></trkpt>
   <trkpt lat="41.5713663612" lon="70.146412563"><ele>1213.759</ele></trkpt>
   <trkpt lat="41.5713422632" lon="70.1464545564"><ele>1209.696</ele></trkpt>
   <trkpt lat="41.5713502679" lon="70.1465469249"><ele>1216.443</ele></trkpt>
   <trkpt lat="41.5713922613" lon="70.1466637687"><ele>1216.885</ele></trkpt>
   <trkpt lat="41.5714148924" lon="70.1466810354"><ele>1215.905</ele></trkpt>
   <trkpt lat="41.5714129646" lon="70.1466472563"><ele>1212.866</ele></trkpt>
   <trkpt lat="41.5714459893" lon="70.1467068516"><ele>1212.488</ele></trkpt>
   <trkpt lat="41.5713854719" lon="70.1466563926"><ele>1215.246</ele></trkpt>
   <trkpt lat="41.5714158982" lon="70.1466276427"><ele>1210.038</ele></trkpt>
   <trkpt lat="41.5714234839" lon="70.1465782733"><ele>1209.958</ele></trkpt>
   <trkpt lat="41.5713638885" lon="70.1466094539"><ele>1217.711</ele></trkpt>
   <trkpt lat="41.5713559676" lon="70.1465980545"><ele>1217.751</ele></trkpt>
   <trkpt lat="41.5713671994" lon="70.1466357731"><ele>1214.954</ele></trkpt>
   <trkpt lat="41.5712976715" lon="70.1466323365"><ele>1222.055</ele></trkpt>
   <trkpt lat="41.5713300676" lon="70.1466478431"><ele>1215.663</ele></trkpt>
   <trkpt lat="41.5713201769" lon="70.1466206857"><ele>1221.736</ele></trkpt>
   <trkpt lat="41.571333085" lon="70.1466251281"><ele>1218.382</ele></trkpt>
   <trkpt lat="41.5713303609" lon="70.1466070232"><ele>1220.149</ele></trkpt>
   <trkpt lat="41.5713507709" lon="70.1466161595"><ele>1217.19</ele></trkpt>
   <trkpt lat="41.5713451969" lon="70.1466397964"><ele>1222.057</ele></trkpt>
   <trkpt lat="41.5713296904" lon="70.1466229488"><ele>1220.646</ele></trkpt>
   <trkpt lat="41.5713411736" lon="70.1466198475"><ele>1219.488</ele></trkpt>
   <trkpt lat="41.5713280978" lon="70.1466214401"><ele>1220.306</ele></trkpt>
   <trkpt lat="41.5713417603" lon="70.1466380362"><ele>1220.197</ele></trkpt>
   <trkpt lat="41.5713649782" lon="70.1466138963"><ele>1219.658</ele></trkpt>
   <trkpt lat="41.5713820773" lon="70.1466597454"><ele>1223.224</ele></trkpt>
   <trkpt lat="41.5713995954" lon="70.1466528722"><ele>1224.045</ele></trkpt>
   <trkpt lat="41.5714475818" lon="70.1467141439"><ele>1219.801</ele></trkpt>
   <trkpt lat="41.5714211788" lon="70.1466981345"><ele>1223.1</ele></trkpt>
   <trkpt lat="41.5714195863" lon="70.1466695522"><ele>1224.841</ele></trkpt>
   <trkpt lat="41.5714612862" lon="70.1466497709"><ele>1224.695</ele></trkpt>
  </trkseg>
  <trkseg>
   <trkpt lat="41.5707245589" lon="70.1433970895"><ele>1196.785</ele></trkpt>
   <trkpt lat="41.5706963957" lon="70.1433561859"><ele>1192.577</ele></trkpt>
   <trkpt lat="41.5707211642" lon="70.1432309602"><ele>1183.372</ele></trkpt>
   <trkpt lat="41.570711986" lon="70.1431894698"><ele>1183.087</ele></trkpt>
   <trkpt lat="41.5706833618" lon="70.1431551878"><ele>1183.414</ele></trkpt>
   <trkpt lat="41.5706761953" lon="70.1430671778"><ele>1182.065</ele></trkpt>
   <trkpt lat="41.5707229663" lon="70.1429499988"><ele>1180.055</ele></trkpt>
   <trkpt lat="41.570666598" lon="70.142808177"><ele>1179.543</ele></trkpt>
   <trkpt lat="41.5706384767" lon="70.1426837896"><ele>1177.518</ele></trkpt>
   <trkpt lat="41.5706340762" lon="70.1426211768"><ele>1175.615</ele></trkpt>
   <trkpt lat="41.5706420809" lon="70.1425909181"><ele>1176.666</ele></trkpt>
   <trkpt lat="41.5706574617" lon="70.1425920916"><ele>1179.054</ele></trkpt>
   <trkpt lat="41.5705441803" lon="70.1424549636"><ele>1170.077</ele></trkpt>
   <trkpt lat="41.5705072999" lon="70.1423766767"><ele>1174.212</ele></trkpt>
   <trkpt lat="41.5704610737" lon="70.142168554"><ele>1173.06</ele></trkpt>
   <trkpt lat="41.5704872672" lon="70.1420998224"><ele>1168.649</ele></trkpt>
   <trkpt lat="41.570510066" lon="70.1421524607"><ele>1166.614</ele></trkpt>
   <trkpt lat="41.5705222616" lon="70.1421072823"><ele>1170.009</ele></trkpt>
   <trkpt lat="41.570512371" lon="70.1421303325"><ele>1169.906</ele></trkpt>
   <trkpt lat="41.5705212977" lon="70.1421624352"><ele>1170.606</ele></trkpt>
   <trkpt lat="41.5705406599" lon="70.1421728288"><ele>1170.606</ele></trkpt>
   <trkpt lat="41.5705556635" lon="70.1421155804"><ele>1166.301</ele></trkpt>
   <trkpt lat="41.5705162686" lon="70.1420538896"><ele>1165.77</ele></trkpt>
   <trkpt lat="41.5705137959" lon="70.1420190208"><ele>1168.507</ele></trkpt>
   <trkpt lat="41.5705060846" lon="70.1420367905"><ele>1166.544</ele></trkpt>
   <trkpt lat="41.5704912905" lon="70.1420279895"><ele>1166.557</ele></trkpt>
   <trkpt lat="41.5704986666" lon="70.1419972279"><ele>1165.762</ele></trkpt>
   <trkpt lat="41.5704870995" lon="70.1419594255"><ele>1163.509</ele></trkpt>
   <trkpt lat="41.5705052883" lon="70.141897148"><ele>1167.116</ele></trkpt>
   <trkpt lat="41.5704403704" lon="70.1418843237"><ele>1165.284</ele></trkpt>
   <trkpt lat="41.570429474" lon="70.1418573339"><ele>1167.14</ele></trkpt>
   <trkpt lat="41.570433162" lon="70.1417944697"><ele>1160.7</ele></trkpt>
   <trkpt lat="41.5704632949" lon="70.1417233911"><ele>1162.692</ele></trkpt>
   <trkpt lat="41.5704878958" lon="70.1417657197"><ele>1165.24</ele></trkpt>
   <trkpt lat="41.5705128739" lon="70.141735964"><ele>1166.076</ele></trkpt>
   <trkpt lat="41.570567482" lon="70.1417263248"><ele>1168.225</ele></trkpt>
   <trkpt lat="41.5705348764" lon="70.1417458546"><ele>1168.121</ele></trkpt>
   <trkpt lat="41.570600381" lon="70.1417098963"><ele>1168.389</ele></trkpt>
   <trkpt lat="41.5703251612" lon="70.1417440944"><ele>1167.921</ele></trkpt>
   <trkpt lat="41.570298381" lon="70.1417761971"><ele>1167.731</ele></trkpt>
   <trkpt lat="41.5703138875" lon="70.1417920389"><ele>1168.792</ele></trkpt>
   <trkpt lat="41.5703737762" lon="70.1417436753"><ele>1167.975</ele></trkpt>
   <trkpt lat="41.5703445653" lon="70.1417706651"><ele>1167.806</ele></trkpt>
   <trkpt lat="41.5699015817" lon="70.1413966645"><ele>1169.041</ele></trkpt>
   <trkpt lat="41.5699217821" lon="70.1414616243"><ele>1168.22</ele></trkpt>
   <trkpt lat="41.5700166652" lon="70.1416141749"><ele>1169.405</ele></trkpt>
   <trkpt lat="41.5701118837" lon="70.1417067949"><ele>1168.005</ele></trkpt>
   <trkpt lat="41.5701008615" lon="70.1417195354"><ele>1168.414</ele></trkpt>
   <trkpt lat="41.5701755861" lon="70.1417311863"><ele>1168.598</ele></trkpt>
   <trkpt lat="41.570189081" lon="70.1417471957"><ele>1168.382</ele></trkpt>
   <trkpt lat="41.5701868598" lon="70.1417795499"><ele>1166.984</ele></trkpt>
   <trkpt lat="41.5701643963" lon="70.14173873"><ele>1167.165</ele></trkpt>
   <trkpt lat="41.5701901706" lon="70.1417601877"><ele>1167.278</ele></trkpt>
   <trkpt lat="41.5703042902" lon="70.1417859201"><ele>1166.91</ele></trkpt>
   <trkpt lat="41.5703390751" lon="70.1418172684"><ele>1167.485</ele></trkpt>
   <trkpt lat="41.5704142608" lon="70.1418036897"><ele>1164.963</ele></trkpt>
   <trkpt lat="41.5704182841" lon="70.1416982454"><ele>1164.083</ele></trkpt>
   <trkpt lat="41.5703977904" lon="70.1415983331"><ele>1161.564</ele></trkpt>
   <trkpt lat="41.5703741953" lon="70.141543264"><ele>1164.759</ele></trkpt>
   <trkpt lat="41.5703024881" lon="70.141482579"><ele>1160.594</ele></trkpt>
   <trkpt lat="41.5702275958" lon="70.1412822516"><ele>1164.298</ele></trkpt>
   <trkpt lat="41.5701982592" lon="70.1410882943"><ele>1163.964</ele></trkpt>
   <trkpt lat="41.570101071" lon="70.140902719"><ele>1163.1</ele></trkpt>
   <trkpt lat="41.5699230813" lon="70.1406430476"><ele>1156.948</ele></trkpt>
   <trkpt lat="41.5698211993" lon="70.1406225958"><ele>1157.864</ele></trkpt>
   <trkpt lat="41.5697909825" lon="70.1406348334"><ele>1157.965</ele></trkpt>
   <trkpt lat="41.5697307585" lon="70.1405884814"><ele>1159.166</ele></trkpt>
   <trkpt lat="41.5697007932" lon="70.1404224359"><ele>1158.289</ele></trkpt>
   <trkpt lat="41.5696811796" lon="70.1404127967"><ele>1157.697</ele></trkpt>
   <trkpt lat="41.5696361687" lon="70.1404529461"><ele>1157.112</ele></trkpt>
   <trkpt lat="41.5695885595" lon="70.1404242799"><ele>1156.872</ele></trkpt>
   <trkpt lat="41.569578166" lon="70.1402721484"><ele>1151.637</ele></trkpt>
   <trkpt lat="41.5694637949" lon="70.140180618"><ele>1152.264</ele></trkpt>
   <trkpt lat="41.5693637988" lon="70.1400673785"><ele>1151.79</ele></trkpt>
   <trkpt lat="41.569254876" lon="70.1400008262"><ele>1149.432</ele></trkpt>
   <trkpt lat="41.5691778882" lon="70.1400429872"><ele>1145.381</ele></trkpt>
   <trkpt lat="41.5691202626" lon="70.1400338509"><ele>1148.37</ele></trkpt>
   <trkpt lat="41.5690963742" lon="70.1399041829"><ele>1145.824</ele></trkpt>
   <trkpt lat="41.5691579812" lon="70.139907368"><ele>1149.781</ele></trkpt>
   <trkpt lat="41.5691449892" lon="70.1399291609"><ele>1145.861</ele></trkpt>
   <trkpt lat="41.5690945721" lon="70.1399094635"><ele>1147.144</ele></trkpt>
   <trkpt lat="41.5690440711" lon="70.1399216172"><ele>1143.807</ele></trkpt>
   <trkpt lat="41.5690215657" lon="70.1398475212"><ele>1144.06</ele></trkpt>
   <trkpt lat="41.5689798657" lon="70.1398099703"><ele>1146.704</ele></trkpt>
   <trkpt lat="41.5689424824" lon="70.1397007541"><ele>1139.602</ele></trkpt>
   <trkpt lat="41.568960294" lon="70.1396974851"><ele>1139.787</ele></trkpt>
   <trkpt lat="41.5689360703" lon="70.1396332797"><ele>1145.431</ele></trkpt>
   <trkpt lat="41.5688748824" lon="70.1395638776"><ele>1145.71</ele></trkpt>
   <trkpt lat="41.5688539695" lon="70.1394879375"><ele>1144.175</ele></trkpt>
   <trkpt lat="41.5687905604" lon="70.139421469"><ele>1146.564</ele></trkpt>
   <trkpt lat="41.5687715754" lon="70.1392904599"><ele>1143.349</ele></trkpt>
   <trkpt lat="41.5685740978" lon="70.1389276911"><ele>1140.047</ele></trkpt>
   <trkpt lat="41.56848416" lon="70.1388299581"><ele>1138.128</ele></trkpt>
   <trkpt lat="41.5684060825" lon="70.1386449695"><ele>1137.278</ele></trkpt>
   <trkpt lat="41.5683291786" lon="70.1385427941"><ele>1135.359</ele></trkpt>
   <trkpt lat="41.5682197947" lon="70.1385297184"><ele>1134.43</ele></trkpt>
   <trkpt lat="41.5681864767" lon="70.1385019743"><ele>1132.567</ele></trkpt>
   <trkpt lat="41.5681672821" lon="70.1384414569"><ele>1132.528</ele></trkpt>
   <trkpt lat="41.5681630912" lon="70.138345065"><ele>1132.421</ele></trkpt>
   <trkpt lat="41.5680052599" lon="70.1380812866"><ele>1129.679</ele></trkpt>
   <trkpt lat="41.5679603748" lon="70.1378440787"><ele>1131.387</ele></trkpt>
   <trkpt lat="41.5678549724" lon="70.1375992433"><ele>1126.413</ele></trkpt>
   <trkpt lat="41.5678510748" lon="70.1374429208"><ele>1123.927</ele></trkpt>
   <trkpt lat="41.5678155775" lon="70.1373215508"><ele>1126.262</ele></trkpt>
   <trkpt lat="41.5678219896" lon="70.1372811501"><ele>1123.582</ele></trkpt>
   <trkpt lat="41.5677664595" lon="70.1371219777"><ele>1124.06</ele></trkpt>
   <trkpt lat="41.5677574909" lon="70.1369986799"><ele>1122.339</ele></trkpt>
   <trkpt lat="41.5677218678" lon="70.1368743763"><ele>1123.443</ele></trkpt>
   <trkpt lat="41.5677218678" lon="70.1367875398"><ele>1120.798</ele></trkpt>
   <trkpt lat="41.5677010807" lon="70.1368013699"><ele>1120.115</ele></trkpt>
   <trkpt lat="41.5677109713" lon="70.1367956702"><ele>1120.115</ele></trkpt>
   <trkpt lat="41.5676694809" lon="70.1367815886"><ele>1118.475</ele></trkpt>
   <trkpt lat="41.5676505797" lon="70.1367500727"><ele>1118.228</ele></trkpt>
   <trkpt lat="41.5676627754" lon="70.1367034693"><ele>1119.23</ele></trkpt>
   <trkpt lat="41.5676986918" lon="70.13669668"><ele>1119.686</ele></trkpt>
   <trkpt lat="41.5678519968" lon="70.1368002803"><ele>1121.098</ele></trkpt>
   <trkpt lat="41.5678761786" lon="70.1367710274"><ele>1119.425</ele></trkpt>
   <trkpt lat="41.5678646954" lon="70.136731884"><ele>1117.919</ele></trkpt>
   <trkpt lat="41.5678755919" lon="70.1367094205"><ele>1116.649</ele></trkpt>
   <trkpt lat="41.567906563" lon="70.1366929919"><ele>1120.948</ele></trkpt>
   <trkpt lat="41.5679943635" lon="70.1366991945"><ele>1120.929</ele></trkpt>
   <trkpt lat="41.5681029929" lon="70.1366511662"><ele>1121.354</ele></trkpt>
   <trkpt lat="41.5681558827" lon="70.1366779883"><ele>1119.672</ele></trkpt>
   <trkpt lat="41.5682105746" lon="70.1367592928"><ele>1120.241</ele></trkpt>
   <trkpt lat="41.5682019832" lon="70.1367436186"><ele>1121.134</ele></trkpt>
   <trkpt lat="41.5682415877" lon="70.1367288665"><ele>1120.869</ele></trkpt>
   <trkpt lat="41.5682675716" lon="70.1366814249"><ele>1121.232</ele></trkpt>
   <trkpt lat="41.5683231855" lon="70.136660554"><ele>1123.647</ele></trkpt>
   <trkpt lat="41.5683880614" lon="70.136604479"><ele>1127.145</ele></trkpt>
   <trkpt lat="41.5683998799" lon="70.1365448837"><ele>1125.548</ele></trkpt>
   <trkpt lat="41.5683585991" lon="70.1362843741"><ele>1126.231</ele></trkpt>
   <trkpt lat="41.5683897797" lon="70.1362813567"><ele>1127.47</ele></trkpt>
   <trkpt lat="41.5684071722" lon="70.1362557919"><ele>1130.669</ele></trkpt>
   <trkpt lat="41.5684069626" lon="70.1361821987"><ele>1132.541</ele></trkpt>
   <trkpt lat="41.5683885644" lon="70.1361173228"><ele>1135.123</ele></trkpt>
   <trkpt lat="41.5683953956" lon="70.1360478368"><ele>1137.473</ele></trkpt>
   <trkpt lat="41.5683674839" lon="70.1359256287"><ele>1133.11</ele></trkpt>
   <trkpt lat="41.5683288852" lon="70.1358797797"><ele>1130.357</ele></trkpt>
   <trkpt lat="41.5683094811" lon="70.1358145685"><ele>1133.0</ele></trkpt>
   <trkpt lat="41.5683219701" lon="70.1357975532"><ele>1133.73</ele></trkpt>
   <trkpt lat="41.5683213834" lon="70.1357458369"><ele>1132.86</ele></trkpt>
   <trkpt lat="41.5683755724" lon="70.135754554"><ele>1141.746</ele></trkpt>
   <trkpt lat="41.5683820684" lon="70.1357872435"><ele>1136.582</ele></trkpt>
   <trkpt lat="41.5683736865" lon="70.1358177536"><ele>1137.513</ele></trkpt>
   <trkpt lat="41.5683590601" lon="70.1358182565"><ele>1135.243</ele></trkpt>
   <trkpt lat="41.5682936812" lon="70.1357745868"><ele>1139.374</ele></trkpt>
   <trkpt lat="41.5682689965" lon="70.1356457569"><ele>1133.655</ele></trkpt>
   <trkpt lat="41.5682753668" lon="70.1355807972"><ele>1137.945</ele></trkpt>
   <trkpt lat="41.5682292663" lon="70.1353545696"><ele>1134.93</ele></trkpt>
   <trkpt lat="41.5681313657" lon="70.1352287573"><ele>1133.943</ele></trkpt>
   <trkpt lat="41.5681145599" lon="70.135180226"><ele>1133.129</ele></trkpt>
   <trkpt lat="41.5681096984" lon="70.1350873546"><ele>1137.359</ele></trkpt>
   <trkpt lat="41.5680372788" lon="70.1350139291"><ele>1136.882</ele></trkpt>
   <trkpt lat="41.5679436949" lon="70.134795329"><ele>1142.546</ele></trkpt>
   <trkpt lat="41.5679076946" lon="70.1347678364"><ele>1140.708</ele></trkpt>
   <trkpt lat="41.5678624742" lon="70.1346778986"><ele>1144.611</ele></trkpt>
   <trkpt lat="41.5678062735" lon="70.1346293674"><ele>1145.702</ele></trkpt>
   <trkpt lat="41.5677622686" lon="70.1345460512"><ele>1146.589</ele></trkpt>
   <trkpt lat="41.5676242605" lon="70.1344983582"><ele>1149.954</ele></trkpt>
   <trkpt lat="41.5675521762" lon="70.1343486574"><ele>1155.658</ele></trkpt>
   <trkpt lat="41.5674730929" lon="70.1342703705"><ele>1158.159</ele></trkpt>
   <trkpt lat="41.5674849952" lon="70.1341930893"><ele>1161.693</ele></trkpt>
   <trkpt lat="41.5674853724" lon="70.13393434"><ele>1165.227</ele></trkpt>
   <trkpt lat="41.5674190715" lon="70.1337197632"><ele>1167.545</ele></trkpt>
   <trkpt lat="41.5674625736" lon="70.1336683822"><ele>1171.239</ele></trkpt>
   <trkpt lat="41.5674780801" lon="70.1336699747"><ele>1169.205</ele></trkpt>
   <trkpt lat="41.567477661" lon="70.1336276461"><ele>1176.68</ele></trkpt>
   <trkpt lat="41.5674653815" lon="70.1336285681"><ele>1172.845</ele></trkpt>
   <trkpt lat="41.5674556585" lon="70.133589257"><ele>1171.597</ele></trkpt>
   <trkpt lat="41.5675011723" lon="70.1335191843"><ele>1176.286</ele></trkpt>
   <trkpt lat="41.5674868811" lon="70.1334862434"><ele>1176.336</ele></trkpt>
   <trkpt lat="41.5674826902" lon="70.1334998221"><ele>1176.622</ele></trkpt>
   <trkpt lat="41.5675088836" lon="70.1334805437"><ele>1173.724</ele></trkpt>
   <trkpt lat="41.5675093865" lon="70.1334605948"><ele>1172.795</ele></trkpt>
   <trkpt lat="41.5675500807" lon="70.1334393886"><ele>1179.804</ele></trkpt>
   <trkpt lat="41.5676415692" lon="70.1334770233"><ele>1178.735</ele></trkpt>
   <trkpt lat="41.5677108875" lon="70.1334809628"><ele>1186.372</ele></trkpt>
   <trkpt lat="41.5677509949" lon="70.1334249717"><ele>1186.712</ele></trkpt>
   <trkpt lat="41.567738883" lon="70.1332889334"><ele>1187.854</ele></trkpt>
   <trkpt lat="41.5677966763" lon="70.133235876"><ele>1192.725</ele></trkpt>
   <trkpt lat="41.5678160804" lon="70.1332337805"><ele>1190.234</ele></trkpt>
   <trkpt lat="41.5678026693" lon="70.1332536456"><ele>1190.676</ele></trkpt>
   <trkpt lat="41.5678116799" lon="70.1332557411"><ele>1188.88</ele></trkpt>
   <trkpt lat="41.5678744603" lon="70.1332251471"><ele>1187.684</ele></trkpt>
   <trkpt lat="41.5679760909" lon="70.1332466886"><ele>1190.034</ele></trkpt>
   <trkpt lat="41.5680542941" lon="70.1332449284"><ele>1192.294</ele></trkpt>
   <trkpt lat="41.5681364786" lon="70.1332116523"><ele>1188.505</ele></trkpt>
   <trkpt lat="41.5681636779" lon="70.13322104"><ele>1184.415</ele></trkpt>
   <trkpt lat="41.5681752868" lon="70.1331935474"><ele>1187.43</ele></trkpt>
   <trkpt lat="41.5681635941" lon="70.1331618638"><ele>1185.029</ele></trkpt>
   <trkpt lat="41.5682154781" lon="70.1331259892"><ele>1182.527</ele></trkpt>
   <trkpt lat="41.5682839582" lon="70.1331137516"><ele>1187.854</ele></trkpt>
   <trkpt lat="41.5683101936" lon="70.133082571"><ele>1182.991</ele></trkpt>
   <trkpt lat="41.5683241913" lon="70.1331095607"><ele>1185.973</ele></trkpt>
   <trkpt lat="41.5683023984" lon="70.1331309345"><ele>1183.633</ele></trkpt>
   <trkpt lat="41.5683032785" lon="70.1331782923"><ele>1180.571</ele></trkpt>
   <trkpt lat="41.568285467" lon="70.1332252309"><ele>1186.841</ele></trkpt>
   <trkpt lat="41.5683121633" lon="70.1332098921"><ele>1190.529</ele></trkpt>
   <trkpt lat="41.5683273765" lon="70.1331054536"><ele>1185.917</ele></trkpt>
   <trkpt lat="41.5683511811" lon="70.1331369695"><ele>1182.974</ele></trkpt>
   <trkpt lat="41.5683259935" lon="70.1331558288"><ele>1184.884</ele></trkpt>
   <trkpt lat="41.5683231855" lon="70.1331784599"><ele>1186.064</ele></trkpt>
   <trkpt lat="41.5683175696" lon="70.133133952"><ele>1184.946</ele></trkpt>
   <trkpt lat="41.568328969" lon="70.1331104827"><ele>1184.753</ele></trkpt>
   <trkpt lat="41.5683015602" lon="70.133117272"><ele>1186.582</ele></trkpt>
   <trkpt lat="41.5683030689" lon="70.1331513864"><ele>1185.395</ele></trkpt>
   <trkpt lat="41.5683093973" lon="70.1331040286"><ele>1184.276</ele></trkpt>
   <trkpt lat="41.568286389" lon="70.1331257378"><ele>1184.58</ele></trkpt>
   <trkpt lat="41.5682745705" lon="70.1331811421"><ele>1186.4</ele></trkpt>
   <trkpt lat="41.5683068827" lon="70.1331121591"><ele>1183.311</ele></trkpt>
   <trkpt lat="41.5683344592" lon="70.1331073814"><ele>1183.434</ele></trkpt>
   <trkpt lat="41.5683468644" lon="70.13311635"><ele>1185.546</ele></trkpt>
   <trkpt lat="41.5683227664" lon="70.133125151"><ele>1182.3</ele></trkpt>
   <trkpt lat="41.5683430925" lon="70.1331275818"><ele>1180.868</ele></trkpt>
   <trkpt lat="41.5683931744" lon="70.1331040286"><ele>1182.514</ele></trkpt>
   <trkpt lat="41.5683655979" lon="70.1331055374"><ele>1179.633</ele></trkpt>
   <trkpt lat="41.5685147958" lon="70.1331321918"><ele>1178.164</ele></trkpt>
   <trkpt lat="41.568502684" lon="70.133174269"><ele>1180.337</ele></trkpt>
   <trkpt lat="41.5685404864" lon="70.1331826509"><ele>1178.777</ele></trkpt>
   <trkpt lat="41.5685172685" lon="70.1331454352"><ele>1173.899</ele></trkpt>
   <trkpt lat="41.5684139615" lon="70.1331003406"><ele>1177.941</ele></trkpt>
   <trkpt lat="41.5685013848" lon="70.1332633686"><ele>1182.69</ele></trkpt>
   <trkpt lat="41.5684255705" lon="70.1331600197"><ele>1177.945</ele></trkpt>
   <trkpt lat="41.5684304739" lon="70.133190949"><ele>1178.61</ele></trkpt>
   <trkpt lat="41.568439694" lon="70.1331956428"><ele>1177.747</ele></trkpt>
   <trkpt lat="41.5684328627" lon="70.1331440941"><ele>1173.038</ele></trkpt>
   <trkpt lat="41.5684071722" lon="70.1330964849"><ele>1178.275</ele></trkpt>
   <trkpt lat="41.5683194975" lon="70.1330342912"><ele>1178.509</ele></trkpt>
   <trkpt lat="41.568393384" lon="70.1331708324"><ele>1178.417</ele></trkpt>
   <trkpt lat="41.5681327906" lon="70.1327890367"><ele>1179.238</ele></trkpt>
   <trkpt lat="41.568069591" lon="70.1331868418"><ele>1179.677</ele></trkpt>
   <trkpt lat="41.5681523623" lon="70.1328788907"><ele>1178.98</ele></trkpt>
   <trkpt lat="41.5681770889" lon="70.1328932238"><ele>1185.019</ele></trkpt>
   <trkpt lat="41.5682109937" lon="70.1329888613"><ele>1187.6</ele></trkpt>
   <trkpt lat="41.568259986" lon="70.1330518932"><ele>1187.956</ele></trkpt>
   <trkpt lat="41.568314175" lon="70.1331071299"><ele>1186.006</ele></trkpt>
   <trkpt lat="41.568329891" lon="70.1331025199"><ele>1186.681</ele></trkpt>
   <trkpt lat="41.568312289" lon="70.1331106503"><ele>1185.394</ele></trkpt>
   <trkpt lat="41.5683261611" lon="70.1331195351"><ele>1185.475</ele></trkpt>
   <trkpt lat="41.5683144683" lon="70.1331039448"><ele>1185.638</ele></trkpt>
   <trkpt lat="41.5682941841" lon="70.1331241452"><ele>1185.503</ele></trkpt>
   <trkpt lat="41.5683227664" lon="70.1331024361"><ele>1185.961</ele></trkpt>
   <trkpt lat="41.5683106965" lon="70.1330747758"><ele>1185.017</ele></trkpt>
   <trkpt lat="41.5682652666" lon="70.1332009234"><ele>1188.817</ele></trkpt>
   <trkpt lat="41.5683051644" lon="70.1330859237"><ele>1185.592</ele></trkpt>
   <trkpt lat="41.5683381891" lon="70.1331379753"><ele>1188.214</ele></trkpt>
   <trkpt lat="41.5683498819" lon="70.1331225526"><ele>1187.513</ele></trkpt>
   <trkpt lat="41.5683043681" lon="70.1331400708"><ele>1187.578</ele></trkpt>
   <trkpt lat="41.5683092716" lon="70.1331007597"><ele>1185.904</ele></trkpt>
   <trkpt lat="41.5682978722" lon="70.1331183617"><ele>1185.131</ele></trkpt>
   <trkpt lat="41.5682771689" lon="70.1331936312"><ele>1185.339</ele></trkpt>
   <trkpt lat="41.5682844611" lon="70.1332609379"><ele>1187.177</ele></trkpt>
   <trkpt lat="41.5683119957" lon="70.1331198704"><ele>1187.642</ele></trkpt>
   <trkpt lat="41.5683254905" lon="70.1331192837"><ele>1185.227</ele></trkpt>
   <trkpt lat="41.5682972854" lon="70.1331477822"><ele>1186.545</ele></trkpt>
   <trkpt lat="41.5682919629" lon="70.1330991671"><ele>1184.142</ele></trkpt>
   <trkpt lat="41.5683140912" lon="70.1331137516"><ele>1185.958</ele></trkpt>
   <trkpt lat="41.5683308969" lon="70.1330854208"><ele>1185.503</ele></trkpt>
   <trkpt lat="41.5683001772" lon="70.1331271627"><ele>1185.197</ele></trkpt>
   <trkpt lat="41.5683174858" lon="70.1331872609"><ele>1184.893</ele></trkpt>
   <trkpt lat="41.5682926754" lon="70.1331033581"><ele>1183.301</ele></trkpt>
   <trkpt lat="41.5682193756" lon="70.1330745243"><ele>1181.216</ele></trkpt>
   <trkpt lat="41.5682079763" lon="70.1330262446"><ele>1181.403</ele></trkpt>
   <trkpt lat="41.5682259973" lon="70.1329479576"><ele>1179.17</ele></trkpt>
   <trkpt lat="41.5682202977" lon="70.1329595246"><ele>1180.131</ele></trkpt>
   <trkpt lat="41.5681297731" lon="70.132938486"><ele>1175.202</ele></trkpt>
   <trkpt lat="41.5681562599" lon="70.1328800642"><ele>1172.066</ele></trkpt>
   <trkpt lat="41.5681291864" lon="70.1327780564"><ele>1169.878</ele></trkpt>
   <trkpt lat="41.5679804914" lon="70.1326509868"><ele>1162.962</ele></trkpt>
   <trkpt lat="41.5679673737" lon="70.132551745"><ele>1159.707</ele></trkpt>
   <trkpt lat="41.567935774" lon="70.132457281"><ele>1158.478</ele></trkpt>
   <trkpt lat="41.5679373665" lon="70.132356782"><ele>1156.797</ele></trkpt>
   <trkpt lat="41.5679152802" lon="70.1322421175"><ele>1153.766</ele></trkpt>
   <trkpt lat="41.5679600815" lon="70.1322341547"><ele>1153.45</ele></trkpt>
   <trkpt lat="41.5680456607" lon="70.1323151239"><ele>1154.004</ele></trkpt>
   <trkpt lat="41.5681921764" lon="70.1323524234"><ele>1155.492</ele></trkpt>
   <trkpt lat="41.5683876843" lon="70.1323180576"><ele>1157.572</ele></trkpt>
   <trkpt lat="41.5685337808" lon="70.1323196501"><ele>1155.505</ele></trkpt>
   <trkpt lat="41.5685962679" lon="70.1323686843"><ele>1152.517</ele></trkpt>
   <trkpt lat="41.5686680589" lon="70.1325107575"><ele>1156.318</ele></trkpt>
   <trkpt lat="41.5687574938" lon="70.1325750467"><ele>1154.022</ele></trkpt>
   <trkpt lat="41.568819478" lon="70.1326004439"><ele>1151.434</ele></trkpt>
   <trkpt lat="41.5688734994" lon="70.1325328857"><ele>1149.39</ele></trkpt>
   <trkpt lat="41.5688983936" lon="70.1325235818"><ele>1151.785</ele></trkpt>
   <trkpt lat="41.5689085776" lon="70.132552667"><ele>1151.179</ele></trkpt>
   <trkpt lat="41.5688740861" lon="70.1325633959"><ele>1154.778</ele></trkpt>
   <trkpt lat="41.5688623933" lon="70.1325891283"><ele>1151.739</ele></trkpt>
   <trkpt lat="41.5688721583" lon="70.1326084905"><ele>1151.849</ele></trkpt>
   <trkpt lat="41.5688610942" lon="70.132578148"><ele>1152.458</ele></trkpt>
   <trkpt lat="41.5688311708" lon="70.1326006953"><ele>1151.941</ele></trkpt>
   <trkpt lat="41.5688813784" lon="70.1326188841"><ele>1151.569</ele></trkpt>
   <trkpt lat="41.5688987708" lon="70.132535065"><ele>1151.598</ele></trkpt>
   <trkpt lat="41.5688772712" lon="70.1324840192"><ele>1147.337</ele></trkpt>
   <trkpt lat="41.5688705657" lon="70.1324955863"><ele>1149.134</ele></trkpt>
   <trkpt lat="41.5688882934" lon="70.132516541"><ele>1142.367</ele></trkpt>
   <trkpt lat="41.568869979" lon="70.1325048902"><ele>1151.617</ele></trkpt>
   <trkpt lat="41.5688869942" lon="70.1324548502"><ele>1152.861</ele></trkpt>
   <trkpt lat="41.568869979" lon="70.1325455424"><ele>1154.809</ele></trkpt>
   <trkpt lat="41.5688464677" lon="70.1325612166"><ele>1152.146</ele></trkpt>
   <trkpt lat="41.5688622676" lon="70.13257907"><ele>1151.704</ele></trkpt>
   <trkpt lat="41.5688475993" lon="70.1325269346"><ele>1154.227</ele></trkpt>
   <trkpt lat="41.5688742957" lon="70.1324367453"><ele>1151.87</ele></trkpt>
   <trkpt lat="41.5688270636" lon="70.1325296168"><ele>1152.048</ele></trkpt>
   <trkpt lat="41.5688738766" lon="70.1324628969"><ele>1153.579</ele></trkpt>
   <trkpt lat="41.5688524608" lon="70.1324627292"><ele>1151.765</ele></trkpt>
   <trkpt lat="41.5688525865" lon="70.1324798283"><ele>1151.355</ele></trkpt>
   <trkpt lat="41.5688706914" lon="70.1324770623"><ele>1155.22</ele></trkpt>
   <trkpt lat="41.5688595854" lon="70.132468848"><ele>1155.525</ele></trkpt>
   <trkpt lat="41.5688307936" lon="70.1325524994"><ele>1153.613</ele></trkpt>
   <trkpt lat="41.5688031752" lon="70.1325473864"><ele>1150.91</ele></trkpt>
   <trkpt lat="41.5688353617" lon="70.1325402618"><ele>1152.609</ele></trkpt>
   <trkpt lat="41.56887878" lon="70.1324383379"><ele>1153.6</ele></trkpt>
   <trkpt lat="41.5689027941" lon="70.1324273576"><ele>1153.132</ele></trkpt>
   <trkpt lat="41.5689015787" lon="70.1324805827"><ele>1151.961</ele></trkpt>
   <trkpt lat="41.5688633992" lon="70.1325370767"><ele>1153.296</ele></trkpt>
   <trkpt lat="41.56883708" lon="70.1325330534"><ele>1154.079</ele></trkpt>
   <trkpt lat="41.5688293686" lon="70.1324916468"><ele>1154.139</ele></trkpt>
   <trkpt lat="41.5688377925" lon="70.1325150323"><ele>1153.372</ele></trkpt>
   <trkpt lat="41.5687996967" lon="70.1325346459"><ele>1153.658</ele></trkpt>
   <trkpt lat="41.5688345654" lon="70.1325278566"><ele>1155.959</ele></trkpt>
   <trkpt lat="41.5688451685" lon="70.1324746315"><ele>1154.362</ele></trkpt>
   <trkpt lat="41.5688323861" lon="70.1324991905"><ele>1154.509</ele></trkpt>
   <trkpt lat="41.5687999901" lon="70.1324787387"><ele>1154.472</ele></trkpt>
   <trkpt lat="41.5687860761" lon="70.132447558"><ele>1154.485</ele></trkpt>
   <trkpt lat="41.5687630678" lon="70.1324942452"><ele>1149.873</ele></trkpt>
   <trkpt lat="41.5687816756" lon="70.1324903895"><ele>1155.172</ele></trkpt>
   <trkpt lat="41.5688398879" lon="70.1323960931"><ele>1153.04</ele></trkpt>
   <trkpt lat="41.5688475993" lon="70.1324070734"><ele>1156.235</ele></trkpt>
   <trkpt lat="41.5688292848" lon="70.1324450434"><ele>1156.824</ele></trkpt>
   <trkpt lat="41.5688502815" lon="70.1324682613"><ele>1156.195</ele></trkpt>
   <trkpt lat="41.5688226631" lon="70.1324558561"><ele>1155.678</ele></trkpt>
   <trkpt lat="41.568852377" lon="70.1324313809"><ele>1154.745</ele></trkpt>
   <trkpt lat="41.5688169634" lon="70.1324079954"><ele>1155.257</ele></trkpt>
   <trkpt lat="41.5688063603" lon="70.1323427842"><ele>1154.039</ele></trkpt>
   <trkpt lat="41.5687964697" lon="70.1323482324"><ele>1152.991</ele></trkpt>
   <trkpt lat="41.5687857828" lon="70.1323231705"><ele>1152.011</ele></trkpt>
   <trkpt lat="41.5688077852" lon="70.1321538561"><ele>1149.938</ele></trkpt>
   <trkpt lat="41.5687130697" lon="70.1321296324"><ele>1148.562</ele></trkpt>
   <trkpt lat="41.5686704897" lon="70.1320814364"><ele>1145.668</ele></trkpt>
   <trkpt lat="41.5686210784" lon="70.1320602302"><ele>1145.839</ele></trkpt>
   <trkpt lat="41.5685534783" lon="70.1319280476"><ele>1143.884</ele></trkpt>
   <trkpt lat="41.5685148796" lon="70.131886641"><ele>1142.922</ele></trkpt>
   <trkpt lat="41.5683567969" lon="70.1318454859"><ele>1139.98</ele></trkpt>
   <trkpt lat="41.5682552921" lon="70.1318511856"><ele>1141.709</ele></trkpt>
   <trkpt lat="41.568222477" lon="70.1317537878"><ele>1139.277</ele></trkpt>
   <trkpt lat="41.5681438966" lon="70.1316090324"><ele>1136.074</ele></trkpt>
   <trkpt lat="41.5679870712" lon="70.1314085373"><ele>1134.565</ele></trkpt>
   <trkpt lat="41.5678984745" lon="70.1313347765"><ele>1133.332</ele></trkpt>
   <trkpt lat="41.5677947903" lon="70.1313037635"><ele>1131.355</ele></trkpt>
   <trkpt lat="41.5675611867" lon="70.131273421"><ele>1127.488</ele></trkpt>
   <trkpt lat="41.5674311834" lon="70.1312207826"><ele>1127.519</ele></trkpt>
   <trkpt lat="41.5673551595" lon="70.1311634504"><ele>1125.264</ele></trkpt>
   <trkpt lat="41.5671739847" lon="70.1309418329"><ele>1125.551</ele></trkpt>
   <trkpt lat="41.5671050854" lon="70.1308964868"><ele>1120.168</ele></trkpt>
   <trkpt lat="41.5668988906" lon="70.1309215487"><ele>1119.023</ele></trkpt>
   <trkpt lat="41.5668371998" lon="70.1309139211"><ele>1116.783</ele></trkpt>
   <trkpt lat="41.5667413947" lon="70.1308684912"><ele>1117.834</ele></trkpt>
   <trkpt lat="41.566423972" lon="70.1304699317"><ele>1114.55</ele></trkpt>
   <trkpt lat="41.5663273706" lon="70.1301702787"><ele>1109.651</ele></trkpt>
   <trkpt lat="41.5662519753" lon="70.1300211646"><ele>1108.756</ele></trkpt>
   <trkpt lat="41.5659856823" lon="70.129665269"><ele>1099.599</ele></trkpt>
   <trkpt lat="41.5657785654" lon="70.129420266"><ele>1097.592</ele></trkpt>
   <trkpt lat="41.5655995699" lon="70.1293455832"><ele>1093.322</ele></trkpt>
   <trkpt lat="41.5653227995" lon="70.1293214434"><ele>1085.993</ele></trkpt>
   <trkpt lat="41.565230389" lon="70.129294286"><ele>1084.159</ele></trkpt>
   <trkpt lat="41.5651262857" lon="70.1292004925"><ele>1081.673</ele></trkpt>
   <trkpt lat="41.5650243618" lon="70.1289738458"><ele>1081.286</ele></trkpt>
   <trkpt lat="41.5649340887" lon="70.1288262405"><ele>1074.459</ele></trkpt>
   <trkpt lat="41.5648372777" lon="70.1287141745"><ele>1072.182</ele></trkpt>
   <trkpt lat="41.5647345994" lon="70.1286380668"><ele>1068.948</ele></trkpt>
   <trkpt lat="41.5645807915" lon="70.1285650604"><ele>1064.86</ele></trkpt>
   <trkpt lat="41.5643774884" lon="70.1286025275"><ele>1064.478</ele></trkpt>
   <trkpt lat="41.5642659672" lon="70.1285804831"><ele>1066.449</ele></trkpt>
   <trkpt lat="41.5641117821" lon="70.128498089"><ele>1067.561</ele></trkpt>
   <trkpt lat="41.5637516955" lon="70.1282309578"><ele>1074.394</ele></trkpt>
   <trkpt lat="41.5636746658" lon="70.1280917343"><ele>1072.331</ele></trkpt>
   <trkpt lat="41.5635881646" lon="70.1278310572"><ele>1069.111</ele></trkpt>
   <trkpt lat="41.56348469" lon="70.1276353397"><ele>1074.819</ele></trkpt>
   <trkpt lat="41.5633692712" lon="70.1272908435"><ele>1079.115</ele></trkpt>
   <trkpt lat="41.5632738851" lon="70.1271156617"><ele>1081.529</ele></trkpt>
   <trkpt lat="41.5631343684" lon="70.1268048608"><ele>1082.677</ele></trkpt>
   <trkpt lat="41.5629282993" lon="70.1264780503"><ele>1073.044</ele></trkpt>
   <trkpt lat="41.5628061749" lon="70.1263271761"><ele>1074.605</ele></trkpt>
   <trkpt lat="41.5628135929" lon="70.1262394176"><ele>1075.043</ele></trkpt>
   <trkpt lat="41.5627733598" lon="70.1257800893"><ele>1080.432</ele></trkpt>
   <trkpt lat="41.5626257964" lon="70.1254196674"><ele>1082.082</ele></trkpt>
   <trkpt lat="41.5624341861" lon="70.1246670563"><ele>1073.404</ele></trkpt>
   <trkpt lat="41.5623970962" lon="70.1245658868"><ele>1070.969</ele></trkpt>
   <trkpt lat="41.5622673862" lon="70.1243331213"><ele>1068.193</ele></trkpt>
   <trkpt lat="41.5621129915" lon="70.1240066462"><ele>1065.051</ele></trkpt>
   <trkpt lat="41.5619509694" lon="70.123609344"><ele>1060.606</ele></trkpt>
   <trkpt lat="41.5618537812" lon="70.1234406163"><ele>1061.461</ele></trkpt>
   <trkpt lat="41.5618139672" lon="70.1232747384"><ele>1060.02</ele></trkpt>
   <trkpt lat="41.5618180743" lon="70.1229757559"><ele>1062.554</ele></trkpt>
   <trkpt lat="41.5618517695" lon="70.122816835"><ele>1060.889</ele></trkpt>
   <trkpt lat="41.561828384" lon="70.1227007457"><ele>1059.691</ele></trkpt>
   <trkpt lat="41.5617814873" lon="70.1226532203"><ele>1062.268</ele></trkpt>
   <trkpt lat="41.5617256638" lon="70.1226400607"><ele>1063.799</ele></trkpt>
   <trkpt lat="41.5614276871" lon="70.1226978958"><ele>1065.392</ele></trkpt>
   <trkpt lat="41.5611538923" lon="70.1226884243"><ele>1066.033</ele></trkpt>
   <trkpt lat="41.5610567879" lon="70.1226583333"><ele>1068.186</ele></trkpt>
   <trkpt lat="41.5606021954" lon="70.1223958959"><ele>1061.006</ele></trkpt>
   <trkpt lat="41.5602557714" lon="70.1220847596"><ele>1058.006</ele></trkpt>
   <trkpt lat="41.5600764824" lon="70.1219658204"><ele>1056.935</ele></trkpt>
   <trkpt lat="41.5599448866" lon="70.1219110866"><ele>1056.527</ele></trkpt>
   <trkpt lat="41.5595114583" lon="70.1218182989"><ele>1053.237</ele></trkpt>
   <trkpt lat="41.5594396673" lon="70.1217795745"><ele>1050.712</ele></trkpt>
   <trkpt lat="41.5591909763" lon="70.1215772354"><ele>1044.838</ele></trkpt>
   <trkpt lat="41.5591649924" lon="70.1215771516"><ele>1044.001</ele></trkpt>
   <trkpt lat="41.5591710693" lon="70.1216095895"><ele>1042.414</ele></trkpt>
   <trkpt lat="41.5591467617" lon="70.1216288679"><ele>1044.789</ele></trkpt>
   <trkpt lat="41.5590728753" lon="70.121526022"><ele>1044.927</ele></trkpt>
   <trkpt lat="41.5590778625" lon="70.1214952604"><ele>1043.283</ele></trkpt>
   <trkpt lat="41.558635759" lon="70.1210349262"><ele>1034.927</ele></trkpt>
   <trkpt lat="41.5583901693" lon="70.1207145699"><ele>1028.305</ele></trkpt>
   <trkpt lat="41.5582434859" lon="70.1206055213"><ele>1024.076</ele></trkpt>
   <trkpt lat="41.5580565695" lon="70.1205015857"><ele>1020.282</ele></trkpt>
   <trkpt lat="41.5579397677" lon="70.1204078761"><ele>1016.503</ele></trkpt>
   <trkpt lat="41.5577737641" lon="70.1201651362"><ele>1014.165</ele></trkpt>
   <trkpt lat="41.5574694591" lon="70.1196541753"><ele>1010.428</ele></trkpt>
   <trkpt lat="41.5572596601" lon="70.1191819389"><ele>1010.219</ele></trkpt>
   <trkpt lat="41.5572674971" lon="70.1191004668"><ele>1009.077</ele></trkpt>
   <trkpt lat="41.557351861" lon="70.119015139"><ele>1006.138</ele></trkpt>
   <trkpt lat="41.5575093989" lon="70.1189742354"><ele>1001.521</ele></trkpt>
   <trkpt lat="41.5575817766" lon="70.1189280511"><ele>1000.342</ele></trkpt>
   <trkpt lat="41.5576716725" lon="70.118916987"><ele>998.323</ele></trkpt>
   <trkpt lat="41.5579393905" lon="70.1188133866"><ele>993.417</ele></trkpt>
   <trkpt lat="41.5584453641" lon="70.1187000633"><ele>980.431</ele></trkpt>
   <trkpt lat="41.5586610724" lon="70.118612221"><ele>975.051</ele></trkpt>
   <trkpt lat="41.5588604778" lon="70.1185053517"><ele>970.668</ele></trkpt>
   <trkpt lat="41.5591107615" lon="70.1183410664"><ele>966.937</ele></trkpt>
   <trkpt lat="41.5594034994" lon="70.118116599"><ele>964.182</ele></trkpt>
   <trkpt lat="41.5600904802" lon="70.1175500662"><ele>951.47</ele></trkpt>
   <trkpt lat="41.5604102917" lon="70.1173124392"><ele>943.301</ele></trkpt>
   <trkpt lat="41.560577385" lon="70.1171490759"><ele>941.651</ele></trkpt>
   <trkpt lat="41.5605616689" lon="70.1171671808"><ele>942.526</ele></trkpt>
   <trkpt lat="41.5605829589" lon="70.1171332341"><ele>940.923</ele></trkpt>
   <trkpt lat="41.5605870661" lon="70.1170072541"><ele>939.659</ele></trkpt>
   <trkpt lat="41.5605518621" lon="70.1168969483"><ele>937.733</ele></trkpt>
   <trkpt lat="41.5605542928" lon="70.1167612453"><ele>933.544</ele></trkpt>
   <trkpt lat="41.5605110841" lon="70.1165954512"><ele>931.897</ele></trkpt>
   <trkpt lat="41.5605040852" lon="70.1164450799"><ele>928.29</ele></trkpt>
   <trkpt lat="41.5604765926" lon="70.1163405576"><ele>926.129</ele></trkpt>
   <trkpt lat="41.5605195918" lon="70.1162159187"><ele>927.261</ele></trkpt>
   <trkpt lat="41.5605660694" lon="70.1162006636"><ele>926.672</ele></trkpt>
   <trkpt lat="41.5605663628" lon="70.1161852409"><ele>926.323</ele></trkpt>
   <trkpt lat="41.5605426839" lon="70.1161767752"><ele>927.623</ele></trkpt>
   <trkpt lat="41.5604569789" lon="70.1162203611"><ele>926.256</ele></trkpt>
   <trkpt lat="41.5604498962" lon="70.1161797927"><ele>927.504</ele></trkpt>
   <trkpt lat="41.5604353955" lon="70.1161843189"><ele>924.582</ele></trkpt>
   <trkpt lat="41.5604417658" lon="70.1161980652"><ele>928.994</ele></trkpt>
   <trkpt lat="41.5605052587" lon="70.1161799603"><ele>926.636</ele></trkpt>
   <trkpt lat="41.5605353916" lon="70.1161329378"><ele>922.797</ele></trkpt>
   <trkpt lat="41.5606764591" lon="70.1160473586"><ele>926.284</ele></trkpt>
   <trkpt lat="41.5607036583" lon="70.1160143339"><ele>925.634</ele></trkpt>
   <trkpt lat="41.5607021915" lon="70.1159305987"><ele>922.531</ele></trkpt>
   <trkpt lat="41.560718159" lon="70.1159025193"><ele>922.876</ele></trkpt>
   <trkpt lat="41.5607458612" lon="70.1158972387"><ele>921.635</ele></trkpt>
   <trkpt lat="41.5607836636" lon="70.1159417466"><ele>922.177</ele></trkpt>
   <trkpt lat="41.5607961946" lon="70.1159344543"><ele>922.185</ele></trkpt>
   <trkpt lat="41.5608013913" lon="70.1158489589"><ele>920.833</ele></trkpt>
   <trkpt lat="41.5607830769" lon="70.1157887769"><ele>920.257</ele></trkpt>
   <trkpt lat="41.5607557938" lon="70.1157631282"><ele>921.144</ele></trkpt>
   <trkpt lat="41.5607601943" lon="70.1157453586"><ele>921.054</ele></trkpt>
   <trkpt lat="41.5607850885" lon="70.1157538243"><ele>922.14</ele></trkpt>
   <trkpt lat="41.5607799756" lon="70.1158068818"><ele>921.213</ele></trkpt>
   <trkpt lat="41.560817778" lon="70.1158413314"><ele>921.043</ele></trkpt>
   <trkpt lat="41.5608100666" lon="70.1157884416"><ele>921.95</ele></trkpt>
   <trkpt lat="41.5608287583" lon="70.1157899503"><ele>922.687</ele></trkpt>
   <trkpt lat="41.5607652653" lon="70.1159064588"><ele>922.333</ele></trkpt>
   <trkpt lat="41.5607416703" lon="70.1159238931"><ele>921.947</ele></trkpt>
   <trkpt lat="41.5607156864" lon="70.1159168524"><ele>923.063</ele></trkpt>
   <trkpt lat="41.5606314902" lon="70.1158467796"><ele>922.829</ele></trkpt>
   <trkpt lat="41.5605125929" lon="70.1156252459"><ele>922.668</ele></trkpt>
   <trkpt lat="41.560515778" lon="70.1155781396"><ele>919.33</ele></trkpt>
   <trkpt lat="41.5605418876" lon="70.1157323667"><ele>921.063</ele></trkpt>
   <trkpt lat="41.5605308654" lon="70.1157691632"><ele>923.486</ele></trkpt>
   <trkpt lat="41.5605119642" lon="70.115779473"><ele>922.519</ele></trkpt>
   <trkpt lat="41.5604868604" lon="70.1157691632"><ele>921.315</ele></trkpt>
   <trkpt lat="41.5604952842" lon="70.1157418382"><ele>920.908</ele></trkpt>
   <trkpt lat="41.5605145626" lon="70.1157373958"><ele>921.997</ele></trkpt>
   <trkpt lat="41.5604824599" lon="70.1158013497"><ele>921.984</ele></trkpt>
   <trkpt lat="41.5604971702" lon="70.1157873519"><ele>918.832</ele></trkpt>
   <trkpt lat="41.5605874852" lon="70.1158564188"><ele>922.242</ele></trkpt>
   <trkpt lat="41.5606475834" lon="70.1158774574"><ele>921.783</ele></trkpt>
   <trkpt lat="41.5606827874" lon="70.1159156789"><ele>922.593</ele></trkpt>
   <trkpt lat="41.5607303966" lon="70.1160352886"><ele>925.301</ele></trkpt>
   <trkpt lat="41.5607149739" lon="70.1160727557"><ele>924.855</ele></trkpt>
   <trkpt lat="41.5606892834" lon="70.1160686486"><ele>927.168</ele></trkpt>
   <trkpt lat="41.560713088" lon="70.1161135756"><ele>924.611</ele></trkpt>
   <trkpt lat="41.5607012695" lon="70.1160891843"><ele>923.811</ele></trkpt>
   <trkpt lat="41.5607067597" lon="70.1161037688"><ele>923.486</ele></trkpt>
   <trkpt lat="41.560680189" lon="70.1161213708"><ele>925.844</ele></trkpt>
   <trkpt lat="41.5607226853" lon="70.1160619431"><ele>922.698</ele></trkpt>
   <trkpt lat="41.5607162731" lon="70.1159836561"><ele>922.432</ele></trkpt>
   <trkpt lat="41.560635262" lon="70.1158655551"><ele>920.808</ele></trkpt>
   <trkpt lat="41.5605792709" lon="70.1157309417"><ele>921.252</ele></trkpt>
   <trkpt lat="41.5605278898" lon="70.1156636351"><ele>920.603</ele></trkpt>
   <trkpt lat="41.5594289804" lon="70.1148492493"><ele>923.036</ele></trkpt>
   <trkpt lat="41.5593104603" lon="70.1147898216"><ele>923.051</ele></trkpt>
   <trkpt lat="41.5592821714" lon="70.1147647598"><ele>922.47</ele></trkpt>
   <trkpt lat="41.5592099613" lon="70.1146349241"><ele>924.612</ele></trkpt>
   <trkpt lat="41.559201286" lon="70.1145803579"><ele>920.616</ele></trkpt>
   <trkpt lat="41.559270772" lon="70.1146121253"><ele>924.764</ele></trkpt>
   <trkpt lat="41.5593651941" lon="70.114757719"><ele>923.035</ele></trkpt>
   <trkpt lat="41.5594554672" lon="70.1148505904"><ele>922.88</ele></trkpt>
   <trkpt lat="41.5598297611" lon="70.1150801708"><ele>922.202</ele></trkpt>
   <trkpt lat="41.5604409695" lon="70.1155235735"><ele>920.704</ele></trkpt>
   <trkpt lat="41.5605402951" lon="70.1156372321"><ele>919.946</ele></trkpt>
   <trkpt lat="41.5605661951" lon="70.1156899542"><ele>920.412</ele></trkpt>
   <trkpt lat="41.5606007705" lon="70.1158075523"><ele>922.383</ele></trkpt>
   <trkpt lat="41.5605759601" lon="70.1158360508"><ele>921.704</ele></trkpt>
   <trkpt lat="41.5605612917" lon="70.1158265793"><ele>921.441</ele></trkpt>
   <trkpt lat="41.5605980883" lon="70.1158328657"><ele>920.55</ele></trkpt>
   <trkpt lat="41.560675579" lon="70.1158948918"><ele>920.801</ele></trkpt>
   <trkpt lat="41.5607275887" lon="70.1159790461"><ele>920.561</ele></trkpt>
   <trkpt lat="41.5607352581" lon="70.116110642"><ele>923.955</ele></trkpt>
   <trkpt lat="41.5607138843" lon="70.1161427446"><ele>923.941</ele></trkpt>
   <trkpt lat="41.5606899958" lon="70.1161440857"><ele>924.2</ele></trkpt>
   <trkpt lat="41.5606762914" lon="70.116134698"><ele>922.608</ele></trkpt>
   <trkpt lat="41.5606850924" lon="70.1161034335"><ele>926.807</ele></trkpt>
   <trkpt lat="41.5606693764" lon="70.1160846581"><ele>925.326</ele></trkpt>
   <trkpt lat="41.5606821588" lon="70.1161144976"><ele>921.098</ele></trkpt>
   <trkpt lat="41.560718159" lon="70.1161311776"><ele>921.956</ele></trkpt>
   <trkpt lat="41.5608836597" lon="70.1160928723"><ele>921.743</ele></trkpt>
   <trkpt lat="41.5613084965" lon="70.1160699897"><ele>920.852</ele></trkpt>
   <trkpt lat="41.561570892" lon="70.1160128251"><ele>919.683</ele></trkpt>
   <trkpt lat="41.5625777681" lon="70.1160647929"><ele>919.159</ele></trkpt>
   <trkpt lat="41.562967778" lon="70.1160342828"><ele>921.301</ele></trkpt>
   <trkpt lat="41.5631906947" lon="70.1160550699"><ele>919.832</ele></trkpt>
   <trkpt lat="41.5633310916" lon="70.1160949678"><ele>918.606</ele></trkpt>
  </trkseg>
 </trk>
</gpx>