<?xml version='1.0' encoding='utf-8'?>
<gpx xmlns="http://www.topografix.com/GPX/1/1" version="1.1"><trk><trkseg><trkpt lat="41.44229243054797" lon="70.1731347629258"><ele>0</ele></trkpt><trkpt lat="41.44344590301986" lon="70.14755088528193"><ele>0</ele></trkpt><trkpt lat="41.43786372752152" lon="70.1361498446536"><ele>0</ele></trkpt><trkpt lat="41.43624249889075" lon="70.12386435906824"><ele>0</ele></trkpt><trkpt lat="41.43583148642238" lon="70.11862454540538"><ele>0</ele></trkpt><trkpt lat="41.43548185437364" lon="70.11790942187116"><ele>0</ele></trkpt><trkpt lat="41.43235381641355" lon="70.11762780215808"><ele>0</ele></trkpt><trkpt lat="41.42983149173447" lon="70.1144695567728"><ele>0</ele></trkpt><trkpt lat="41.42563661875788" lon="70.11268106106021"><ele>0</ele></trkpt><trkpt lat="41.42575403102873" lon="70.10755883264122"><ele>0</ele></trkpt><trkpt lat="41.42653937845878" lon="70.10597812423697"><ele>0</ele></trkpt><trkpt lat="41.42282450109451" lon="70.10443043092141"><ele>0</ele></trkpt><trkpt lat="41.42096588413893" lon="70.10046667018722"><ele>0</ele></trkpt><trkpt lat="41.41850834312098" lon="70.0987011595486"><ele>0</ele></trkpt><trkpt lat="41.41797542080939" lon="70.09620239500038"><ele>0</ele></trkpt><trkpt lat="41.41841917767541" lon="70.09379871525519"><ele>0</ele></trkpt><trkpt lat="41.41515742902836" lon="70.09263487518697"><ele>0</ele></trkpt><trkpt lat="41.41381401542555" lon="70.08948922360707"><ele>0</ele></trkpt><trkpt lat="41.41018269249684" lon="70.08795753479478"><ele>0</ele></trkpt><trkpt lat="41.40794984272358" lon="70.0853381704965"><ele>0</ele></trkpt><trkpt lat="41.40495960837324" lon="70.08487874471629"><ele>0</ele></trkpt><trkpt lat="41.40292726019204" lon="70.08508813600588"><ele>0</ele></trkpt><trkpt lat="41.40139777525572" lon="70.08413849016137"><ele>0</ele></trkpt><trkpt lat="41.39995323339912" lon="70.07822535129036"><ele>0</ele></trkpt><trkpt lat="41.39833375092009" lon="70.07889058482721"><ele>0</ele></trkpt><trkpt lat="41.39870152018177" lon="70.07475637401205"><ele>0</ele></trkpt><trkpt lat="41.40169230697388" lon="70.0679421705305"><ele>0</ele></trkpt><trkpt lat="41.40302759320992" lon="70.06650636994388"><ele>0</ele></trkpt><trkpt lat="41.40736086924142" lon="70.06706464694435"><ele>0</ele></trkpt><trkpt lat="41.40834656334864" lon="70.0662971508122"><ele>0</ele></trkpt><trkpt lat="41.4132314960457" lon="70.06457830554598"><ele>0</ele></trkpt><trkpt lat="41.41465510287055" lon="70.06448624641602"><ele>0</ele></trkpt><trkpt lat="41.41758433598374" lon="70.06479058153278"><ele>0</ele></trkpt><trkpt lat="41.42032531226337" lon="70.06311034888306"><ele>0</ele></trkpt><trkpt lat="41.42124704409472" lon="70.06221741239028"><ele>0</ele></trkpt><trkpt lat="41.4234394890205" lon="70.06063758238334"><ele>0</ele></trkpt><trkpt lat="41.42520905999192" lon="70.05974227889661"><ele>0</ele></trkpt><trkpt lat="41.42718253728493" lon="70.05907675672778"><ele>0</ele></trkpt><trkpt lat="41.42949568844328" lon="70.05793900066043"><ele>0</ele></trkpt><trkpt lat="41.43050697338467" lon="70.05840707026607"><ele>0</ele></trkpt><trkpt lat="41.43220774437089" lon="70.05989688327026"><ele>0</ele></trkpt><trkpt lat="41.43337526090769" lon="70.0597881035918"><ele>0</ele></trkpt><trkpt lat="41.43472144815897" lon="70.05921894553806"><ele>0</ele></trkpt><trkpt lat="41.4364490443433" lon="70.05955017375936"><ele>0</ele></trkpt><trkpt lat="41.4392007982608" lon="70.06192633238108"><ele>0</ele></trkpt><trkpt lat="41.44144956864175" lon="70.06484357588079"><ele>0</ele></trkpt><trkpt lat="41.4440436565575" lon="70.06614484250515"><ele>0</ele></trkpt><trkpt lat="41.44599801973403" lon="70.06597816511321"><ele>0</ele></trkpt><trkpt lat="41.44804800807512" lon="70.0651353366471"><ele>0</ele></trkpt><trkpt lat="41.44903587898536" lon="70.06564183064611"><ele>0</ele></trkpt><trkpt lat="41.4509716318875" lon="70.06370447896855"><ele>0</ele></trkpt><trkpt lat="41.45144057218992" lon="70.06305973352561"><ele>0</ele></trkpt><trkpt lat="41.45351889652034" lon="70.06211864718981"><ele>0</ele></trkpt><trkpt lat="41.45585013521661" lon="70.06240958382725"><ele>0</ele></trkpt><trkpt lat="41.45733291870429" lon="70.061822479223"><ele>0</ele></trkpt><trkpt lat="41.45980051402454" lon="70.06470182784115"><ele>0</ele></trkpt><trkpt lat="41.46857629782387" lon="70.06340500223138"><ele>0</ele></trkpt><trkpt lat="41.47111834417817" lon="70.06121674743811"><ele>0</ele></trkpt><trkpt lat="41.47471305626443" lon="70.05928114912652"><ele>0</ele></trkpt><trkpt lat="41.47624385502333" lon="70.05989276695061"><ele>0</ele></trkpt><trkpt lat="41.47920574802912" lon="70.05916653026404"><ele>0</ele></trkpt><trkpt lat="41.48164042326339" lon="70.0588069894094"><ele>0</ele></trkpt><trkpt lat="41.48183810874682" lon="70.05854064328227"><ele>0</ele></trkpt><trkpt lat="41.48215410479619" lon="70.05780503014317"><ele>0</ele></trkpt><trkpt lat="41.48223264468884" lon="70.05771663302033"><ele>0</ele></trkpt><trkpt lat="41.48229312202212" lon="70.05755064802727"><ele>0</ele></trkpt><trkpt lat="41.48325801558707" lon="70.05666276306907"><ele>0</ele></trkpt><trkpt lat="41.48378286449795" lon="70.05691167700111"><ele>0</ele></trkpt><trkpt lat="41.48402650511466" lon="70.05720702146166"><ele>0</ele></trkpt><trkpt lat="41.48513545990558" lon="70.05695363681764"><ele>0</ele></trkpt><trkpt lat="41.48653264904776" lon="70.05586233506338"><ele>0</ele></trkpt><trkpt lat="41.48676486271069" lon="70.05420106737364"><ele>0</ele></trkpt><trkpt lat="41.48753658679852" lon="70.05352803377365"><ele>0</ele></trkpt><trkpt lat="41.48759287198681" lon="70.05193530574684"><ele>0</ele></trkpt><trkpt lat="41.48729446159458" lon="70.04936582213993"><ele>0</ele></trkpt><trkpt lat="41.48435929159935" lon="70.0465350112772"><ele>0</ele></trkpt><trkpt lat="41.48590339503561" lon="70.04564342474409"><ele>0</ele></trkpt><trkpt lat="41.4857922387466" lon="70.04372364350293"><ele>0</ele></trkpt><trkpt lat="41.48726973682308" lon="70.03872147537234"><ele>0</ele></trkpt><trkpt lat="41.48823584680648" lon="70.03765349882553"><ele>0</ele></trkpt><trkpt lat="41.48697313687001" lon="70.03562858618571"><ele>0</ele></trkpt><trkpt lat="41.48492276965555" lon="70.03326072203959"><ele>0</ele></trkpt><trkpt lat="41.48123249422967" lon="70.02895014560787"><ele>0</ele></trkpt><trkpt lat="41.47971600560639" lon="70.02776507790345"><ele>0</ele></trkpt><trkpt lat="41.4805206935918" lon="70.02521202922891"><ele>0</ele></trkpt><trkpt lat="41.48124377336935" lon="70.02081710085889"><ele>0</ele></trkpt><trkpt lat="41.48280283145973" lon="70.01571731469565"><ele>0</ele></trkpt><trkpt lat="41.47853098572821" lon="70.00328165446774"><ele>0</ele></trkpt><trkpt lat="41.47947804543939" lon="69.99494515988657"><ele>0</ele></trkpt><trkpt lat="41.48023327112133" lon="69.99323138163706"><ele>0</ele></trkpt><trkpt lat="41.48310235566308" lon="69.9922625531547"><ele>0</ele></trkpt><trkpt lat="41.48387337503888" lon="69.9916462097889"><ele>0</ele></trkpt><trkpt lat="41.48579642662926" lon="69.98939142231335"><ele>0</ele></trkpt><trkpt lat="41.48725499405916" lon="69.98785449206343"><ele>0</ele></trkpt><trkpt lat="41.48854244935074" lon="69.98380089850363"><ele>0</ele></trkpt><trkpt lat="41.49008401652397" lon="69.9809019207852"><ele>0</ele></trkpt><trkpt lat="41.4918127004625" lon="69.97615080693336"><ele>0</ele></trkpt><trkpt lat="41.49526338284871" lon="69.97877908622368"><ele>0</ele></trkpt><trkpt lat="41.49933851593983" lon="69.97955446295138"><ele>0</ele></trkpt><trkpt lat="41.50154009444614" lon="69.97841320539366"><ele>0</ele></trkpt><trkpt lat="41.50305018950069" lon="69.97924669365366"><ele>0</ele></trkpt></trkseg></trk></gpx>