<?xml version='1.0' encoding='utf-8'?>
<gpx xmlns="http://www.topografix.com/GPX/1/1" version="1.1" creator="Sayr">
<trk><name>Испайское кольцо: грот, водопад, урочище Сурхат и Красавец</name><trkseg>
<trkpt lat="41.801887" lon="70.247165"><ele>1020.7</ele></trkpt>
<trkpt lat="41.801847" lon="70.247282"><ele>1021.0</ele></trkpt>
<trkpt lat="41.801850" lon="70.247435"><ele>1020.7</ele></trkpt>
<trkpt lat="41.801883" lon="70.247590"><ele>1028.4</ele></trkpt>
<trkpt lat="41.801897" lon="70.247750"><ele>1035.3</ele></trkpt>
<trkpt lat="41.801873" lon="70.248077"><ele>1035.8</ele></trkpt>
<trkpt lat="41.801788" lon="70.248382"><ele>1037.7</ele></trkpt>
<trkpt lat="41.801727" lon="70.248508"><ele>1037.5</ele></trkpt>
<trkpt lat="41.801560" lon="70.248950"><ele>1034.6</ele></trkpt>
<trkpt lat="41.801407" lon="70.249450"><ele>1041.2</ele></trkpt>
<trkpt lat="41.801345" lon="70.249592"><ele>1041.8</ele></trkpt>
<trkpt lat="41.801208" lon="70.250172"><ele>1043.1</ele></trkpt>
<trkpt lat="41.801118" lon="70.250475"><ele>1043.6</ele></trkpt>
<trkpt lat="41.801100" lon="70.250645"><ele>1046.3</ele></trkpt>
<trkpt lat="41.801102" lon="70.250802"><ele>1045.9</ele></trkpt>
<trkpt lat="41.801133" lon="70.250963"><ele>1043.7</ele></trkpt>
<trkpt lat="41.801045" lon="70.251188"><ele>1044.0</ele></trkpt>
<trkpt lat="41.800977" lon="70.251432"><ele>1045.7</ele></trkpt>
<trkpt lat="41.800988" lon="70.251682"><ele>1045.5</ele></trkpt>
<trkpt lat="41.800955" lon="70.251802"><ele>1047.5</ele></trkpt>
<trkpt lat="41.800947" lon="70.251943"><ele>1050.0</ele></trkpt>
<trkpt lat="41.800972" lon="70.252363"><ele>1053.3</ele></trkpt>
<trkpt lat="41.800940" lon="70.252488"><ele>1053.0</ele></trkpt>
<trkpt lat="41.800923" lon="70.252742"><ele>1054.5</ele></trkpt>
<trkpt lat="41.800883" lon="70.253000"><ele>1058.5</ele></trkpt>
<trkpt lat="41.800920" lon="70.253158"><ele>1059.7</ele></trkpt>
<trkpt lat="41.800923" lon="70.253295"><ele>1057.2</ele></trkpt>
<trkpt lat="41.800975" lon="70.253432"><ele>1053.5</ele></trkpt>
<trkpt lat="41.800995" lon="70.253583"><ele>1050.2</ele></trkpt>
<trkpt lat="41.801005" lon="70.253760"><ele>1046.1</ele></trkpt>
<trkpt lat="41.800997" lon="70.253958"><ele>1043.7</ele></trkpt>
<trkpt lat="41.800945" lon="70.254130"><ele>1042.9</ele></trkpt>
<trkpt lat="41.800928" lon="70.254308"><ele>1043.3</ele></trkpt>
<trkpt lat="41.800845" lon="70.254618"><ele>1042.4</ele></trkpt>
<trkpt lat="41.800810" lon="70.254985"><ele>1046.0</ele></trkpt>
<trkpt lat="41.800650" lon="70.255357"><ele>1047.4</ele></trkpt>
<trkpt lat="41.800548" lon="70.255803"><ele>1051.5</ele></trkpt>
<trkpt lat="41.800485" lon="70.256308"><ele>1047.9</ele></trkpt>
<trkpt lat="41.800385" lon="70.256838"><ele>1046.8</ele></trkpt>
<trkpt lat="41.800292" lon="70.257158"><ele>1049.2</ele></trkpt>
<trkpt lat="41.800228" lon="70.257312"><ele>1051.6</ele></trkpt>
<trkpt lat="41.800160" lon="70.257422"><ele>1051.9</ele></trkpt>
<trkpt lat="41.799918" lon="70.257695"><ele>1056.7</ele></trkpt>
<trkpt lat="41.799740" lon="70.257972"><ele>1056.2</ele></trkpt>
<trkpt lat="41.799680" lon="70.258107"><ele>1058.2</ele></trkpt>
<trkpt lat="41.799628" lon="70.258253"><ele>1060.5</ele></trkpt>
<trkpt lat="41.799485" lon="70.258550"><ele>1062.8</ele></trkpt>
<trkpt lat="41.799415" lon="70.258827"><ele>1064.5</ele></trkpt>
<trkpt lat="41.799342" lon="70.258950"><ele>1065.4</ele></trkpt>
<trkpt lat="41.799260" lon="70.259173"><ele>1068.9</ele></trkpt>
<trkpt lat="41.799150" lon="70.259390"><ele>1070.9</ele></trkpt>
<trkpt lat="41.799085" lon="70.259478"><ele>1073.5</ele></trkpt>
<trkpt lat="41.799055" lon="70.259595"><ele>1077.4</ele></trkpt>
<trkpt lat="41.798997" lon="70.259695"><ele>1080.9</ele></trkpt>
<trkpt lat="41.798955" lon="70.259805"><ele>1087.7</ele></trkpt>
<trkpt lat="41.798992" lon="70.259918"><ele>1089.3</ele></trkpt>
<trkpt lat="41.798943" lon="70.260022"><ele>1090.3</ele></trkpt>
<trkpt lat="41.798868" lon="70.260095"><ele>1092.2</ele></trkpt>
<trkpt lat="41.798740" lon="70.260542"><ele>1093.0</ele></trkpt>
<trkpt lat="41.798682" lon="70.260642"><ele>1093.8</ele></trkpt>
<trkpt lat="41.798587" lon="70.260668"><ele>1093.2</ele></trkpt>
<trkpt lat="41.798487" lon="70.260778"><ele>1091.2</ele></trkpt>
<trkpt lat="41.798395" lon="70.260825"><ele>1090.1</ele></trkpt>
<trkpt lat="41.798313" lon="70.260905"><ele>1089.5</ele></trkpt>
<trkpt lat="41.798262" lon="70.261042"><ele>1090.0</ele></trkpt>
<trkpt lat="41.798408" lon="70.261278"><ele>1095.4</ele></trkpt>
<trkpt lat="41.798338" lon="70.261368"><ele>1100.5</ele></trkpt>
<trkpt lat="41.798298" lon="70.261482"><ele>1095.3</ele></trkpt>
<trkpt lat="41.798303" lon="70.261613"><ele>1094.6</ele></trkpt>
<trkpt lat="41.798242" lon="70.261758"><ele>1094.1</ele></trkpt>
<trkpt lat="41.798150" lon="70.261848"><ele>1096.1</ele></trkpt>
<trkpt lat="41.798075" lon="70.261962"><ele>1097.3</ele></trkpt>
<trkpt lat="41.798075" lon="70.262110"><ele>1095.4</ele></trkpt>
<trkpt lat="41.798053" lon="70.262295"><ele>1092.6</ele></trkpt>
<trkpt lat="41.798150" lon="70.262423"><ele>1108.8</ele></trkpt>
<trkpt lat="41.798160" lon="70.262598"><ele>1133.6</ele></trkpt>
<trkpt lat="41.798010" lon="70.262722"><ele>1116.1</ele></trkpt>
<trkpt lat="41.797963" lon="70.262838"><ele>1106.0</ele></trkpt>
<trkpt lat="41.797947" lon="70.262968"><ele>1101.8</ele></trkpt>
<trkpt lat="41.797893" lon="70.263068"><ele>1101.5</ele></trkpt>
<trkpt lat="41.797880" lon="70.263208"><ele>1096.0</ele></trkpt>
<trkpt lat="41.797845" lon="70.263357"><ele>1096.2</ele></trkpt>
<trkpt lat="41.797798" lon="70.263462"><ele>1098.5</ele></trkpt>
<trkpt lat="41.797763" lon="70.263765"><ele>1099.5</ele></trkpt>
<trkpt lat="41.797667" lon="70.263987"><ele>1101.1</ele></trkpt>
<trkpt lat="41.797632" lon="70.264103"><ele>1101.4</ele></trkpt>
<trkpt lat="41.797587" lon="70.264358"><ele>1104.2</ele></trkpt>
<trkpt lat="41.797495" lon="70.264572"><ele>1107.9</ele></trkpt>
<trkpt lat="41.797422" lon="70.264958"><ele>1111.0</ele></trkpt>
<trkpt lat="41.797407" lon="70.265230"><ele>1108.3</ele></trkpt>
<trkpt lat="41.797227" lon="70.265420"><ele>1109.6</ele></trkpt>
<trkpt lat="41.797163" lon="70.265523"><ele>1111.4</ele></trkpt>
<trkpt lat="41.797042" lon="70.265825"><ele>1112.5</ele></trkpt>
<trkpt lat="41.796982" lon="70.266085"><ele>1115.5</ele></trkpt>
<trkpt lat="41.796827" lon="70.266218"><ele>1116.0</ele></trkpt>
<trkpt lat="41.796750" lon="70.266335"><ele>1116.5</ele></trkpt>
<trkpt lat="41.796718" lon="70.266465"><ele>1117.6</ele></trkpt>
<trkpt lat="41.796713" lon="70.266727"><ele>1117.7</ele></trkpt>
<trkpt lat="41.796645" lon="70.266998"><ele>1114.2</ele></trkpt>
<trkpt lat="41.796588" lon="70.267112"><ele>1110.3</ele></trkpt>
<trkpt lat="41.796463" lon="70.267300"><ele>1111.8</ele></trkpt>
<trkpt lat="41.796413" lon="70.267413"><ele>1113.8</ele></trkpt>
<trkpt lat="41.796403" lon="70.267552"><ele>1115.0</ele></trkpt>
<trkpt lat="41.796357" lon="70.267663"><ele>1114.9</ele></trkpt>
<trkpt lat="41.796290" lon="70.267765"><ele>1116.1</ele></trkpt>
<trkpt lat="41.796257" lon="70.267890"><ele>1117.7</ele></trkpt>
<trkpt lat="41.796265" lon="70.268053"><ele>1118.5</ele></trkpt>
<trkpt lat="41.796303" lon="70.268185"><ele>1117.9</ele></trkpt>
<trkpt lat="41.796298" lon="70.268307"><ele>1115.6</ele></trkpt>
<trkpt lat="41.796343" lon="70.268562"><ele>1110.0</ele></trkpt>
<trkpt lat="41.796490" lon="70.269092"><ele>1097.8</ele></trkpt>
<trkpt lat="41.796497" lon="70.269593"><ele>1092.2</ele></trkpt>
<trkpt lat="41.796445" lon="70.269693"><ele>1092.6</ele></trkpt>
<trkpt lat="41.796353" lon="70.269800"><ele>1093.0</ele></trkpt>
<trkpt lat="41.796223" lon="70.270195"><ele>1091.1</ele></trkpt>
<trkpt lat="41.796165" lon="70.270313"><ele>1090.5</ele></trkpt>
<trkpt lat="41.796102" lon="70.270428"><ele>1091.0</ele></trkpt>
<trkpt lat="41.796007" lon="70.270442"><ele>1093.8</ele></trkpt>
<trkpt lat="41.795918" lon="70.270483"><ele>1095.4</ele></trkpt>
<trkpt lat="41.795833" lon="70.270552"><ele>1095.4</ele></trkpt>
<trkpt lat="41.795752" lon="70.270648"><ele>1094.7</ele></trkpt>
<trkpt lat="41.795705" lon="70.270788"><ele>1094.8</ele></trkpt>
<trkpt lat="41.795653" lon="70.271037"><ele>1094.9</ele></trkpt>
<trkpt lat="41.795540" lon="70.271290"><ele>1094.8</ele></trkpt>
<trkpt lat="41.795442" lon="70.271557"><ele>1096.7</ele></trkpt>
<trkpt lat="41.795118" lon="70.271932"><ele>1100.0</ele></trkpt>
<trkpt lat="41.795033" lon="70.271997"><ele>1101.8</ele></trkpt>
<trkpt lat="41.794943" lon="70.272102"><ele>1102.3</ele></trkpt>
<trkpt lat="41.794885" lon="70.272225"><ele>1103.8</ele></trkpt>
<trkpt lat="41.794785" lon="70.272308"><ele>1105.8</ele></trkpt>
<trkpt lat="41.794570" lon="70.272650"><ele>1107.1</ele></trkpt>
<trkpt lat="41.794468" lon="70.272700"><ele>1108.5</ele></trkpt>
<trkpt lat="41.794168" lon="70.273088"><ele>1107.2</ele></trkpt>
<trkpt lat="41.794118" lon="70.273212"><ele>1108.5</ele></trkpt>
<trkpt lat="41.793927" lon="70.273360"><ele>1110.0</ele></trkpt>
<trkpt lat="41.793803" lon="70.273385"><ele>1110.5</ele></trkpt>
<trkpt lat="41.793630" lon="70.273575"><ele>1112.6</ele></trkpt>
<trkpt lat="41.793538" lon="70.273640"><ele>1114.1</ele></trkpt>
<trkpt lat="41.793458" lon="70.273732"><ele>1115.1</ele></trkpt>
<trkpt lat="41.793043" lon="70.273990"><ele>1113.0</ele></trkpt>
<trkpt lat="41.792943" lon="70.274060"><ele>1114.1</ele></trkpt>
<trkpt lat="41.792858" lon="70.274150"><ele>1113.5</ele></trkpt>
<trkpt lat="41.792645" lon="70.274665"><ele>1118.1</ele></trkpt>
<trkpt lat="41.792528" lon="70.274887"><ele>1116.7</ele></trkpt>
<trkpt lat="41.792365" lon="70.275122"><ele>1118.2</ele></trkpt>
<trkpt lat="41.792310" lon="70.275252"><ele>1117.5</ele></trkpt>
<trkpt lat="41.792217" lon="70.275312"><ele>1118.2</ele></trkpt>
<trkpt lat="41.791918" lon="70.275390"><ele>1128.2</ele></trkpt>
<trkpt lat="41.791833" lon="70.275440"><ele>1129.9</ele></trkpt>
<trkpt lat="41.791733" lon="70.275563"><ele>1131.8</ele></trkpt>
<trkpt lat="41.791645" lon="70.275623"><ele>1133.6</ele></trkpt>
<trkpt lat="41.791537" lon="70.275587"><ele>1133.8</ele></trkpt>
<trkpt lat="41.791417" lon="70.275613"><ele>1132.9</ele></trkpt>
<trkpt lat="41.791312" lon="70.275672"><ele>1131.4</ele></trkpt>
<trkpt lat="41.791217" lon="70.275762"><ele>1130.0</ele></trkpt>
<trkpt lat="41.790990" lon="70.275895"><ele>1129.2</ele></trkpt>
<trkpt lat="41.790897" lon="70.275925"><ele>1131.3</ele></trkpt>
<trkpt lat="41.790518" lon="70.276215"><ele>1128.8</ele></trkpt>
<trkpt lat="41.790293" lon="70.276345"><ele>1132.0</ele></trkpt>
<trkpt lat="41.789992" lon="70.276467"><ele>1130.4</ele></trkpt>
<trkpt lat="41.789888" lon="70.276485"><ele>1133.7</ele></trkpt>
<trkpt lat="41.789798" lon="70.276525"><ele>1137.0</ele></trkpt>
<trkpt lat="41.789720" lon="70.276608"><ele>1142.7</ele></trkpt>
<trkpt lat="41.789545" lon="70.276732"><ele>1155.5</ele></trkpt>
<trkpt lat="41.789458" lon="70.276768"><ele>1153.9</ele></trkpt>
<trkpt lat="41.789362" lon="70.277000"><ele>1147.8</ele></trkpt>
<trkpt lat="41.789395" lon="70.277113"><ele>1149.0</ele></trkpt>
<trkpt lat="41.789398" lon="70.277245"><ele>1184.5</ele></trkpt>
<trkpt lat="41.789325" lon="70.277318"><ele>1158.7</ele></trkpt>
<trkpt lat="41.789262" lon="70.277232"><ele>1158.3</ele></trkpt>
<trkpt lat="41.789182" lon="70.277335"><ele>1152.4</ele></trkpt>
<trkpt lat="41.789090" lon="70.277357"><ele>1153.5</ele></trkpt>
<trkpt lat="41.789002" lon="70.277415"><ele>1156.2</ele></trkpt>
<trkpt lat="41.788903" lon="70.277400"><ele>1156.9</ele></trkpt>
<trkpt lat="41.788832" lon="70.277477"><ele>1190.3</ele></trkpt>
<trkpt lat="41.788677" lon="70.277452"><ele>1186.9</ele></trkpt>
<trkpt lat="41.788585" lon="70.277467"><ele>1166.3</ele></trkpt>
<trkpt lat="41.788492" lon="70.277503"><ele>1161.6</ele></trkpt>
<trkpt lat="41.788313" lon="70.277613"><ele>1155.1</ele></trkpt>
<trkpt lat="41.788215" lon="70.277712"><ele>1153.0</ele></trkpt>
<trkpt lat="41.788170" lon="70.277818"><ele>1151.0</ele></trkpt>
<trkpt lat="41.787943" lon="70.278082"><ele>1157.2</ele></trkpt>
<trkpt lat="41.787772" lon="70.278183"><ele>1160.9</ele></trkpt>
<trkpt lat="41.787682" lon="70.278198"><ele>1163.9</ele></trkpt>
<trkpt lat="41.787597" lon="70.278257"><ele>1165.2</ele></trkpt>
<trkpt lat="41.787398" lon="70.278465"><ele>1165.7</ele></trkpt>
<trkpt lat="41.786878" lon="70.278707"><ele>1170.0</ele></trkpt>
<trkpt lat="41.786730" lon="70.278905"><ele>1170.0</ele></trkpt>
<trkpt lat="41.786568" lon="70.279080"><ele>1171.4</ele></trkpt>
<trkpt lat="41.786482" lon="70.279147"><ele>1170.7</ele></trkpt>
<trkpt lat="41.786373" lon="70.279158"><ele>1170.0</ele></trkpt>
<trkpt lat="41.786288" lon="70.279203"><ele>1170.2</ele></trkpt>
<trkpt lat="41.786113" lon="70.279365"><ele>1171.8</ele></trkpt>
<trkpt lat="41.785815" lon="70.279517"><ele>1167.2</ele></trkpt>
<trkpt lat="41.785617" lon="70.279602"><ele>1169.4</ele></trkpt>
<trkpt lat="41.785422" lon="70.279635"><ele>1169.5</ele></trkpt>
<trkpt lat="41.785290" lon="70.279818"><ele>1173.7</ele></trkpt>
<trkpt lat="41.785197" lon="70.279833"><ele>1181.1</ele></trkpt>
<trkpt lat="41.785123" lon="70.279917"><ele>1185.5</ele></trkpt>
<trkpt lat="41.785035" lon="70.279950"><ele>1189.4</ele></trkpt>
<trkpt lat="41.784953" lon="70.280035"><ele>1190.4</ele></trkpt>
<trkpt lat="41.784870" lon="70.280088"><ele>1192.8</ele></trkpt>
<trkpt lat="41.784595" lon="70.280128"><ele>1200.9</ele></trkpt>
<trkpt lat="41.784522" lon="70.280202"><ele>1202.9</ele></trkpt>
<trkpt lat="41.784348" lon="70.280295"><ele>1210.9</ele></trkpt>
<trkpt lat="41.784257" lon="70.280305"><ele>1212.7</ele></trkpt>
<trkpt lat="41.784188" lon="70.280388"><ele>1215.5</ele></trkpt>
<trkpt lat="41.784082" lon="70.280587"><ele>1222.7</ele></trkpt>
<trkpt lat="41.784065" lon="70.280705"><ele>1222.7</ele></trkpt>
<trkpt lat="41.783933" lon="70.280890"><ele>1232.3</ele></trkpt>
<trkpt lat="41.783850" lon="70.280942"><ele>1233.9</ele></trkpt>
<trkpt lat="41.783752" lon="70.280958"><ele>1235.7</ele></trkpt>
<trkpt lat="41.783535" lon="70.280930"><ele>1236.3</ele></trkpt>
<trkpt lat="41.783325" lon="70.281065"><ele>1244.9</ele></trkpt>
<trkpt lat="41.783235" lon="70.281155"><ele>1245.8</ele></trkpt>
<trkpt lat="41.783163" lon="70.281268"><ele>1244.8</ele></trkpt>
<trkpt lat="41.783118" lon="70.281390"><ele>1244.6</ele></trkpt>
<trkpt lat="41.782948" lon="70.281475"><ele>1245.8</ele></trkpt>
<trkpt lat="41.782755" lon="70.281523"><ele>1247.0</ele></trkpt>
<trkpt lat="41.782667" lon="70.281488"><ele>1246.9</ele></trkpt>
<trkpt lat="41.782575" lon="70.281512"><ele>1245.9</ele></trkpt>
<trkpt lat="41.782588" lon="70.281647"><ele>1285.9</ele></trkpt>
<trkpt lat="41.782503" lon="70.281688"><ele>1260.5</ele></trkpt>
<trkpt lat="41.782170" lon="70.281725"><ele>1237.7</ele></trkpt>
<trkpt lat="41.782052" lon="70.281663"><ele>1244.5</ele></trkpt>
<trkpt lat="41.782128" lon="70.281763"><ele>1237.7</ele></trkpt>
<trkpt lat="41.782095" lon="70.281878"><ele>1239.4</ele></trkpt>
<trkpt lat="41.782002" lon="70.281958"><ele>1239.3</ele></trkpt>
<trkpt lat="41.781960" lon="70.282165"><ele>1243.4</ele></trkpt>
<trkpt lat="41.781875" lon="70.282122"><ele>1240.9</ele></trkpt>
<trkpt lat="41.781828" lon="70.282228"><ele>1240.2</ele></trkpt>
<trkpt lat="41.781660" lon="70.282355"><ele>1240.9</ele></trkpt>
<trkpt lat="41.781642" lon="70.282488"><ele>1242.8</ele></trkpt>
<trkpt lat="41.781592" lon="70.282600"><ele>1244.7</ele></trkpt>
<trkpt lat="41.781508" lon="70.282677"><ele>1247.5</ele></trkpt>
<trkpt lat="41.781402" lon="70.282677"><ele>1248.7</ele></trkpt>
<trkpt lat="41.781183" lon="70.282825"><ele>1247.8</ele></trkpt>
<trkpt lat="41.781042" lon="70.283082"><ele>1242.8</ele></trkpt>
<trkpt lat="41.780920" lon="70.283105"><ele>1240.1</ele></trkpt>
<trkpt lat="41.780808" lon="70.283198"><ele>1238.0</ele></trkpt>
<trkpt lat="41.780642" lon="70.283422"><ele>1235.4</ele></trkpt>
<trkpt lat="41.780545" lon="70.283522"><ele>1237.7</ele></trkpt>
<trkpt lat="41.780443" lon="70.283622"><ele>1240.9</ele></trkpt>
<trkpt lat="41.780327" lon="70.283695"><ele>1244.0</ele></trkpt>
<trkpt lat="41.780237" lon="70.283805"><ele>1244.0</ele></trkpt>
<trkpt lat="41.780112" lon="70.283907"><ele>1244.3</ele></trkpt>
<trkpt lat="41.780077" lon="70.284060"><ele>1242.7</ele></trkpt>
<trkpt lat="41.780058" lon="70.284253"><ele>1240.6</ele></trkpt>
<trkpt lat="41.779927" lon="70.284347"><ele>1238.8</ele></trkpt>
<trkpt lat="41.779855" lon="70.284502"><ele>1236.3</ele></trkpt>
<trkpt lat="41.779842" lon="70.284655"><ele>1235.0</ele></trkpt>
<trkpt lat="41.779720" lon="70.284937"><ele>1233.1</ele></trkpt>
<trkpt lat="41.779673" lon="70.285090"><ele>1235.8</ele></trkpt>
<trkpt lat="41.779650" lon="70.285232"><ele>1237.6</ele></trkpt>
<trkpt lat="41.779580" lon="70.285372"><ele>1242.1</ele></trkpt>
<trkpt lat="41.779495" lon="70.285477"><ele>1246.1</ele></trkpt>
<trkpt lat="41.779440" lon="70.285617"><ele>1247.4</ele></trkpt>
<trkpt lat="41.779367" lon="70.285733"><ele>1250.9</ele></trkpt>
<trkpt lat="41.779263" lon="70.285850"><ele>1248.0</ele></trkpt>
<trkpt lat="41.779165" lon="70.286143"><ele>1250.0</ele></trkpt>
<trkpt lat="41.779198" lon="70.286262"><ele>1255.4</ele></trkpt>
<trkpt lat="41.779205" lon="70.286382"><ele>1282.0</ele></trkpt>
<trkpt lat="41.779177" lon="70.286500"><ele>1273.6</ele></trkpt>
<trkpt lat="41.779265" lon="70.286732"><ele>1268.3</ele></trkpt>
<trkpt lat="41.779330" lon="70.286832"><ele>1269.8</ele></trkpt>
<trkpt lat="41.779257" lon="70.286965"><ele>1262.3</ele></trkpt>
<trkpt lat="41.779153" lon="70.287057"><ele>1262.1</ele></trkpt>
<trkpt lat="41.779072" lon="70.287172"><ele>1262.6</ele></trkpt>
<trkpt lat="41.779113" lon="70.287652"><ele>1258.8</ele></trkpt>
<trkpt lat="41.779068" lon="70.287793"><ele>1255.6</ele></trkpt>
<trkpt lat="41.779060" lon="70.288132"><ele>1253.6</ele></trkpt>
<trkpt lat="41.779110" lon="70.288257"><ele>1255.9</ele></trkpt>
<trkpt lat="41.779127" lon="70.288387"><ele>1258.4</ele></trkpt>
<trkpt lat="41.779062" lon="70.288488"><ele>1258.5</ele></trkpt>
<trkpt lat="41.779043" lon="70.288608"><ele>1259.5</ele></trkpt>
<trkpt lat="41.778930" lon="70.288818"><ele>1266.6</ele></trkpt>
<trkpt lat="41.778908" lon="70.288940"><ele>1268.3</ele></trkpt>
<trkpt lat="41.778818" lon="70.288958"><ele>1268.7</ele></trkpt>
<trkpt lat="41.778775" lon="70.289068"><ele>1277.3</ele></trkpt>
<trkpt lat="41.778795" lon="70.289205"><ele>1280.4</ele></trkpt>
<trkpt lat="41.778747" lon="70.289308"><ele>1281.2</ele></trkpt>
<trkpt lat="41.778728" lon="70.289445"><ele>1281.6</ele></trkpt>
<trkpt lat="41.778693" lon="70.289563"><ele>1281.7</ele></trkpt>
<trkpt lat="41.778628" lon="70.289657"><ele>1281.9</ele></trkpt>
<trkpt lat="41.778485" lon="70.289988"><ele>1287.2</ele></trkpt>
<trkpt lat="41.778423" lon="70.290308"><ele>1288.1</ele></trkpt>
<trkpt lat="41.778255" lon="70.290553"><ele>1286.3</ele></trkpt>
<trkpt lat="41.778113" lon="70.290948"><ele>1284.8</ele></trkpt>
<trkpt lat="41.778095" lon="70.291082"><ele>1284.0</ele></trkpt>
<trkpt lat="41.778012" lon="70.291178"><ele>1283.4</ele></trkpt>
<trkpt lat="41.777967" lon="70.291298"><ele>1280.2</ele></trkpt>
<trkpt lat="41.777773" lon="70.291405"><ele>1280.1</ele></trkpt>
<trkpt lat="41.777630" lon="70.291663"><ele>1279.5</ele></trkpt>
<trkpt lat="41.777377" lon="70.291898"><ele>1284.0</ele></trkpt>
<trkpt lat="41.777312" lon="70.291987"><ele>1288.4</ele></trkpt>
<trkpt lat="41.777318" lon="70.292292"><ele>1292.2</ele></trkpt>
<trkpt lat="41.777285" lon="70.292593"><ele>1288.8</ele></trkpt>
<trkpt lat="41.777042" lon="70.292898"><ele>1290.7</ele></trkpt>
<trkpt lat="41.776868" lon="70.293057"><ele>1304.5</ele></trkpt>
<trkpt lat="41.776857" lon="70.293177"><ele>1304.3</ele></trkpt>
<trkpt lat="41.776918" lon="70.293267"><ele>1332.9</ele></trkpt>
<trkpt lat="41.776798" lon="70.293267"><ele>1322.0</ele></trkpt>
<trkpt lat="41.776632" lon="70.293460"><ele>1309.5</ele></trkpt>
<trkpt lat="41.776610" lon="70.293588"><ele>1303.3</ele></trkpt>
<trkpt lat="41.776518" lon="70.293710"><ele>1302.5</ele></trkpt>
<trkpt lat="41.776470" lon="70.293865"><ele>1300.0</ele></trkpt>
<trkpt lat="41.776370" lon="70.293953"><ele>1299.0</ele></trkpt>
<trkpt lat="41.776278" lon="70.294003"><ele>1301.7</ele></trkpt>
<trkpt lat="41.776197" lon="70.294118"><ele>1304.2</ele></trkpt>
<trkpt lat="41.776092" lon="70.294113"><ele>1305.5</ele></trkpt>
<trkpt lat="41.776017" lon="70.294202"><ele>1307.1</ele></trkpt>
<trkpt lat="41.775998" lon="70.294328"><ele>1305.9</ele></trkpt>
<trkpt lat="41.776052" lon="70.294432"><ele>1304.0</ele></trkpt>
<trkpt lat="41.775965" lon="70.294398"><ele>1303.3</ele></trkpt>
<trkpt lat="41.775938" lon="70.294517"><ele>1302.8</ele></trkpt>
<trkpt lat="41.775842" lon="70.294763"><ele>1305.0</ele></trkpt>
<trkpt lat="41.775648" lon="70.294827"><ele>1304.5</ele></trkpt>
<trkpt lat="41.775537" lon="70.294810"><ele>1305.8</ele></trkpt>
<trkpt lat="41.775453" lon="70.294870"><ele>1306.0</ele></trkpt>
<trkpt lat="41.775393" lon="70.294968"><ele>1307.6</ele></trkpt>
<trkpt lat="41.775218" lon="70.295042"><ele>1318.3</ele></trkpt>
<trkpt lat="41.775050" lon="70.295185"><ele>1318.4</ele></trkpt>
<trkpt lat="41.774945" lon="70.295163"><ele>1319.6</ele></trkpt>
<trkpt lat="41.774767" lon="70.295045"><ele>1341.0</ele></trkpt>
<trkpt lat="41.774682" lon="70.295090"><ele>1331.7</ele></trkpt>
<trkpt lat="41.774517" lon="70.295248"><ele>1323.8</ele></trkpt>
<trkpt lat="41.774428" lon="70.295303"><ele>1323.8</ele></trkpt>
<trkpt lat="41.774377" lon="70.295198"><ele>1320.2</ele></trkpt>
<trkpt lat="41.774282" lon="70.295152"><ele>1319.9</ele></trkpt>
<trkpt lat="41.774097" lon="70.295112"><ele>1329.4</ele></trkpt>
<trkpt lat="41.774007" lon="70.295063"><ele>1329.8</ele></trkpt>
<trkpt lat="41.773817" lon="70.295058"><ele>1336.1</ele></trkpt>
<trkpt lat="41.773628" lon="70.295013"><ele>1340.3</ele></trkpt>
<trkpt lat="41.773450" lon="70.295070"><ele>1342.9</ele></trkpt>
<trkpt lat="41.773418" lon="70.295232"><ele>1342.0</ele></trkpt>
<trkpt lat="41.773238" lon="70.295115"><ele>1345.4</ele></trkpt>
<trkpt lat="41.773023" lon="70.295127"><ele>1345.5</ele></trkpt>
<trkpt lat="41.772915" lon="70.295353"><ele>1340.3</ele></trkpt>
<trkpt lat="41.772823" lon="70.295347"><ele>1335.0</ele></trkpt>
<trkpt lat="41.772720" lon="70.295327"><ele>1339.2</ele></trkpt>
<trkpt lat="41.772528" lon="70.295253"><ele>1342.7</ele></trkpt>
<trkpt lat="41.772403" lon="70.295247"><ele>1343.3</ele></trkpt>
<trkpt lat="41.772312" lon="70.295170"><ele>1345.1</ele></trkpt>
<trkpt lat="41.772100" lon="70.295045"><ele>1350.9</ele></trkpt>
<trkpt lat="41.771898" lon="70.295012"><ele>1356.5</ele></trkpt>
<trkpt lat="41.771712" lon="70.294955"><ele>1360.4</ele></trkpt>
<trkpt lat="41.771630" lon="70.294868"><ele>1361.7</ele></trkpt>
<trkpt lat="41.771443" lon="70.294895"><ele>1364.4</ele></trkpt>
<trkpt lat="41.771350" lon="70.294938"><ele>1365.8</ele></trkpt>
<trkpt lat="41.771115" lon="70.295145"><ele>1370.6</ele></trkpt>
<trkpt lat="41.771045" lon="70.295065"><ele>1371.6</ele></trkpt>
<trkpt lat="41.770988" lon="70.294968"><ele>1374.0</ele></trkpt>
<trkpt lat="41.770897" lon="70.294910"><ele>1375.6</ele></trkpt>
<trkpt lat="41.770805" lon="70.294895"><ele>1377.6</ele></trkpt>
<trkpt lat="41.770717" lon="70.294928"><ele>1381.3</ele></trkpt>
<trkpt lat="41.770642" lon="70.294862"><ele>1385.1</ele></trkpt>
<trkpt lat="41.770590" lon="70.294963"><ele>1386.2</ele></trkpt>
<trkpt lat="41.770407" lon="70.294943"><ele>1387.3</ele></trkpt>
<trkpt lat="41.770317" lon="70.295003"><ele>1387.2</ele></trkpt>
<trkpt lat="41.770223" lon="70.295005"><ele>1387.2</ele></trkpt>
<trkpt lat="41.770130" lon="70.295290"><ele>1387.9</ele></trkpt>
<trkpt lat="41.770018" lon="70.295313"><ele>1387.8</ele></trkpt>
<trkpt lat="41.769837" lon="70.295277"><ele>1390.5</ele></trkpt>
<trkpt lat="41.769775" lon="70.295130"><ele>1390.4</ele></trkpt>
<trkpt lat="41.769657" lon="70.295072"><ele>1390.3</ele></trkpt>
<trkpt lat="41.769553" lon="70.295130"><ele>1388.5</ele></trkpt>
<trkpt lat="41.769457" lon="70.295138"><ele>1389.4</ele></trkpt>
<trkpt lat="41.769230" lon="70.295243"><ele>1389.1</ele></trkpt>
<trkpt lat="41.769130" lon="70.295313"><ele>1388.8</ele></trkpt>
<trkpt lat="41.769018" lon="70.295347"><ele>1389.8</ele></trkpt>
<trkpt lat="41.768887" lon="70.295318"><ele>1390.5</ele></trkpt>
<trkpt lat="41.768797" lon="70.295357"><ele>1393.2</ele></trkpt>
<trkpt lat="41.768703" lon="70.295322"><ele>1396.7</ele></trkpt>
<trkpt lat="41.768545" lon="70.295182"><ele>1399.0</ele></trkpt>
<trkpt lat="41.768448" lon="70.295172"><ele>1399.7</ele></trkpt>
<trkpt lat="41.768337" lon="70.295237"><ele>1399.7</ele></trkpt>
<trkpt lat="41.768150" lon="70.295235"><ele>1401.7</ele></trkpt>
<trkpt lat="41.768058" lon="70.295268"><ele>1404.3</ele></trkpt>
<trkpt lat="41.767878" lon="70.295202"><ele>1406.7</ele></trkpt>
<trkpt lat="41.767787" lon="70.295205"><ele>1409.7</ele></trkpt>
<trkpt lat="41.767670" lon="70.295140"><ele>1409.9</ele></trkpt>
<trkpt lat="41.767582" lon="70.295055"><ele>1412.0</ele></trkpt>
<trkpt lat="41.767498" lon="70.295008"><ele>1413.3</ele></trkpt>
<trkpt lat="41.767395" lon="70.295055"><ele>1419.1</ele></trkpt>
<trkpt lat="41.767375" lon="70.294803"><ele>1427.3</ele></trkpt>
<trkpt lat="41.767337" lon="70.294690"><ele>1443.9</ele></trkpt>
<trkpt lat="41.767182" lon="70.294823"><ele>1448.0</ele></trkpt>
<trkpt lat="41.767075" lon="70.294770"><ele>1447.1</ele></trkpt>
<trkpt lat="41.766975" lon="70.294748"><ele>1446.3</ele></trkpt>
<trkpt lat="41.766757" lon="70.294772"><ele>1445.0</ele></trkpt>
<trkpt lat="41.766463" lon="70.294675"><ele>1446.0</ele></trkpt>
<trkpt lat="41.766265" lon="70.294660"><ele>1446.9</ele></trkpt>
<trkpt lat="41.766178" lon="70.294575"><ele>1448.0</ele></trkpt>
<trkpt lat="41.765897" lon="70.294592"><ele>1456.6</ele></trkpt>
<trkpt lat="41.765727" lon="70.294422"><ele>1458.4</ele></trkpt>
<trkpt lat="41.765660" lon="70.294170"><ele>1463.7</ele></trkpt>
<trkpt lat="41.765593" lon="70.294080"><ele>1466.0</ele></trkpt>
<trkpt lat="41.765498" lon="70.294043"><ele>1468.1</ele></trkpt>
<trkpt lat="41.765335" lon="70.293895"><ele>1474.1</ele></trkpt>
<trkpt lat="41.765137" lon="70.293808"><ele>1477.4</ele></trkpt>
<trkpt lat="41.765045" lon="70.293802"><ele>1478.8</ele></trkpt>
<trkpt lat="41.764988" lon="70.293908"><ele>1480.0</ele></trkpt>
<trkpt lat="41.764872" lon="70.293930"><ele>1479.0</ele></trkpt>
<trkpt lat="41.764935" lon="70.294018"><ele>1476.5</ele></trkpt>
<trkpt lat="41.764977" lon="70.294127"><ele>1474.6</ele></trkpt>
<trkpt lat="41.764968" lon="70.293992"><ele>1475.1</ele></trkpt>
<trkpt lat="41.765010" lon="70.294235"><ele>1474.3</ele></trkpt>
<trkpt lat="41.765050" lon="70.294373"><ele>1478.6</ele></trkpt>
<trkpt lat="41.765048" lon="70.294250"><ele>1477.6</ele></trkpt>
<trkpt lat="41.765112" lon="70.294338"><ele>1480.0</ele></trkpt>
<trkpt lat="41.765085" lon="70.294468"><ele>1485.3</ele></trkpt>
<trkpt lat="41.765175" lon="70.294492"><ele>1485.1</ele></trkpt>
<trkpt lat="41.765230" lon="70.294595"><ele>1488.3</ele></trkpt>
<trkpt lat="41.765248" lon="70.294718"><ele>1492.9</ele></trkpt>
<trkpt lat="41.765323" lon="70.294643"><ele>1495.1</ele></trkpt>
<trkpt lat="41.765357" lon="70.294763"><ele>1497.1</ele></trkpt>
<trkpt lat="41.765418" lon="70.294857"><ele>1498.0</ele></trkpt>
<trkpt lat="41.765313" lon="70.294823"><ele>1505.0</ele></trkpt>
<trkpt lat="41.765390" lon="70.294887"><ele>1503.6</ele></trkpt>
<trkpt lat="41.765445" lon="70.294998"><ele>1504.2</ele></trkpt>
<trkpt lat="41.765515" lon="70.295077"><ele>1504.0</ele></trkpt>
<trkpt lat="41.765517" lon="70.294952"><ele>1505.0</ele></trkpt>
<trkpt lat="41.765578" lon="70.294840"><ele>1502.3</ele></trkpt>
<trkpt lat="41.765548" lon="70.294592"><ele>1503.2</ele></trkpt>
<trkpt lat="41.765593" lon="70.293313"><ele>1509.7</ele></trkpt>
<trkpt lat="41.765845" lon="70.292873"><ele>1510.8</ele></trkpt>
<trkpt lat="41.765762" lon="70.292733"><ele>1508.9</ele></trkpt>
<trkpt lat="41.765668" lon="70.292765"><ele>1504.2</ele></trkpt>
<trkpt lat="41.765570" lon="70.292763"><ele>1498.9</ele></trkpt>
<trkpt lat="41.765472" lon="70.292693"><ele>1498.5</ele></trkpt>
<trkpt lat="41.765615" lon="70.292700"><ele>1498.6</ele></trkpt>
<trkpt lat="41.765428" lon="70.292798"><ele>1495.4</ele></trkpt>
<trkpt lat="41.765525" lon="70.292778"><ele>1494.5</ele></trkpt>
<trkpt lat="41.765393" lon="70.292493"><ele>1552.7</ele></trkpt>
<trkpt lat="41.765280" lon="70.292538"><ele>1499.1</ele></trkpt>
<trkpt lat="41.764968" lon="70.292522"><ele>1505.5</ele></trkpt>
<trkpt lat="41.765318" lon="70.292523"><ele>1520.2</ele></trkpt>
<trkpt lat="41.765260" lon="70.292363"><ele>1530.1</ele></trkpt>
<trkpt lat="41.765185" lon="70.292283"><ele>1534.4</ele></trkpt>
<trkpt lat="41.765437" lon="70.292317"><ele>1529.5</ele></trkpt>
<trkpt lat="41.765773" lon="70.292420"><ele>1545.0</ele></trkpt>
<trkpt lat="41.765387" lon="70.292513"><ele>1554.5</ele></trkpt>
<trkpt lat="41.765617" lon="70.292558"><ele>1553.8</ele></trkpt>
<trkpt lat="41.765703" lon="70.292598"><ele>1554.7</ele></trkpt>
<trkpt lat="41.765605" lon="70.292620"><ele>1553.0</ele></trkpt>
<trkpt lat="41.765480" lon="70.292567"><ele>1552.6</ele></trkpt>
<trkpt lat="41.765223" lon="70.292537"><ele>1550.5</ele></trkpt>
<trkpt lat="41.765568" lon="70.292428"><ele>1551.3</ele></trkpt>
<trkpt lat="41.765530" lon="70.292543"><ele>1551.9</ele></trkpt>
<trkpt lat="41.765410" lon="70.292562"><ele>1552.2</ele></trkpt>
<trkpt lat="41.765532" lon="70.292543"><ele>1553.1</ele></trkpt>
<trkpt lat="41.765328" lon="70.292595"><ele>1546.4</ele></trkpt>
<trkpt lat="41.765222" lon="70.292523"><ele>1584.6</ele></trkpt>
<trkpt lat="41.765337" lon="70.292558"><ele>1592.1</ele></trkpt>
<trkpt lat="41.765540" lon="70.292682"><ele>1509.2</ele></trkpt>
<trkpt lat="41.765445" lon="70.292663"><ele>1504.2</ele></trkpt>
<trkpt lat="41.765458" lon="70.292793"><ele>1514.7</ele></trkpt>
<trkpt lat="41.765655" lon="70.292797"><ele>1537.2</ele></trkpt>
<trkpt lat="41.765693" lon="70.292640"><ele>1545.8</ele></trkpt>
<trkpt lat="41.765778" lon="70.292775"><ele>1555.6</ele></trkpt>
<trkpt lat="41.765718" lon="70.292677"><ele>1559.4</ele></trkpt>
<trkpt lat="41.765618" lon="70.292697"><ele>1557.7</ele></trkpt>
<trkpt lat="41.765697" lon="70.292765"><ele>1544.0</ele></trkpt>
<trkpt lat="41.765655" lon="70.292658"><ele>1535.1</ele></trkpt>
<trkpt lat="41.765720" lon="70.292743"><ele>1535.4</ele></trkpt>
<trkpt lat="41.765882" lon="70.292698"><ele>1541.1</ele></trkpt>
<trkpt lat="41.765640" lon="70.292520"><ele>1541.0</ele></trkpt>
<trkpt lat="41.765497" lon="70.292760"><ele>1540.9</ele></trkpt>
<trkpt lat="41.765275" lon="70.292688"><ele>1541.0</ele></trkpt>
<trkpt lat="41.765368" lon="70.292648"><ele>1540.9</ele></trkpt>
<trkpt lat="41.765443" lon="70.292805"><ele>1542.4</ele></trkpt>
<trkpt lat="41.765422" lon="70.292990"><ele>1543.5</ele></trkpt>
<trkpt lat="41.765332" lon="70.292960"><ele>1544.4</ele></trkpt>
<trkpt lat="41.765428" lon="70.292707"><ele>1554.8</ele></trkpt>
<trkpt lat="41.765528" lon="70.292678"><ele>1556.4</ele></trkpt>
<trkpt lat="41.765615" lon="70.292840"><ele>1555.3</ele></trkpt>
<trkpt lat="41.765420" lon="70.292778"><ele>1554.3</ele></trkpt>
<trkpt lat="41.765512" lon="70.292785"><ele>1550.5</ele></trkpt>
<trkpt lat="41.765588" lon="70.292722"><ele>1550.8</ele></trkpt>
<trkpt lat="41.765490" lon="70.292700"><ele>1550.5</ele></trkpt>
<trkpt lat="41.765422" lon="70.292797"><ele>1550.3</ele></trkpt>
<trkpt lat="41.765258" lon="70.292808"><ele>1550.1</ele></trkpt>
<trkpt lat="41.765443" lon="70.292715"><ele>1549.8</ele></trkpt>
<trkpt lat="41.765532" lon="70.292752"><ele>1550.3</ele></trkpt>
<trkpt lat="41.765305" lon="70.292830"><ele>1550.3</ele></trkpt>
<trkpt lat="41.765260" lon="70.292700"><ele>1550.2</ele></trkpt>
<trkpt lat="41.765190" lon="70.292620"><ele>1550.4</ele></trkpt>
<trkpt lat="41.765423" lon="70.292753"><ele>1560.4</ele></trkpt>
<trkpt lat="41.765568" lon="70.292763"><ele>1555.1</ele></trkpt>
<trkpt lat="41.765295" lon="70.292873"><ele>1563.6</ele></trkpt>
<trkpt lat="41.765393" lon="70.292855"><ele>1560.5</ele></trkpt>
<trkpt lat="41.765393" lon="70.292727"><ele>1562.6</ele></trkpt>
<trkpt lat="41.765458" lon="70.292815"><ele>1555.4</ele></trkpt>
<trkpt lat="41.765230" lon="70.292687"><ele>1566.0</ele></trkpt>
<trkpt lat="41.765198" lon="70.292563"><ele>1576.3</ele></trkpt>
<trkpt lat="41.765265" lon="70.292665"><ele>1577.9</ele></trkpt>
<trkpt lat="41.764890" lon="70.292673"><ele>1591.3</ele></trkpt>
<trkpt lat="41.765510" lon="70.292515"><ele>1605.8</ele></trkpt>
<trkpt lat="41.765432" lon="70.292580"><ele>1605.8</ele></trkpt>
<trkpt lat="41.765327" lon="70.292568"><ele>1605.9</ele></trkpt>
<trkpt lat="41.765560" lon="70.292723"><ele>1604.8</ele></trkpt>
<trkpt lat="41.765377" lon="70.292632"><ele>1599.5</ele></trkpt>
<trkpt lat="41.765480" lon="70.292628"><ele>1596.4</ele></trkpt>
<trkpt lat="41.765367" lon="70.292743"><ele>1581.9</ele></trkpt>
<trkpt lat="41.765233" lon="70.292795"><ele>1575.3</ele></trkpt>
<trkpt lat="41.765262" lon="70.292910"><ele>1567.5</ele></trkpt>
<trkpt lat="41.765173" lon="70.292885"><ele>1565.5</ele></trkpt>
<trkpt lat="41.765037" lon="70.292937"><ele>1566.7</ele></trkpt>
<trkpt lat="41.764958" lon="70.293073"><ele>1569.0</ele></trkpt>
<trkpt lat="41.764972" lon="70.293262"><ele>1576.3</ele></trkpt>
<trkpt lat="41.765060" lon="70.293428"><ele>1578.7</ele></trkpt>
<trkpt lat="41.764802" lon="70.293683"><ele>1576.6</ele></trkpt>
<trkpt lat="41.764702" lon="70.293727"><ele>1579.0</ele></trkpt>
<trkpt lat="41.764875" lon="70.294008"><ele>1577.5</ele></trkpt>
<trkpt lat="41.764868" lon="70.294138"><ele>1576.1</ele></trkpt>
<trkpt lat="41.764787" lon="70.294085"><ele>1555.3</ele></trkpt>
<trkpt lat="41.764815" lon="70.294217"><ele>1538.5</ele></trkpt>
<trkpt lat="41.764765" lon="70.294088"><ele>1533.6</ele></trkpt>
<trkpt lat="41.764803" lon="70.293912"><ele>1530.5</ele></trkpt>
<trkpt lat="41.764728" lon="70.293840"><ele>1526.2</ele></trkpt>
<trkpt lat="41.764597" lon="70.293768"><ele>1523.9</ele></trkpt>
<trkpt lat="41.764528" lon="70.293573"><ele>1520.4</ele></trkpt>
<trkpt lat="41.764440" lon="70.293520"><ele>1520.5</ele></trkpt>
<trkpt lat="41.764340" lon="70.293272"><ele>1518.6</ele></trkpt>
<trkpt lat="41.764355" lon="70.293490"><ele>1515.4</ele></trkpt>
<trkpt lat="41.764312" lon="70.293657"><ele>1513.7</ele></trkpt>
<trkpt lat="41.764222" lon="70.293680"><ele>1506.8</ele></trkpt>
<trkpt lat="41.764142" lon="70.293615"><ele>1505.2</ele></trkpt>
<trkpt lat="41.763943" lon="70.293267"><ele>1503.5</ele></trkpt>
<trkpt lat="41.763945" lon="70.293395"><ele>1503.1</ele></trkpt>
<trkpt lat="41.763847" lon="70.293448"><ele>1503.0</ele></trkpt>
<trkpt lat="41.763635" lon="70.293428"><ele>1514.8</ele></trkpt>
<trkpt lat="41.763548" lon="70.293355"><ele>1525.3</ele></trkpt>
<trkpt lat="41.763403" lon="70.293577"><ele>1527.2</ele></trkpt>
<trkpt lat="41.763315" lon="70.293637"><ele>1527.7</ele></trkpt>
<trkpt lat="41.763258" lon="70.293737"><ele>1530.0</ele></trkpt>
<trkpt lat="41.763172" lon="70.293785"><ele>1532.2</ele></trkpt>
<trkpt lat="41.763223" lon="70.293898"><ele>1528.2</ele></trkpt>
<trkpt lat="41.763317" lon="70.294013"><ele>1527.8</ele></trkpt>
<trkpt lat="41.763252" lon="70.294107"><ele>1516.7</ele></trkpt>
<trkpt lat="41.763073" lon="70.294200"><ele>1507.8</ele></trkpt>
<trkpt lat="41.762997" lon="70.294265"><ele>1508.0</ele></trkpt>
<trkpt lat="41.762978" lon="70.294392"><ele>1509.5</ele></trkpt>
<trkpt lat="41.763033" lon="70.294492"><ele>1515.0</ele></trkpt>
<trkpt lat="41.762943" lon="70.294472"><ele>1518.0</ele></trkpt>
<trkpt lat="41.762865" lon="70.294408"><ele>1519.3</ele></trkpt>
<trkpt lat="41.762783" lon="70.294467"><ele>1521.0</ele></trkpt>
<trkpt lat="41.762662" lon="70.294657"><ele>1528.2</ele></trkpt>
<trkpt lat="41.762565" lon="70.294690"><ele>1532.0</ele></trkpt>
<trkpt lat="41.762403" lon="70.294832"><ele>1539.2</ele></trkpt>
<trkpt lat="41.762360" lon="70.294942"><ele>1544.7</ele></trkpt>
<trkpt lat="41.762285" lon="70.295022"><ele>1549.3</ele></trkpt>
<trkpt lat="41.762195" lon="70.295058"><ele>1550.8</ele></trkpt>
<trkpt lat="41.762028" lon="70.295165"><ele>1555.7</ele></trkpt>
<trkpt lat="41.761937" lon="70.295178"><ele>1560.3</ele></trkpt>
<trkpt lat="41.761857" lon="70.295235"><ele>1566.6</ele></trkpt>
<trkpt lat="41.761767" lon="70.295243"><ele>1569.5</ele></trkpt>
<trkpt lat="41.761653" lon="70.295200"><ele>1575.8</ele></trkpt>
<trkpt lat="41.761558" lon="70.295195"><ele>1580.2</ele></trkpt>
<trkpt lat="41.761515" lon="70.295082"><ele>1584.3</ele></trkpt>
<trkpt lat="41.761492" lon="70.294965"><ele>1589.6</ele></trkpt>
<trkpt lat="41.761513" lon="70.294843"><ele>1594.1</ele></trkpt>
<trkpt lat="41.761430" lon="70.294898"><ele>1602.6</ele></trkpt>
<trkpt lat="41.761397" lon="70.295015"><ele>1608.3</ele></trkpt>
<trkpt lat="41.761033" lon="70.295462"><ele>1613.4</ele></trkpt>
<trkpt lat="41.760932" lon="70.295557"><ele>1615.7</ele></trkpt>
<trkpt lat="41.760877" lon="70.295675"><ele>1618.0</ele></trkpt>
<trkpt lat="41.760878" lon="70.295828"><ele>1622.0</ele></trkpt>
<trkpt lat="41.760898" lon="70.295978"><ele>1625.4</ele></trkpt>
<trkpt lat="41.760835" lon="70.296088"><ele>1627.6</ele></trkpt>
<trkpt lat="41.760767" lon="70.296167"><ele>1628.1</ele></trkpt>
<trkpt lat="41.760550" lon="70.296275"><ele>1628.1</ele></trkpt>
<trkpt lat="41.760407" lon="70.296780"><ele>1628.6</ele></trkpt>
<trkpt lat="41.760300" lon="70.296980"><ele>1632.8</ele></trkpt>
<trkpt lat="41.760280" lon="70.297230"><ele>1636.9</ele></trkpt>
<trkpt lat="41.760302" lon="70.297645"><ele>1642.8</ele></trkpt>
<trkpt lat="41.760270" lon="70.297768"><ele>1644.3</ele></trkpt>
<trkpt lat="41.760215" lon="70.297873"><ele>1645.7</ele></trkpt>
<trkpt lat="41.760185" lon="70.297997"><ele>1647.0</ele></trkpt>
<trkpt lat="41.760180" lon="70.298120"><ele>1648.9</ele></trkpt>
<trkpt lat="41.760112" lon="70.298200"><ele>1650.8</ele></trkpt>
<trkpt lat="41.760028" lon="70.298255"><ele>1652.0</ele></trkpt>
<trkpt lat="41.759932" lon="70.298255"><ele>1652.3</ele></trkpt>
<trkpt lat="41.759673" lon="70.298345"><ele>1653.6</ele></trkpt>
<trkpt lat="41.759482" lon="70.298437"><ele>1654.0</ele></trkpt>
<trkpt lat="41.759398" lon="70.298510"><ele>1654.1</ele></trkpt>
<trkpt lat="41.759223" lon="70.298508"><ele>1686.8</ele></trkpt>
<trkpt lat="41.759215" lon="70.298642"><ele>1700.4</ele></trkpt>
<trkpt lat="41.759108" lon="70.298728"><ele>1693.9</ele></trkpt>
<trkpt lat="41.759002" lon="70.298947"><ele>1678.8</ele></trkpt>
<trkpt lat="41.758972" lon="70.299063"><ele>1671.5</ele></trkpt>
<trkpt lat="41.758917" lon="70.299165"><ele>1662.5</ele></trkpt>
<trkpt lat="41.758748" lon="70.299333"><ele>1650.6</ele></trkpt>
<trkpt lat="41.758642" lon="70.299385"><ele>1646.0</ele></trkpt>
<trkpt lat="41.758595" lon="70.299500"><ele>1641.9</ele></trkpt>
<trkpt lat="41.758373" lon="70.299645"><ele>1637.7</ele></trkpt>
<trkpt lat="41.758288" lon="70.299685"><ele>1637.1</ele></trkpt>
<trkpt lat="41.758177" lon="70.299697"><ele>1636.1</ele></trkpt>
<trkpt lat="41.758085" lon="70.299737"><ele>1635.4</ele></trkpt>
<trkpt lat="41.757970" lon="70.299732"><ele>1636.9</ele></trkpt>
<trkpt lat="41.757780" lon="70.299698"><ele>1638.8</ele></trkpt>
<trkpt lat="41.757695" lon="70.299600"><ele>1641.5</ele></trkpt>
<trkpt lat="41.757677" lon="70.299720"><ele>1647.6</ele></trkpt>
<trkpt lat="41.757593" lon="70.299665"><ele>1649.6</ele></trkpt>
<trkpt lat="41.757493" lon="70.299688"><ele>1650.1</ele></trkpt>
<trkpt lat="41.757422" lon="70.299763"><ele>1654.0</ele></trkpt>
<trkpt lat="41.757300" lon="70.299728"><ele>1657.3</ele></trkpt>
<trkpt lat="41.757243" lon="70.299827"><ele>1657.9</ele></trkpt>
<trkpt lat="41.757155" lon="70.299800"><ele>1660.3</ele></trkpt>
<trkpt lat="41.757057" lon="70.299765"><ele>1662.3</ele></trkpt>
<trkpt lat="41.756885" lon="70.299643"><ele>1666.8</ele></trkpt>
<trkpt lat="41.756855" lon="70.299513"><ele>1668.6</ele></trkpt>
<trkpt lat="41.756807" lon="70.299410"><ele>1670.6</ele></trkpt>
<trkpt lat="41.756708" lon="70.299405"><ele>1671.5</ele></trkpt>
<trkpt lat="41.756617" lon="70.299425"><ele>1672.8</ele></trkpt>
<trkpt lat="41.756520" lon="70.299413"><ele>1674.5</ele></trkpt>
<trkpt lat="41.756618" lon="70.299410"><ele>1701.6</ele></trkpt>
<trkpt lat="41.756580" lon="70.299300"><ele>1687.8</ele></trkpt>
<trkpt lat="41.756512" lon="70.299192"><ele>1687.9</ele></trkpt>
<trkpt lat="41.756368" lon="70.299022"><ele>1687.7</ele></trkpt>
<trkpt lat="41.756148" lon="70.298920"><ele>1699.5</ele></trkpt>
<trkpt lat="41.756042" lon="70.298967"><ele>1698.3</ele></trkpt>
<trkpt lat="41.755955" lon="70.299058"><ele>1696.9</ele></trkpt>
<trkpt lat="41.755973" lon="70.299188"><ele>1696.8</ele></trkpt>
<trkpt lat="41.755912" lon="70.299318"><ele>1696.3</ele></trkpt>
<trkpt lat="41.755812" lon="70.299412"><ele>1698.0</ele></trkpt>
<trkpt lat="41.755698" lon="70.299480"><ele>1698.1</ele></trkpt>
<trkpt lat="41.755628" lon="70.299565"><ele>1699.2</ele></trkpt>
<trkpt lat="41.755518" lon="70.299807"><ele>1699.8</ele></trkpt>
<trkpt lat="41.755442" lon="70.299870"><ele>1700.2</ele></trkpt>
<trkpt lat="41.755317" lon="70.299890"><ele>1695.9</ele></trkpt>
<trkpt lat="41.755268" lon="70.300113"><ele>1717.1</ele></trkpt>
<trkpt lat="41.755292" lon="70.299990"><ele>1709.6</ele></trkpt>
<trkpt lat="41.755397" lon="70.299968"><ele>1706.9</ele></trkpt>
<trkpt lat="41.755480" lon="70.299917"><ele>1701.7</ele></trkpt>
<trkpt lat="41.755577" lon="70.299705"><ele>1706.7</ele></trkpt>
<trkpt lat="41.755492" lon="70.299480"><ele>1698.4</ele></trkpt>
<trkpt lat="41.755417" lon="70.299400"><ele>1697.2</ele></trkpt>
<trkpt lat="41.755363" lon="70.299302"><ele>1697.8</ele></trkpt>
<trkpt lat="41.755272" lon="70.299310"><ele>1701.1</ele></trkpt>
<trkpt lat="41.755215" lon="70.299408"><ele>1709.2</ele></trkpt>
<trkpt lat="41.755202" lon="70.299528"><ele>1714.5</ele></trkpt>
<trkpt lat="41.755225" lon="70.299645"><ele>1719.6</ele></trkpt>
<trkpt lat="41.755168" lon="70.299745"><ele>1723.1</ele></trkpt>
<trkpt lat="41.754983" lon="70.299710"><ele>1727.0</ele></trkpt>
<trkpt lat="41.754800" lon="70.299770"><ele>1732.5</ele></trkpt>
<trkpt lat="41.754713" lon="70.299820"><ele>1734.5</ele></trkpt>
<trkpt lat="41.754510" lon="70.300238"><ele>1737.6</ele></trkpt>
<trkpt lat="41.754430" lon="70.300298"><ele>1739.8</ele></trkpt>
<trkpt lat="41.754143" lon="70.300298"><ele>1740.8</ele></trkpt>
<trkpt lat="41.754037" lon="70.300247"><ele>1746.5</ele></trkpt>
<trkpt lat="41.753845" lon="70.300097"><ele>1748.6</ele></trkpt>
<trkpt lat="41.753577" lon="70.299752"><ele>1760.2</ele></trkpt>
<trkpt lat="41.753330" lon="70.299368"><ele>1767.1</ele></trkpt>
<trkpt lat="41.753252" lon="70.299298"><ele>1770.3</ele></trkpt>
<trkpt lat="41.753203" lon="70.299195"><ele>1772.7</ele></trkpt>
<trkpt lat="41.753133" lon="70.299113"><ele>1775.3</ele></trkpt>
<trkpt lat="41.753107" lon="70.298990"><ele>1775.6</ele></trkpt>
<trkpt lat="41.753028" lon="70.298772"><ele>1778.3</ele></trkpt>
<trkpt lat="41.752922" lon="70.298568"><ele>1785.5</ele></trkpt>
<trkpt lat="41.752840" lon="70.298345"><ele>1790.9</ele></trkpt>
<trkpt lat="41.752813" lon="70.298223"><ele>1794.5</ele></trkpt>
<trkpt lat="41.752828" lon="70.298103"><ele>1793.8</ele></trkpt>
<trkpt lat="41.752792" lon="70.297993"><ele>1799.2</ele></trkpt>
<trkpt lat="41.752627" lon="70.297548"><ele>1807.1</ele></trkpt>
<trkpt lat="41.752575" lon="70.297447"><ele>1810.0</ele></trkpt>
<trkpt lat="41.752513" lon="70.297203"><ele>1809.9</ele></trkpt>
<trkpt lat="41.752352" lon="70.296885"><ele>1813.3</ele></trkpt>
<trkpt lat="41.752315" lon="70.296772"><ele>1814.0</ele></trkpt>
<trkpt lat="41.752282" lon="70.296657"><ele>1813.7</ele></trkpt>
<trkpt lat="41.752260" lon="70.296412"><ele>1817.8</ele></trkpt>
<trkpt lat="41.752268" lon="70.296165"><ele>1822.2</ele></trkpt>
<trkpt lat="41.752398" lon="70.295995"><ele>1829.4</ele></trkpt>
<trkpt lat="41.752492" lon="70.295968"><ele>1832.0</ele></trkpt>
<trkpt lat="41.752587" lon="70.295982"><ele>1833.3</ele></trkpt>
<trkpt lat="41.752672" lon="70.296023"><ele>1835.2</ele></trkpt>
<trkpt lat="41.752815" lon="70.296182"><ele>1838.6</ele></trkpt>
<trkpt lat="41.752977" lon="70.296310"><ele>1842.0</ele></trkpt>
<trkpt lat="41.753113" lon="70.296477"><ele>1846.2</ele></trkpt>
<trkpt lat="41.753212" lon="70.296478"><ele>1853.8</ele></trkpt>
<trkpt lat="41.753395" lon="70.296533"><ele>1858.0</ele></trkpt>
<trkpt lat="41.753488" lon="70.296510"><ele>1861.4</ele></trkpt>
<trkpt lat="41.753567" lon="70.296440"><ele>1866.5</ele></trkpt>
<trkpt lat="41.753623" lon="70.296200"><ele>1870.0</ele></trkpt>
<trkpt lat="41.753642" lon="70.296072"><ele>1872.7</ele></trkpt>
<trkpt lat="41.753627" lon="70.295952"><ele>1874.9</ele></trkpt>
<trkpt lat="41.753660" lon="70.295838"><ele>1876.6</ele></trkpt>
<trkpt lat="41.754022" lon="70.295585"><ele>1886.1</ele></trkpt>
<trkpt lat="41.754308" lon="70.295423"><ele>1890.4</ele></trkpt>
<trkpt lat="41.754385" lon="70.295360"><ele>1890.6</ele></trkpt>
<trkpt lat="41.754503" lon="70.295155"><ele>1892.4</ele></trkpt>
<trkpt lat="41.754523" lon="70.295037"><ele>1893.1</ele></trkpt>
<trkpt lat="41.754525" lon="70.294902"><ele>1894.8</ele></trkpt>
<trkpt lat="41.754503" lon="70.294647"><ele>1899.2</ele></trkpt>
<trkpt lat="41.754487" lon="70.294147"><ele>1905.8</ele></trkpt>
<trkpt lat="41.754468" lon="70.293885"><ele>1910.1</ele></trkpt>
<trkpt lat="41.754445" lon="70.293757"><ele>1910.5</ele></trkpt>
<trkpt lat="41.754460" lon="70.293608"><ele>1912.2</ele></trkpt>
<trkpt lat="41.754442" lon="70.293467"><ele>1912.2</ele></trkpt>
<trkpt lat="41.754448" lon="70.293317"><ele>1911.0</ele></trkpt>
<trkpt lat="41.754370" lon="70.293033"><ele>1911.5</ele></trkpt>
<trkpt lat="41.754323" lon="70.292898"><ele>1913.9</ele></trkpt>
<trkpt lat="41.754008" lon="70.292572"><ele>1916.8</ele></trkpt>
<trkpt lat="41.753950" lon="70.292478"><ele>1918.7</ele></trkpt>
<trkpt lat="41.753697" lon="70.292298"><ele>1924.9</ele></trkpt>
<trkpt lat="41.753620" lon="70.292225"><ele>1928.9</ele></trkpt>
<trkpt lat="41.753530" lon="70.292173"><ele>1931.3</ele></trkpt>
<trkpt lat="41.753260" lon="70.292075"><ele>1932.7</ele></trkpt>
<trkpt lat="41.753098" lon="70.291933"><ele>1938.0</ele></trkpt>
<trkpt lat="41.752933" lon="70.291830"><ele>1941.5</ele></trkpt>
<trkpt lat="41.752660" lon="70.291707"><ele>1947.4</ele></trkpt>
<trkpt lat="41.752450" lon="70.291458"><ele>1951.2</ele></trkpt>
<trkpt lat="41.752367" lon="70.291405"><ele>1951.7</ele></trkpt>
<trkpt lat="41.752223" lon="70.291223"><ele>1956.1</ele></trkpt>
<trkpt lat="41.752068" lon="70.291082"><ele>1958.1</ele></trkpt>
<trkpt lat="41.752003" lon="70.290987"><ele>1961.1</ele></trkpt>
<trkpt lat="41.751923" lon="70.290907"><ele>1964.4</ele></trkpt>
<trkpt lat="41.751750" lon="70.290813"><ele>1966.2</ele></trkpt>
<trkpt lat="41.751475" lon="70.290800"><ele>1970.6</ele></trkpt>
<trkpt lat="41.751085" lon="70.290707"><ele>1973.9</ele></trkpt>
<trkpt lat="41.750932" lon="70.290572"><ele>1975.6</ele></trkpt>
<trkpt lat="41.750895" lon="70.290447"><ele>1976.9</ele></trkpt>
<trkpt lat="41.750887" lon="70.290318"><ele>1979.9</ele></trkpt>
<trkpt lat="41.750840" lon="70.290173"><ele>1981.2</ele></trkpt>
<trkpt lat="41.750688" lon="70.289925"><ele>1979.6</ele></trkpt>
<trkpt lat="41.750635" lon="70.289795"><ele>1981.1</ele></trkpt>
<trkpt lat="41.750572" lon="70.289705"><ele>1981.1</ele></trkpt>
<trkpt lat="41.750530" lon="70.289593"><ele>1982.0</ele></trkpt>
<trkpt lat="41.750232" lon="70.289188"><ele>1980.5</ele></trkpt>
<trkpt lat="41.750147" lon="70.289127"><ele>1980.2</ele></trkpt>
<trkpt lat="41.750052" lon="70.288893"><ele>1983.0</ele></trkpt>
<trkpt lat="41.750143" lon="70.288888"><ele>2040.5</ele></trkpt>
<trkpt lat="41.750058" lon="70.288832"><ele>1983.2</ele></trkpt>
<trkpt lat="41.750008" lon="70.288718"><ele>1979.5</ele></trkpt>
<trkpt lat="41.749985" lon="70.288600"><ele>1977.0</ele></trkpt>
<trkpt lat="41.750122" lon="70.288083"><ele>1966.4</ele></trkpt>
<trkpt lat="41.750210" lon="70.288000"><ele>1963.8</ele></trkpt>
<trkpt lat="41.750200" lon="70.287865"><ele>1962.1</ele></trkpt>
<trkpt lat="41.750235" lon="70.287732"><ele>1959.3</ele></trkpt>
<trkpt lat="41.750338" lon="70.287605"><ele>1957.8</ele></trkpt>
<trkpt lat="41.750387" lon="70.287445"><ele>1959.0</ele></trkpt>
<trkpt lat="41.750410" lon="70.287305"><ele>1959.7</ele></trkpt>
<trkpt lat="41.750545" lon="70.287008"><ele>1961.1</ele></trkpt>
<trkpt lat="41.750585" lon="70.286878"><ele>1959.4</ele></trkpt>
<trkpt lat="41.750605" lon="70.286423"><ele>1958.1</ele></trkpt>
<trkpt lat="41.750603" lon="70.285983"><ele>1953.7</ele></trkpt>
<trkpt lat="41.750568" lon="70.285820"><ele>1954.3</ele></trkpt>
<trkpt lat="41.750628" lon="70.285543"><ele>1954.3</ele></trkpt>
<trkpt lat="41.750690" lon="70.285448"><ele>1955.9</ele></trkpt>
<trkpt lat="41.750733" lon="70.285338"><ele>1955.9</ele></trkpt>
<trkpt lat="41.750792" lon="70.285103"><ele>1960.6</ele></trkpt>
<trkpt lat="41.750800" lon="70.284970"><ele>1960.8</ele></trkpt>
<trkpt lat="41.750943" lon="70.284557"><ele>1958.2</ele></trkpt>
<trkpt lat="41.750948" lon="70.284263"><ele>1954.7</ele></trkpt>
<trkpt lat="41.750938" lon="70.284132"><ele>1953.5</ele></trkpt>
<trkpt lat="41.750912" lon="70.284017"><ele>1952.1</ele></trkpt>
<trkpt lat="41.750943" lon="70.283888"><ele>1951.2</ele></trkpt>
<trkpt lat="41.750957" lon="70.283467"><ele>1950.9</ele></trkpt>
<trkpt lat="41.751112" lon="70.283005"><ele>1956.5</ele></trkpt>
<trkpt lat="41.751118" lon="70.282883"><ele>1956.5</ele></trkpt>
<trkpt lat="41.751192" lon="70.282775"><ele>1956.8</ele></trkpt>
<trkpt lat="41.751220" lon="70.282647"><ele>1954.9</ele></trkpt>
<trkpt lat="41.751268" lon="70.282545"><ele>1952.9</ele></trkpt>
<trkpt lat="41.751268" lon="70.282417"><ele>1950.3</ele></trkpt>
<trkpt lat="41.751292" lon="70.282277"><ele>1949.3</ele></trkpt>
<trkpt lat="41.751542" lon="70.281732"><ele>1944.8</ele></trkpt>
<trkpt lat="41.751640" lon="70.281590"><ele>1943.9</ele></trkpt>
<trkpt lat="41.751683" lon="70.281450"><ele>1943.2</ele></trkpt>
<trkpt lat="41.751692" lon="70.281297"><ele>1941.0</ele></trkpt>
<trkpt lat="41.751663" lon="70.281153"><ele>1934.1</ele></trkpt>
<trkpt lat="41.751675" lon="70.281030"><ele>1933.9</ele></trkpt>
<trkpt lat="41.751770" lon="70.280752"><ele>1931.1</ele></trkpt>
<trkpt lat="41.751823" lon="70.280645"><ele>1929.9</ele></trkpt>
<trkpt lat="41.751815" lon="70.280513"><ele>1929.9</ele></trkpt>
<trkpt lat="41.751948" lon="70.280343"><ele>1937.1</ele></trkpt>
<trkpt lat="41.752063" lon="70.280007"><ele>1943.6</ele></trkpt>
<trkpt lat="41.752257" lon="70.280003"><ele>1947.5</ele></trkpt>
<trkpt lat="41.752338" lon="70.280080"><ele>1948.2</ele></trkpt>
<trkpt lat="41.752432" lon="70.280107"><ele>1950.8</ele></trkpt>
<trkpt lat="41.752625" lon="70.280112"><ele>1953.3</ele></trkpt>
<trkpt lat="41.752713" lon="70.280172"><ele>1956.9</ele></trkpt>
<trkpt lat="41.752757" lon="70.280052"><ele>1961.2</ele></trkpt>
<trkpt lat="41.752727" lon="70.279912"><ele>1959.3</ele></trkpt>
<trkpt lat="41.752750" lon="70.279780"><ele>1960.2</ele></trkpt>
<trkpt lat="41.752852" lon="70.279818"><ele>1963.3</ele></trkpt>
<trkpt lat="41.752927" lon="70.279945"><ele>1965.7</ele></trkpt>
<trkpt lat="41.753108" lon="70.280072"><ele>1966.1</ele></trkpt>
<trkpt lat="41.753217" lon="70.280110"><ele>1966.6</ele></trkpt>
<trkpt lat="41.753315" lon="70.279893"><ele>1967.4</ele></trkpt>
<trkpt lat="41.753657" lon="70.279595"><ele>1977.2</ele></trkpt>
<trkpt lat="41.753728" lon="70.279372"><ele>1976.1</ele></trkpt>
<trkpt lat="41.753853" lon="70.279192"><ele>1980.1</ele></trkpt>
<trkpt lat="41.754010" lon="70.279058"><ele>1987.8</ele></trkpt>
<trkpt lat="41.754070" lon="70.278963"><ele>1991.2</ele></trkpt>
<trkpt lat="41.754157" lon="70.278912"><ele>1991.2</ele></trkpt>
<trkpt lat="41.754313" lon="70.278773"><ele>1998.2</ele></trkpt>
<trkpt lat="41.754488" lon="70.278683"><ele>2002.6</ele></trkpt>
<trkpt lat="41.754637" lon="70.278535"><ele>2006.7</ele></trkpt>
<trkpt lat="41.754685" lon="70.278432"><ele>2006.8</ele></trkpt>
<trkpt lat="41.754882" lon="70.278305"><ele>2011.3</ele></trkpt>
<trkpt lat="41.755068" lon="70.278122"><ele>2009.6</ele></trkpt>
<trkpt lat="41.755247" lon="70.278020"><ele>2005.4</ele></trkpt>
<trkpt lat="41.755347" lon="70.277992"><ele>2007.6</ele></trkpt>
<trkpt lat="41.755500" lon="70.277845"><ele>2007.7</ele></trkpt>
<trkpt lat="41.755563" lon="70.277753"><ele>2011.5</ele></trkpt>
<trkpt lat="41.755765" lon="70.277670"><ele>2016.5</ele></trkpt>
<trkpt lat="41.755848" lon="70.277600"><ele>2017.9</ele></trkpt>
<trkpt lat="41.756068" lon="70.277538"><ele>2023.8</ele></trkpt>
<trkpt lat="41.756165" lon="70.277530"><ele>2021.2</ele></trkpt>
<trkpt lat="41.756393" lon="70.277443"><ele>2018.6</ele></trkpt>
<trkpt lat="41.756465" lon="70.277358"><ele>2019.4</ele></trkpt>
<trkpt lat="41.756567" lon="70.277380"><ele>2021.1</ele></trkpt>
<trkpt lat="41.756672" lon="70.277318"><ele>2021.0</ele></trkpt>
<trkpt lat="41.756775" lon="70.277327"><ele>2022.1</ele></trkpt>
<trkpt lat="41.756878" lon="70.277310"><ele>2023.2</ele></trkpt>
<trkpt lat="41.756965" lon="70.277272"><ele>2023.3</ele></trkpt>
<trkpt lat="41.757055" lon="70.277263"><ele>2025.3</ele></trkpt>
<trkpt lat="41.757103" lon="70.277368"><ele>2024.8</ele></trkpt>
<trkpt lat="41.757080" lon="70.277485"><ele>2025.9</ele></trkpt>
<trkpt lat="41.757075" lon="70.277610"><ele>2027.7</ele></trkpt>
<trkpt lat="41.757088" lon="70.277490"><ele>2030.1</ele></trkpt>
<trkpt lat="41.757213" lon="70.277302"><ele>2030.7</ele></trkpt>
<trkpt lat="41.757305" lon="70.277322"><ele>2034.2</ele></trkpt>
<trkpt lat="41.757312" lon="70.277447"><ele>2034.0</ele></trkpt>
<trkpt lat="41.757220" lon="70.277545"><ele>2030.3</ele></trkpt>
<trkpt lat="41.757227" lon="70.277672"><ele>2031.8</ele></trkpt>
<trkpt lat="41.757165" lon="70.277770"><ele>2029.6</ele></trkpt>
<trkpt lat="41.757162" lon="70.277902"><ele>2032.3</ele></trkpt>
<trkpt lat="41.757232" lon="70.278150"><ele>2034.4</ele></trkpt>
<trkpt lat="41.757393" lon="70.278292"><ele>2035.0</ele></trkpt>
<trkpt lat="41.757685" lon="70.278673"><ele>2041.4</ele></trkpt>
<trkpt lat="41.757760" lon="70.278913"><ele>2043.5</ele></trkpt>
<trkpt lat="41.757900" lon="70.279102"><ele>2041.8</ele></trkpt>
<trkpt lat="41.757953" lon="70.279203"><ele>2044.3</ele></trkpt>
<trkpt lat="41.757993" lon="70.279457"><ele>2045.0</ele></trkpt>
<trkpt lat="41.758063" lon="70.279537"><ele>2047.0</ele></trkpt>
<trkpt lat="41.758245" lon="70.279547"><ele>2049.8</ele></trkpt>
<trkpt lat="41.758335" lon="70.279605"><ele>2050.3</ele></trkpt>
<trkpt lat="41.758372" lon="70.279482"><ele>2053.5</ele></trkpt>
<trkpt lat="41.758432" lon="70.279390"><ele>2054.8</ele></trkpt>
<trkpt lat="41.758438" lon="70.279262"><ele>2052.7</ele></trkpt>
<trkpt lat="41.758603" lon="70.279120"><ele>2057.3</ele></trkpt>
<trkpt lat="41.758895" lon="70.278793"><ele>2066.0</ele></trkpt>
<trkpt lat="41.758950" lon="70.278893"><ele>2067.5</ele></trkpt>
<trkpt lat="41.759025" lon="70.278965"><ele>2070.0</ele></trkpt>
<trkpt lat="41.759122" lon="70.278987"><ele>2072.4</ele></trkpt>
<trkpt lat="41.759197" lon="70.279058"><ele>2074.1</ele></trkpt>
<trkpt lat="41.759275" lon="70.278997"><ele>2077.1</ele></trkpt>
<trkpt lat="41.759365" lon="70.279022"><ele>2082.2</ele></trkpt>
<trkpt lat="41.759452" lon="70.278985"><ele>2085.1</ele></trkpt>
<trkpt lat="41.759623" lon="70.279073"><ele>2089.9</ele></trkpt>
<trkpt lat="41.759695" lon="70.278998"><ele>2093.4</ele></trkpt>
<trkpt lat="41.759772" lon="70.279065"><ele>2094.9</ele></trkpt>
<trkpt lat="41.759880" lon="70.279067"><ele>2096.2</ele></trkpt>
<trkpt lat="41.759967" lon="70.279103"><ele>2101.5</ele></trkpt>
<trkpt lat="41.760037" lon="70.279023"><ele>2102.9</ele></trkpt>
<trkpt lat="41.760065" lon="70.278902"><ele>2104.7</ele></trkpt>
<trkpt lat="41.760157" lon="70.278890"><ele>2114.1</ele></trkpt>
<trkpt lat="41.760238" lon="70.278838"><ele>2114.7</ele></trkpt>
<trkpt lat="41.760313" lon="70.278758"><ele>2120.2</ele></trkpt>
<trkpt lat="41.760403" lon="70.278720"><ele>2128.3</ele></trkpt>
<trkpt lat="41.760495" lon="70.278732"><ele>2133.0</ele></trkpt>
<trkpt lat="41.760583" lon="70.278778"><ele>2137.4</ele></trkpt>
<trkpt lat="41.760677" lon="70.278752"><ele>2139.4</ele></trkpt>
<trkpt lat="41.760875" lon="70.278795"><ele>2150.4</ele></trkpt>
<trkpt lat="41.760958" lon="70.278850"><ele>2153.8</ele></trkpt>
<trkpt lat="41.761010" lon="70.278973"><ele>2158.1</ele></trkpt>
<trkpt lat="41.761088" lon="70.279040"><ele>2161.5</ele></trkpt>
<trkpt lat="41.761182" lon="70.279020"><ele>2165.0</ele></trkpt>
<trkpt lat="41.761258" lon="70.278952"><ele>2169.2</ele></trkpt>
<trkpt lat="41.761442" lon="70.278915"><ele>2167.1</ele></trkpt>
<trkpt lat="41.761522" lon="70.278972"><ele>2166.4</ele></trkpt>
<trkpt lat="41.761613" lon="70.278962"><ele>2174.5</ele></trkpt>
<trkpt lat="41.761695" lon="70.279013"><ele>2176.9</ele></trkpt>
<trkpt lat="41.761697" lon="70.278888"><ele>2181.6</ele></trkpt>
<trkpt lat="41.761777" lon="70.278827"><ele>2183.9</ele></trkpt>
<trkpt lat="41.761857" lon="70.278885"><ele>2184.7</ele></trkpt>
<trkpt lat="41.761760" lon="70.278533"><ele>2192.5</ele></trkpt>
<trkpt lat="41.761803" lon="70.278292"><ele>2196.8</ele></trkpt>
<trkpt lat="41.761807" lon="70.278170"><ele>2200.0</ele></trkpt>
<trkpt lat="41.761863" lon="70.278068"><ele>2198.3</ele></trkpt>
<trkpt lat="41.762042" lon="70.278132"><ele>2204.0</ele></trkpt>
<trkpt lat="41.762223" lon="70.278167"><ele>2214.0</ele></trkpt>
<trkpt lat="41.762312" lon="70.278133"><ele>2216.8</ele></trkpt>
<trkpt lat="41.762402" lon="70.278128"><ele>2216.4</ele></trkpt>
<trkpt lat="41.762682" lon="70.278147"><ele>2225.9</ele></trkpt>
<trkpt lat="41.762852" lon="70.278062"><ele>2234.3</ele></trkpt>
<trkpt lat="41.762908" lon="70.277957"><ele>2240.8</ele></trkpt>
<trkpt lat="41.762977" lon="70.277873"><ele>2240.2</ele></trkpt>
<trkpt lat="41.763007" lon="70.277757"><ele>2244.0</ele></trkpt>
<trkpt lat="41.762785" lon="70.277347"><ele>2251.7</ele></trkpt>
<trkpt lat="41.762705" lon="70.277117"><ele>2255.9</ele></trkpt>
<trkpt lat="41.762797" lon="70.277123"><ele>2266.4</ele></trkpt>
<trkpt lat="41.762965" lon="70.277260"><ele>2267.5</ele></trkpt>
<trkpt lat="41.763055" lon="70.277243"><ele>2265.5</ele></trkpt>
<trkpt lat="41.763333" lon="70.277328"><ele>2273.1</ele></trkpt>
<trkpt lat="41.763610" lon="70.277342"><ele>2278.2</ele></trkpt>
<trkpt lat="41.763785" lon="70.277402"><ele>2284.0</ele></trkpt>
<trkpt lat="41.763852" lon="70.277483"><ele>2286.1</ele></trkpt>
<trkpt lat="41.764032" lon="70.277600"><ele>2291.1</ele></trkpt>
<trkpt lat="41.764113" lon="70.277542"><ele>2295.5</ele></trkpt>
<trkpt lat="41.764135" lon="70.277422"><ele>2299.3</ele></trkpt>
<trkpt lat="41.764242" lon="70.277218"><ele>2306.7</ele></trkpt>
<trkpt lat="41.764322" lon="70.277157"><ele>2309.9</ele></trkpt>
<trkpt lat="41.764378" lon="70.277057"><ele>2312.7</ele></trkpt>
<trkpt lat="41.764467" lon="70.276997"><ele>2312.5</ele></trkpt>
<trkpt lat="41.764480" lon="70.276875"><ele>2315.4</ele></trkpt>
<trkpt lat="41.764530" lon="70.276770"><ele>2316.8</ele></trkpt>
<trkpt lat="41.764632" lon="70.276425"><ele>2320.7</ele></trkpt>
<trkpt lat="41.764725" lon="70.276378"><ele>2319.5</ele></trkpt>
<trkpt lat="41.764767" lon="70.276272"><ele>2321.1</ele></trkpt>
<trkpt lat="41.764943" lon="70.275983"><ele>2326.2</ele></trkpt>
<trkpt lat="41.765088" lon="70.275828"><ele>2327.4</ele></trkpt>
<trkpt lat="41.765142" lon="70.275720"><ele>2329.3</ele></trkpt>
<trkpt lat="41.765288" lon="70.275390"><ele>2331.6</ele></trkpt>
<trkpt lat="41.765305" lon="70.275270"><ele>2332.9</ele></trkpt>
<trkpt lat="41.765363" lon="70.275165"><ele>2332.1</ele></trkpt>
<trkpt lat="41.765395" lon="70.275050"><ele>2333.2</ele></trkpt>
<trkpt lat="41.765450" lon="70.274947"><ele>2334.6</ele></trkpt>
<trkpt lat="41.765487" lon="70.274832"><ele>2335.5</ele></trkpt>
<trkpt lat="41.765627" lon="70.274645"><ele>2335.2</ele></trkpt>
<trkpt lat="41.765832" lon="70.274053"><ele>2336.3</ele></trkpt>
<trkpt lat="41.765883" lon="70.273940"><ele>2338.5</ele></trkpt>
<trkpt lat="41.766010" lon="70.273747"><ele>2341.6</ele></trkpt>
<trkpt lat="41.766090" lon="70.273498"><ele>2341.9</ele></trkpt>
<trkpt lat="41.766150" lon="70.273362"><ele>2341.3</ele></trkpt>
<trkpt lat="41.766192" lon="70.273107"><ele>2343.4</ele></trkpt>
<trkpt lat="41.766305" lon="70.272880"><ele>2343.8</ele></trkpt>
<trkpt lat="41.766382" lon="70.272630"><ele>2345.4</ele></trkpt>
<trkpt lat="41.766405" lon="70.272513"><ele>2347.3</ele></trkpt>
<trkpt lat="41.766398" lon="70.272238"><ele>2347.8</ele></trkpt>
<trkpt lat="41.766435" lon="70.272118"><ele>2348.7</ele></trkpt>
<trkpt lat="41.766492" lon="70.272017"><ele>2348.3</ele></trkpt>
<trkpt lat="41.766540" lon="70.271753"><ele>2348.3</ele></trkpt>
<trkpt lat="41.766543" lon="70.271620"><ele>2349.8</ele></trkpt>
<trkpt lat="41.766620" lon="70.271365"><ele>2350.8</ele></trkpt>
<trkpt lat="41.766592" lon="70.271248"><ele>2352.4</ele></trkpt>
<trkpt lat="41.766598" lon="70.271123"><ele>2355.6</ele></trkpt>
<trkpt lat="41.766620" lon="70.270997"><ele>2353.9</ele></trkpt>
<trkpt lat="41.766665" lon="70.270885"><ele>2358.8</ele></trkpt>
<trkpt lat="41.766632" lon="70.270762"><ele>2361.3</ele></trkpt>
<trkpt lat="41.766667" lon="70.270645"><ele>2362.9</ele></trkpt>
<trkpt lat="41.766668" lon="70.270517"><ele>2361.6</ele></trkpt>
<trkpt lat="41.766753" lon="70.270295"><ele>2362.7</ele></trkpt>
<trkpt lat="41.766703" lon="70.270188"><ele>2361.4</ele></trkpt>
<trkpt lat="41.766677" lon="70.270070"><ele>2368.4</ele></trkpt>
<trkpt lat="41.766690" lon="70.269943"><ele>2374.6</ele></trkpt>
<trkpt lat="41.766783" lon="70.269943"><ele>2380.5</ele></trkpt>
<trkpt lat="41.766860" lon="70.269880"><ele>2383.7</ele></trkpt>
<trkpt lat="41.766917" lon="70.269783"><ele>2385.7</ele></trkpt>
<trkpt lat="41.767012" lon="70.269568"><ele>2388.1</ele></trkpt>
<trkpt lat="41.767088" lon="70.269210"><ele>2391.3</ele></trkpt>
<trkpt lat="41.767183" lon="70.269232"><ele>2393.3</ele></trkpt>
<trkpt lat="41.767362" lon="70.269173"><ele>2395.7</ele></trkpt>
<trkpt lat="41.767475" lon="70.269188"><ele>2400.7</ele></trkpt>
<trkpt lat="41.767580" lon="70.269262"><ele>2406.6</ele></trkpt>
<trkpt lat="41.767637" lon="70.269360"><ele>2412.0</ele></trkpt>
<trkpt lat="41.767737" lon="70.269387"><ele>2417.4</ele></trkpt>
<trkpt lat="41.767820" lon="70.269333"><ele>2421.9</ele></trkpt>
<trkpt lat="41.767965" lon="70.269317"><ele>2429.5</ele></trkpt>
<trkpt lat="41.768043" lon="70.269238"><ele>2435.0</ele></trkpt>
<trkpt lat="41.768133" lon="70.269223"><ele>2442.2</ele></trkpt>
<trkpt lat="41.768232" lon="70.269147"><ele>2445.2</ele></trkpt>
<trkpt lat="41.768497" lon="70.269163"><ele>2462.4</ele></trkpt>
<trkpt lat="41.768898" lon="70.269068"><ele>2482.1</ele></trkpt>
<trkpt lat="41.768992" lon="70.269107"><ele>2484.1</ele></trkpt>
<trkpt lat="41.769130" lon="70.269215"><ele>2489.4</ele></trkpt>
<trkpt lat="41.769220" lon="70.269250"><ele>2496.4</ele></trkpt>
<trkpt lat="41.769408" lon="70.269172"><ele>2508.4</ele></trkpt>
<trkpt lat="41.769595" lon="70.269137"><ele>2527.5</ele></trkpt>
<trkpt lat="41.769683" lon="70.269182"><ele>2536.0</ele></trkpt>
<trkpt lat="41.769800" lon="70.269133"><ele>2543.7</ele></trkpt>
<trkpt lat="41.769897" lon="70.269137"><ele>2551.8</ele></trkpt>
<trkpt lat="41.770015" lon="70.269175"><ele>2559.8</ele></trkpt>
<trkpt lat="41.770113" lon="70.269152"><ele>2565.3</ele></trkpt>
<trkpt lat="41.770205" lon="70.269158"><ele>2571.6</ele></trkpt>
<trkpt lat="41.770383" lon="70.269207"><ele>2580.0</ele></trkpt>
<trkpt lat="41.770573" lon="70.269143"><ele>2594.6</ele></trkpt>
<trkpt lat="41.770748" lon="70.269045"><ele>2606.4</ele></trkpt>
<trkpt lat="41.770838" lon="70.269058"><ele>2612.1</ele></trkpt>
<trkpt lat="41.770985" lon="70.269010"><ele>2627.1</ele></trkpt>
<trkpt lat="41.771070" lon="70.268928"><ele>2635.2</ele></trkpt>
<trkpt lat="41.771165" lon="70.268940"><ele>2643.4</ele></trkpt>
<trkpt lat="41.771257" lon="70.268867"><ele>2650.8</ele></trkpt>
<trkpt lat="41.771453" lon="70.268833"><ele>2659.2</ele></trkpt>
<trkpt lat="41.771713" lon="70.268577"><ele>2679.2</ele></trkpt>
<trkpt lat="41.771895" lon="70.268475"><ele>2685.1</ele></trkpt>
<trkpt lat="41.772117" lon="70.268230"><ele>2692.1</ele></trkpt>
<trkpt lat="41.772345" lon="70.267842"><ele>2702.6</ele></trkpt>
<trkpt lat="41.772438" lon="70.267830"><ele>2709.3</ele></trkpt>
<trkpt lat="41.772353" lon="70.267872"><ele>2710.8</ele></trkpt>
<trkpt lat="41.772450" lon="70.267932"><ele>2710.1</ele></trkpt>
<trkpt lat="41.772360" lon="70.267895"><ele>2705.6</ele></trkpt>
<trkpt lat="41.772312" lon="70.267785"><ele>2705.3</ele></trkpt>
<trkpt lat="41.772353" lon="70.268020"><ele>2752.5</ele></trkpt>
<trkpt lat="41.772373" lon="70.267850"><ele>2730.4</ele></trkpt>
<trkpt lat="41.772560" lon="70.267807"><ele>2707.6</ele></trkpt>
<trkpt lat="41.772642" lon="70.267748"><ele>2706.5</ele></trkpt>
<trkpt lat="41.772688" lon="70.267643"><ele>2708.5</ele></trkpt>
<trkpt lat="41.772635" lon="70.267742"><ele>2701.4</ele></trkpt>
<trkpt lat="41.772717" lon="70.267680"><ele>2708.2</ele></trkpt>
<trkpt lat="41.772525" lon="70.267773"><ele>2702.7</ele></trkpt>
<trkpt lat="41.772438" lon="70.267838"><ele>2704.8</ele></trkpt>
<trkpt lat="41.772343" lon="70.267807"><ele>2710.3</ele></trkpt>
<trkpt lat="41.772292" lon="70.267702"><ele>2708.6</ele></trkpt>
<trkpt lat="41.772162" lon="70.267527"><ele>2704.2</ele></trkpt>
<trkpt lat="41.772035" lon="70.267277"><ele>2696.0</ele></trkpt>
<trkpt lat="41.771990" lon="70.267068"><ele>2690.7</ele></trkpt>
<trkpt lat="41.771940" lon="70.266625"><ele>2680.9</ele></trkpt>
<trkpt lat="41.771888" lon="70.266502"><ele>2677.6</ele></trkpt>
<trkpt lat="41.771745" lon="70.266332"><ele>2672.3</ele></trkpt>
<trkpt lat="41.771578" lon="70.266023"><ele>2661.0</ele></trkpt>
<trkpt lat="41.771570" lon="70.265900"><ele>2658.5</ele></trkpt>
<trkpt lat="41.771483" lon="70.265682"><ele>2650.0</ele></trkpt>
<trkpt lat="41.771423" lon="70.265577"><ele>2645.3</ele></trkpt>
<trkpt lat="41.771342" lon="70.265355"><ele>2638.2</ele></trkpt>
<trkpt lat="41.771323" lon="70.265232"><ele>2636.0</ele></trkpt>
<trkpt lat="41.771325" lon="70.265108"><ele>2633.1</ele></trkpt>
<trkpt lat="41.771212" lon="70.264810"><ele>2623.3</ele></trkpt>
<trkpt lat="41.771053" lon="70.264678"><ele>2617.4</ele></trkpt>
<trkpt lat="41.770832" lon="70.264428"><ele>2606.2</ele></trkpt>
<trkpt lat="41.770628" lon="70.264155"><ele>2590.7</ele></trkpt>
<trkpt lat="41.770415" lon="70.263920"><ele>2575.3</ele></trkpt>
<trkpt lat="41.770183" lon="70.263718"><ele>2562.7</ele></trkpt>
<trkpt lat="41.769833" lon="70.263522"><ele>2544.6</ele></trkpt>
<trkpt lat="41.769670" lon="70.263403"><ele>2534.3</ele></trkpt>
<trkpt lat="41.769580" lon="70.263385"><ele>2528.0</ele></trkpt>
<trkpt lat="41.769310" lon="70.263150"><ele>2512.2</ele></trkpt>
<trkpt lat="41.769023" lon="70.263072"><ele>2494.1</ele></trkpt>
<trkpt lat="41.768750" lon="70.262892"><ele>2478.3</ele></trkpt>
<trkpt lat="41.768657" lon="70.262865"><ele>2475.8</ele></trkpt>
<trkpt lat="41.768467" lon="70.262740"><ele>2468.3</ele></trkpt>
<trkpt lat="41.768377" lon="70.262705"><ele>2464.3</ele></trkpt>
<trkpt lat="41.768180" lon="70.262537"><ele>2461.0</ele></trkpt>
<trkpt lat="41.767990" lon="70.262343"><ele>2458.7</ele></trkpt>
<trkpt lat="41.767893" lon="70.262317"><ele>2455.4</ele></trkpt>
<trkpt lat="41.767712" lon="70.262103"><ele>2453.4</ele></trkpt>
<trkpt lat="41.767605" lon="70.262007"><ele>2451.9</ele></trkpt>
<trkpt lat="41.767652" lon="70.261898"><ele>2453.7</ele></trkpt>
<trkpt lat="41.767728" lon="70.261828"><ele>2451.8</ele></trkpt>
<trkpt lat="41.767788" lon="70.261707"><ele>2453.2</ele></trkpt>
<trkpt lat="41.767905" lon="70.261692"><ele>2452.6</ele></trkpt>
<trkpt lat="41.767798" lon="70.261385"><ele>2441.3</ele></trkpt>
<trkpt lat="41.767777" lon="70.261230"><ele>2437.2</ele></trkpt>
<trkpt lat="41.767618" lon="70.260598"><ele>2423.4</ele></trkpt>
<trkpt lat="41.767342" lon="70.260203"><ele>2415.1</ele></trkpt>
<trkpt lat="41.767138" lon="70.259812"><ele>2409.3</ele></trkpt>
<trkpt lat="41.767053" lon="70.259692"><ele>2404.7</ele></trkpt>
<trkpt lat="41.766943" lon="70.259458"><ele>2398.1</ele></trkpt>
<trkpt lat="41.766928" lon="70.259318"><ele>2397.4</ele></trkpt>
<trkpt lat="41.766797" lon="70.259128"><ele>2391.9</ele></trkpt>
<trkpt lat="41.766887" lon="70.259192"><ele>2392.3</ele></trkpt>
<trkpt lat="41.766983" lon="70.259185"><ele>2388.6</ele></trkpt>
<trkpt lat="41.767072" lon="70.259208"><ele>2386.5</ele></trkpt>
<trkpt lat="41.767162" lon="70.259188"><ele>2383.2</ele></trkpt>
<trkpt lat="41.767310" lon="70.259045"><ele>2381.2</ele></trkpt>
<trkpt lat="41.767530" lon="70.259192"><ele>2375.1</ele></trkpt>
<trkpt lat="41.767580" lon="70.259085"><ele>2371.7</ele></trkpt>
<trkpt lat="41.767503" lon="70.258918"><ele>2365.8</ele></trkpt>
<trkpt lat="41.767580" lon="70.258848"><ele>2362.2</ele></trkpt>
<trkpt lat="41.767690" lon="70.258878"><ele>2359.0</ele></trkpt>
<trkpt lat="41.767618" lon="70.258725"><ele>2352.6</ele></trkpt>
<trkpt lat="41.767553" lon="70.258642"><ele>2348.0</ele></trkpt>
<trkpt lat="41.767503" lon="70.258540"><ele>2344.2</ele></trkpt>
<trkpt lat="41.767583" lon="70.258465"><ele>2341.0</ele></trkpt>
<trkpt lat="41.767647" lon="70.258345"><ele>2337.1</ele></trkpt>
<trkpt lat="41.767562" lon="70.258123"><ele>2326.7</ele></trkpt>
<trkpt lat="41.767367" lon="70.258042"><ele>2319.7</ele></trkpt>
<trkpt lat="41.767265" lon="70.257962"><ele>2314.5</ele></trkpt>
<trkpt lat="41.767247" lon="70.257825"><ele>2312.3</ele></trkpt>
<trkpt lat="41.767323" lon="70.257757"><ele>2312.7</ele></trkpt>
<trkpt lat="41.767437" lon="70.257693"><ele>2312.5</ele></trkpt>
<trkpt lat="41.767483" lon="70.257582"><ele>2309.6</ele></trkpt>
<trkpt lat="41.767467" lon="70.257443"><ele>2305.6</ele></trkpt>
<trkpt lat="41.767392" lon="70.257345"><ele>2302.0</ele></trkpt>
<trkpt lat="41.767293" lon="70.257338"><ele>2296.0</ele></trkpt>
<trkpt lat="41.767198" lon="70.257288"><ele>2294.3</ele></trkpt>
<trkpt lat="41.767112" lon="70.257212"><ele>2290.5</ele></trkpt>
<trkpt lat="41.767168" lon="70.257112"><ele>2289.9</ele></trkpt>
<trkpt lat="41.767072" lon="70.257013"><ele>2284.3</ele></trkpt>
<trkpt lat="41.767053" lon="70.256893"><ele>2279.4</ele></trkpt>
<trkpt lat="41.767060" lon="70.256757"><ele>2278.7</ele></trkpt>
<trkpt lat="41.767090" lon="70.256640"><ele>2278.3</ele></trkpt>
<trkpt lat="41.767055" lon="70.256477"><ele>2274.3</ele></trkpt>
<trkpt lat="41.767040" lon="70.256277"><ele>2268.2</ele></trkpt>
<trkpt lat="41.766935" lon="70.255908"><ele>2258.5</ele></trkpt>
<trkpt lat="41.766855" lon="70.255743"><ele>2253.2</ele></trkpt>
<trkpt lat="41.766800" lon="70.255543"><ele>2244.8</ele></trkpt>
<trkpt lat="41.766783" lon="70.255403"><ele>2240.9</ele></trkpt>
<trkpt lat="41.766913" lon="70.255522"><ele>2236.8</ele></trkpt>
<trkpt lat="41.767027" lon="70.255548"><ele>2232.5</ele></trkpt>
<trkpt lat="41.767140" lon="70.255482"><ele>2228.0</ele></trkpt>
<trkpt lat="41.767165" lon="70.255363"><ele>2221.5</ele></trkpt>
<trkpt lat="41.767085" lon="70.255287"><ele>2218.8</ele></trkpt>
<trkpt lat="41.767163" lon="70.255203"><ele>2215.9</ele></trkpt>
<trkpt lat="41.767288" lon="70.255198"><ele>2211.9</ele></trkpt>
<trkpt lat="41.767338" lon="70.255093"><ele>2202.4</ele></trkpt>
<trkpt lat="41.767417" lon="70.255015"><ele>2199.8</ele></trkpt>
<trkpt lat="41.767395" lon="70.254895"><ele>2193.5</ele></trkpt>
<trkpt lat="41.767333" lon="70.254797"><ele>2188.6</ele></trkpt>
<trkpt lat="41.767403" lon="70.254720"><ele>2182.6</ele></trkpt>
<trkpt lat="41.767370" lon="70.254597"><ele>2176.3</ele></trkpt>
<trkpt lat="41.767267" lon="70.254528"><ele>2173.8</ele></trkpt>
<trkpt lat="41.767245" lon="70.254402"><ele>2172.1</ele></trkpt>
<trkpt lat="41.767268" lon="70.254282"><ele>2166.6</ele></trkpt>
<trkpt lat="41.767233" lon="70.254170"><ele>2165.6</ele></trkpt>
<trkpt lat="41.767262" lon="70.254042"><ele>2161.6</ele></trkpt>
<trkpt lat="41.767253" lon="70.253797"><ele>2159.6</ele></trkpt>
<trkpt lat="41.767175" lon="70.253552"><ele>2146.7</ele></trkpt>
<trkpt lat="41.767087" lon="70.253448"><ele>2142.6</ele></trkpt>
<trkpt lat="41.766997" lon="70.253412"><ele>2136.9</ele></trkpt>
<trkpt lat="41.766822" lon="70.253302"><ele>2129.8</ele></trkpt>
<trkpt lat="41.766752" lon="70.253205"><ele>2128.7</ele></trkpt>
<trkpt lat="41.766723" lon="70.252955"><ele>2127.6</ele></trkpt>
<trkpt lat="41.766737" lon="70.252798"><ele>2125.9</ele></trkpt>
<trkpt lat="41.766880" lon="70.252445"><ele>2116.1</ele></trkpt>
<trkpt lat="41.766830" lon="70.251987"><ele>2107.8</ele></trkpt>
<trkpt lat="41.766755" lon="70.251915"><ele>2107.1</ele></trkpt>
<trkpt lat="41.766697" lon="70.251822"><ele>2101.5</ele></trkpt>
<trkpt lat="41.766768" lon="70.251743"><ele>2095.2</ele></trkpt>
<trkpt lat="41.766858" lon="70.251735"><ele>2092.0</ele></trkpt>
<trkpt lat="41.766755" lon="70.251528"><ele>2082.7</ele></trkpt>
<trkpt lat="41.766667" lon="70.251478"><ele>2079.5</ele></trkpt>
<trkpt lat="41.766553" lon="70.251478"><ele>2075.4</ele></trkpt>
<trkpt lat="41.766478" lon="70.251410"><ele>2072.1</ele></trkpt>
<trkpt lat="41.766348" lon="70.251225"><ele>2062.1</ele></trkpt>
<trkpt lat="41.766425" lon="70.251157"><ele>2054.3</ele></trkpt>
<trkpt lat="41.766412" lon="70.251028"><ele>2048.8</ele></trkpt>
<trkpt lat="41.766458" lon="70.250922"><ele>2044.3</ele></trkpt>
<trkpt lat="41.766385" lon="70.250830"><ele>2039.5</ele></trkpt>
<trkpt lat="41.766463" lon="70.250768"><ele>2035.0</ele></trkpt>
<trkpt lat="41.766647" lon="70.250700"><ele>2023.5</ele></trkpt>
<trkpt lat="41.766527" lon="70.250487"><ele>2014.3</ele></trkpt>
<trkpt lat="41.766573" lon="70.250378"><ele>2011.7</ele></trkpt>
<trkpt lat="41.766767" lon="70.250378"><ele>2004.9</ele></trkpt>
<trkpt lat="41.766853" lon="70.250413"><ele>1995.3</ele></trkpt>
<trkpt lat="41.766858" lon="70.250287"><ele>1987.4</ele></trkpt>
<trkpt lat="41.766945" lon="70.250248"><ele>1983.9</ele></trkpt>
<trkpt lat="41.766933" lon="70.250115"><ele>1979.4</ele></trkpt>
<trkpt lat="41.766898" lon="70.249993"><ele>1978.0</ele></trkpt>
<trkpt lat="41.767012" lon="70.249973"><ele>1979.4</ele></trkpt>
<trkpt lat="41.767043" lon="70.249855"><ele>1972.7</ele></trkpt>
<trkpt lat="41.766875" lon="70.249605"><ele>1962.5</ele></trkpt>
<trkpt lat="41.766885" lon="70.249478"><ele>1958.5</ele></trkpt>
<trkpt lat="41.766832" lon="70.249057"><ele>1945.1</ele></trkpt>
<trkpt lat="41.766867" lon="70.248938"><ele>1940.3</ele></trkpt>
<trkpt lat="41.766957" lon="70.248967"><ele>1933.3</ele></trkpt>
<trkpt lat="41.766907" lon="70.248727"><ele>1927.5</ele></trkpt>
<trkpt lat="41.767100" lon="70.248698"><ele>1919.6</ele></trkpt>
<trkpt lat="41.767072" lon="70.248572"><ele>1915.7</ele></trkpt>
<trkpt lat="41.767130" lon="70.248480"><ele>1912.8</ele></trkpt>
<trkpt lat="41.767133" lon="70.248357"><ele>1903.7</ele></trkpt>
<trkpt lat="41.767222" lon="70.248310"><ele>1902.0</ele></trkpt>
<trkpt lat="41.767223" lon="70.248182"><ele>1898.8</ele></trkpt>
<trkpt lat="41.767287" lon="70.248093"><ele>1894.5</ele></trkpt>
<trkpt lat="41.767313" lon="70.247970"><ele>1890.6</ele></trkpt>
<trkpt lat="41.767307" lon="70.247820"><ele>1886.4</ele></trkpt>
<trkpt lat="41.767397" lon="70.247803"><ele>1881.8</ele></trkpt>
<trkpt lat="41.767550" lon="70.247485"><ele>1874.8</ele></trkpt>
<trkpt lat="41.767630" lon="70.247382"><ele>1870.0</ele></trkpt>
<trkpt lat="41.767673" lon="70.247270"><ele>1862.2</ele></trkpt>
<trkpt lat="41.767772" lon="70.247252"><ele>1861.0</ele></trkpt>
<trkpt lat="41.767807" lon="70.247138"><ele>1860.1</ele></trkpt>
<trkpt lat="41.767762" lon="70.247028"><ele>1854.7</ele></trkpt>
<trkpt lat="41.767843" lon="70.246975"><ele>1852.6</ele></trkpt>
<trkpt lat="41.767965" lon="70.246990"><ele>1850.4</ele></trkpt>
<trkpt lat="41.767982" lon="70.246860"><ele>1845.9</ele></trkpt>
<trkpt lat="41.767943" lon="70.246730"><ele>1841.3</ele></trkpt>
<trkpt lat="41.768012" lon="70.246632"><ele>1838.7</ele></trkpt>
<trkpt lat="41.768020" lon="70.246508"><ele>1833.9</ele></trkpt>
<trkpt lat="41.768070" lon="70.246398"><ele>1830.2</ele></trkpt>
<trkpt lat="41.768173" lon="70.246312"><ele>1825.5</ele></trkpt>
<trkpt lat="41.768168" lon="70.246062"><ele>1811.5</ele></trkpt>
<trkpt lat="41.768212" lon="70.245942"><ele>1806.1</ele></trkpt>
<trkpt lat="41.768335" lon="70.245918"><ele>1803.1</ele></trkpt>
<trkpt lat="41.768313" lon="70.245797"><ele>1799.7</ele></trkpt>
<trkpt lat="41.768402" lon="70.245583"><ele>1790.9</ele></trkpt>
<trkpt lat="41.768417" lon="70.245458"><ele>1787.3</ele></trkpt>
<trkpt lat="41.768410" lon="70.245327"><ele>1783.8</ele></trkpt>
<trkpt lat="41.768458" lon="70.245222"><ele>1779.5</ele></trkpt>
<trkpt lat="41.768530" lon="70.245142"><ele>1778.3</ele></trkpt>
<trkpt lat="41.768573" lon="70.245033"><ele>1772.8</ele></trkpt>
<trkpt lat="41.768528" lon="70.244925"><ele>1766.9</ele></trkpt>
<trkpt lat="41.768593" lon="70.244835"><ele>1764.5</ele></trkpt>
<trkpt lat="41.768642" lon="70.244728"><ele>1760.7</ele></trkpt>
<trkpt lat="41.768592" lon="70.244627"><ele>1756.1</ele></trkpt>
<trkpt lat="41.768622" lon="70.244508"><ele>1752.0</ele></trkpt>
<trkpt lat="41.768678" lon="70.244400"><ele>1750.6</ele></trkpt>
<trkpt lat="41.768757" lon="70.244320"><ele>1745.0</ele></trkpt>
<trkpt lat="41.768752" lon="70.244068"><ele>1742.5</ele></trkpt>
<trkpt lat="41.768767" lon="70.243943"><ele>1738.6</ele></trkpt>
<trkpt lat="41.768860" lon="70.243948"><ele>1737.7</ele></trkpt>
<trkpt lat="41.768853" lon="70.243567"><ele>1714.6</ele></trkpt>
<trkpt lat="41.768788" lon="70.243465"><ele>1710.2</ele></trkpt>
<trkpt lat="41.768708" lon="70.243407"><ele>1706.0</ele></trkpt>
<trkpt lat="41.768782" lon="70.243335"><ele>1701.6</ele></trkpt>
<trkpt lat="41.768915" lon="70.243272"><ele>1698.5</ele></trkpt>
<trkpt lat="41.768877" lon="70.243162"><ele>1689.8</ele></trkpt>
<trkpt lat="41.768857" lon="70.243027"><ele>1684.5</ele></trkpt>
<trkpt lat="41.768772" lon="70.242907"><ele>1678.7</ele></trkpt>
<trkpt lat="41.768727" lon="70.242658"><ele>1673.9</ele></trkpt>
<trkpt lat="41.768680" lon="70.242545"><ele>1669.3</ele></trkpt>
<trkpt lat="41.768587" lon="70.242553"><ele>1662.5</ele></trkpt>
<trkpt lat="41.768600" lon="70.242122"><ele>1711.0</ele></trkpt>
<trkpt lat="41.768627" lon="70.242497"><ele>1731.6</ele></trkpt>
<trkpt lat="41.768590" lon="70.242615"><ele>1686.8</ele></trkpt>
<trkpt lat="41.768480" lon="70.242597"><ele>1668.6</ele></trkpt>
<trkpt lat="41.768395" lon="70.242655"><ele>1660.5</ele></trkpt>
<trkpt lat="41.768302" lon="70.242660"><ele>1656.5</ele></trkpt>
<trkpt lat="41.768202" lon="70.242693"><ele>1655.1</ele></trkpt>
<trkpt lat="41.767923" lon="70.242345"><ele>1650.1</ele></trkpt>
<trkpt lat="41.767842" lon="70.242283"><ele>1644.5</ele></trkpt>
<trkpt lat="41.767750" lon="70.242253"><ele>1639.9</ele></trkpt>
<trkpt lat="41.767673" lon="70.242182"><ele>1636.7</ele></trkpt>
<trkpt lat="41.767650" lon="70.242060"><ele>1634.5</ele></trkpt>
<trkpt lat="41.767660" lon="70.241938"><ele>1629.4</ele></trkpt>
<trkpt lat="41.767695" lon="70.241820"><ele>1629.4</ele></trkpt>
<trkpt lat="41.767763" lon="70.241740"><ele>1626.1</ele></trkpt>
<trkpt lat="41.767665" lon="70.241518"><ele>1622.5</ele></trkpt>
<trkpt lat="41.767602" lon="70.241432"><ele>1617.9</ele></trkpt>
<trkpt lat="41.767600" lon="70.241305"><ele>1614.2</ele></trkpt>
<trkpt lat="41.767650" lon="70.241163"><ele>1611.1</ele></trkpt>
<trkpt lat="41.767657" lon="70.241038"><ele>1605.1</ele></trkpt>
<trkpt lat="41.767685" lon="70.240917"><ele>1602.3</ele></trkpt>
<trkpt lat="41.767752" lon="70.240835"><ele>1599.0</ele></trkpt>
<trkpt lat="41.767732" lon="70.240692"><ele>1597.4</ele></trkpt>
<trkpt lat="41.767800" lon="70.240602"><ele>1592.6</ele></trkpt>
<trkpt lat="41.767848" lon="70.240498"><ele>1586.4</ele></trkpt>
<trkpt lat="41.767833" lon="70.240378"><ele>1582.5</ele></trkpt>
<trkpt lat="41.767870" lon="70.240255"><ele>1578.9</ele></trkpt>
<trkpt lat="41.767920" lon="70.240135"><ele>1575.2</ele></trkpt>
<trkpt lat="41.767992" lon="70.240060"><ele>1570.3</ele></trkpt>
<trkpt lat="41.768068" lon="70.239827"><ele>1563.5</ele></trkpt>
<trkpt lat="41.768122" lon="70.239717"><ele>1558.5</ele></trkpt>
<trkpt lat="41.768183" lon="70.239623"><ele>1555.3</ele></trkpt>
<trkpt lat="41.768290" lon="70.239587"><ele>1551.5</ele></trkpt>
<trkpt lat="41.768345" lon="70.239483"><ele>1547.5</ele></trkpt>
<trkpt lat="41.768473" lon="70.239472"><ele>1544.8</ele></trkpt>
<trkpt lat="41.768487" lon="70.239342"><ele>1537.6</ele></trkpt>
<trkpt lat="41.768557" lon="70.239220"><ele>1535.8</ele></trkpt>
<trkpt lat="41.768650" lon="70.239165"><ele>1533.1</ele></trkpt>
<trkpt lat="41.768740" lon="70.239158"><ele>1530.0</ele></trkpt>
<trkpt lat="41.768828" lon="70.239118"><ele>1528.5</ele></trkpt>
<trkpt lat="41.768773" lon="70.239018"><ele>1524.8</ele></trkpt>
<trkpt lat="41.768808" lon="70.238907"><ele>1521.4</ele></trkpt>
<trkpt lat="41.768733" lon="70.238825"><ele>1520.6</ele></trkpt>
<trkpt lat="41.768757" lon="70.238570"><ele>1514.3</ele></trkpt>
<trkpt lat="41.768802" lon="70.238458"><ele>1513.1</ele></trkpt>
<trkpt lat="41.768737" lon="70.238367"><ele>1512.8</ele></trkpt>
<trkpt lat="41.768797" lon="70.238267"><ele>1509.5</ele></trkpt>
<trkpt lat="41.768800" lon="70.238138"><ele>1506.1</ele></trkpt>
<trkpt lat="41.768763" lon="70.237892"><ele>1500.5</ele></trkpt>
<trkpt lat="41.768807" lon="70.237780"><ele>1498.3</ele></trkpt>
<trkpt lat="41.768795" lon="70.237652"><ele>1494.5</ele></trkpt>
<trkpt lat="41.768740" lon="70.237523"><ele>1493.2</ele></trkpt>
<trkpt lat="41.768733" lon="70.237280"><ele>1484.9</ele></trkpt>
<trkpt lat="41.768768" lon="70.237163"><ele>1482.0</ele></trkpt>
<trkpt lat="41.768745" lon="70.237038"><ele>1480.0</ele></trkpt>
<trkpt lat="41.769020" lon="70.236545"><ele>1467.5</ele></trkpt>
<trkpt lat="41.769062" lon="70.236297"><ele>1457.6</ele></trkpt>
<trkpt lat="41.769045" lon="70.236172"><ele>1454.6</ele></trkpt>
<trkpt lat="41.769092" lon="70.236060"><ele>1452.7</ele></trkpt>
<trkpt lat="41.769080" lon="70.235917"><ele>1448.4</ele></trkpt>
<trkpt lat="41.769125" lon="70.235805"><ele>1443.6</ele></trkpt>
<trkpt lat="41.769138" lon="70.235675"><ele>1442.7</ele></trkpt>
<trkpt lat="41.769203" lon="70.235590"><ele>1439.8</ele></trkpt>
<trkpt lat="41.769258" lon="70.235482"><ele>1437.1</ele></trkpt>
<trkpt lat="41.769288" lon="70.235335"><ele>1435.7</ele></trkpt>
<trkpt lat="41.769335" lon="70.235225"><ele>1431.9</ele></trkpt>
<trkpt lat="41.769348" lon="70.235103"><ele>1429.6</ele></trkpt>
<trkpt lat="41.769395" lon="70.234997"><ele>1425.9</ele></trkpt>
<trkpt lat="41.769458" lon="70.234903"><ele>1422.0</ele></trkpt>
<trkpt lat="41.769497" lon="70.234793"><ele>1417.8</ele></trkpt>
<trkpt lat="41.769640" lon="70.234637"><ele>1413.4</ele></trkpt>
<trkpt lat="41.769763" lon="70.234448"><ele>1407.0</ele></trkpt>
<trkpt lat="41.769780" lon="70.234325"><ele>1404.0</ele></trkpt>
<trkpt lat="41.769852" lon="70.234252"><ele>1401.3</ele></trkpt>
<trkpt lat="41.769978" lon="70.234068"><ele>1392.1</ele></trkpt>
<trkpt lat="41.770065" lon="70.234010"><ele>1389.5</ele></trkpt>
<trkpt lat="41.770155" lon="70.233983"><ele>1384.9</ele></trkpt>
<trkpt lat="41.770212" lon="70.233885"><ele>1378.8</ele></trkpt>
<trkpt lat="41.770297" lon="70.233822"><ele>1378.8</ele></trkpt>
<trkpt lat="41.770428" lon="70.233642"><ele>1374.3</ele></trkpt>
<trkpt lat="41.770505" lon="70.233577"><ele>1371.2</ele></trkpt>
<trkpt lat="41.770685" lon="70.233508"><ele>1363.8</ele></trkpt>
<trkpt lat="41.770735" lon="70.233403"><ele>1360.2</ele></trkpt>
<trkpt lat="41.770805" lon="70.233320"><ele>1358.7</ele></trkpt>
<trkpt lat="41.770970" lon="70.233177"><ele>1353.1</ele></trkpt>
<trkpt lat="41.771240" lon="70.233088"><ele>1348.2</ele></trkpt>
<trkpt lat="41.771390" lon="70.232922"><ele>1341.8</ele></trkpt>
<trkpt lat="41.771485" lon="70.232870"><ele>1340.1</ele></trkpt>
<trkpt lat="41.771568" lon="70.232792"><ele>1339.3</ele></trkpt>
<trkpt lat="41.771673" lon="70.232768"><ele>1339.0</ele></trkpt>
<trkpt lat="41.771748" lon="70.232680"><ele>1338.2</ele></trkpt>
<trkpt lat="41.771828" lon="70.232622"><ele>1336.8</ele></trkpt>
<trkpt lat="41.771840" lon="70.232487"><ele>1335.6</ele></trkpt>
<trkpt lat="41.771980" lon="70.232143"><ele>1326.7</ele></trkpt>
<trkpt lat="41.772105" lon="70.232048"><ele>1323.8</ele></trkpt>
<trkpt lat="41.772252" lon="70.231887"><ele>1319.9</ele></trkpt>
<trkpt lat="41.772522" lon="70.231715"><ele>1310.0</ele></trkpt>
<trkpt lat="41.772600" lon="70.231645"><ele>1305.8</ele></trkpt>
<trkpt lat="41.772888" lon="70.231580"><ele>1299.3</ele></trkpt>
<trkpt lat="41.772965" lon="70.231503"><ele>1297.8</ele></trkpt>
<trkpt lat="41.773067" lon="70.231260"><ele>1291.0</ele></trkpt>
<trkpt lat="41.773022" lon="70.231150"><ele>1288.8</ele></trkpt>
<trkpt lat="41.773022" lon="70.231023"><ele>1286.0</ele></trkpt>
<trkpt lat="41.773085" lon="70.230922"><ele>1283.9</ele></trkpt>
<trkpt lat="41.773167" lon="70.230842"><ele>1281.9</ele></trkpt>
<trkpt lat="41.773225" lon="70.230745"><ele>1279.8</ele></trkpt>
<trkpt lat="41.773427" lon="70.230563"><ele>1276.2</ele></trkpt>
<trkpt lat="41.773518" lon="70.230522"><ele>1274.2</ele></trkpt>
<trkpt lat="41.773522" lon="70.230380"><ele>1270.7</ele></trkpt>
<trkpt lat="41.773605" lon="70.230228"><ele>1266.7</ele></trkpt>
<trkpt lat="41.773680" lon="70.230138"><ele>1266.1</ele></trkpt>
<trkpt lat="41.773777" lon="70.230063"><ele>1262.8</ele></trkpt>
<trkpt lat="41.773902" lon="70.230003"><ele>1257.3</ele></trkpt>
<trkpt lat="41.774173" lon="70.229923"><ele>1250.2</ele></trkpt>
<trkpt lat="41.774278" lon="70.229847"><ele>1246.5</ele></trkpt>
<trkpt lat="41.774607" lon="70.229818"><ele>1242.5</ele></trkpt>
<trkpt lat="41.774960" lon="70.230022"><ele>1237.9</ele></trkpt>
<trkpt lat="41.775052" lon="70.230003"><ele>1237.2</ele></trkpt>
<trkpt lat="41.775245" lon="70.229907"><ele>1231.5</ele></trkpt>
<trkpt lat="41.775372" lon="70.229875"><ele>1228.8</ele></trkpt>
<trkpt lat="41.775587" lon="70.229973"><ele>1221.4</ele></trkpt>
<trkpt lat="41.775740" lon="70.229968"><ele>1219.0</ele></trkpt>
<trkpt lat="41.776105" lon="70.230023"><ele>1213.1</ele></trkpt>
<trkpt lat="41.776228" lon="70.230015"><ele>1210.7</ele></trkpt>
<trkpt lat="41.776822" lon="70.229808"><ele>1194.2</ele></trkpt>
<trkpt lat="41.776963" lon="70.229797"><ele>1189.8</ele></trkpt>
<trkpt lat="41.777128" lon="70.229753"><ele>1186.4</ele></trkpt>
<trkpt lat="41.777397" lon="70.229627"><ele>1176.2</ele></trkpt>
<trkpt lat="41.777522" lon="70.229605"><ele>1173.3</ele></trkpt>
<trkpt lat="41.777642" lon="70.229617"><ele>1171.2</ele></trkpt>
<trkpt lat="41.777943" lon="70.229582"><ele>1165.3</ele></trkpt>
<trkpt lat="41.778088" lon="70.229605"><ele>1161.4</ele></trkpt>
<trkpt lat="41.778503" lon="70.229615"><ele>1154.5</ele></trkpt>
<trkpt lat="41.778598" lon="70.229635"><ele>1152.3</ele></trkpt>
<trkpt lat="41.778682" lon="70.229690"><ele>1150.5</ele></trkpt>
<trkpt lat="41.778735" lon="70.229587"><ele>1149.2</ele></trkpt>
<trkpt lat="41.778905" lon="70.229530"><ele>1147.2</ele></trkpt>
<trkpt lat="41.779035" lon="70.229532"><ele>1143.7</ele></trkpt>
<trkpt lat="41.779257" lon="70.229435"><ele>1138.5</ele></trkpt>
<trkpt lat="41.779358" lon="70.229428"><ele>1136.6</ele></trkpt>
<trkpt lat="41.779550" lon="70.229367"><ele>1135.2</ele></trkpt>
<trkpt lat="41.779643" lon="70.229385"><ele>1152.3</ele></trkpt>
<trkpt lat="41.779700" lon="70.229285"><ele>1142.2</ele></trkpt>
<trkpt lat="41.779790" lon="70.229233"><ele>1134.3</ele></trkpt>
<trkpt lat="41.780142" lon="70.229237"><ele>1130.5</ele></trkpt>
<trkpt lat="41.780338" lon="70.229332"><ele>1123.3</ele></trkpt>
<trkpt lat="41.780400" lon="70.229223"><ele>1121.4</ele></trkpt>
<trkpt lat="41.780578" lon="70.229032"><ele>1115.5</ele></trkpt>
<trkpt lat="41.780678" lon="70.228937"><ele>1112.4</ele></trkpt>
<trkpt lat="41.780778" lon="70.228887"><ele>1109.5</ele></trkpt>
<trkpt lat="41.780947" lon="70.228683"><ele>1106.4</ele></trkpt>
<trkpt lat="41.781048" lon="70.228620"><ele>1103.0</ele></trkpt>
<trkpt lat="41.781138" lon="70.228593"><ele>1107.4</ele></trkpt>
<trkpt lat="41.781218" lon="70.228533"><ele>1104.9</ele></trkpt>
<trkpt lat="41.781272" lon="70.228435"><ele>1097.3</ele></trkpt>
<trkpt lat="41.781555" lon="70.228115"><ele>1088.0</ele></trkpt>
<trkpt lat="41.781852" lon="70.227835"><ele>1081.3</ele></trkpt>
<trkpt lat="41.781933" lon="70.227705"><ele>1078.6</ele></trkpt>
<trkpt lat="41.782125" lon="70.227467"><ele>1075.9</ele></trkpt>
<trkpt lat="41.782385" lon="70.227243"><ele>1066.6</ele></trkpt>
<trkpt lat="41.782628" lon="70.227162"><ele>1062.3</ele></trkpt>
<trkpt lat="41.782720" lon="70.227085"><ele>1061.9</ele></trkpt>
<trkpt lat="41.782828" lon="70.227033"><ele>1058.7</ele></trkpt>
<trkpt lat="41.783142" lon="70.227185"><ele>1055.7</ele></trkpt>
<trkpt lat="41.783358" lon="70.227225"><ele>1054.4</ele></trkpt>
<trkpt lat="41.783463" lon="70.227273"><ele>1052.2</ele></trkpt>
<trkpt lat="41.783557" lon="70.227290"><ele>1049.7</ele></trkpt>
<trkpt lat="41.783653" lon="70.227300"><ele>1049.0</ele></trkpt>
<trkpt lat="41.783753" lon="70.227277"><ele>1047.2</ele></trkpt>
<trkpt lat="41.784055" lon="70.227270"><ele>1041.1</ele></trkpt>
<trkpt lat="41.784380" lon="70.227303"><ele>1035.6</ele></trkpt>
<trkpt lat="41.784590" lon="70.227417"><ele>1032.6</ele></trkpt>
<trkpt lat="41.784862" lon="70.227772"><ele>1022.4</ele></trkpt>
<trkpt lat="41.784875" lon="70.227915"><ele>1019.8</ele></trkpt>
<trkpt lat="41.784868" lon="70.228063"><ele>1016.6</ele></trkpt>
<trkpt lat="41.784793" lon="70.228377"><ele>1015.4</ele></trkpt>
<trkpt lat="41.784813" lon="70.228542"><ele>1011.5</ele></trkpt>
<trkpt lat="41.784957" lon="70.228812"><ele>1004.0</ele></trkpt>
<trkpt lat="41.784992" lon="70.228958"><ele>1003.8</ele></trkpt>
<trkpt lat="41.784962" lon="70.229258"><ele>1006.8</ele></trkpt>
<trkpt lat="41.784987" lon="70.229428"><ele>1006.3</ele></trkpt>
<trkpt lat="41.785027" lon="70.229575"><ele>1003.7</ele></trkpt>
<trkpt lat="41.785037" lon="70.229725"><ele>1003.5</ele></trkpt>
<trkpt lat="41.785068" lon="70.229887"><ele>1003.9</ele></trkpt>
<trkpt lat="41.785137" lon="70.230042"><ele>1002.1</ele></trkpt>
<trkpt lat="41.785247" lon="70.230503"><ele>1004.8</ele></trkpt>
<trkpt lat="41.785478" lon="70.230873"><ele>1001.3</ele></trkpt>
<trkpt lat="41.785605" lon="70.231328"><ele>1003.5</ele></trkpt>
<trkpt lat="41.785677" lon="70.231463"><ele>1003.9</ele></trkpt>
<trkpt lat="41.785885" lon="70.231587"><ele>1003.9</ele></trkpt>
<trkpt lat="41.786105" lon="70.231757"><ele>1002.4</ele></trkpt>
<trkpt lat="41.786162" lon="70.231878"><ele>1000.6</ele></trkpt>
<trkpt lat="41.786345" lon="70.232075"><ele>998.3</ele></trkpt>
<trkpt lat="41.786575" lon="70.232448"><ele>998.7</ele></trkpt>
<trkpt lat="41.786568" lon="70.232620"><ele>998.7</ele></trkpt>
<trkpt lat="41.786603" lon="70.232907"><ele>1003.0</ele></trkpt>
<trkpt lat="41.786648" lon="70.233047"><ele>1005.1</ele></trkpt>
<trkpt lat="41.786730" lon="70.233185"><ele>1006.5</ele></trkpt>
<trkpt lat="41.786820" lon="70.233777"><ele>1003.2</ele></trkpt>
<trkpt lat="41.786918" lon="70.234052"><ele>1006.9</ele></trkpt>
<trkpt lat="41.787468" lon="70.235075"><ele>1003.5</ele></trkpt>
<trkpt lat="41.787568" lon="70.235187"><ele>1003.8</ele></trkpt>
<trkpt lat="41.787710" lon="70.235453"><ele>1002.5</ele></trkpt>
<trkpt lat="41.787810" lon="70.235567"><ele>1001.0</ele></trkpt>
<trkpt lat="41.787990" lon="70.235933"><ele>999.3</ele></trkpt>
<trkpt lat="41.788148" lon="70.236208"><ele>996.7</ele></trkpt>
<trkpt lat="41.788185" lon="70.236362"><ele>996.8</ele></trkpt>
<trkpt lat="41.788302" lon="70.236633"><ele>997.2</ele></trkpt>
<trkpt lat="41.788403" lon="70.236720"><ele>995.5</ele></trkpt>
<trkpt lat="41.788517" lon="70.236785"><ele>994.6</ele></trkpt>
<trkpt lat="41.788577" lon="70.236910"><ele>994.9</ele></trkpt>
<trkpt lat="41.788655" lon="70.237012"><ele>996.0</ele></trkpt>
<trkpt lat="41.788728" lon="70.237147"><ele>996.4</ele></trkpt>
<trkpt lat="41.788818" lon="70.237253"><ele>995.8</ele></trkpt>
<trkpt lat="41.788958" lon="70.237690"><ele>996.1</ele></trkpt>
<trkpt lat="41.789105" lon="70.237917"><ele>990.8</ele></trkpt>
<trkpt lat="41.789213" lon="70.238013"><ele>990.7</ele></trkpt>
<trkpt lat="41.789335" lon="70.238022"><ele>990.4</ele></trkpt>
<trkpt lat="41.789580" lon="70.238083"><ele>991.2</ele></trkpt>
<trkpt lat="41.790030" lon="70.238232"><ele>993.2</ele></trkpt>
<trkpt lat="41.790130" lon="70.238338"><ele>993.3</ele></trkpt>
<trkpt lat="41.790193" lon="70.238458"><ele>993.0</ele></trkpt>
<trkpt lat="41.790277" lon="70.238543"><ele>993.1</ele></trkpt>
<trkpt lat="41.790375" lon="70.238625"><ele>993.7</ele></trkpt>
<trkpt lat="41.790673" lon="70.238818"><ele>991.0</ele></trkpt>
<trkpt lat="41.790772" lon="70.238907"><ele>990.7</ele></trkpt>
<trkpt lat="41.790862" lon="70.239005"><ele>989.1</ele></trkpt>
<trkpt lat="41.790912" lon="70.239132"><ele>989.5</ele></trkpt>
<trkpt lat="41.790932" lon="70.239262"><ele>989.8</ele></trkpt>
<trkpt lat="41.790978" lon="70.239377"><ele>989.6</ele></trkpt>
<trkpt lat="41.791100" lon="70.239807"><ele>991.4</ele></trkpt>
<trkpt lat="41.791167" lon="70.239932"><ele>988.9</ele></trkpt>
<trkpt lat="41.791260" lon="70.240042"><ele>986.5</ele></trkpt>
<trkpt lat="41.791342" lon="70.240175"><ele>985.5</ele></trkpt>
<trkpt lat="41.791438" lon="70.240280"><ele>987.4</ele></trkpt>
<trkpt lat="41.791550" lon="70.240355"><ele>987.2</ele></trkpt>
<trkpt lat="41.791650" lon="70.240470"><ele>988.7</ele></trkpt>
<trkpt lat="41.791718" lon="70.240595"><ele>989.8</ele></trkpt>
<trkpt lat="41.791918" lon="70.240725"><ele>989.8</ele></trkpt>
<trkpt lat="41.792123" lon="70.241015"><ele>993.3</ele></trkpt>
<trkpt lat="41.792437" lon="70.241387"><ele>996.4</ele></trkpt>
<trkpt lat="41.792672" lon="70.241633"><ele>997.9</ele></trkpt>
<trkpt lat="41.792773" lon="70.241692"><ele>999.0</ele></trkpt>
<trkpt lat="41.792953" lon="70.241842"><ele>1000.0</ele></trkpt>
<trkpt lat="41.793112" lon="70.242023"><ele>1003.6</ele></trkpt>
<trkpt lat="41.793280" lon="70.242177"><ele>1008.2</ele></trkpt>
<trkpt lat="41.793468" lon="70.242225"><ele>1010.7</ele></trkpt>
<trkpt lat="41.793668" lon="70.242403"><ele>1011.3</ele></trkpt>
<trkpt lat="41.793948" lon="70.242592"><ele>1014.4</ele></trkpt>
<trkpt lat="41.794217" lon="70.242857"><ele>1016.2</ele></trkpt>
<trkpt lat="41.794388" lon="70.243090"><ele>1014.3</ele></trkpt>
<trkpt lat="41.794508" lon="70.243342"><ele>1017.0</ele></trkpt>
<trkpt lat="41.794583" lon="70.243443"><ele>1018.1</ele></trkpt>
<trkpt lat="41.794722" lon="70.243698"><ele>1021.7</ele></trkpt>
<trkpt lat="41.794907" lon="70.243887"><ele>1026.0</ele></trkpt>
<trkpt lat="41.795320" lon="70.243723"><ele>1031.8</ele></trkpt>
<trkpt lat="41.795505" lon="70.243590"><ele>1035.8</ele></trkpt>
<trkpt lat="41.795810" lon="70.243475"><ele>1044.2</ele></trkpt>
<trkpt lat="41.796003" lon="70.243570"><ele>1045.7</ele></trkpt>
<trkpt lat="41.796158" lon="70.243712"><ele>1047.8</ele></trkpt>
<trkpt lat="41.796338" lon="70.243828"><ele>1050.0</ele></trkpt>
<trkpt lat="41.796515" lon="70.243973"><ele>1047.5</ele></trkpt>
<trkpt lat="41.796590" lon="70.244067"><ele>1050.5</ele></trkpt>
<trkpt lat="41.796773" lon="70.244228"><ele>1051.6</ele></trkpt>
<trkpt lat="41.797020" lon="70.244610"><ele>1052.2</ele></trkpt>
<trkpt lat="41.797108" lon="70.244688"><ele>1052.2</ele></trkpt>
<trkpt lat="41.797387" lon="70.245055"><ele>1050.9</ele></trkpt>
<trkpt lat="41.797598" lon="70.245292"><ele>1054.5</ele></trkpt>
<trkpt lat="41.797800" lon="70.245553"><ele>1055.2</ele></trkpt>
<trkpt lat="41.797863" lon="70.245690"><ele>1057.0</ele></trkpt>
<trkpt lat="41.797972" lon="70.245808"><ele>1057.7</ele></trkpt>
<trkpt lat="41.798035" lon="70.245940"><ele>1059.7</ele></trkpt>
<trkpt lat="41.798150" lon="70.245975"><ele>1061.0</ele></trkpt>
<trkpt lat="41.798358" lon="70.245745"><ele>1064.2</ele></trkpt>
<trkpt lat="41.798412" lon="70.245620"><ele>1064.0</ele></trkpt>
<trkpt lat="41.798507" lon="70.245508"><ele>1062.8</ele></trkpt>
<trkpt lat="41.798643" lon="70.245230"><ele>1066.1</ele></trkpt>
<trkpt lat="41.798818" lon="70.244955"><ele>1057.6</ele></trkpt>
<trkpt lat="41.798942" lon="70.244805"><ele>1053.2</ele></trkpt>
<trkpt lat="41.799095" lon="70.244528"><ele>1053.9</ele></trkpt>
<trkpt lat="41.799190" lon="70.244413"><ele>1054.9</ele></trkpt>
<trkpt lat="41.799275" lon="70.244255"><ele>1056.0</ele></trkpt>
<trkpt lat="41.799372" lon="70.244152"><ele>1056.3</ele></trkpt>
<trkpt lat="41.799482" lon="70.244223"><ele>1053.9</ele></trkpt>
<trkpt lat="41.799678" lon="70.244453"><ele>1052.8</ele></trkpt>
<trkpt lat="41.799870" lon="70.244732"><ele>1053.9</ele></trkpt>
<trkpt lat="41.800252" lon="70.245228"><ele>1056.4</ele></trkpt>
<trkpt lat="41.800328" lon="70.245367"><ele>1053.2</ele></trkpt>
<trkpt lat="41.800417" lon="70.245487"><ele>1052.7</ele></trkpt>
<trkpt lat="41.800468" lon="70.245787"><ele>1054.0</ele></trkpt>
<trkpt lat="41.800468" lon="70.245973"><ele>1054.8</ele></trkpt>
<trkpt lat="41.800445" lon="70.246200"><ele>1054.8</ele></trkpt>
<trkpt lat="41.800482" lon="70.246352"><ele>1051.1</ele></trkpt>
<trkpt lat="41.800477" lon="70.246528"><ele>1048.2</ele></trkpt>
<trkpt lat="41.800567" lon="70.246835"><ele>1047.8</ele></trkpt>
<trkpt lat="41.800655" lon="70.246958"><ele>1047.1</ele></trkpt>
<trkpt lat="41.801013" lon="70.247307"><ele>1041.3</ele></trkpt>
<trkpt lat="41.801258" lon="70.247458"><ele>1035.7</ele></trkpt>
<trkpt lat="41.801508" lon="70.247498"><ele>1033.7</ele></trkpt>
<trkpt lat="41.801647" lon="70.247467"><ele>1032.0</ele></trkpt>
<trkpt lat="41.801777" lon="70.247392"><ele>1030.2</ele></trkpt>
<trkpt lat="41.801827" lon="70.247272"><ele>1028.9</ele></trkpt>
</trkseg></trk>
</gpx>