<?xml version='1.0' encoding='utf-8'?>
<gpx xmlns="http://www.topografix.com/GPX/1/1" xmlns:ns2="https://gurumaps.app/gpx/v3" xmlns:xsi="http://www.w3.org/2001/XMLSchema-instance" version="1.1" creator="com.bodunov.galileo/v5.5.1" xsi:schemaLocation="http://www.topografix.com/GPX/1/1 http://www.topografix.com/GPX/1/1/gpx.xsd https://gurumaps.app/gpx/v3 https://gurumaps.app/gpx/v3/schema.xsd">
 <trk>
  <name>Shakhkurgan-Aktash</name>
  <type>TrackStyle_E53935C8</type>
  <extensions>
   <ns2:time>2024-05-09T02:42:20.512Z</ns2:time>
  </extensions>
  <trkseg>
   <trkpt lat="41.2452415961" lon="69.8124706674"><ele>1240.557</ele></trkpt>
   <trkpt lat="41.2452220663" lon="69.8126623616"><ele>1242.431</ele></trkpt>
   <trkpt lat="41.2450803702" lon="69.8127097193"><ele>1242.046</ele></trkpt>
   <trkpt lat="41.245168464" lon="69.8128624376"><ele>1247.704</ele></trkpt>
   <trkpt lat="41.2450867824" lon="69.8130354401"><ele>1253.404</ele></trkpt>
   <trkpt lat="41.2449629817" lon="69.8131392919"><ele>1250.607</ele></trkpt>
   <trkpt lat="41.2449702739" lon="69.8133363504"><ele>1251.754</ele></trkpt>
   <trkpt lat="41.244866967" lon="69.813479178"><ele>1253.421</ele></trkpt>
   <trkpt lat="41.2447565773" lon="69.8138411924"><ele>1261.422</ele></trkpt>
   <trkpt lat="41.244740065" lon="69.8140325513"><ele>1265.583</ele></trkpt>
   <trkpt lat="41.2446841996" lon="69.8142191324"><ele>1266.565</ele></trkpt>
   <trkpt lat="41.2446862951" lon="69.8144155204"><ele>1270.711</ele></trkpt>
   <trkpt lat="41.2446004644" lon="69.8145748604"><ele>1270.287</ele></trkpt>
   <trkpt lat="41.2444837883" lon="69.814690363"><ele>1265.961</ele></trkpt>
   <trkpt lat="41.2443488815" lon="69.8147823963"><ele>1270.545</ele></trkpt>
   <trkpt lat="41.2442421799" lon="69.8149136569"><ele>1274.171</ele></trkpt>
   <trkpt lat="41.2441691735" lon="69.8150790319"><ele>1272.409</ele></trkpt>
   <trkpt lat="41.2442028688" lon="69.8152704746"><ele>1273.599</ele></trkpt>
   <trkpt lat="41.2441197622" lon="69.8154394537"><ele>1276.426</ele></trkpt>
   <trkpt lat="41.2439881663" lon="69.8155192494"><ele>1277.174</ele></trkpt>
   <trkpt lat="41.243866964" lon="69.8156245261"><ele>1277.531</ele></trkpt>
   <trkpt lat="41.2437067858" lon="69.815963155"><ele>1281.349</ele></trkpt>
   <trkpt lat="41.2437343623" lon="69.8161602974"><ele>1278.495</ele></trkpt>
   <trkpt lat="41.2436769882" lon="69.81634713"><ele>1287.454</ele></trkpt>
   <trkpt lat="41.2437343623" lon="69.8167254891"><ele>1293.098</ele></trkpt>
   <trkpt lat="41.2438358672" lon="69.8168672271"><ele>1293.979</ele></trkpt>
   <trkpt lat="41.2439482685" lon="69.8169886809"><ele>1289.553</ele></trkpt>
   <trkpt lat="41.2440415591" lon="69.8171400581"><ele>1301.638</ele></trkpt>
   <trkpt lat="41.2442011924" lon="69.8174633481"><ele>1308.322</ele></trkpt>
   <trkpt lat="41.2443201735" lon="69.8175814491"><ele>1305.546</ele></trkpt>
   <trkpt lat="41.2444705868" lon="69.8176506836"><ele>1312.008</ele></trkpt>
   <trkpt lat="41.2446180664" lon="69.8176698782"><ele>1315.006</ele></trkpt>
   <trkpt lat="41.2446783742" lon="69.8180549428"><ele>1320.462</ele></trkpt>
   <trkpt lat="41.2446382667" lon="69.8182428651"><ele>1325.307</ele></trkpt>
   <trkpt lat="41.2445660986" lon="69.8184171248"><ele>1324.059</ele></trkpt>
   <trkpt lat="41.2445290925" lon="69.818609238"><ele>1329.219</ele></trkpt>
   <trkpt lat="41.2446315612" lon="69.8187590227"><ele>1330.736</ele></trkpt>
   <trkpt lat="41.2447149612" lon="69.8191305924"><ele>1332.282</ele></trkpt>
   <trkpt lat="41.2445914957" lon="69.8194849793"><ele>1338.837</ele></trkpt>
   <trkpt lat="41.2446784999" lon="69.8196417209"><ele>1343.832</ele></trkpt>
   <trkpt lat="41.244736796" lon="69.8198278829"><ele>1343.374</ele></trkpt>
   <trkpt lat="41.2447462676" lon="69.8200243548"><ele>1346.912</ele></trkpt>
   <trkpt lat="41.2448128618" lon="69.8201984469"><ele>1346.584</ele></trkpt>
   <trkpt lat="41.2449102595" lon="69.8203395981"><ele>1354.472</ele></trkpt>
   <trkpt lat="41.2450430708" lon="69.8204214893"><ele>1354.896</ele></trkpt>
   <trkpt lat="41.2453205956" lon="69.8202710342"><ele>1363.204</ele></trkpt>
   <trkpt lat="41.2454615792" lon="69.8202153783"><ele>1366.533</ele></trkpt>
   <trkpt lat="41.2458933729" lon="69.8201494966"><ele>1366.206</ele></trkpt>
   <trkpt lat="41.246031381" lon="69.820084453"><ele>1372.247</ele></trkpt>
   <trkpt lat="41.2461807884" lon="69.8200737242"><ele>1370.531</ele></trkpt>
   <trkpt lat="41.2463902941" lon="69.8203611396"><ele>1366.67</ele></trkpt>
   <trkpt lat="41.2465234825" lon="69.8204404324"><ele>1364.662</ele></trkpt>
   <trkpt lat="41.2466463612" lon="69.82055736"><ele>1366.582</ele></trkpt>
   <trkpt lat="41.2467928769" lon="69.8205020394"><ele>1365.744</ele></trkpt>
   <trkpt lat="41.24682016" lon="69.82090194"><ele>1360.145</ele></trkpt>
   <trkpt lat="41.2469139954" lon="69.8210516408"><ele>1360.922</ele></trkpt>
   <trkpt lat="41.2472692623" lon="69.8214009985"><ele>1375.546</ele></trkpt>
   <trkpt lat="41.247808093" lon="69.8217240371"><ele>1392.573</ele></trkpt>
   <trkpt lat="41.2481692692" lon="69.8220523562"><ele>1403.685</ele></trkpt>
   <trkpt lat="41.2482968837" lon="69.8221434675"><ele>1407.619</ele></trkpt>
   <trkpt lat="41.2485680801" lon="69.8226270195"><ele>1403.498</ele></trkpt>
   <trkpt lat="41.2486386977" lon="69.8230038699"><ele>1396.591</ele></trkpt>
   <trkpt lat="41.2486227721" lon="69.8232019343"><ele>1392.642</ele></trkpt>
   <trkpt lat="41.2485749952" lon="69.8230146825"><ele>1397.503</ele></trkpt>
   <trkpt lat="41.2485895797" lon="69.8228200547"><ele>1405.897</ele></trkpt>
   <trkpt lat="41.2486599877" lon="69.8226435319"><ele>1410.441</ele></trkpt>
   <trkpt lat="41.2486182877" lon="69.8224582918"><ele>1411.578</ele></trkpt>
   <trkpt lat="41.2486475825" lon="69.822268777"><ele>1416.405</ele></trkpt>
   <trkpt lat="41.2487908711" lon="69.8222872172"><ele>1421.649</ele></trkpt>
   <trkpt lat="41.2490348683" lon="69.8224946693"><ele>1433.009</ele></trkpt>
   <trkpt lat="41.2491064917" lon="69.8226690967"><ele>1432.073</ele></trkpt>
   <trkpt lat="41.2493737906" lon="69.8228418477"><ele>1446.558</ele></trkpt>
   <trkpt lat="41.2496211825" lon="69.8230521496"><ele>1450.517</ele></trkpt>
   <trkpt lat="41.2497632976" lon="69.8231113259"><ele>1459.516</ele></trkpt>
   <trkpt lat="41.2498771658" lon="69.823229846"><ele>1458.31</ele></trkpt>
   <trkpt lat="41.2499729709" lon="69.8233733442"><ele>1465.504</ele></trkpt>
   <trkpt lat="41.250086881" lon="69.8234961391"><ele>1467.723</ele></trkpt>
   <trkpt lat="41.2503334766" lon="69.823711554"><ele>1474.318</ele></trkpt>
   <trkpt lat="41.2504711913" lon="69.8237700596"><ele>1484.292</ele></trkpt>
   <trkpt lat="41.2505943633" lon="69.8238800302"><ele>1485.712</ele></trkpt>
   <trkpt lat="41.2508523583" lon="69.8240663599"><ele>1487.364</ele></trkpt>
   <trkpt lat="41.2509931743" lon="69.8241071798"><ele>1492.254</ele></trkpt>
   <trkpt lat="41.2511274943" lon="69.8241824493"><ele>1493.024</ele></trkpt>
   <trkpt lat="41.2512711601" lon="69.8242170665"><ele>1497.2</ele></trkpt>
   <trkpt lat="41.2514203999" lon="69.824226119"><ele>1498.812</ele></trkpt>
   <trkpt lat="41.2515408897" lon="69.8243333235"><ele>1505.571</ele></trkpt>
   <trkpt lat="41.2516851842" lon="69.8243666835"><ele>1508.039</ele></trkpt>
   <trkpt lat="41.2518232761" lon="69.8244348284"><ele>1510.005</ele></trkpt>
   <trkpt lat="41.2519550815" lon="69.8245325614"><ele>1513.16</ele></trkpt>
   <trkpt lat="41.2520949754" lon="69.8245803382"><ele>1524.378</ele></trkpt>
   <trkpt lat="41.252241072" lon="69.8246053163"><ele>1527.105</ele></trkpt>
   <trkpt lat="41.2523485699" lon="69.824736074"><ele>1528.061</ele></trkpt>
   <trkpt lat="41.252744992" lon="69.8249962483"><ele>1553.879</ele></trkpt>
   <trkpt lat="41.2528887836" lon="69.8249913868"><ele>1560.341</ele></trkpt>
   <trkpt lat="41.2530232712" lon="69.8250599507"><ele>1561.352</ele></trkpt>
   <trkpt lat="41.2532532706" lon="69.8253031936"><ele>1569.361</ele></trkpt>
   <trkpt lat="41.2534987766" lon="69.8255037725"><ele>1584.708</ele></trkpt>
   <trkpt lat="41.2536513691" lon="69.8258336842"><ele>1601.996</ele></trkpt>
   <trkpt lat="41.2537695959" lon="69.8259485163"><ele>1599.205</ele></trkpt>
   <trkpt lat="41.25402428" lon="69.8261429764"><ele>1613.051</ele></trkpt>
   <trkpt lat="41.2541554987" lon="69.8262220178"><ele>1619.337</ele></trkpt>
   <trkpt lat="41.2542939677" lon="69.8262740694"><ele>1622.86</ele></trkpt>
   <trkpt lat="41.2544070815" lon="69.8264036536"><ele>1628.366</ele></trkpt>
   <trkpt lat="41.2545511664" lon="69.8264311463"><ele>1637.469</ele></trkpt>
   <trkpt lat="41.2546938683" lon="69.8264867183"><ele>1642.859</ele></trkpt>
   <trkpt lat="41.2549300704" lon="69.8267169692"><ele>1661.757</ele></trkpt>
   <trkpt lat="41.255214175" lon="69.8268035542"><ele>1679.247</ele></trkpt>
   <trkpt lat="41.2553506743" lon="69.8268691845"><ele>1686.791</ele></trkpt>
   <trkpt lat="41.2554967709" lon="69.8268614732"><ele>1687.901</ele></trkpt>
   <trkpt lat="41.2556325996" lon="69.8269403469"><ele>1700.816</ele></trkpt>
   <trkpt lat="41.255748689" lon="69.8270564362"><ele>1702.639</ele></trkpt>
   <trkpt lat="41.2559465857" lon="69.8273446899"><ele>1716.274</ele></trkpt>
   <trkpt lat="41.2560590708" lon="69.827473855"><ele>1717.251</ele></trkpt>
   <trkpt lat="41.2562456939" lon="69.827772167"><ele>1730.11</ele></trkpt>
   <trkpt lat="41.2563137969" lon="69.8279415652"><ele>1733.316</ele></trkpt>
   <trkpt lat="41.2565087599" lon="69.828232082"><ele>1744.724</ele></trkpt>
   <trkpt lat="41.2566458879" lon="69.8282937728"><ele>1753.101</ele></trkpt>
   <trkpt lat="41.2567765617" lon="69.8283810284"><ele>1762.588</ele></trkpt>
   <trkpt lat="41.2568881668" lon="69.8285042424"><ele>1769.269</ele></trkpt>
   <trkpt lat="41.2571465809" lon="69.8286797594"><ele>1783.577</ele></trkpt>
   <trkpt lat="41.2572114987" lon="69.8288637422"><ele>1791.692</ele></trkpt>
   <trkpt lat="41.2573153924" lon="69.8290040553"><ele>1798.744</ele></trkpt>
   <trkpt lat="41.2573532786" lon="69.8291886248"><ele>1812.531</ele></trkpt>
   <trkpt lat="41.2574376844" lon="69.8293519881"><ele>1819.389</ele></trkpt>
   <trkpt lat="41.2573767898" lon="69.8301251348"><ele>1818.068</ele></trkpt>
   <trkpt lat="41.2574272908" lon="69.8303061839"><ele>1827.028</ele></trkpt>
   <trkpt lat="41.2574305597" lon="69.8304975428"><ele>1829.254</ele></trkpt>
   <trkpt lat="41.257478588" lon="69.830679933"><ele>1834.854</ele></trkpt>
   <trkpt lat="41.2575747704" lon="69.8308223415"><ele>1843.175</ele></trkpt>
   <trkpt lat="41.2576461842" lon="69.8309903987"><ele>1846.425</ele></trkpt>
   <trkpt lat="41.2577325597" lon="69.8313591186"><ele>1863.291</ele></trkpt>
   <trkpt lat="41.2577016724" lon="69.831554836"><ele>1871.822</ele></trkpt>
   <trkpt lat="41.2577135747" lon="69.8317471169"><ele>1877.67</ele></trkpt>
   <trkpt lat="41.257699996" lon="69.8319403198"><ele>1878.655</ele></trkpt>
   <trkpt lat="41.2576617745" lon="69.8321290802"><ele>1880.926</ele></trkpt>
   <trkpt lat="41.2575935877" lon="69.8323008254"><ele>1888.181</ele></trkpt>
   <trkpt lat="41.2574956871" lon="69.832442731"><ele>1880.324</ele></trkpt>
   <trkpt lat="41.257408683" lon="69.8326083574"><ele>1877.068</ele></trkpt>
   <trkpt lat="41.2572923841" lon="69.832739199"><ele>1872.525</ele></trkpt>
   <trkpt lat="41.257204877" lon="69.8328954376"><ele>1873.452</ele></trkpt>
   <trkpt lat="41.2571494726" lon="69.8330759838"><ele>1871.835</ele></trkpt>
   <trkpt lat="41.2571267996" lon="69.8332720365"><ele>1868.583</ele></trkpt>
   <trkpt lat="41.2569259692" lon="69.8337860987"><ele>1866.926</ele></trkpt>
   <trkpt lat="41.2568546811" lon="69.8343675513"><ele>1861.821</ele></trkpt>
   <trkpt lat="41.2568003663" lon="69.8345498577"><ele>1868.342</ele></trkpt>
   <trkpt lat="41.256838965" lon="69.8349393647"><ele>1868.747</ele></trkpt>
   <trkpt lat="41.2567915653" lon="69.835328285"><ele>1875.718</ele></trkpt>
   <trkpt lat="41.2567924874" lon="69.8355215717"><ele>1878.343</ele></trkpt>
   <trkpt lat="41.2568127716" lon="69.8357176244"><ele>1885.562</ele></trkpt>
   <trkpt lat="41.2567712811" lon="69.8361003421"><ele>1888.355</ele></trkpt>
   <trkpt lat="41.2568941598" lon="69.8364506219"><ele>1897.372</ele></trkpt>
   <trkpt lat="41.2568987699" lon="69.8366423998"><ele>1897.947</ele></trkpt>
   <trkpt lat="41.2568641945" lon="69.8368311603"><ele>1904.892</ele></trkpt>
   <trkpt lat="41.2568511607" lon="69.8372150514"><ele>1909.377</ele></trkpt>
   <trkpt lat="41.2567542659" lon="69.8373599745"><ele>1910.904</ele></trkpt>
   <trkpt lat="41.2566288726" lon="69.8374682687"><ele>1913.765</ele></trkpt>
   <trkpt lat="41.2565306786" lon="69.8376134433"><ele>1915.155</ele></trkpt>
   <trkpt lat="41.2563083905" lon="69.8378717735"><ele>1915.164</ele></trkpt>
   <trkpt lat="41.2559457894" lon="69.8382095642"><ele>1916.716</ele></trkpt>
   <trkpt lat="41.2557260997" lon="69.8384621948"><ele>1918.048</ele></trkpt>
   <trkpt lat="41.2555862896" lon="69.8388003208"><ele>1925.236</ele></trkpt>
   <trkpt lat="41.2555489901" lon="69.8389893327"><ele>1933.663</ele></trkpt>
   <trkpt lat="41.2554888919" lon="69.8391643468"><ele>1932.177</ele></trkpt>
   <trkpt lat="41.2554927894" lon="69.8393603995"><ele>1936.514</ele></trkpt>
   <trkpt lat="41.2554735949" lon="69.839558883"><ele>1941.672</ele></trkpt>
   <trkpt lat="41.2553325694" lon="69.8395000421"><ele>1953.504</ele></trkpt>
   <trkpt lat="41.2551952738" lon="69.8395574581"><ele>1961.334</ele></trkpt>
   <trkpt lat="41.2550488839" lon="69.8395661753"><ele>1970.017</ele></trkpt>
   <trkpt lat="41.2549248736" lon="69.8394631617"><ele>1976.426</ele></trkpt>
   <trkpt lat="41.2547769749" lon="69.8394146305"><ele>1984.211</ele></trkpt>
   <trkpt lat="41.2548794856" lon="69.8395604756"><ele>1985.435</ele></trkpt>
   <trkpt lat="41.2549161983" lon="69.8397456318"><ele>1974.34</ele></trkpt>
   <trkpt lat="41.2549359796" lon="69.8399381641"><ele>1972.697</ele></trkpt>
   <trkpt lat="41.2549210598" lon="69.8401329596"><ele>1973.76</ele></trkpt>
   <trkpt lat="41.2548672899" lon="69.8403124999"><ele>1977.702</ele></trkpt>
   <trkpt lat="41.2548567706" lon="69.8405081336"><ele>1968.593</ele></trkpt>
   <trkpt lat="41.2549087803" lon="69.8406892665"><ele>1969.756</ele></trkpt>
   <trkpt lat="41.2550423879" lon="69.8410341818"><ele>1964.378</ele></trkpt>
   <trkpt lat="41.255020092" lon="69.8412306536"><ele>1967.717</ele></trkpt>
   <trkpt lat="41.2550255822" lon="69.8416147962"><ele>1956.875</ele></trkpt>
   <trkpt lat="41.2549648972" lon="69.8417947557"><ele>1953.496</ele></trkpt>
   <trkpt lat="41.2550495963" lon="69.8419525869"><ele>1951.59</ele></trkpt>
   <trkpt lat="41.2550641808" lon="69.8421446163"><ele>1945.488</ele></trkpt>
   <trkpt lat="41.2549725666" lon="69.8422960773"><ele>1949.434</ele></trkpt>
   <trkpt lat="41.2549032902" lon="69.842481485"><ele>1947.594</ele></trkpt>
   <trkpt lat="41.254857986" lon="69.8426702455"><ele>1948.277</ele></trkpt>
   <trkpt lat="41.2548453712" lon="69.8428646218"><ele>1947.129</ele></trkpt>
   <trkpt lat="41.2548526635" lon="69.8430573218"><ele>1949.562</ele></trkpt>
   <trkpt lat="41.2548251709" lon="69.8432456631"><ele>1946.383</ele></trkpt>
   <trkpt lat="41.2547834709" lon="69.8434331663"><ele>1939.781</ele></trkpt>
   <trkpt lat="41.2547053935" lon="69.8435951885"><ele>1941.274</ele></trkpt>
   <trkpt lat="41.2545898908" lon="69.8439566162"><ele>1948.885</ele></trkpt>
   <trkpt lat="41.2546146594" lon="69.8441534232"><ele>1945.676</ele></trkpt>
   <trkpt lat="41.2545505797" lon="69.8443317901"><ele>1945.796</ele></trkpt>
   <trkpt lat="41.2544317662" lon="69.8444572672"><ele>1945.091</ele></trkpt>
   <trkpt lat="41.2542943868" lon="69.8445155215"><ele>1946.084</ele></trkpt>
   <trkpt lat="41.2540637588" lon="69.8447484545"><ele>1943.975</ele></trkpt>
   <trkpt lat="41.2540234837" lon="69.8449377179"><ele>1946.575</ele></trkpt>
   <trkpt lat="41.2539593622" lon="69.8451104689"><ele>1948.099</ele></trkpt>
   <trkpt lat="41.2539323724" lon="69.8454989702"><ele>1954.547</ele></trkpt>
   <trkpt lat="41.2538868587" lon="69.8456860542"><ele>1950.891</ele></trkpt>
   <trkpt lat="41.2536682587" lon="69.8459497489"><ele>1962.799</ele></trkpt>
   <trkpt lat="41.2534997824" lon="69.8464896273"><ele>1960.429</ele></trkpt>
   <trkpt lat="41.2534213697" lon="69.8466541641"><ele>1962.414</ele></trkpt>
   <trkpt lat="41.2534085873" lon="69.8468507197"><ele>1966.252</ele></trkpt>
   <trkpt lat="41.2534333977" lon="69.847237796"><ele>1971.577</ele></trkpt>
   <trkpt lat="41.2535068651" lon="69.8476215195"><ele>1970.852</ele></trkpt>
   <trkpt lat="41.253501375" lon="69.8478136327"><ele>1975.915</ele></trkpt>
   <trkpt lat="41.253573166" lon="69.848190064"><ele>1983.601</ele></trkpt>
   <trkpt lat="41.2535225812" lon="69.8483735439"><ele>1981.974</ele></trkpt>
   <trkpt lat="41.2534725831" lon="69.8487635538"><ele>1983.109</ele></trkpt>
   <trkpt lat="41.2535002853" lon="69.848951979"><ele>1987.144</ele></trkpt>
   <trkpt lat="41.2536740841" lon="69.8494851519"><ele>1996.947</ele></trkpt>
   <trkpt lat="41.2537843899" lon="69.8496200167"><ele>1992.678</ele></trkpt>
   <trkpt lat="41.2538421832" lon="69.8499991302"><ele>1997.279</ele></trkpt>
   <trkpt lat="41.2539119625" lon="69.8501727194"><ele>2001.945</ele></trkpt>
   <trkpt lat="41.2540435584" lon="69.8502553649"><ele>1994.224</ele></trkpt>
   <trkpt lat="41.2541425906" lon="69.8504003719"><ele>1996.346</ele></trkpt>
   <trkpt lat="41.2545043954" lon="69.8507351451"><ele>2004.371</ele></trkpt>
   <trkpt lat="41.2546372905" lon="69.8508230712"><ele>2005.033</ele></trkpt>
   <trkpt lat="41.2549231972" lon="69.8509221453"><ele>2005.629</ele></trkpt>
   <trkpt lat="41.2550695872" lon="69.8509128414"><ele>2007.36</ele></trkpt>
   <trkpt lat="41.2553523926" lon="69.8509897873"><ele>2013.913</ele></trkpt>
   <trkpt lat="41.2554928733" lon="69.8510380671"><ele>2015.624</ele></trkpt>
   <trkpt lat="41.2556303784" lon="69.8511186171"><ele>2017.895</ele></trkpt>
   <trkpt lat="41.2556060709" lon="69.8513093893"><ele>2019.58</ele></trkpt>
   <trkpt lat="41.255456873" lon="69.8513046954"><ele>2026.807</ele></trkpt>
   <trkpt lat="41.2551796835" lon="69.8514364589"><ele>2036.086</ele></trkpt>
   <trkpt lat="41.2550346765" lon="69.8514627781"><ele>2041.761</ele></trkpt>
   <trkpt lat="41.2549380751" lon="69.8516088747"><ele>2046.275</ele></trkpt>
   <trkpt lat="41.2547090815" lon="69.8518442385"><ele>2060.734</ele></trkpt>
   <trkpt lat="41.2545759769" lon="69.8519248724"><ele>2069.528</ele></trkpt>
   <trkpt lat="41.2544308861" lon="69.8519627586"><ele>2079.447</ele></trkpt>
   <trkpt lat="41.2543310996" lon="69.8521021497"><ele>2085.092</ele></trkpt>
   <trkpt lat="41.2542020602" lon="69.8521909978"><ele>2097.467</ele></trkpt>
   <trkpt lat="41.2540572628" lon="69.8521904949"><ele>2100.677</ele></trkpt>
   <trkpt lat="41.2539137646" lon="69.8521533631"><ele>2105.983</ele></trkpt>
   <trkpt lat="41.2537841804" lon="69.8522428818"><ele>2113.603</ele></trkpt>
   <trkpt lat="41.2536450827" lon="69.8522991244"><ele>2114.016</ele></trkpt>
   <trkpt lat="41.2535018779" lon="69.8522749845"><ele>2127.418</ele></trkpt>
   <trkpt lat="41.2533823939" lon="69.8523818538"><ele>2130.744</ele></trkpt>
   <trkpt lat="41.2533115668" lon="69.852555443"><ele>2137.095</ele></trkpt>
   <trkpt lat="41.2532827749" lon="69.8527440358"><ele>2143.19</ele></trkpt>
   <trkpt lat="41.2532156778" lon="69.852913937"><ele>2142.052</ele></trkpt>
   <trkpt lat="41.2528805693" lon="69.8532880213"><ele>2144.422</ele></trkpt>
   <trkpt lat="41.252795493" lon="69.8534424998"><ele>2146.466</ele></trkpt>
   <trkpt lat="41.2525566926" lon="69.8539415583"><ele>2139.439</ele></trkpt>
   <trkpt lat="41.2525077842" lon="69.8541252896"><ele>2150.587</ele></trkpt>
   <trkpt lat="41.2524350712" lon="69.8542993818"><ele>2149.284</ele></trkpt>
   <trkpt lat="41.2524010826" lon="69.8544940934"><ele>2149.457</ele></trkpt>
   <trkpt lat="41.252291573" lon="69.8546179779"><ele>2147.504</ele></trkpt>
   <trkpt lat="41.2522277867" lon="69.8549987678"><ele>2150.64</ele></trkpt>
   <trkpt lat="41.2522478614" lon="69.855189037"><ele>2148.942</ele></trkpt>
   <trkpt lat="41.2522579616" lon="69.8555843275"><ele>2158.867</ele></trkpt>
   <trkpt lat="41.2523212868" lon="69.8559690569"><ele>2161.632</ele></trkpt>
   <trkpt lat="41.2523256873" lon="69.8561622597"><ele>2163.764</ele></trkpt>
   <trkpt lat="41.2521908644" lon="69.8562315781"><ele>2168.05</ele></trkpt>
   <trkpt lat="41.2520744817" lon="69.8563557979"><ele>2169.033</ele></trkpt>
   <trkpt lat="41.2520005952" lon="69.8565211728"><ele>2168.744</ele></trkpt>
   <trkpt lat="41.2517756668" lon="69.8567627393"><ele>2171.657</ele></trkpt>
   <trkpt lat="41.2516868606" lon="69.8569188941"><ele>2174.2</ele></trkpt>
   <trkpt lat="41.2516978828" lon="69.8571117617"><ele>2175.953</ele></trkpt>
   <trkpt lat="41.2516881598" lon="69.8573046293"><ele>2176.73</ele></trkpt>
   <trkpt lat="41.2517297759" lon="69.8576918732"><ele>2183.74</ele></trkpt>
   <trkpt lat="41.2517744934" lon="69.8578801308"><ele>2184.869</ele></trkpt>
   <trkpt lat="41.2517303627" lon="69.8580621857"><ele>2191.207</ele></trkpt>
   <trkpt lat="41.2515940729" lon="69.8584210988"><ele>2182.242</ele></trkpt>
   <trkpt lat="41.2515401773" lon="69.8588057444"><ele>2178.865</ele></trkpt>
   <trkpt lat="41.2515445778" lon="69.8590011265"><ele>2173.601</ele></trkpt>
   <trkpt lat="41.2514412708" lon="69.8591413558"><ele>2174.36</ele></trkpt>
   <trkpt lat="41.2513611817" lon="69.8593001928"><ele>2193.095</ele></trkpt>
   <trkpt lat="41.2512620657" lon="69.859442769"><ele>2195.619</ele></trkpt>
   <trkpt lat="41.2511259855" lon="69.8597809788"><ele>2205.351</ele></trkpt>
   <trkpt lat="41.2510554937" lon="69.8603525408"><ele>2224.877</ele></trkpt>
   <trkpt lat="41.2510657616" lon="69.8607370187"><ele>2234.345</ele></trkpt>
   <trkpt lat="41.2511070843" lon="69.8609250248"><ele>2245.001</ele></trkpt>
   <trkpt lat="41.2511722955" lon="69.8610968538"><ele>2243.476</ele></trkpt>
   <trkpt lat="41.251259174" lon="69.8612525895"><ele>2251.258</ele></trkpt>
   <trkpt lat="41.2513708628" lon="69.8613846883"><ele>2254.812</ele></trkpt>
   <trkpt lat="41.2514430729" lon="69.8615531646"><ele>2263.554</ele></trkpt>
   <trkpt lat="41.2515127685" lon="69.8619289253"><ele>2268.61</ele></trkpt>
   <trkpt lat="41.2516335936" lon="69.862287084"><ele>2276.092</ele></trkpt>
   <trkpt lat="41.2516749583" lon="69.8624708992"><ele>2287.261</ele></trkpt>
   <trkpt lat="41.2518803987" lon="69.8629857995"><ele>2304.679</ele></trkpt>
   <trkpt lat="41.2521585941" lon="69.863428364"><ele>2322.178</ele></trkpt>
   <trkpt lat="41.2522897709" lon="69.8635067348"><ele>2325.773</ele></trkpt>
   <trkpt lat="41.2523852827" lon="69.863651574"><ele>2328.754</ele></trkpt>
   <trkpt lat="41.252252681" lon="69.8637334652"><ele>2329.968</ele></trkpt>
   <trkpt lat="41.2521100629" lon="69.8637814935"><ele>2334.796</ele></trkpt>
   <trkpt lat="41.2518571809" lon="69.8639772948"><ele>2342.591</ele></trkpt>
   <trkpt lat="41.2517171612" lon="69.8640305199"><ele>2353.222</ele></trkpt>
   <trkpt lat="41.2515974676" lon="69.8641526442"><ele>2349.894</ele></trkpt>
   <trkpt lat="41.2515036741" lon="69.8643042728"><ele>2354.673</ele></trkpt>
   <trkpt lat="41.2510471956" lon="69.8647808679"><ele>2381.98</ele></trkpt>
   <trkpt lat="41.25083396" lon="69.8650566325"><ele>2381.732</ele></trkpt>
   <trkpt lat="41.2505920583" lon="69.8655508295"><ele>2396.556</ele></trkpt>
   <trkpt lat="41.2504624741" lon="69.8656470537"><ele>2399.933</ele></trkpt>
   <trkpt lat="41.250352294" lon="69.865780326"><ele>2398.038</ele></trkpt>
   <trkpt lat="41.2501289581" lon="69.8662880179"><ele>2387.998</ele></trkpt>
   <trkpt lat="41.2498723881" lon="69.8664858308"><ele>2389.949</ele></trkpt>
   <trkpt lat="41.2497696679" lon="69.8666242998"><ele>2392.407</ele></trkpt>
   <trkpt lat="41.249689495" lon="69.8667834722"><ele>2399.808</ele></trkpt>
   <trkpt lat="41.2496361861" lon="69.8669672873"><ele>2403.484</ele></trkpt>
   <trkpt lat="41.2495406743" lon="69.8671218496"><ele>2403.488</ele></trkpt>
   <trkpt lat="41.2493220742" lon="69.8673862986"><ele>2416.872</ele></trkpt>
   <trkpt lat="41.2492287837" lon="69.8675449681"><ele>2419.868</ele></trkpt>
   <trkpt lat="41.249107288" lon="69.8676613927"><ele>2424.964</ele></trkpt>
   <trkpt lat="41.2489712916" lon="69.8675947566"><ele>2432.269</ele></trkpt>
   <trkpt lat="41.2488433838" lon="69.8674938385"><ele>2442.594</ele></trkpt>
   <trkpt lat="41.2486969938" lon="69.8675096803"><ele>2450.308</ele></trkpt>
   <trkpt lat="41.2485493885" lon="69.867490821"><ele>2455.799</ele></trkpt>
   <trkpt lat="41.2484127635" lon="69.867417144"><ele>2464.429</ele></trkpt>
   <trkpt lat="41.2485291881" lon="69.8675297968"><ele>2455.743</ele></trkpt>
   <trkpt lat="41.2488190762" lon="69.8675074171"><ele>2443.272</ele></trkpt>
   <trkpt lat="41.2489473613" lon="69.8675948404"><ele>2433.554</ele></trkpt>
   <trkpt lat="41.2489725908" lon="69.8677836847"><ele>2429.321</ele></trkpt>
   <trkpt lat="41.2491175977" lon="69.8677575331"><ele>2419.819</ele></trkpt>
   <trkpt lat="41.249263359" lon="69.8677840199"><ele>2413.544</ele></trkpt>
   <trkpt lat="41.2492982696" lon="69.8679722775"><ele>2405.872</ele></trkpt>
   <trkpt lat="41.2493736649" lon="69.8681357246"><ele>2397.727</ele></trkpt>
   <trkpt lat="41.2494881617" lon="69.8682612855"><ele>2394.56</ele></trkpt>
   <trkpt lat="41.2495860623" lon="69.8684028559"><ele>2389.751</ele></trkpt>
   <trkpt lat="41.2496669896" lon="69.8685625311"><ele>2388.191</ele></trkpt>
   <trkpt lat="41.2497945621" lon="69.8689202707"><ele>2390.258</ele></trkpt>
   <trkpt lat="41.2498855896" lon="69.8690785211"><ele>2393.972</ele></trkpt>
   <trkpt lat="41.2498324902" lon="69.869264767"><ele>2394.786</ele></trkpt>
   <trkpt lat="41.2498063806" lon="69.8694634181"><ele>2398.831</ele></trkpt>
   <trkpt lat="41.2497252857" lon="69.8696288768"><ele>2401.077</ele></trkpt>
   <trkpt lat="41.2497995913" lon="69.869793665"><ele>2394.204</ele></trkpt>
   <trkpt lat="41.2499419998" lon="69.8698336467"><ele>2391.082</ele></trkpt>
   <trkpt lat="41.2500819776" lon="69.8699003667"><ele>2385.186</ele></trkpt>
   <trkpt lat="41.2501987794" lon="69.8700189706"><ele>2378.106</ele></trkpt>
   <trkpt lat="41.2501779923" lon="69.8702120897"><ele>2374.003</ele></trkpt>
   <trkpt lat="41.2501965582" lon="69.870405544"><ele>2369.992</ele></trkpt>
   <trkpt lat="41.2502774855" lon="69.8705644649"><ele>2361.206</ele></trkpt>
   <trkpt lat="41.2502325585" lon="69.8707468551"><ele>2354.881</ele></trkpt>
   <trkpt lat="41.2501653775" lon="69.8709204443"><ele>2351.197</ele></trkpt>
   <trkpt lat="41.2501423692" lon="69.8711103782"><ele>2357.564</ele></trkpt>
   <trkpt lat="41.2500810975" lon="69.8712911759"><ele>2355.126</ele></trkpt>
   <trkpt lat="41.2500793792" lon="69.8714838758"><ele>2353.595</ele></trkpt>
   <trkpt lat="41.2500988671" lon="69.8716766596"><ele>2353.153</ele></trkpt>
   <trkpt lat="41.2500847855" lon="69.8718711198"><ele>2357.163</ele></trkpt>
   <trkpt lat="41.2500937961" lon="69.8720639873"><ele>2361.135</ele></trkpt>
   <trkpt lat="41.2500005893" lon="69.8722204775"><ele>2364.932</ele></trkpt>
   <trkpt lat="41.2498415846" lon="69.8725527361"><ele>2369.807</ele></trkpt>
   <trkpt lat="41.2498212585" lon="69.872745017"><ele>2372.835</ele></trkpt>
   <trkpt lat="41.2496344678" lon="69.8730376292"><ele>2380.66</ele></trkpt>
   <trkpt lat="41.2494059771" lon="69.8732749209"><ele>2382.394</ele></trkpt>
   <trkpt lat="41.2491479821" lon="69.8734535393"><ele>2378.948</ele></trkpt>
   <trkpt lat="41.2489724651" lon="69.8737710457"><ele>2376.227</ele></trkpt>
   <trkpt lat="41.2488550765" lon="69.8738863807"><ele>2371.886</ele></trkpt>
   <trkpt lat="41.2485650627" lon="69.8739530169"><ele>2365.379</ele></trkpt>
   <trkpt lat="41.2482945786" lon="69.8740975209"><ele>2363.66</ele></trkpt>
   <trkpt lat="41.2481139905" lon="69.8744114231"><ele>2363.809</ele></trkpt>
   <trkpt lat="41.2479595959" lon="69.8747490462"><ele>2366.405</ele></trkpt>
   <trkpt lat="41.247751096" lon="69.8750221286"><ele>2366.632</ele></trkpt>
   <trkpt lat="41.2475299814" lon="69.8752700653"><ele>2362.353</ele></trkpt>
   <trkpt lat="41.2473953681" lon="69.8753390484"><ele>2361.241</ele></trkpt>
   <trkpt lat="41.2472422726" lon="69.875350783"><ele>2365.203</ele></trkpt>
   <trkpt lat="41.2470187692" lon="69.875603246"><ele>2362.596</ele></trkpt>
   <trkpt lat="41.246888682" lon="69.8757014819"><ele>2364.572</ele></trkpt>
   <trkpt lat="41.2467499615" lon="69.8757721413"><ele>2359.916</ele></trkpt>
   <trkpt lat="41.24660617" lon="69.875778763"><ele>2352.811</ele></trkpt>
   <trkpt lat="41.246469964" lon="69.8758478299"><ele>2360.077</ele></trkpt>
   <trkpt lat="41.2463270945" lon="69.8758921702"><ele>2357.08</ele></trkpt>
   <trkpt lat="41.2462139807" lon="69.876011277"><ele>2357.826</ele></trkpt>
   <trkpt lat="41.2460668783" lon="69.8760890611"><ele>2364.759</ele></trkpt>
   <trkpt lat="41.2459151659" lon="69.8760951799"><ele>2362.175</ele></trkpt>
   <trkpt lat="41.2457908623" lon="69.8761977744"><ele>2376.31</ele></trkpt>
   <trkpt lat="41.2456805983" lon="69.8763210721"><ele>2368.324</ele></trkpt>
   <trkpt lat="41.2455370582" lon="69.8763805837"><ele>2375.949</ele></trkpt>
   <trkpt lat="41.2453892853" lon="69.8763845232"><ele>2380.74</ele></trkpt>
   <trkpt lat="41.2452463738" lon="69.8763437871"><ele>2380.513</ele></trkpt>
   <trkpt lat="41.2451034624" lon="69.8763838526"><ele>2386.444</ele></trkpt>
   <trkpt lat="41.2449601737" lon="69.8763559409"><ele>2383.717</ele></trkpt>
   <trkpt lat="41.2446731774" lon="69.8764301207"><ele>2386.694</ele></trkpt>
   <trkpt lat="41.2444238996" lon="69.876643524"><ele>2389.062</ele></trkpt>
   <trkpt lat="41.2442803595" lon="69.8766705975"><ele>2384.22</ele></trkpt>
   <trkpt lat="41.2442060958" lon="69.8765033785"><ele>2384.559</ele></trkpt>
   <trkpt lat="41.2441038785" lon="69.8763621435"><ele>2379.164</ele></trkpt>
   <trkpt lat="41.2439582849" lon="69.876328532"><ele>2379.154</ele></trkpt>
   <trkpt lat="41.2438093803" lon="69.8763333935"><ele>2385.339</ele></trkpt>
   <trkpt lat="41.2436771977" lon="69.8764108423"><ele>2383.988</ele></trkpt>
   <trkpt lat="41.2435364656" lon="69.8764607985"><ele>2385.544</ele></trkpt>
   <trkpt lat="41.2433904947" lon="69.8764873691"><ele>2383.91</ele></trkpt>
   <trkpt lat="41.2432646824" lon="69.8763848584"><ele>2381.211</ele></trkpt>
   <trkpt lat="41.2431205974" lon="69.8764044721"><ele>2380.598</ele></trkpt>
   <trkpt lat="41.2429714834" lon="69.8763886303"><ele>2380.142</ele></trkpt>
   <trkpt lat="41.2426779911" lon="69.8764121834"><ele>2378.133</ele></trkpt>
   <trkpt lat="41.2425491612" lon="69.8765020374"><ele>2385.023</ele></trkpt>
   <trkpt lat="41.2424361731" lon="69.8766256705"><ele>2388.227</ele></trkpt>
   <trkpt lat="41.2423044934" lon="69.8767180391"><ele>2390.019</ele></trkpt>
   <trkpt lat="41.2420194668" lon="69.8766479664"><ele>2395.937</ele></trkpt>
   <trkpt lat="41.2415672632" lon="69.8766077332"><ele>2394.402</ele></trkpt>
   <trkpt lat="41.2412775846" lon="69.8766373214"><ele>2395.224</ele></trkpt>
   <trkpt lat="41.2411385707" lon="69.8766942345"><ele>2398.846</ele></trkpt>
   <trkpt lat="41.2408422704" lon="69.8766968329"><ele>2399.072</ele></trkpt>
   <trkpt lat="41.2407132729" lon="69.8765996866"><ele>2399.909</ele></trkpt>
   <trkpt lat="41.2405652904" lon="69.876589293"><ele>2401.177</ele></trkpt>
   <trkpt lat="41.2404283721" lon="69.8766489722"><ele>2401.312</ele></trkpt>
   <trkpt lat="41.2402799705" lon="69.8766387463"><ele>2404.02</ele></trkpt>
   <trkpt lat="41.2398566844" lon="69.8764694318"><ele>2390.376</ele></trkpt>
   <trkpt lat="41.2397104621" lon="69.8764511593"><ele>2391.757</ele></trkpt>
   <trkpt lat="41.2395720768" lon="69.8763510794"><ele>2390.607</ele></trkpt>
   <trkpt lat="41.2394542692" lon="69.8762393486"><ele>2389.595</ele></trkpt>
   <trkpt lat="41.2390310669" lon="69.8760650888"><ele>2382.436</ele></trkpt>
   <trkpt lat="41.2385853592" lon="69.8759989556"><ele>2377.019</ele></trkpt>
   <trkpt lat="41.2384387597" lon="69.8760117799"><ele>2375.508</ele></trkpt>
   <trkpt lat="41.2380740631" lon="69.8763420269"><ele>2369.939</ele></trkpt>
   <trkpt lat="41.2377933951" lon="69.8764545959"><ele>2363.054</ele></trkpt>
   <trkpt lat="41.2375049738" lon="69.8763880436"><ele>2363.51</ele></trkpt>
   <trkpt lat="41.2370093938" lon="69.8759648413"><ele>2363.954</ele></trkpt>
   <trkpt lat="41.2368732716" lon="69.8758924216"><ele>2361.451</ele></trkpt>
   <trkpt lat="41.2367523627" lon="69.8757833731"><ele>2363.556</ele></trkpt>
   <trkpt lat="41.2364277735" lon="69.875389256"><ele>2371.446</ele></trkpt>
   <trkpt lat="41.2362832695" lon="69.8754098755"><ele>2374.93</ele></trkpt>
   <trkpt lat="41.236143166" lon="69.8753622662"><ele>2374.053</ele></trkpt>
   <trkpt lat="41.2358509728" lon="69.8753767669"><ele>2367.129</ele></trkpt>
   <trkpt lat="41.2357183711" lon="69.8754552215"><ele>2364.105</ele></trkpt>
   <trkpt lat="41.2355963725" lon="69.8753527947"><ele>2360.907</ele></trkpt>
   <trkpt lat="41.2354520781" lon="69.8753455863"><ele>2352.233</ele></trkpt>
   <trkpt lat="41.2352814644" lon="69.8750314325"><ele>2342.824</ele></trkpt>
   <trkpt lat="41.2349939651" lon="69.8749535646"><ele>2330.465</ele></trkpt>
   <trkpt lat="41.2348561666" lon="69.874886258"><ele>2321.001</ele></trkpt>
   <trkpt lat="41.2347125846" lon="69.8749004234"><ele>2321.027</ele></trkpt>
   <trkpt lat="41.2346013987" lon="69.8747731861"><ele>2313.811</ele></trkpt>
   <trkpt lat="41.2343533782" lon="69.8745645605"><ele>2301.841</ele></trkpt>
   <trkpt lat="41.2342607582" lon="69.8744094953"><ele>2300.385</ele></trkpt>
   <trkpt lat="41.2341184754" lon="69.8743760515"><ele>2294.411</ele></trkpt>
   <trkpt lat="41.2339961834" lon="69.8742736247"><ele>2291.946</ele></trkpt>
   <trkpt lat="41.2338567923" lon="69.8741957568"><ele>2288.544</ele></trkpt>
   <trkpt lat="41.2336056705" lon="69.873988137"><ele>2280.872</ele></trkpt>
   <trkpt lat="41.2335078956" lon="69.8738446389"><ele>2279.713</ele></trkpt>
   <trkpt lat="41.2329490741" lon="69.8732202709"><ele>2277.846</ele></trkpt>
   <trkpt lat="41.2328119881" lon="69.8731589992"><ele>2279.892</ele></trkpt>
   <trkpt lat="41.2327515965" lon="69.8729840689"><ele>2275.567</ele></trkpt>
   <trkpt lat="41.2326592698" lon="69.8728346195"><ele>2278.974</ele></trkpt>
   <trkpt lat="41.23253878" lon="69.8729451768"><ele>2272.042</ele></trkpt>
   <trkpt lat="41.2323944855" lon="69.872911733"><ele>2271.83</ele></trkpt>
   <trkpt lat="41.23225807" lon="69.8728365474"><ele>2269.004</ele></trkpt>
   <trkpt lat="41.2320125641" lon="69.8726349626"><ele>2266.38</ele></trkpt>
   <trkpt lat="41.2319201955" lon="69.8724853456"><ele>2266.214</ele></trkpt>
   <trkpt lat="41.2318048605" lon="69.8723674961"><ele>2266.934</ele></trkpt>
   <trkpt lat="41.2317229693" lon="69.8722020373"><ele>2261.503</ele></trkpt>
   <trkpt lat="41.2316248592" lon="69.8720497381"><ele>2264.81</ele></trkpt>
   <trkpt lat="41.2315046627" lon="69.8719299607"><ele>2263.571</ele></trkpt>
   <trkpt lat="41.2313726896" lon="69.8718530987"><ele>2267.218</ele></trkpt>
   <trkpt lat="41.2312701789" lon="69.871702392"><ele>2266.113</ele></trkpt>
   <trkpt lat="41.2312393754" lon="69.8715112846"><ele>2261.568</ele></trkpt>
   <trkpt lat="41.2312644792" lon="69.8713137232"><ele>2259.787</ele></trkpt>
   <trkpt lat="41.2312639763" lon="69.8711190954"><ele>2256.248</ele></trkpt>
   <trkpt lat="41.2312227793" lon="69.8709309217"><ele>2251.702</ele></trkpt>
   <trkpt lat="41.2311364876" lon="69.8707775328"><ele>2249.115</ele></trkpt>
   <trkpt lat="41.230992696" lon="69.8708188556"><ele>2244.662</ele></trkpt>
   <trkpt lat="41.2309179714" lon="69.8706518881"><ele>2240.927</ele></trkpt>
   <trkpt lat="41.2308017982" lon="69.8705176938"><ele>2236.872</ele></trkpt>
   <trkpt lat="41.230664796" lon="69.8704546619"><ele>2231.528</ele></trkpt>
   <trkpt lat="41.230542965" lon="69.8703297716"><ele>2228.864</ele></trkpt>
   <trkpt lat="41.2303955692" lon="69.8703279276"><ele>2225.563</ele></trkpt>
   <trkpt lat="41.2304493811" lon="69.8701464594"><ele>2221.385</ele></trkpt>
   <trkpt lat="41.2303527796" lon="69.8700029612"><ele>2217.687</ele></trkpt>
   <trkpt lat="41.2302185854" lon="69.8699128557"><ele>2216.576</ele></trkpt>
   <trkpt lat="41.2300127677" lon="69.8696418688"><ele>2210.788</ele></trkpt>
   <trkpt lat="41.2297530964" lon="69.8691775952"><ele>2199.13</ele></trkpt>
   <trkpt lat="41.2296765696" lon="69.8690086998"><ele>2193.69</ele></trkpt>
   <trkpt lat="41.2295437583" lon="69.8689243779"><ele>2190.537</ele></trkpt>
   <trkpt lat="41.229469788" lon="69.8687464301"><ele>2186.214</ele></trkpt>
   <trkpt lat="41.2294668963" lon="69.8685516346"><ele>2185.664</ele></trkpt>
   <trkpt lat="41.2294324886" lon="69.8683562525"><ele>2184.345</ele></trkpt>
   <trkpt lat="41.2293611586" lon="69.8681801487"><ele>2186.301</ele></trkpt>
   <trkpt lat="41.2291380742" lon="69.8679244168"><ele>2182.347</ele></trkpt>
   <trkpt lat="41.2290689654" lon="69.8677472234"><ele>2179.367</ele></trkpt>
   <trkpt lat="41.229023284" lon="69.8675590497"><ele>2174.281</ele></trkpt>
   <trkpt lat="41.228948266" lon="69.8673910763"><ele>2173.413</ele></trkpt>
   <trkpt lat="41.2289591625" lon="69.8671977896"><ele>2164.788</ele></trkpt>
   <trkpt lat="41.2288407681" lon="69.8670830414"><ele>2159.384</ele></trkpt>
   <trkpt lat="41.2286951744" lon="69.8670630925"><ele>2160.598</ele></trkpt>
   <trkpt lat="41.2285765705" lon="69.8669446562"><ele>2158.645</ele></trkpt>
   <trkpt lat="41.2283685736" lon="69.8666637786"><ele>2161.491</ele></trkpt>
   <trkpt lat="41.2282857604" lon="69.8662937176"><ele>2154.269</ele></trkpt>
   <trkpt lat="41.2282838745" lon="69.866096659"><ele>2153.377</ele></trkpt>
   <trkpt lat="41.2283089783" lon="69.8659017798"><ele>2150.874</ele></trkpt>
   <trkpt lat="41.2283638797" lon="69.8657084931"><ele>2153.492</ele></trkpt>
   <trkpt lat="41.2283572999" lon="69.8655122727"><ele>2150.209</ele></trkpt>
   <trkpt lat="41.2282249916" lon="69.8654317226"><ele>2147.124</ele></trkpt>
   <trkpt lat="41.2281028673" lon="69.865317142"><ele>2147.167</ele></trkpt>
   <trkpt lat="41.228023784" lon="69.8651519347"><ele>2143.398</ele></trkpt>
   <trkpt lat="41.2278085786" lon="69.8648784332"><ele>2141.416</ele></trkpt>
   <trkpt lat="41.2276615601" lon="69.864885474"><ele>2136.038</ele></trkpt>
   <trkpt lat="41.2275191934" lon="69.8648519464"><ele>2131.645</ele></trkpt>
   <trkpt lat="41.2274073788" lon="69.8647232842"><ele>2125.445</ele></trkpt>
   <trkpt lat="41.2274011762" lon="69.8645323444"><ele>2119.545</ele></trkpt>
   <trkpt lat="41.2273700794" lon="69.8643423267"><ele>2115.407</ele></trkpt>
   <trkpt lat="41.2273607755" lon="69.8639562562"><ele>2102.443</ele></trkpt>
   <trkpt lat="41.2274660941" lon="69.863822984"><ele>2098.355</ele></trkpt>
   <trkpt lat="41.2275886794" lon="69.863713181"><ele>2094.746</ele></trkpt>
   <trkpt lat="41.2275842789" lon="69.8635211516"><ele>2088.967</ele></trkpt>
   <trkpt lat="41.2277281962" lon="69.8634665854"><ele>2085.499</ele></trkpt>
   <trkpt lat="41.2278244623" lon="69.8633155435"><ele>2081.541</ele></trkpt>
   <trkpt lat="41.2279525797" lon="69.8632228397"><ele>2079.338</ele></trkpt>
   <trkpt lat="41.2281690843" lon="69.8629374359"><ele>2071.255</ele></trkpt>
   <trkpt lat="41.2282272966" lon="69.8627546266"><ele>2064.374</ele></trkpt>
   <trkpt lat="41.228319288" lon="69.8626061831"><ele>2061.051</ele></trkpt>
   <trkpt lat="41.2284501714" lon="69.8625035886"><ele>2056.744</ele></trkpt>
   <trkpt lat="41.2284821903" lon="69.8623171751"><ele>2052.181</ele></trkpt>
   <trkpt lat="41.228470288" lon="69.8621238884"><ele>2049.38</ele></trkpt>
   <trkpt lat="41.2286061586" lon="69.8620502953"><ele>2044.281</ele></trkpt>
   <trkpt lat="41.2287539735" lon="69.8620503791"><ele>2038.538</ele></trkpt>
   <trkpt lat="41.2288942866" lon="69.8619808931"><ele>2035.488</ele></trkpt>
   <trkpt lat="41.2290008625" lon="69.8618363891"><ele>2032.896</ele></trkpt>
   <trkpt lat="41.2292519843" lon="69.861343617"><ele>2022.517</ele></trkpt>
   <trkpt lat="41.2293211769" lon="69.8611665912"><ele>2019.981</ele></trkpt>
   <trkpt lat="41.2295141702" lon="69.8608723864"><ele>2016.189</ele></trkpt>
   <trkpt lat="41.2295806806" lon="69.8606969532"><ele>2012.73</ele></trkpt>
   <trkpt lat="41.2296853706" lon="69.8605597414"><ele>2010.296</ele></trkpt>
   <trkpt lat="41.2297573711" lon="69.8603937797"><ele>2007.421</ele></trkpt>
   <trkpt lat="41.2298499912" lon="69.8602387983"><ele>2007.502</ele></trkpt>
   <trkpt lat="41.2298652881" lon="69.8600397281"><ele>2000.244</ele></trkpt>
   <trkpt lat="41.2299052698" lon="69.8598439269"><ele>1999.392</ele></trkpt>
   <trkpt lat="41.2300138993" lon="69.859718366"><ele>1998.325</ele></trkpt>
   <trkpt lat="41.2301514882" lon="69.8596299369"><ele>1991.569</ele></trkpt>
   <trkpt lat="41.230296076" lon="69.8595957387"><ele>1988.597</ele></trkpt>
   <trkpt lat="41.2303778834" lon="69.8594362311"><ele>1983.103</ele></trkpt>
   <trkpt lat="41.2304856747" lon="69.8593023721"><ele>1978.54</ele></trkpt>
   <trkpt lat="41.2306305978" lon="69.8589632403"><ele>1967.739</ele></trkpt>
   <trkpt lat="41.2306283766" lon="69.8587699536"><ele>1965.566</ele></trkpt>
   <trkpt lat="41.2306692803" lon="69.8585843783"><ele>1957.744</ele></trkpt>
   <trkpt lat="41.2305592678" lon="69.8584603261"><ele>1957.028</ele></trkpt>
   <trkpt lat="41.2304916678" lon="69.8582891677"><ele>1954.724</ele></trkpt>
   <trkpt lat="41.2305831981" lon="69.8581409756"><ele>1954.09</ele></trkpt>
   <trkpt lat="41.230635585" lon="69.8579627764"><ele>1948.366</ele></trkpt>
   <trkpt lat="41.2306415781" lon="69.8577677295"><ele>1947.548</ele></trkpt>
   <trkpt lat="41.2305687813" lon="69.8573845927"><ele>1936.961</ele></trkpt>
   <trkpt lat="41.2306037757" lon="69.8571972571"><ele>1934.632</ele></trkpt>
   <trkpt lat="41.2305746905" lon="69.8569999471"><ele>1932.656</ele></trkpt>
   <trkpt lat="41.2305922925" lon="69.8567977756"><ele>1931.186</ele></trkpt>
   <trkpt lat="41.2306428773" lon="69.8566057462"><ele>1926.155</ele></trkpt>
   <trkpt lat="41.2307111898" lon="69.8562211845"><ele>1923.286</ele></trkpt>
   <trkpt lat="41.2308187715" lon="69.855838383"><ele>1919.571</ele></trkpt>
   <trkpt lat="41.2308525925" lon="69.8556451801"><ele>1917.822</ele></trkpt>
   <trkpt lat="41.23084266" lon="69.8554519773"><ele>1914.365</ele></trkpt>
   <trkpt lat="41.230730091" lon="69.8550854366"><ele>1911.474</ele></trkpt>
   <trkpt lat="41.2307486988" lon="69.8548931558"><ele>1906.46</ele></trkpt>
   <trkpt lat="41.2309157921" lon="69.8545775771"><ele>1899.298</ele></trkpt>
   <trkpt lat="41.2311156585" lon="69.8540527862"><ele>1893.409</ele></trkpt>
   <trkpt lat="41.2311437798" lon="69.8536665481"><ele>1886.127</ele></trkpt>
   <trkpt lat="41.2311432769" lon="69.8532763705"><ele>1882.264</ele></trkpt>
   <trkpt lat="41.2312652755" lon="69.8527141962"><ele>1879.768</ele></trkpt>
   <trkpt lat="41.2312869846" lon="69.8525196523"><ele>1882.061</ele></trkpt>
   <trkpt lat="41.231285895" lon="69.8523224261"><ele>1879.394</ele></trkpt>
   <trkpt lat="41.2312437759" lon="69.8521396168"><ele>1880.494</ele></trkpt>
   <trkpt lat="41.2307040652" lon="69.8514570784"><ele>1889.092</ele></trkpt>
   <trkpt lat="41.2306229703" lon="69.8512956429"><ele>1887.725</ele></trkpt>
   <trkpt lat="41.2306320646" lon="69.8507097479"><ele>1881.846</ele></trkpt>
   <trkpt lat="41.2306571684" lon="69.8505151201"><ele>1880.959</ele></trkpt>
   <trkpt lat="41.2307398978" lon="69.8501482442"><ele>1879.747</ele></trkpt>
   <trkpt lat="41.2306668914" lon="69.8495719884"><ele>1878.185</ele></trkpt>
   <trkpt lat="41.2304683661" lon="69.8492861655"><ele>1873.409</ele></trkpt>
   <trkpt lat="41.2302190883" lon="69.8490675654"><ele>1867.463</ele></trkpt>
   <trkpt lat="41.2300966706" lon="69.8487007734"><ele>1870.906</ele></trkpt>
   <trkpt lat="41.2299133583" lon="69.8483890504"><ele>1868.233</ele></trkpt>
   <trkpt lat="41.2298660844" lon="69.8482027207"><ele>1866.676</ele></trkpt>
   <trkpt lat="41.2297186886" lon="69.8478642594"><ele>1859.527</ele></trkpt>
   <trkpt lat="41.2296954708" lon="69.8476719786"><ele>1857.471</ele></trkpt>
   <trkpt lat="41.229642581" lon="69.8474777699"><ele>1850.709</ele></trkpt>
   <trkpt lat="41.229641198" lon="69.8472856566"><ele>1850.437</ele></trkpt>
   <trkpt lat="41.2296084666" lon="69.8470879275"><ele>1845.686</ele></trkpt>
   <trkpt lat="41.2296454727" lon="69.8464970872"><ele>1835.348</ele></trkpt>
   <trkpt lat="41.2296390606" lon="69.846299861"><ele>1831.268</ele></trkpt>
   <trkpt lat="41.2296094724" lon="69.8461057361"><ele>1824.306</ele></trkpt>
   <trkpt lat="41.2296811796" lon="69.8453228664"><ele>1810.139</ele></trkpt>
   <trkpt lat="41.2297772781" lon="69.8451696452"><ele>1806.216</ele></trkpt>
   <trkpt lat="41.2298096742" lon="69.8449808847"><ele>1801.142</ele></trkpt>
   <trkpt lat="41.2298945829" lon="69.844807547"><ele>1795.164</ele></trkpt>
   <trkpt lat="41.2299902623" lon="69.8442316264"><ele>1791.715</ele></trkpt>
   <trkpt lat="41.2302164899" lon="69.8439777386"><ele>1787.995</ele></trkpt>
   <trkpt lat="41.2303007699" lon="69.8438188177"><ele>1784.925</ele></trkpt>
   <trkpt lat="41.2304255765" lon="69.8434510198"><ele>1778.076</ele></trkpt>
   <trkpt lat="41.2304727666" lon="69.8432704736"><ele>1775.449</ele></trkpt>
   <trkpt lat="41.2304399933" lon="69.8430817969"><ele>1772.077</ele></trkpt>
   <trkpt lat="41.2304755745" lon="69.8428951319"><ele>1766.785</ele></trkpt>
   <trkpt lat="41.2306696994" lon="69.8425905336"><ele>1759.234</ele></trkpt>
   <trkpt lat="41.2307054901" lon="69.8423963249"><ele>1753.255</ele></trkpt>
   <trkpt lat="41.2308150835" lon="69.8422584426"><ele>1751.825</ele></trkpt>
   <trkpt lat="41.2309007885" lon="69.8421040479"><ele>1744.248</ele></trkpt>
   <trkpt lat="41.2310339769" lon="69.841758462"><ele>1741.261</ele></trkpt>
   <trkpt lat="41.2310669597" lon="69.8415702883"><ele>1736.064</ele></trkpt>
   <trkpt lat="41.2311551792" lon="69.841413882"><ele>1732.883</ele></trkpt>
   <trkpt lat="41.2312223602" lon="69.8410304938"><ele>1724.685</ele></trkpt>
   <trkpt lat="41.2313911717" lon="69.8407091316"><ele>1716.918</ele></trkpt>
   <trkpt lat="41.2315121645" lon="69.84058575"><ele>1714.074</ele></trkpt>
   <trkpt lat="41.2319484844" lon="69.8405077983"><ele>1705.146</ele></trkpt>
   <trkpt lat="41.2320920664" lon="69.8405288369"><ele>1701.735</ele></trkpt>
   <trkpt lat="41.232222866" lon="69.840449125"><ele>1696.988</ele></trkpt>
   <trkpt lat="41.2323731955" lon="69.8404022701"><ele>1692.344</ele></trkpt>
   <trkpt lat="41.2325223933" lon="69.8404177766"><ele>1689.473</ele></trkpt>
   <trkpt lat="41.2326520614" lon="69.8405050322"><ele>1688.613</ele></trkpt>
   <trkpt lat="41.2327946795" lon="69.840460692"><ele>1683.556</ele></trkpt>
   <trkpt lat="41.2329235931" lon="69.8403575946"><ele>1678.32</ele></trkpt>
   <trkpt lat="41.2329272812" lon="69.8401598655"><ele>1675.168</ele></trkpt>
   <trkpt lat="41.2329651674" lon="69.839972027"><ele>1669.667</ele></trkpt>
   <trkpt lat="41.2328623633" lon="69.8398209851"><ele>1665.747</ele></trkpt>
   <trkpt lat="41.2331520838" lon="69.8397119366"><ele>1659.084</ele></trkpt>
   <trkpt lat="41.2330942906" lon="69.8393365949"><ele>1649.609</ele></trkpt>
   <trkpt lat="41.2332197677" lon="69.839232827"><ele>1646.073</ele></trkpt>
   <trkpt lat="41.2332985995" lon="69.8390644345"><ele>1641.67</ele></trkpt>
   <trkpt lat="41.2333325881" lon="69.8388771828"><ele>1638.095</ele></trkpt>
   <trkpt lat="41.2334386611" lon="69.8387412284"><ele>1634.258</ele></trkpt>
   <trkpt lat="41.233499388" lon="69.8385631967"><ele>1633.17</ele></trkpt>
   <trkpt lat="41.2336426766" lon="69.8385286633"><ele>1630.088</ele></trkpt>
   <trkpt lat="41.2337754879" lon="69.8384365462"><ele>1626.681</ele></trkpt>
   <trkpt lat="41.2338905714" lon="69.8383174393"><ele>1624.482</ele></trkpt>
   <trkpt lat="41.2340241789" lon="69.8382229753"><ele>1623.852</ele></trkpt>
   <trkpt lat="41.2341273602" lon="69.8380788904"><ele>1621.278</ele></trkpt>
   <trkpt lat="41.2342485625" lon="69.8379692551"><ele>1616.712</ele></trkpt>
   <trkpt lat="41.2343792783" lon="69.8378825862"><ele>1612.889</ele></trkpt>
   <trkpt lat="41.2346002671" lon="69.8376108449"><ele>1610.942</ele></trkpt>
   <trkpt lat="41.2346559649" lon="69.8374179773"><ele>1610.257</ele></trkpt>
   <trkpt lat="41.2346682863" lon="69.8372252774"><ele>1610.469</ele></trkpt>
   <trkpt lat="41.2347255766" lon="69.8370437253"><ele>1610.157</ele></trkpt>
   <trkpt lat="41.2348297637" lon="69.8369060945"><ele>1608.3</ele></trkpt>
   <trkpt lat="41.2349746868" lon="69.8368325852"><ele>1606.64</ele></trkpt>
   <trkpt lat="41.2351008763" lon="69.8367383726"><ele>1603.164</ele></trkpt>
   <trkpt lat="41.2352427819" lon="69.8366899252"><ele>1603.153</ele></trkpt>
   <trkpt lat="41.2353848971" lon="69.8367536277"><ele>1593.617</ele></trkpt>
   <trkpt lat="41.2355322929" lon="69.8366935294"><ele>1595.13</ele></trkpt>
   <trkpt lat="41.2356744919" lon="69.8367292363"><ele>1588.019</ele></trkpt>
   <trkpt lat="41.2357631724" lon="69.8365708184"><ele>1584.726</ele></trkpt>
   <trkpt lat="41.2357917966" lon="69.8363793757"><ele>1581.052</ele></trkpt>
   <trkpt lat="41.2359166869" lon="69.8362775356"><ele>1576.571</ele></trkpt>
   <trkpt lat="41.236003272" lon="69.836111071"><ele>1569.901</ele></trkpt>
   <trkpt lat="41.2359734743" lon="69.8359132581"><ele>1566.417</ele></trkpt>
   <trkpt lat="41.2361182717" lon="69.8353663389"><ele>1556.594</ele></trkpt>
   <trkpt lat="41.2361947985" lon="69.8351996228"><ele>1553.057</ele></trkpt>
   <trkpt lat="41.2363238798" lon="69.8351020575"><ele>1548.654</ele></trkpt>
   <trkpt lat="41.2364360716" lon="69.8349750716"><ele>1545.133</ele></trkpt>
   <trkpt lat="41.2365610877" lon="69.834879937"><ele>1542.819</ele></trkpt>
   <trkpt lat="41.236672567" lon="69.834751191"><ele>1539.394</ele></trkpt>
   <trkpt lat="41.2367116686" lon="69.834357493"><ele>1533.631</ele></trkpt>
   <trkpt lat="41.2367472916" lon="69.8341686487"><ele>1531.258</ele></trkpt>
   <trkpt lat="41.2368083957" lon="69.833981397"><ele>1530.094</ele></trkpt>
   <trkpt lat="41.2368109941" lon="69.8337783873"><ele>1525.859</ele></trkpt>
   <trkpt lat="41.2366659872" lon="69.8337638866"><ele>1526.118</ele></trkpt>
   <trkpt lat="41.2365424798" lon="69.8336603701"><ele>1516.376</ele></trkpt>
   <trkpt lat="41.2366093674" lon="69.8334903851"><ele>1515.188</ele></trkpt>
   <trkpt lat="41.2368396602" lon="69.8332457174"><ele>1509.333</ele></trkpt>
   <trkpt lat="41.2370238944" lon="69.8329357546"><ele>1501.412</ele></trkpt>
   <trkpt lat="41.2370702883" lon="69.8327532806"><ele>1501.26</ele></trkpt>
   <trkpt lat="41.2370726771" lon="69.8325604968"><ele>1506.395</ele></trkpt>
   <trkpt lat="41.2370023949" lon="69.8323891707"><ele>1498.138</ele></trkpt>
   <trkpt lat="41.2369900735" lon="69.8321981471"><ele>1499.551</ele></trkpt>
   <trkpt lat="41.2368861798" lon="69.8318337858"><ele>1499.523</ele></trkpt>
   <trkpt lat="41.2369107807" lon="69.8316348832"><ele>1495.943</ele></trkpt>
   <trkpt lat="41.2369904926" lon="69.8314701788"><ele>1490.644</ele></trkpt>
   <trkpt lat="41.2370960626" lon="69.8313302849"><ele>1491.233</ele></trkpt>
   <trkpt lat="41.2371788758" lon="69.8311715316"><ele>1488.545</ele></trkpt>
   <trkpt lat="41.2372338611" lon="69.8307906579"><ele>1488.027</ele></trkpt>
   <trkpt lat="41.2373052749" lon="69.8306195833"><ele>1489.158</ele></trkpt>
   <trkpt lat="41.2373470587" lon="69.8304299846"><ele>1488.703</ele></trkpt>
   <trkpt lat="41.2374072827" lon="69.8302544676"><ele>1484.397</ele></trkpt>
   <trkpt lat="41.2374642796" lon="69.8298597638"><ele>1481.627</ele></trkpt>
   <trkpt lat="41.2374726615" lon="69.8296680696"><ele>1479.776</ele></trkpt>
   <trkpt lat="41.237351082" lon="69.8292946558"><ele>1480.348</ele></trkpt>
   <trkpt lat="41.2373344859" lon="69.8291034646"><ele>1479.478</ele></trkpt>
   <trkpt lat="41.2373657923" lon="69.8289162967"><ele>1478.542</ele></trkpt>
   <trkpt lat="41.2374736674" lon="69.8287885565"><ele>1473.865</ele></trkpt>
   <trkpt lat="41.2377415949" lon="69.8286375985"><ele>1468.212</ele></trkpt>
   <trkpt lat="41.2378488833" lon="69.8285004705"><ele>1465.393</ele></trkpt>
   <trkpt lat="41.2379856759" lon="69.8284277994"><ele>1460.606</ele></trkpt>
   <trkpt lat="41.2380837861" lon="69.8282717284"><ele>1460.528</ele></trkpt>
   <trkpt lat="41.2382249793" lon="69.8282111272"><ele>1457.705</ele></trkpt>
   <trkpt lat="41.2383715787" lon="69.8281900886"><ele>1455.535</ele></trkpt>
   <trkpt lat="41.2385169629" lon="69.8276314348"><ele>1453.165</ele></trkpt>
   <trkpt lat="41.2385839762" lon="69.8274558339"><ele>1451.111</ele></trkpt>
   <trkpt lat="41.2386232873" lon="69.8270729486"><ele>1450.651</ele></trkpt>
   <trkpt lat="41.2386446612" lon="69.8266742215"><ele>1450.109</ele></trkpt>
   <trkpt lat="41.238635483" lon="69.826480348"><ele>1449.879</ele></trkpt>
   <trkpt lat="41.2387078607" lon="69.8259010747"><ele>1451.1</ele></trkpt>
   <trkpt lat="41.2387621754" lon="69.8257196903"><ele>1450.961</ele></trkpt>
   <trkpt lat="41.2388444857" lon="69.8253276687"><ele>1453.408</ele></trkpt>
   <trkpt lat="41.2389055898" lon="69.8251494695"><ele>1453.426</ele></trkpt>
   <trkpt lat="41.2389200905" lon="69.8247542627"><ele>1450.453</ele></trkpt>
   <trkpt lat="41.2389969945" lon="69.8243666835"><ele>1449.659</ele></trkpt>
   <trkpt lat="41.23912968" lon="69.8240082733"><ele>1449.471</ele></trkpt>
   <trkpt lat="41.2392163908" lon="69.8238496877"><ele>1446.192</ele></trkpt>
   <trkpt lat="41.2393665945" lon="69.823513322"><ele>1444.339</ele></trkpt>
   <trkpt lat="41.2395789919" lon="69.8232340369"><ele>1445.06</ele></trkpt>
   <trkpt lat="41.2396018745" lon="69.8230444383"><ele>1445.364</ele></trkpt>
   <trkpt lat="41.2394678898" lon="69.8224957589"><ele>1452.005</ele></trkpt>
   <trkpt lat="41.2394804626" lon="69.8223020531"><ele>1446.886</ele></trkpt>
   <trkpt lat="41.2396928601" lon="69.8217872366"><ele>1439.703</ele></trkpt>
   <trkpt lat="41.2398163674" lon="69.8216744162"><ele>1436.987</ele></trkpt>
   <trkpt lat="41.2398824587" lon="69.8214994859"><ele>1437.717</ele></trkpt>
   <trkpt lat="41.2398973785" lon="69.8213045228"><ele>1433.15</ele></trkpt>
   <trkpt lat="41.2399611648" lon="69.8209214699"><ele>1430.527</ele></trkpt>
   <trkpt lat="41.2400393679" lon="69.8207535803"><ele>1426.917</ele></trkpt>
   <trkpt lat="41.2399864781" lon="69.8205729503"><ele>1422.857</ele></trkpt>
   <trkpt lat="41.2400026971" lon="69.8201765701"><ele>1416.696</ele></trkpt>
   <trkpt lat="41.2399329597" lon="69.8200083453"><ele>1411.939</ele></trkpt>
   <trkpt lat="41.2398979652" lon="69.8198200878"><ele>1407.989</ele></trkpt>
   <trkpt lat="41.2398657787" lon="69.8190521378"><ele>1393.2</ele></trkpt>
   <trkpt lat="41.2399268828" lon="69.8188707534"><ele>1389.174</ele></trkpt>
   <trkpt lat="41.2400232747" lon="69.8187170293"><ele>1386.322</ele></trkpt>
   <trkpt lat="41.2400955686" lon="69.8185442783"><ele>1381.765</ele></trkpt>
   <trkpt lat="41.2401985822" lon="69.8183791548"><ele>1372.917</ele></trkpt>
   <trkpt lat="41.2403406974" lon="69.8184193879"><ele>1368.168</ele></trkpt>
   <trkpt lat="41.2403842832" lon="69.8182342317"><ele>1364.682</ele></trkpt>
   <trkpt lat="41.2403449721" lon="69.8178499214"><ele>1353.757</ele></trkpt>
   <trkpt lat="41.240355659" lon="69.8176512703"><ele>1350.024</ele></trkpt>
   <trkpt lat="41.2404990734" lon="69.8173092887"><ele>1343.845</ele></trkpt>
   <trkpt lat="41.2405259793" lon="69.8171193548"><ele>1341.318</ele></trkpt>
   <trkpt lat="41.240412195" lon="69.8169934586"><ele>1337.083</ele></trkpt>
   <trkpt lat="41.2402539866" lon="69.8166669834"><ele>1328.895</ele></trkpt>
   <trkpt lat="41.2399438981" lon="69.8162510734"><ele>1317.784</ele></trkpt>
   <trkpt lat="41.2399626735" lon="69.8160611395"><ele>1323.745</ele></trkpt>
   <trkpt lat="41.2399597818" lon="69.8158650868"><ele>1322.723</ele></trkpt>
   <trkpt lat="41.2399949858" lon="69.8156757396"><ele>1320.952</ele></trkpt>
   <trkpt lat="41.2402359655" lon="69.8154486738"><ele>1319.409</ele></trkpt>
   <trkpt lat="41.240339482" lon="69.8153103724"><ele>1317.717</ele></trkpt>
   <trkpt lat="41.2404113987" lon="69.8151353583"><ele>1318.565</ele></trkpt>
   <trkpt lat="41.2404685633" lon="69.8149551474"><ele>1319.664</ele></trkpt>
   <trkpt lat="41.240509467" lon="69.8147620283"><ele>1320.357</ele></trkpt>
   <trkpt lat="41.2405778633" lon="69.8145818174"><ele>1322.078</ele></trkpt>
   <trkpt lat="41.2407812921" lon="69.8142783925"><ele>1317.485</ele></trkpt>
   <trkpt lat="41.2408454975" lon="69.8140994389"><ele>1317.336</ele></trkpt>
   <trkpt lat="41.2408986806" lon="69.8139110975"><ele>1316.823</ele></trkpt>
   <trkpt lat="41.2409272629" lon="69.8137152962"><ele>1316.792</ele></trkpt>
   <trkpt lat="41.2409193839" lon="69.8133234423"><ele>1313.901</ele></trkpt>
   <trkpt lat="41.2408696793" lon="69.8129390482"><ele>1316.76</ele></trkpt>
   <trkpt lat="41.2409113792" lon="69.8127500363"><ele>1316.608</ele></trkpt>
   <trkpt lat="41.2414775768" lon="69.8124840785"><ele>1307.047</ele></trkpt>
   <trkpt lat="41.2420021582" lon="69.8121260874"><ele>1301.924</ele></trkpt>
   <trkpt lat="41.2422690799" lon="69.8119668312"><ele>1298.096</ele></trkpt>
   <trkpt lat="41.2424086805" lon="69.8119177971"><ele>1295.84</ele></trkpt>
   <trkpt lat="41.2425303857" lon="69.8118065692"><ele>1294.842</ele></trkpt>
   <trkpt lat="41.2427419869" lon="69.8112954408"><ele>1292.858</ele></trkpt>
   <trkpt lat="41.2428787795" lon="69.8112321574"><ele>1291.816</ele></trkpt>
   <trkpt lat="41.2430233674" lon="69.8112692893"><ele>1289.022</ele></trkpt>
   <trkpt lat="41.2429678792" lon="69.8114513442"><ele>1283.02</ele></trkpt>
   <trkpt lat="41.2430014906" lon="69.8116453852"><ele>1278.835</ele></trkpt>
   <trkpt lat="41.2430679591" lon="69.8118174657"><ele>1274.605</ele></trkpt>
   <trkpt lat="41.2429770993" lon="69.8119671665"><ele>1268.381</ele></trkpt>
   <trkpt lat="41.2429403865" lon="69.8121593636"><ele>1266.168</ele></trkpt>
   <trkpt lat="41.2429053921" lon="69.8125479486"><ele>1244.161</ele></trkpt>
   <trkpt lat="41.242932298" lon="69.8127420735"><ele>1242.119</ele></trkpt>
   <trkpt lat="41.2429348964" lon="69.8129342705"><ele>1240.016</ele></trkpt>
   <trkpt lat="41.2430519916" lon="69.8132884897"><ele>1224.23</ele></trkpt>
   <trkpt lat="41.243195364" lon="69.8132471669"><ele>1213.504</ele></trkpt>
   <trkpt lat="41.2432538697" lon="69.8130670398"><ele>1210.039</ele></trkpt>
   <trkpt lat="41.2434675663" lon="69.8127900179"><ele>1203.773</ele></trkpt>
   <trkpt lat="41.2435360884" lon="69.8126113996"><ele>1202.279</ele></trkpt>
   <trkpt lat="41.2436328994" lon="69.8124445997"><ele>1203.605</ele></trkpt>
   <trkpt lat="41.2437720809" lon="69.8123671509"><ele>1200.598</ele></trkpt>
   <trkpt lat="41.2438733762" lon="69.8122196294"><ele>1199.217</ele></trkpt>
   <trkpt lat="41.2440178802" lon="69.8122057993"><ele>1194.792</ele></trkpt>
   <trkpt lat="41.2441548824" lon="69.8121421807"><ele>1198.375</ele></trkpt>
   <trkpt lat="41.244550592" lon="69.8118832637"><ele>1192.603</ele></trkpt>
   <trkpt lat="41.2447319764" lon="69.8115544416"><ele>1195.039</ele></trkpt>
   <trkpt lat="41.2448466828" lon="69.8114340775"><ele>1187.257</ele></trkpt>
   <trkpt lat="41.2449513727" lon="69.8115776595"><ele>1185.78</ele></trkpt>
   <trkpt lat="41.2450953738" lon="69.8116092592"><ele>1195.784</ele></trkpt>
   <trkpt lat="41.2453813644" lon="69.8115038987"><ele>1199.727</ele></trkpt>
   <trkpt lat="41.2455068834" lon="69.8116114385"><ele>1201.205</ele></trkpt>
   <trkpt lat="41.2456006769" lon="69.8117613908"><ele>1203.679</ele></trkpt>
   <trkpt lat="41.2456687798" lon="69.8121388279"><ele>1210.34</ele></trkpt>
   <trkpt lat="41.2456924587" lon="69.8123285942"><ele>1212.312</ele></trkpt>
   <trkpt lat="41.2456954762" lon="69.8125214618"><ele>1217.336</ele></trkpt>
   <trkpt lat="41.2457291714" lon="69.8127077915"><ele>1221.562</ele></trkpt>
  </trkseg>
 </trk>
</gpx>