<?xml version='1.0' encoding='utf-8'?>
<gpx xmlns="http://www.topografix.com/GPX/1/1" version="1.1" creator="Sayr">
<trk><name>Муллала — вершина Сурхат</name><trkseg>
<trkpt lat="41.769162" lon="70.197095"><ele>1029.0</ele></trkpt>
<trkpt lat="41.769128" lon="70.197134"><ele>1029.0</ele></trkpt>
<trkpt lat="41.769111" lon="70.197250"><ele>1027.9</ele></trkpt>
<trkpt lat="41.769067" lon="70.197339"><ele>1027.3</ele></trkpt>
<trkpt lat="41.768908" lon="70.197486"><ele>1028.1</ele></trkpt>
<trkpt lat="41.768738" lon="70.197675"><ele>1029.9</ele></trkpt>
<trkpt lat="41.768436" lon="70.197879"><ele>1032.0</ele></trkpt>
<trkpt lat="41.768184" lon="70.198081"><ele>1035.4</ele></trkpt>
<trkpt lat="41.767861" lon="70.198171"><ele>1039.8</ele></trkpt>
<trkpt lat="41.767832" lon="70.198221"><ele>1039.7</ele></trkpt>
<trkpt lat="41.767829" lon="70.198381"><ele>1039.1</ele></trkpt>
<trkpt lat="41.767718" lon="70.198547"><ele>1043.3</ele></trkpt>
<trkpt lat="41.767622" lon="70.198644"><ele>1046.9</ele></trkpt>
<trkpt lat="41.767553" lon="70.198673"><ele>1048.7</ele></trkpt>
<trkpt lat="41.767395" lon="70.198868"><ele>1054.6</ele></trkpt>
<trkpt lat="41.767315" lon="70.198903"><ele>1056.0</ele></trkpt>
<trkpt lat="41.767201" lon="70.198995"><ele>1058.3</ele></trkpt>
<trkpt lat="41.767161" lon="70.199069"><ele>1059.9</ele></trkpt>
<trkpt lat="41.767015" lon="70.199134"><ele>1062.3</ele></trkpt>
<trkpt lat="41.766862" lon="70.199250"><ele>1064.2</ele></trkpt>
<trkpt lat="41.766740" lon="70.199410"><ele>1067.0</ele></trkpt>
<trkpt lat="41.766562" lon="70.199594"><ele>1069.3</ele></trkpt>
<trkpt lat="41.766395" lon="70.199705"><ele>1071.9</ele></trkpt>
<trkpt lat="41.766309" lon="70.199811"><ele>1073.9</ele></trkpt>
<trkpt lat="41.766220" lon="70.199989"><ele>1077.8</ele></trkpt>
<trkpt lat="41.766194" lon="70.200010"><ele>1077.8</ele></trkpt>
<trkpt lat="41.766091" lon="70.200221"><ele>1080.1</ele></trkpt>
<trkpt lat="41.766088" lon="70.200263"><ele>1081.5</ele></trkpt>
<trkpt lat="41.766029" lon="70.200414"><ele>1083.7</ele></trkpt>
<trkpt lat="41.765948" lon="70.200516"><ele>1084.2</ele></trkpt>
<trkpt lat="41.765836" lon="70.200826"><ele>1088.3</ele></trkpt>
<trkpt lat="41.765647" lon="70.201167"><ele>1093.0</ele></trkpt>
<trkpt lat="41.765488" lon="70.201407"><ele>1094.7</ele></trkpt>
<trkpt lat="41.765428" lon="70.201573"><ele>1095.5</ele></trkpt>
<trkpt lat="41.765421" lon="70.201620"><ele>1095.9</ele></trkpt>
<trkpt lat="41.765447" lon="70.201729"><ele>1097.0</ele></trkpt>
<trkpt lat="41.765441" lon="70.201807"><ele>1097.9</ele></trkpt>
<trkpt lat="41.765490" lon="70.202233"><ele>1102.7</ele></trkpt>
<trkpt lat="41.765497" lon="70.202448"><ele>1104.9</ele></trkpt>
<trkpt lat="41.765444" lon="70.202830"><ele>1109.1</ele></trkpt>
<trkpt lat="41.765406" lon="70.202937"><ele>1110.4</ele></trkpt>
<trkpt lat="41.765417" lon="70.203184"><ele>1113.7</ele></trkpt>
<trkpt lat="41.765212" lon="70.203698"><ele>1123.1</ele></trkpt>
<trkpt lat="41.765009" lon="70.203897"><ele>1127.6</ele></trkpt>
<trkpt lat="41.764954" lon="70.203987"><ele>1128.8</ele></trkpt>
<trkpt lat="41.764882" lon="70.204203"><ele>1133.3</ele></trkpt>
<trkpt lat="41.764871" lon="70.204326"><ele>1135.1</ele></trkpt>
<trkpt lat="41.764885" lon="70.204403"><ele>1136.7</ele></trkpt>
<trkpt lat="41.764846" lon="70.204609"><ele>1141.2</ele></trkpt>
<trkpt lat="41.764790" lon="70.204726"><ele>1143.9</ele></trkpt>
<trkpt lat="41.764703" lon="70.204833"><ele>1147.6</ele></trkpt>
<trkpt lat="41.764602" lon="70.204996"><ele>1152.1</ele></trkpt>
<trkpt lat="41.764500" lon="70.205282"><ele>1157.7</ele></trkpt>
<trkpt lat="41.764445" lon="70.205503"><ele>1161.6</ele></trkpt>
<trkpt lat="41.764391" lon="70.205595"><ele>1163.5</ele></trkpt>
<trkpt lat="41.764374" lon="70.205694"><ele>1164.8</ele></trkpt>
<trkpt lat="41.764354" lon="70.205700"><ele>1165.8</ele></trkpt>
<trkpt lat="41.764369" lon="70.205715"><ele>1166.1</ele></trkpt>
<trkpt lat="41.764375" lon="70.205864"><ele>1167.1</ele></trkpt>
<trkpt lat="41.764373" lon="70.206402"><ele>1171.5</ele></trkpt>
<trkpt lat="41.764353" lon="70.206505"><ele>1172.4</ele></trkpt>
<trkpt lat="41.764346" lon="70.206758"><ele>1173.8</ele></trkpt>
<trkpt lat="41.764278" lon="70.207007"><ele>1176.7</ele></trkpt>
<trkpt lat="41.764074" lon="70.207218"><ele>1181.2</ele></trkpt>
<trkpt lat="41.763985" lon="70.207368"><ele>1183.9</ele></trkpt>
<trkpt lat="41.763941" lon="70.207485"><ele>1186.2</ele></trkpt>
<trkpt lat="41.763716" lon="70.207863"><ele>1191.5</ele></trkpt>
<trkpt lat="41.763811" lon="70.207721"><ele>1191.4</ele></trkpt>
<trkpt lat="41.763817" lon="70.207687"><ele>1190.3</ele></trkpt>
<trkpt lat="41.763726" lon="70.207822"><ele>1191.3</ele></trkpt>
<trkpt lat="41.763701" lon="70.207902"><ele>1192.6</ele></trkpt>
<trkpt lat="41.763528" lon="70.208098"><ele>1196.5</ele></trkpt>
<trkpt lat="41.763382" lon="70.208375"><ele>1199.6</ele></trkpt>
<trkpt lat="41.763315" lon="70.208472"><ele>1201.0</ele></trkpt>
<trkpt lat="41.763280" lon="70.208567"><ele>1202.2</ele></trkpt>
<trkpt lat="41.763130" lon="70.208744"><ele>1205.7</ele></trkpt>
<trkpt lat="41.763096" lon="70.208885"><ele>1207.3</ele></trkpt>
<trkpt lat="41.762960" lon="70.209191"><ele>1211.4</ele></trkpt>
<trkpt lat="41.762907" lon="70.209412"><ele>1213.6</ele></trkpt>
<trkpt lat="41.762705" lon="70.209791"><ele>1219.1</ele></trkpt>
<trkpt lat="41.762658" lon="70.209847"><ele>1220.0</ele></trkpt>
<trkpt lat="41.762587" lon="70.210003"><ele>1221.9</ele></trkpt>
<trkpt lat="41.762475" lon="70.210109"><ele>1224.0</ele></trkpt>
<trkpt lat="41.762331" lon="70.210172"><ele>1226.8</ele></trkpt>
<trkpt lat="41.762167" lon="70.210173"><ele>1229.3</ele></trkpt>
<trkpt lat="41.762036" lon="70.210352"><ele>1232.6</ele></trkpt>
<trkpt lat="41.762004" lon="70.210436"><ele>1233.7</ele></trkpt>
<trkpt lat="41.761904" lon="70.210566"><ele>1236.4</ele></trkpt>
<trkpt lat="41.761747" lon="70.210692"><ele>1240.4</ele></trkpt>
<trkpt lat="41.761635" lon="70.210834"><ele>1243.1</ele></trkpt>
<trkpt lat="41.761470" lon="70.210956"><ele>1246.5</ele></trkpt>
<trkpt lat="41.761405" lon="70.210964"><ele>1247.9</ele></trkpt>
<trkpt lat="41.761357" lon="70.211005"><ele>1250.2</ele></trkpt>
<trkpt lat="41.761295" lon="70.211143"><ele>1251.6</ele></trkpt>
<trkpt lat="41.761221" lon="70.211204"><ele>1253.3</ele></trkpt>
<trkpt lat="41.761188" lon="70.211360"><ele>1256.5</ele></trkpt>
<trkpt lat="41.761115" lon="70.211454"><ele>1258.8</ele></trkpt>
<trkpt lat="41.761026" lon="70.211509"><ele>1261.5</ele></trkpt>
<trkpt lat="41.761018" lon="70.211553"><ele>1262.3</ele></trkpt>
<trkpt lat="41.761030" lon="70.211672"><ele>1264.4</ele></trkpt>
<trkpt lat="41.760971" lon="70.211713"><ele>1265.9</ele></trkpt>
<trkpt lat="41.760894" lon="70.211952"><ele>1270.8</ele></trkpt>
<trkpt lat="41.760798" lon="70.212084"><ele>1274.5</ele></trkpt>
<trkpt lat="41.760779" lon="70.212189"><ele>1276.7</ele></trkpt>
<trkpt lat="41.760748" lon="70.212245"><ele>1278.1</ele></trkpt>
<trkpt lat="41.760727" lon="70.212362"><ele>1280.5</ele></trkpt>
<trkpt lat="41.760703" lon="70.212404"><ele>1281.7</ele></trkpt>
<trkpt lat="41.760716" lon="70.212512"><ele>1283.6</ele></trkpt>
<trkpt lat="41.760659" lon="70.212615"><ele>1286.3</ele></trkpt>
<trkpt lat="41.760650" lon="70.212723"><ele>1288.7</ele></trkpt>
<trkpt lat="41.760594" lon="70.212782"><ele>1290.3</ele></trkpt>
<trkpt lat="41.760550" lon="70.212934"><ele>1293.5</ele></trkpt>
<trkpt lat="41.760501" lon="70.213037"><ele>1296.0</ele></trkpt>
<trkpt lat="41.760563" lon="70.213124"><ele>1298.6</ele></trkpt>
<trkpt lat="41.760538" lon="70.213185"><ele>1299.9</ele></trkpt>
<trkpt lat="41.760511" lon="70.213368"><ele>1303.5</ele></trkpt>
<trkpt lat="41.760485" lon="70.213425"><ele>1304.7</ele></trkpt>
<trkpt lat="41.760493" lon="70.213517"><ele>1306.9</ele></trkpt>
<trkpt lat="41.760464" lon="70.213596"><ele>1308.8</ele></trkpt>
<trkpt lat="41.760472" lon="70.213638"><ele>1310.0</ele></trkpt>
<trkpt lat="41.760455" lon="70.213715"><ele>1311.9</ele></trkpt>
<trkpt lat="41.760429" lon="70.214072"><ele>1320.1</ele></trkpt>
<trkpt lat="41.760327" lon="70.214380"><ele>1325.9</ele></trkpt>
<trkpt lat="41.760207" lon="70.214523"><ele>1329.3</ele></trkpt>
<trkpt lat="41.760118" lon="70.214590"><ele>1332.1</ele></trkpt>
<trkpt lat="41.760157" lon="70.214660"><ele>1334.6</ele></trkpt>
<trkpt lat="41.760193" lon="70.214786"><ele>1337.7</ele></trkpt>
<trkpt lat="41.760080" lon="70.214831"><ele>1341.3</ele></trkpt>
<trkpt lat="41.760058" lon="70.214919"><ele>1343.9</ele></trkpt>
<trkpt lat="41.759954" lon="70.215015"><ele>1349.2</ele></trkpt>
<trkpt lat="41.759791" lon="70.215231"><ele>1358.0</ele></trkpt>
<trkpt lat="41.759596" lon="70.215358"><ele>1363.2</ele></trkpt>
<trkpt lat="41.759470" lon="70.215514"><ele>1368.9</ele></trkpt>
<trkpt lat="41.759583" lon="70.215618"><ele>1373.7</ele></trkpt>
<trkpt lat="41.759886" lon="70.215671"><ele>1383.7</ele></trkpt>
<trkpt lat="41.759970" lon="70.215908"><ele>1389.0</ele></trkpt>
<trkpt lat="41.759994" lon="70.216047"><ele>1391.1</ele></trkpt>
<trkpt lat="41.759989" lon="70.216088"><ele>1392.0</ele></trkpt>
<trkpt lat="41.760027" lon="70.216240"><ele>1393.9</ele></trkpt>
<trkpt lat="41.760016" lon="70.216417"><ele>1396.2</ele></trkpt>
<trkpt lat="41.759992" lon="70.216505"><ele>1397.0</ele></trkpt>
<trkpt lat="41.760006" lon="70.216682"><ele>1398.8</ele></trkpt>
<trkpt lat="41.760078" lon="70.216814"><ele>1401.9</ele></trkpt>
<trkpt lat="41.760048" lon="70.216915"><ele>1404.1</ele></trkpt>
<trkpt lat="41.760081" lon="70.216976"><ele>1405.6</ele></trkpt>
<trkpt lat="41.760090" lon="70.217139"><ele>1409.2</ele></trkpt>
<trkpt lat="41.760119" lon="70.217279"><ele>1411.9</ele></trkpt>
<trkpt lat="41.760120" lon="70.217359"><ele>1413.5</ele></trkpt>
<trkpt lat="41.760101" lon="70.217416"><ele>1414.5</ele></trkpt>
<trkpt lat="41.760114" lon="70.217494"><ele>1415.8</ele></trkpt>
<trkpt lat="41.760102" lon="70.217561"><ele>1416.6</ele></trkpt>
<trkpt lat="41.760126" lon="70.217766"><ele>1419.5</ele></trkpt>
<trkpt lat="41.760117" lon="70.217874"><ele>1420.8</ele></trkpt>
<trkpt lat="41.760131" lon="70.217949"><ele>1421.5</ele></trkpt>
<trkpt lat="41.760161" lon="70.217976"><ele>1422.8</ele></trkpt>
<trkpt lat="41.760109" lon="70.218372"><ele>1426.6</ele></trkpt>
<trkpt lat="41.760042" lon="70.218517"><ele>1428.9</ele></trkpt>
<trkpt lat="41.759995" lon="70.218738"><ele>1432.3</ele></trkpt>
<trkpt lat="41.759981" lon="70.218879"><ele>1434.2</ele></trkpt>
<trkpt lat="41.759911" lon="70.219036"><ele>1436.4</ele></trkpt>
<trkpt lat="41.759831" lon="70.219317"><ele>1440.2</ele></trkpt>
<trkpt lat="41.759835" lon="70.219430"><ele>1442.3</ele></trkpt>
<trkpt lat="41.759792" lon="70.219552"><ele>1444.8</ele></trkpt>
<trkpt lat="41.759761" lon="70.219748"><ele>1448.5</ele></trkpt>
<trkpt lat="41.759766" lon="70.219825"><ele>1450.3</ele></trkpt>
<trkpt lat="41.759718" lon="70.219945"><ele>1453.1</ele></trkpt>
<trkpt lat="41.759735" lon="70.220028"><ele>1455.1</ele></trkpt>
<trkpt lat="41.759707" lon="70.220105"><ele>1456.7</ele></trkpt>
<trkpt lat="41.759710" lon="70.220164"><ele>1458.0</ele></trkpt>
<trkpt lat="41.759580" lon="70.220292"><ele>1462.8</ele></trkpt>
<trkpt lat="41.759541" lon="70.220431"><ele>1466.1</ele></trkpt>
<trkpt lat="41.759482" lon="70.220536"><ele>1468.8</ele></trkpt>
<trkpt lat="41.759416" lon="70.220711"><ele>1471.8</ele></trkpt>
<trkpt lat="41.759362" lon="70.220933"><ele>1474.0</ele></trkpt>
<trkpt lat="41.759359" lon="70.221175"><ele>1476.7</ele></trkpt>
<trkpt lat="41.759323" lon="70.221255"><ele>1477.5</ele></trkpt>
<trkpt lat="41.759316" lon="70.221344"><ele>1478.5</ele></trkpt>
<trkpt lat="41.759242" lon="70.221448"><ele>1480.6</ele></trkpt>
<trkpt lat="41.759141" lon="70.221676"><ele>1484.2</ele></trkpt>
<trkpt lat="41.759088" lon="70.221725"><ele>1485.0</ele></trkpt>
<trkpt lat="41.758973" lon="70.221757"><ele>1486.5</ele></trkpt>
<trkpt lat="41.758914" lon="70.221844"><ele>1488.2</ele></trkpt>
<trkpt lat="41.758870" lon="70.221855"><ele>1489.2</ele></trkpt>
<trkpt lat="41.758841" lon="70.221896"><ele>1490.1</ele></trkpt>
<trkpt lat="41.758765" lon="70.221941"><ele>1491.8</ele></trkpt>
<trkpt lat="41.758730" lon="70.222011"><ele>1492.7</ele></trkpt>
<trkpt lat="41.758721" lon="70.222085"><ele>1493.4</ele></trkpt>
<trkpt lat="41.758679" lon="70.222185"><ele>1494.7</ele></trkpt>
<trkpt lat="41.758550" lon="70.222329"><ele>1497.3</ele></trkpt>
<trkpt lat="41.758502" lon="70.222336"><ele>1497.9</ele></trkpt>
<trkpt lat="41.758420" lon="70.222393"><ele>1499.2</ele></trkpt>
<trkpt lat="41.758321" lon="70.222576"><ele>1502.0</ele></trkpt>
<trkpt lat="41.758310" lon="70.222630"><ele>1502.8</ele></trkpt>
<trkpt lat="41.758234" lon="70.222783"><ele>1504.9</ele></trkpt>
<trkpt lat="41.758158" lon="70.222806"><ele>1506.1</ele></trkpt>
<trkpt lat="41.758042" lon="70.222798"><ele>1508.0</ele></trkpt>
<trkpt lat="41.757943" lon="70.222872"><ele>1510.5</ele></trkpt>
<trkpt lat="41.757857" lon="70.222878"><ele>1512.4</ele></trkpt>
<trkpt lat="41.757835" lon="70.222980"><ele>1514.8</ele></trkpt>
<trkpt lat="41.757782" lon="70.223045"><ele>1517.6</ele></trkpt>
<trkpt lat="41.757747" lon="70.223012"><ele>1519.4</ele></trkpt>
<trkpt lat="41.757721" lon="70.223036"><ele>1521.0</ele></trkpt>
<trkpt lat="41.757720" lon="70.223089"><ele>1522.2</ele></trkpt>
<trkpt lat="41.757667" lon="70.223142"><ele>1523.9</ele></trkpt>
<trkpt lat="41.757615" lon="70.223240"><ele>1526.9</ele></trkpt>
<trkpt lat="41.757366" lon="70.223403"><ele>1534.9</ele></trkpt>
<trkpt lat="41.757299" lon="70.223474"><ele>1536.5</ele></trkpt>
<trkpt lat="41.757151" lon="70.223493"><ele>1539.6</ele></trkpt>
<trkpt lat="41.757095" lon="70.223581"><ele>1541.8</ele></trkpt>
<trkpt lat="41.757045" lon="70.223590"><ele>1543.2</ele></trkpt>
<trkpt lat="41.757013" lon="70.223623"><ele>1543.7</ele></trkpt>
<trkpt lat="41.756997" lon="70.223693"><ele>1544.4</ele></trkpt>
<trkpt lat="41.756958" lon="70.223734"><ele>1545.4</ele></trkpt>
<trkpt lat="41.756918" lon="70.223825"><ele>1547.8</ele></trkpt>
<trkpt lat="41.756785" lon="70.223930"><ele>1551.2</ele></trkpt>
<trkpt lat="41.756601" lon="70.223997"><ele>1554.8</ele></trkpt>
<trkpt lat="41.756520" lon="70.223958"><ele>1556.1</ele></trkpt>
<trkpt lat="41.756457" lon="70.223967"><ele>1557.2</ele></trkpt>
<trkpt lat="41.756349" lon="70.224119"><ele>1560.0</ele></trkpt>
<trkpt lat="41.756193" lon="70.224172"><ele>1562.7</ele></trkpt>
<trkpt lat="41.756182" lon="70.224259"><ele>1564.1</ele></trkpt>
<trkpt lat="41.756105" lon="70.224358"><ele>1567.1</ele></trkpt>
<trkpt lat="41.755899" lon="70.224373"><ele>1572.3</ele></trkpt>
<trkpt lat="41.755782" lon="70.224441"><ele>1575.5</ele></trkpt>
<trkpt lat="41.755739" lon="70.224491"><ele>1577.2</ele></trkpt>
<trkpt lat="41.755689" lon="70.224603"><ele>1578.4</ele></trkpt>
<trkpt lat="41.755622" lon="70.224665"><ele>1580.4</ele></trkpt>
<trkpt lat="41.755448" lon="70.224745"><ele>1584.6</ele></trkpt>
<trkpt lat="41.755385" lon="70.224799"><ele>1586.9</ele></trkpt>
<trkpt lat="41.755304" lon="70.224802"><ele>1588.6</ele></trkpt>
<trkpt lat="41.755262" lon="70.224829"><ele>1589.6</ele></trkpt>
<trkpt lat="41.755230" lon="70.224910"><ele>1592.1</ele></trkpt>
<trkpt lat="41.755144" lon="70.225022"><ele>1593.9</ele></trkpt>
<trkpt lat="41.755058" lon="70.225065"><ele>1596.0</ele></trkpt>
<trkpt lat="41.754964" lon="70.225075"><ele>1599.5</ele></trkpt>
<trkpt lat="41.754850" lon="70.225130"><ele>1602.5</ele></trkpt>
<trkpt lat="41.754594" lon="70.225205"><ele>1609.6</ele></trkpt>
<trkpt lat="41.754406" lon="70.225189"><ele>1614.5</ele></trkpt>
<trkpt lat="41.754349" lon="70.225221"><ele>1616.6</ele></trkpt>
<trkpt lat="41.754213" lon="70.225248"><ele>1620.5</ele></trkpt>
<trkpt lat="41.754189" lon="70.225271"><ele>1621.1</ele></trkpt>
<trkpt lat="41.754139" lon="70.225365"><ele>1623.1</ele></trkpt>
<trkpt lat="41.754139" lon="70.225501"><ele>1623.6</ele></trkpt>
<trkpt lat="41.754070" lon="70.225682"><ele>1625.0</ele></trkpt>
<trkpt lat="41.754037" lon="70.225892"><ele>1627.5</ele></trkpt>
<trkpt lat="41.753909" lon="70.226265"><ele>1634.1</ele></trkpt>
<trkpt lat="41.753893" lon="70.226407"><ele>1636.9</ele></trkpt>
<trkpt lat="41.753856" lon="70.226520"><ele>1639.4</ele></trkpt>
<trkpt lat="41.753824" lon="70.226715"><ele>1643.2</ele></trkpt>
<trkpt lat="41.753789" lon="70.226794"><ele>1644.9</ele></trkpt>
<trkpt lat="41.753772" lon="70.226924"><ele>1647.7</ele></trkpt>
<trkpt lat="41.753701" lon="70.227078"><ele>1651.3</ele></trkpt>
<trkpt lat="41.753600" lon="70.227480"><ele>1660.8</ele></trkpt>
<trkpt lat="41.753563" lon="70.227518"><ele>1662.9</ele></trkpt>
<trkpt lat="41.753532" lon="70.227598"><ele>1665.2</ele></trkpt>
<trkpt lat="41.753507" lon="70.227676"><ele>1667.2</ele></trkpt>
<trkpt lat="41.753506" lon="70.227734"><ele>1668.3</ele></trkpt>
<trkpt lat="41.753421" lon="70.227853"><ele>1672.6</ele></trkpt>
<trkpt lat="41.753337" lon="70.228229"><ele>1682.6</ele></trkpt>
<trkpt lat="41.753302" lon="70.228304"><ele>1684.1</ele></trkpt>
<trkpt lat="41.753259" lon="70.228349"><ele>1686.5</ele></trkpt>
<trkpt lat="41.753224" lon="70.228456"><ele>1690.5</ele></trkpt>
<trkpt lat="41.753186" lon="70.228501"><ele>1692.9</ele></trkpt>
<trkpt lat="41.753036" lon="70.228943"><ele>1707.2</ele></trkpt>
<trkpt lat="41.752998" lon="70.229161"><ele>1713.8</ele></trkpt>
<trkpt lat="41.752962" lon="70.229248"><ele>1716.5</ele></trkpt>
<trkpt lat="41.752927" lon="70.229409"><ele>1722.0</ele></trkpt>
<trkpt lat="41.752916" lon="70.229683"><ele>1731.0</ele></trkpt>
<trkpt lat="41.752874" lon="70.229853"><ele>1736.9</ele></trkpt>
<trkpt lat="41.752857" lon="70.230029"><ele>1743.0</ele></trkpt>
<trkpt lat="41.752890" lon="70.230235"><ele>1748.9</ele></trkpt>
<trkpt lat="41.752877" lon="70.230392"><ele>1754.6</ele></trkpt>
<trkpt lat="41.752886" lon="70.230527"><ele>1758.8</ele></trkpt>
<trkpt lat="41.752856" lon="70.230647"><ele>1763.5</ele></trkpt>
<trkpt lat="41.752827" lon="70.230913"><ele>1773.2</ele></trkpt>
<trkpt lat="41.752814" lon="70.230935"><ele>1774.9</ele></trkpt>
<trkpt lat="41.752815" lon="70.230916"><ele>1774.8</ele></trkpt>
<trkpt lat="41.752796" lon="70.230927"><ele>1775.6</ele></trkpt>
<trkpt lat="41.752812" lon="70.230947"><ele>1776.0</ele></trkpt>
<trkpt lat="41.752776" lon="70.230925"><ele>1777.1</ele></trkpt>
<trkpt lat="41.752815" lon="70.230907"><ele>1776.2</ele></trkpt>
<trkpt lat="41.752820" lon="70.230928"><ele>1776.8</ele></trkpt>
<trkpt lat="41.752799" lon="70.231020"><ele>1780.2</ele></trkpt>
<trkpt lat="41.752794" lon="70.231146"><ele>1784.2</ele></trkpt>
<trkpt lat="41.752763" lon="70.231270"><ele>1789.5</ele></trkpt>
<trkpt lat="41.752774" lon="70.231320"><ele>1791.4</ele></trkpt>
<trkpt lat="41.752768" lon="70.231398"><ele>1794.4</ele></trkpt>
<trkpt lat="41.752782" lon="70.231425"><ele>1796.1</ele></trkpt>
<trkpt lat="41.752751" lon="70.231471"><ele>1797.7</ele></trkpt>
<trkpt lat="41.752711" lon="70.231586"><ele>1803.0</ele></trkpt>
<trkpt lat="41.752725" lon="70.231667"><ele>1805.5</ele></trkpt>
<trkpt lat="41.752706" lon="70.231693"><ele>1807.1</ele></trkpt>
<trkpt lat="41.752718" lon="70.231777"><ele>1810.1</ele></trkpt>
<trkpt lat="41.752703" lon="70.231927"><ele>1815.9</ele></trkpt>
<trkpt lat="41.752718" lon="70.231945"><ele>1817.2</ele></trkpt>
<trkpt lat="41.752711" lon="70.232005"><ele>1819.2</ele></trkpt>
<trkpt lat="41.752723" lon="70.232058"><ele>1820.8</ele></trkpt>
<trkpt lat="41.752703" lon="70.232098"><ele>1824.4</ele></trkpt>
<trkpt lat="41.752721" lon="70.232208"><ele>1826.6</ele></trkpt>
<trkpt lat="41.752704" lon="70.232375"><ele>1833.3</ele></trkpt>
<trkpt lat="41.752712" lon="70.232425"><ele>1835.0</ele></trkpt>
<trkpt lat="41.752690" lon="70.232483"><ele>1837.4</ele></trkpt>
<trkpt lat="41.752701" lon="70.232569"><ele>1840.7</ele></trkpt>
<trkpt lat="41.752678" lon="70.232656"><ele>1844.4</ele></trkpt>
<trkpt lat="41.752679" lon="70.232717"><ele>1847.2</ele></trkpt>
<trkpt lat="41.752694" lon="70.232723"><ele>1847.8</ele></trkpt>
<trkpt lat="41.752669" lon="70.232820"><ele>1851.0</ele></trkpt>
<trkpt lat="41.752673" lon="70.232968"><ele>1857.5</ele></trkpt>
<trkpt lat="41.752632" lon="70.233093"><ele>1862.2</ele></trkpt>
<trkpt lat="41.752642" lon="70.233128"><ele>1863.8</ele></trkpt>
<trkpt lat="41.752625" lon="70.233200"><ele>1867.0</ele></trkpt>
<trkpt lat="41.752633" lon="70.233366"><ele>1873.1</ele></trkpt>
<trkpt lat="41.752605" lon="70.233504"><ele>1879.8</ele></trkpt>
<trkpt lat="41.752624" lon="70.233581"><ele>1882.9</ele></trkpt>
<trkpt lat="41.752591" lon="70.233680"><ele>1887.5</ele></trkpt>
<trkpt lat="41.752611" lon="70.233805"><ele>1893.5</ele></trkpt>
<trkpt lat="41.752597" lon="70.233854"><ele>1894.6</ele></trkpt>
<trkpt lat="41.752603" lon="70.233903"><ele>1895.9</ele></trkpt>
<trkpt lat="41.752532" lon="70.233999"><ele>1901.0</ele></trkpt>
<trkpt lat="41.752561" lon="70.234001"><ele>1901.5</ele></trkpt>
<trkpt lat="41.752596" lon="70.234052"><ele>1902.2</ele></trkpt>
<trkpt lat="41.752540" lon="70.234161"><ele>1905.3</ele></trkpt>
<trkpt lat="41.752536" lon="70.234229"><ele>1908.8</ele></trkpt>
<trkpt lat="41.752523" lon="70.234229"><ele>1909.0</ele></trkpt>
<trkpt lat="41.752542" lon="70.234279"><ele>1911.1</ele></trkpt>
<trkpt lat="41.752521" lon="70.234384"><ele>1915.4</ele></trkpt>
<trkpt lat="41.752537" lon="70.234464"><ele>1918.9</ele></trkpt>
<trkpt lat="41.752530" lon="70.234597"><ele>1923.3</ele></trkpt>
<trkpt lat="41.752556" lon="70.234736"><ele>1929.3</ele></trkpt>
<trkpt lat="41.752536" lon="70.234770"><ele>1930.5</ele></trkpt>
<trkpt lat="41.752551" lon="70.234845"><ele>1934.6</ele></trkpt>
<trkpt lat="41.752527" lon="70.234909"><ele>1935.9</ele></trkpt>
<trkpt lat="41.752487" lon="70.235194"><ele>1946.8</ele></trkpt>
<trkpt lat="41.752498" lon="70.235198"><ele>1948.1</ele></trkpt>
<trkpt lat="41.752507" lon="70.235302"><ele>1950.7</ele></trkpt>
<trkpt lat="41.752527" lon="70.235358"><ele>1953.2</ele></trkpt>
<trkpt lat="41.752522" lon="70.235417"><ele>1956.1</ele></trkpt>
<trkpt lat="41.752551" lon="70.235506"><ele>1959.2</ele></trkpt>
<trkpt lat="41.752550" lon="70.235598"><ele>1963.4</ele></trkpt>
<trkpt lat="41.752622" lon="70.235781"><ele>1970.0</ele></trkpt>
<trkpt lat="41.752625" lon="70.235925"><ele>1975.4</ele></trkpt>
<trkpt lat="41.752613" lon="70.235942"><ele>1976.5</ele></trkpt>
<trkpt lat="41.752651" lon="70.235997"><ele>1978.5</ele></trkpt>
<trkpt lat="41.752661" lon="70.236082"><ele>1982.1</ele></trkpt>
<trkpt lat="41.752677" lon="70.236083"><ele>1983.3</ele></trkpt>
<trkpt lat="41.752693" lon="70.236139"><ele>1985.4</ele></trkpt>
<trkpt lat="41.752723" lon="70.236168"><ele>1987.2</ele></trkpt>
<trkpt lat="41.752740" lon="70.236274"><ele>1991.7</ele></trkpt>
<trkpt lat="41.752765" lon="70.236320"><ele>1994.7</ele></trkpt>
<trkpt lat="41.752775" lon="70.236426"><ele>1998.4</ele></trkpt>
<trkpt lat="41.752806" lon="70.236458"><ele>2000.4</ele></trkpt>
<trkpt lat="41.752850" lon="70.236550"><ele>2005.9</ele></trkpt>
<trkpt lat="41.752856" lon="70.236628"><ele>2008.7</ele></trkpt>
<trkpt lat="41.752838" lon="70.236811"><ele>2017.2</ele></trkpt>
<trkpt lat="41.752901" lon="70.236931"><ele>2021.7</ele></trkpt>
<trkpt lat="41.752889" lon="70.237116"><ele>2029.1</ele></trkpt>
<trkpt lat="41.752904" lon="70.237114"><ele>2031.3</ele></trkpt>
<trkpt lat="41.752947" lon="70.237197"><ele>2034.2</ele></trkpt>
<trkpt lat="41.752945" lon="70.237247"><ele>2036.0</ele></trkpt>
<trkpt lat="41.753005" lon="70.237366"><ele>2042.6</ele></trkpt>
<trkpt lat="41.753015" lon="70.237437"><ele>2046.6</ele></trkpt>
<trkpt lat="41.753016" lon="70.237425"><ele>2047.5</ele></trkpt>
<trkpt lat="41.753047" lon="70.237483"><ele>2049.1</ele></trkpt>
<trkpt lat="41.753069" lon="70.237611"><ele>2055.2</ele></trkpt>
<trkpt lat="41.753144" lon="70.237756"><ele>2063.2</ele></trkpt>
<trkpt lat="41.753140" lon="70.237819"><ele>2065.3</ele></trkpt>
<trkpt lat="41.753184" lon="70.237966"><ele>2072.2</ele></trkpt>
<trkpt lat="41.753234" lon="70.238020"><ele>2077.2</ele></trkpt>
<trkpt lat="41.753259" lon="70.238138"><ele>2083.1</ele></trkpt>
<trkpt lat="41.753332" lon="70.238274"><ele>2091.0</ele></trkpt>
<trkpt lat="41.753354" lon="70.238363"><ele>2096.5</ele></trkpt>
<trkpt lat="41.753400" lon="70.238427"><ele>2099.7</ele></trkpt>
<trkpt lat="41.753416" lon="70.238487"><ele>2102.8</ele></trkpt>
<trkpt lat="41.753409" lon="70.238507"><ele>2104.1</ele></trkpt>
<trkpt lat="41.753485" lon="70.238619"><ele>2112.3</ele></trkpt>
<trkpt lat="41.753470" lon="70.238703"><ele>2113.9</ele></trkpt>
<trkpt lat="41.753509" lon="70.238786"><ele>2118.8</ele></trkpt>
<trkpt lat="41.753496" lon="70.238862"><ele>2122.6</ele></trkpt>
<trkpt lat="41.753537" lon="70.238964"><ele>2127.5</ele></trkpt>
<trkpt lat="41.753534" lon="70.238991"><ele>2129.5</ele></trkpt>
<trkpt lat="41.753524" lon="70.238985"><ele>2130.2</ele></trkpt>
<trkpt lat="41.753528" lon="70.238972"><ele>2130.2</ele></trkpt>
<trkpt lat="41.753537" lon="70.239037"><ele>2131.9</ele></trkpt>
<trkpt lat="41.753593" lon="70.239214"><ele>2140.0</ele></trkpt>
<trkpt lat="41.753691" lon="70.239437"><ele>2153.5</ele></trkpt>
<trkpt lat="41.753686" lon="70.239506"><ele>2157.9</ele></trkpt>
<trkpt lat="41.753709" lon="70.239615"><ele>2162.7</ele></trkpt>
<trkpt lat="41.753732" lon="70.239646"><ele>2165.7</ele></trkpt>
<trkpt lat="41.753716" lon="70.239756"><ele>2169.4</ele></trkpt>
<trkpt lat="41.753756" lon="70.239863"><ele>2175.9</ele></trkpt>
<trkpt lat="41.753779" lon="70.240146"><ele>2190.3</ele></trkpt>
<trkpt lat="41.753797" lon="70.240256"><ele>2194.5</ele></trkpt>
<trkpt lat="41.753822" lon="70.240318"><ele>2198.6</ele></trkpt>
<trkpt lat="41.753816" lon="70.240301"><ele>2199.9</ele></trkpt>
<trkpt lat="41.753807" lon="70.240331"><ele>2200.5</ele></trkpt>
<trkpt lat="41.753838" lon="70.240572"><ele>2213.1</ele></trkpt>
<trkpt lat="41.753869" lon="70.240642"><ele>2215.8</ele></trkpt>
<trkpt lat="41.753957" lon="70.240764"><ele>2225.6</ele></trkpt>
<trkpt lat="41.753981" lon="70.240986"><ele>2236.5</ele></trkpt>
<trkpt lat="41.754021" lon="70.241039"><ele>2242.1</ele></trkpt>
<trkpt lat="41.754023" lon="70.241112"><ele>2244.5</ele></trkpt>
<trkpt lat="41.754083" lon="70.241170"><ele>2250.1</ele></trkpt>
<trkpt lat="41.754125" lon="70.241284"><ele>2259.7</ele></trkpt>
<trkpt lat="41.754148" lon="70.241303"><ele>2260.2</ele></trkpt>
<trkpt lat="41.754153" lon="70.241434"><ele>2266.6</ele></trkpt>
<trkpt lat="41.754196" lon="70.241459"><ele>2270.3</ele></trkpt>
<trkpt lat="41.754261" lon="70.241601"><ele>2279.6</ele></trkpt>
<trkpt lat="41.754269" lon="70.241589"><ele>2281.7</ele></trkpt>
<trkpt lat="41.754321" lon="70.241650"><ele>2284.3</ele></trkpt>
<trkpt lat="41.754323" lon="70.241669"><ele>2285.8</ele></trkpt>
<trkpt lat="41.754307" lon="70.241656"><ele>2286.3</ele></trkpt>
<trkpt lat="41.754342" lon="70.241711"><ele>2289.5</ele></trkpt>
<trkpt lat="41.754342" lon="70.241755"><ele>2291.6</ele></trkpt>
<trkpt lat="41.754334" lon="70.241747"><ele>2293.1</ele></trkpt>
<trkpt lat="41.754384" lon="70.241935"><ele>2304.1</ele></trkpt>
<trkpt lat="41.754434" lon="70.241963"><ele>2307.0</ele></trkpt>
<trkpt lat="41.754469" lon="70.242036"><ele>2311.3</ele></trkpt>
<trkpt lat="41.754474" lon="70.242103"><ele>2315.7</ele></trkpt>
<trkpt lat="41.754493" lon="70.242132"><ele>2318.1</ele></trkpt>
<trkpt lat="41.754495" lon="70.242112"><ele>2318.7</ele></trkpt>
<trkpt lat="41.754488" lon="70.242103"><ele>2318.6</ele></trkpt>
<trkpt lat="41.754495" lon="70.242149"><ele>2319.7</ele></trkpt>
<trkpt lat="41.754542" lon="70.242175"><ele>2322.5</ele></trkpt>
<trkpt lat="41.754532" lon="70.242172"><ele>2322.7</ele></trkpt>
<trkpt lat="41.754570" lon="70.242268"><ele>2329.5</ele></trkpt>
<trkpt lat="41.754596" lon="70.242409"><ele>2336.6</ele></trkpt>
<trkpt lat="41.754713" lon="70.242544"><ele>2346.4</ele></trkpt>
<trkpt lat="41.754740" lon="70.242635"><ele>2352.4</ele></trkpt>
<trkpt lat="41.754732" lon="70.242703"><ele>2355.7</ele></trkpt>
<trkpt lat="41.754752" lon="70.242709"><ele>2358.0</ele></trkpt>
<trkpt lat="41.754775" lon="70.242782"><ele>2360.9</ele></trkpt>
<trkpt lat="41.754802" lon="70.242780"><ele>2363.6</ele></trkpt>
<trkpt lat="41.754835" lon="70.242881"><ele>2368.6</ele></trkpt>
<trkpt lat="41.754853" lon="70.242890"><ele>2370.0</ele></trkpt>
<trkpt lat="41.754849" lon="70.242928"><ele>2372.7</ele></trkpt>
<trkpt lat="41.754880" lon="70.243035"><ele>2379.1</ele></trkpt>
<trkpt lat="41.754869" lon="70.243031"><ele>2379.6</ele></trkpt>
<trkpt lat="41.754907" lon="70.243075"><ele>2381.4</ele></trkpt>
<trkpt lat="41.754916" lon="70.243119"><ele>2385.5</ele></trkpt>
<trkpt lat="41.754962" lon="70.243143"><ele>2386.8</ele></trkpt>
<trkpt lat="41.754971" lon="70.243201"><ele>2389.1</ele></trkpt>
<trkpt lat="41.755005" lon="70.243277"><ele>2393.1</ele></trkpt>
<trkpt lat="41.755028" lon="70.243292"><ele>2396.4</ele></trkpt>
<trkpt lat="41.755066" lon="70.243417"><ele>2406.3</ele></trkpt>
<trkpt lat="41.755080" lon="70.243388"><ele>2407.5</ele></trkpt>
<trkpt lat="41.755089" lon="70.243420"><ele>2407.8</ele></trkpt>
<trkpt lat="41.755119" lon="70.243427"><ele>2409.4</ele></trkpt>
<trkpt lat="41.755171" lon="70.243548"><ele>2415.8</ele></trkpt>
<trkpt lat="41.755160" lon="70.243537"><ele>2417.1</ele></trkpt>
<trkpt lat="41.755166" lon="70.243571"><ele>2418.4</ele></trkpt>
<trkpt lat="41.755189" lon="70.243609"><ele>2420.6</ele></trkpt>
<trkpt lat="41.755209" lon="70.243604"><ele>2422.4</ele></trkpt>
<trkpt lat="41.755196" lon="70.243604"><ele>2422.3</ele></trkpt>
<trkpt lat="41.755217" lon="70.243659"><ele>2423.9</ele></trkpt>
<trkpt lat="41.755205" lon="70.243665"><ele>2426.0</ele></trkpt>
<trkpt lat="41.755208" lon="70.243700"><ele>2426.5</ele></trkpt>
<trkpt lat="41.755253" lon="70.243818"><ele>2433.9</ele></trkpt>
<trkpt lat="41.755240" lon="70.243837"><ele>2436.1</ele></trkpt>
<trkpt lat="41.755241" lon="70.243893"><ele>2437.9</ele></trkpt>
<trkpt lat="41.755279" lon="70.243955"><ele>2444.4</ele></trkpt>
<trkpt lat="41.755265" lon="70.244008"><ele>2447.6</ele></trkpt>
<trkpt lat="41.755280" lon="70.244250"><ele>2461.7</ele></trkpt>
<trkpt lat="41.755239" lon="70.244307"><ele>2465.1</ele></trkpt>
<trkpt lat="41.755207" lon="70.244389"><ele>2468.3</ele></trkpt>
<trkpt lat="41.755178" lon="70.244517"><ele>2470.3</ele></trkpt>
<trkpt lat="41.755181" lon="70.244587"><ele>2472.4</ele></trkpt>
<trkpt lat="41.755087" lon="70.244654"><ele>2475.2</ele></trkpt>
<trkpt lat="41.755077" lon="70.244724"><ele>2479.3</ele></trkpt>
<trkpt lat="41.755043" lon="70.244764"><ele>2480.8</ele></trkpt>
<trkpt lat="41.755045" lon="70.244821"><ele>2484.2</ele></trkpt>
<trkpt lat="41.754947" lon="70.244923"><ele>2488.2</ele></trkpt>
<trkpt lat="41.754931" lon="70.244989"><ele>2488.5</ele></trkpt>
<trkpt lat="41.754902" lon="70.244995"><ele>2490.0</ele></trkpt>
<trkpt lat="41.754847" lon="70.245088"><ele>2493.1</ele></trkpt>
<trkpt lat="41.754792" lon="70.245140"><ele>2497.5</ele></trkpt>
<trkpt lat="41.754799" lon="70.245195"><ele>2501.4</ele></trkpt>
<trkpt lat="41.754744" lon="70.245274"><ele>2506.9</ele></trkpt>
<trkpt lat="41.754739" lon="70.245314"><ele>2509.1</ele></trkpt>
<trkpt lat="41.754669" lon="70.245347"><ele>2514.7</ele></trkpt>
<trkpt lat="41.754647" lon="70.245457"><ele>2518.8</ele></trkpt>
<trkpt lat="41.754611" lon="70.245503"><ele>2522.2</ele></trkpt>
<trkpt lat="41.754609" lon="70.245560"><ele>2525.0</ele></trkpt>
<trkpt lat="41.754629" lon="70.245577"><ele>2527.6</ele></trkpt>
<trkpt lat="41.754609" lon="70.245581"><ele>2528.6</ele></trkpt>
<trkpt lat="41.754597" lon="70.245657"><ele>2531.6</ele></trkpt>
<trkpt lat="41.754611" lon="70.245681"><ele>2533.7</ele></trkpt>
<trkpt lat="41.754618" lon="70.245768"><ele>2538.5</ele></trkpt>
<trkpt lat="41.754593" lon="70.245789"><ele>2540.9</ele></trkpt>
<trkpt lat="41.754632" lon="70.245914"><ele>2545.1</ele></trkpt>
<trkpt lat="41.754628" lon="70.245901"><ele>2545.3</ele></trkpt>
<trkpt lat="41.754630" lon="70.245980"><ele>2547.2</ele></trkpt>
<trkpt lat="41.754597" lon="70.246083"><ele>2552.3</ele></trkpt>
<trkpt lat="41.754600" lon="70.246134"><ele>2553.9</ele></trkpt>
<trkpt lat="41.754565" lon="70.246157"><ele>2557.1</ele></trkpt>
<trkpt lat="41.754563" lon="70.246207"><ele>2560.5</ele></trkpt>
<trkpt lat="41.754545" lon="70.246233"><ele>2561.5</ele></trkpt>
<trkpt lat="41.754509" lon="70.246440"><ele>2572.6</ele></trkpt>
<trkpt lat="41.754409" lon="70.246576"><ele>2580.4</ele></trkpt>
<trkpt lat="41.754393" lon="70.246638"><ele>2583.1</ele></trkpt>
<trkpt lat="41.754297" lon="70.246719"><ele>2591.7</ele></trkpt>
<trkpt lat="41.754276" lon="70.246762"><ele>2593.1</ele></trkpt>
<trkpt lat="41.754215" lon="70.246810"><ele>2598.1</ele></trkpt>
<trkpt lat="41.754086" lon="70.246816"><ele>2604.4</ele></trkpt>
<trkpt lat="41.754085" lon="70.246830"><ele>2604.6</ele></trkpt>
<trkpt lat="41.754080" lon="70.246817"><ele>2604.7</ele></trkpt>
<trkpt lat="41.754088" lon="70.246832"><ele>2605.7</ele></trkpt>
<trkpt lat="41.754119" lon="70.246814"><ele>2606.4</ele></trkpt>
<trkpt lat="41.754104" lon="70.246817"><ele>2606.6</ele></trkpt>
<trkpt lat="41.754050" lon="70.246955"><ele>2610.1</ele></trkpt>
<trkpt lat="41.754013" lon="70.246965"><ele>2611.7</ele></trkpt>
<trkpt lat="41.753995" lon="70.247034"><ele>2611.9</ele></trkpt>
<trkpt lat="41.753923" lon="70.247173"><ele>2615.9</ele></trkpt>
<trkpt lat="41.753929" lon="70.247189"><ele>2616.3</ele></trkpt>
<trkpt lat="41.753841" lon="70.247267"><ele>2620.9</ele></trkpt>
<trkpt lat="41.753790" lon="70.247413"><ele>2624.8</ele></trkpt>
<trkpt lat="41.753713" lon="70.247477"><ele>2628.1</ele></trkpt>
<trkpt lat="41.753665" lon="70.247601"><ele>2632.9</ele></trkpt>
<trkpt lat="41.753619" lon="70.247654"><ele>2636.7</ele></trkpt>
<trkpt lat="41.753565" lon="70.247774"><ele>2643.9</ele></trkpt>
<trkpt lat="41.753407" lon="70.247841"><ele>2650.2</ele></trkpt>
<trkpt lat="41.753253" lon="70.247862"><ele>2658.2</ele></trkpt>
<trkpt lat="41.753100" lon="70.247794"><ele>2662.4</ele></trkpt>
<trkpt lat="41.752928" lon="70.247756"><ele>2670.3</ele></trkpt>
<trkpt lat="41.752885" lon="70.247785"><ele>2672.8</ele></trkpt>
<trkpt lat="41.752800" lon="70.247804"><ele>2675.1</ele></trkpt>
<trkpt lat="41.752668" lon="70.247882"><ele>2678.8</ele></trkpt>
<trkpt lat="41.752289" lon="70.248199"><ele>2695.9</ele></trkpt>
<trkpt lat="41.752153" lon="70.248376"><ele>2704.5</ele></trkpt>
<trkpt lat="41.752024" lon="70.248474"><ele>2708.3</ele></trkpt>
<trkpt lat="41.751888" lon="70.248625"><ele>2714.4</ele></trkpt>
<trkpt lat="41.751614" lon="70.248862"><ele>2718.1</ele></trkpt>
<trkpt lat="41.751497" lon="70.248987"><ele>2718.8</ele></trkpt>
<trkpt lat="41.751400" lon="70.249046"><ele>2718.6</ele></trkpt>
<trkpt lat="41.751367" lon="70.249156"><ele>2719.5</ele></trkpt>
<trkpt lat="41.751235" lon="70.249311"><ele>2720.4</ele></trkpt>
<trkpt lat="41.751137" lon="70.249477"><ele>2721.3</ele></trkpt>
<trkpt lat="41.751005" lon="70.249621"><ele>2721.6</ele></trkpt>
<trkpt lat="41.750880" lon="70.249674"><ele>2722.7</ele></trkpt>
<trkpt lat="41.750847" lon="70.249747"><ele>2724.0</ele></trkpt>
<trkpt lat="41.750692" lon="70.249895"><ele>2727.7</ele></trkpt>
<trkpt lat="41.750642" lon="70.250018"><ele>2729.5</ele></trkpt>
<trkpt lat="41.750604" lon="70.250222"><ele>2733.6</ele></trkpt>
<trkpt lat="41.750532" lon="70.250402"><ele>2741.2</ele></trkpt>
<trkpt lat="41.750445" lon="70.250546"><ele>2745.1</ele></trkpt>
<trkpt lat="41.750222" lon="70.250748"><ele>2758.0</ele></trkpt>
<trkpt lat="41.750148" lon="70.250837"><ele>2763.0</ele></trkpt>
<trkpt lat="41.750075" lon="70.250935"><ele>2768.6</ele></trkpt>
<trkpt lat="41.750049" lon="70.251001"><ele>2770.7</ele></trkpt>
<trkpt lat="41.749977" lon="70.251086"><ele>2775.3</ele></trkpt>
<trkpt lat="41.749891" lon="70.251276"><ele>2783.4</ele></trkpt>
<trkpt lat="41.749870" lon="70.251368"><ele>2787.3</ele></trkpt>
<trkpt lat="41.749810" lon="70.251513"><ele>2793.0</ele></trkpt>
<trkpt lat="41.749629" lon="70.251908"><ele>2810.3</ele></trkpt>
<trkpt lat="41.749628" lon="70.251992"><ele>2813.6</ele></trkpt>
<trkpt lat="41.749550" lon="70.252320"><ele>2821.0</ele></trkpt>
<trkpt lat="41.749549" lon="70.252586"><ele>2824.8</ele></trkpt>
<trkpt lat="41.749536" lon="70.252648"><ele>2827.7</ele></trkpt>
<trkpt lat="41.749542" lon="70.252768"><ele>2830.3</ele></trkpt>
<trkpt lat="41.749525" lon="70.252970"><ele>2835.6</ele></trkpt>
<trkpt lat="41.749551" lon="70.253263"><ele>2840.7</ele></trkpt>
<trkpt lat="41.749498" lon="70.253458"><ele>2845.7</ele></trkpt>
<trkpt lat="41.749469" lon="70.253517"><ele>2847.8</ele></trkpt>
<trkpt lat="41.749458" lon="70.253609"><ele>2852.3</ele></trkpt>
<trkpt lat="41.749470" lon="70.253999"><ele>2865.4</ele></trkpt>
<trkpt lat="41.749460" lon="70.254101"><ele>2868.1</ele></trkpt>
<trkpt lat="41.749443" lon="70.254136"><ele>2871.2</ele></trkpt>
<trkpt lat="41.749447" lon="70.254246"><ele>2874.0</ele></trkpt>
<trkpt lat="41.749443" lon="70.254266"><ele>2875.2</ele></trkpt>
<trkpt lat="41.749434" lon="70.254247"><ele>2875.8</ele></trkpt>
<trkpt lat="41.749422" lon="70.254438"><ele>2881.1</ele></trkpt>
<trkpt lat="41.749409" lon="70.254450"><ele>2882.9</ele></trkpt>
<trkpt lat="41.749420" lon="70.254540"><ele>2884.8</ele></trkpt>
<trkpt lat="41.749411" lon="70.254696"><ele>2889.8</ele></trkpt>
<trkpt lat="41.749369" lon="70.254811"><ele>2895.5</ele></trkpt>
<trkpt lat="41.749370" lon="70.254863"><ele>2896.4</ele></trkpt>
<trkpt lat="41.749308" lon="70.255025"><ele>2901.5</ele></trkpt>
<trkpt lat="41.749219" lon="70.255133"><ele>2905.0</ele></trkpt>
<trkpt lat="41.749158" lon="70.255247"><ele>2906.7</ele></trkpt>
<trkpt lat="41.749101" lon="70.255294"><ele>2908.2</ele></trkpt>
<trkpt lat="41.749058" lon="70.255507"><ele>2909.5</ele></trkpt>
<trkpt lat="41.749011" lon="70.255499"><ele>2910.7</ele></trkpt>
<trkpt lat="41.748935" lon="70.255566"><ele>2913.5</ele></trkpt>
<trkpt lat="41.748821" lon="70.255603"><ele>2918.0</ele></trkpt>
<trkpt lat="41.748702" lon="70.255705"><ele>2924.2</ele></trkpt>
<trkpt lat="41.748518" lon="70.255789"><ele>2932.5</ele></trkpt>
<trkpt lat="41.748085" lon="70.255882"><ele>2944.4</ele></trkpt>
<trkpt lat="41.747786" lon="70.256009"><ele>2954.1</ele></trkpt>
<trkpt lat="41.747634" lon="70.256014"><ele>2958.8</ele></trkpt>
<trkpt lat="41.747604" lon="70.256059"><ele>2959.3</ele></trkpt>
<trkpt lat="41.747613" lon="70.256066"><ele>2959.1</ele></trkpt>
<trkpt lat="41.747603" lon="70.256056"><ele>2959.4</ele></trkpt>
<trkpt lat="41.747640" lon="70.256073"><ele>2961.5</ele></trkpt>
<trkpt lat="41.747609" lon="70.256068"><ele>2960.8</ele></trkpt>
<trkpt lat="41.747631" lon="70.256059"><ele>2961.6</ele></trkpt>
<trkpt lat="41.747618" lon="70.256042"><ele>2961.1</ele></trkpt>
<trkpt lat="41.747633" lon="70.256058"><ele>2961.1</ele></trkpt>
<trkpt lat="41.747621" lon="70.256052"><ele>2961.8</ele></trkpt>
<trkpt lat="41.747577" lon="70.256196"><ele>2963.0</ele></trkpt>
<trkpt lat="41.747417" lon="70.256367"><ele>2968.0</ele></trkpt>
<trkpt lat="41.747114" lon="70.256494"><ele>2969.4</ele></trkpt>
<trkpt lat="41.746972" lon="70.256583"><ele>2971.9</ele></trkpt>
<trkpt lat="41.746867" lon="70.256610"><ele>2972.8</ele></trkpt>
<trkpt lat="41.746795" lon="70.256692"><ele>2974.7</ele></trkpt>
<trkpt lat="41.746586" lon="70.256820"><ele>2976.2</ele></trkpt>
<trkpt lat="41.746465" lon="70.256838"><ele>2978.7</ele></trkpt>
<trkpt lat="41.746365" lon="70.256803"><ele>2981.1</ele></trkpt>
<trkpt lat="41.746353" lon="70.256833"><ele>2982.1</ele></trkpt>
<trkpt lat="41.746339" lon="70.256833"><ele>2983.8</ele></trkpt>
<trkpt lat="41.746335" lon="70.256866"><ele>2984.0</ele></trkpt>
<trkpt lat="41.746251" lon="70.256891"><ele>2986.9</ele></trkpt>
<trkpt lat="41.746155" lon="70.257006"><ele>2992.0</ele></trkpt>
<trkpt lat="41.745974" lon="70.257007"><ele>2998.2</ele></trkpt>
<trkpt lat="41.745932" lon="70.256928"><ele>3000.4</ele></trkpt>
<trkpt lat="41.745833" lon="70.256871"><ele>3004.0</ele></trkpt>
<trkpt lat="41.745740" lon="70.256742"><ele>3007.8</ele></trkpt>
<trkpt lat="41.745593" lon="70.256778"><ele>3013.6</ele></trkpt>
<trkpt lat="41.745479" lon="70.256723"><ele>3015.9</ele></trkpt>
<trkpt lat="41.745392" lon="70.256716"><ele>3020.6</ele></trkpt>
<trkpt lat="41.745267" lon="70.256661"><ele>3025.1</ele></trkpt>
<trkpt lat="41.745249" lon="70.256671"><ele>3026.8</ele></trkpt>
<trkpt lat="41.744930" lon="70.256582"><ele>3037.4</ele></trkpt>
<trkpt lat="41.744759" lon="70.256564"><ele>3043.4</ele></trkpt>
<trkpt lat="41.744689" lon="70.256538"><ele>3047.1</ele></trkpt>
<trkpt lat="41.744577" lon="70.256530"><ele>3050.4</ele></trkpt>
<trkpt lat="41.744216" lon="70.256577"><ele>3058.8</ele></trkpt>
<trkpt lat="41.744029" lon="70.256628"><ele>3062.8</ele></trkpt>
<trkpt lat="41.743835" lon="70.256716"><ele>3067.1</ele></trkpt>
<trkpt lat="41.743727" lon="70.256916"><ele>3067.7</ele></trkpt>
<trkpt lat="41.743696" lon="70.257018"><ele>3067.3</ele></trkpt>
<trkpt lat="41.743534" lon="70.257145"><ele>3071.8</ele></trkpt>
<trkpt lat="41.743454" lon="70.257235"><ele>3072.3</ele></trkpt>
<trkpt lat="41.743349" lon="70.257303"><ele>3073.2</ele></trkpt>
<trkpt lat="41.743206" lon="70.257321"><ele>3076.5</ele></trkpt>
<trkpt lat="41.743103" lon="70.257417"><ele>3076.7</ele></trkpt>
<trkpt lat="41.742938" lon="70.257461"><ele>3076.7</ele></trkpt>
<trkpt lat="41.742587" lon="70.257736"><ele>3079.1</ele></trkpt>
<trkpt lat="41.742448" lon="70.257789"><ele>3081.3</ele></trkpt>
<trkpt lat="41.742353" lon="70.257864"><ele>3082.7</ele></trkpt>
<trkpt lat="41.742206" lon="70.257890"><ele>3081.1</ele></trkpt>
<trkpt lat="41.742135" lon="70.257922"><ele>3079.2</ele></trkpt>
<trkpt lat="41.741986" lon="70.257917"><ele>3080.0</ele></trkpt>
<trkpt lat="41.741903" lon="70.257945"><ele>3081.8</ele></trkpt>
<trkpt lat="41.741805" lon="70.257950"><ele>3083.5</ele></trkpt>
<trkpt lat="41.741726" lon="70.257930"><ele>3083.9</ele></trkpt>
<trkpt lat="41.741547" lon="70.257968"><ele>3083.7</ele></trkpt>
<trkpt lat="41.741299" lon="70.257960"><ele>3088.6</ele></trkpt>
<trkpt lat="41.741254" lon="70.257988"><ele>3090.4</ele></trkpt>
<trkpt lat="41.741172" lon="70.257997"><ele>3091.7</ele></trkpt>
<trkpt lat="41.741060" lon="70.258113"><ele>3093.0</ele></trkpt>
<trkpt lat="41.741017" lon="70.258122"><ele>3094.9</ele></trkpt>
<trkpt lat="41.740961" lon="70.258089"><ele>3097.8</ele></trkpt>
<trkpt lat="41.740783" lon="70.258055"><ele>3103.6</ele></trkpt>
<trkpt lat="41.740677" lon="70.257931"><ele>3109.0</ele></trkpt>
<trkpt lat="41.740633" lon="70.257930"><ele>3111.9</ele></trkpt>
<trkpt lat="41.740610" lon="70.257949"><ele>3113.6</ele></trkpt>
<trkpt lat="41.740629" lon="70.257973"><ele>3113.8</ele></trkpt>
<trkpt lat="41.740605" lon="70.257951"><ele>3114.8</ele></trkpt>
<trkpt lat="41.740574" lon="70.257954"><ele>3115.8</ele></trkpt>
<trkpt lat="41.740560" lon="70.257973"><ele>3117.7</ele></trkpt>
<trkpt lat="41.740502" lon="70.257967"><ele>3120.4</ele></trkpt>
<trkpt lat="41.740425" lon="70.258011"><ele>3123.9</ele></trkpt>
<trkpt lat="41.740363" lon="70.257997"><ele>3125.8</ele></trkpt>
<trkpt lat="41.740335" lon="70.258015"><ele>3126.9</ele></trkpt>
<trkpt lat="41.740276" lon="70.258002"><ele>3129.8</ele></trkpt>
<trkpt lat="41.740236" lon="70.257935"><ele>3133.7</ele></trkpt>
<trkpt lat="41.740201" lon="70.257951"><ele>3135.8</ele></trkpt>
<trkpt lat="41.740162" lon="70.257942"><ele>3137.6</ele></trkpt>
<trkpt lat="41.740102" lon="70.258002"><ele>3138.5</ele></trkpt>
<trkpt lat="41.740004" lon="70.258043"><ele>3140.4</ele></trkpt>
<trkpt lat="41.739952" lon="70.258092"><ele>3142.5</ele></trkpt>
<trkpt lat="41.739950" lon="70.258073"><ele>3143.1</ele></trkpt>
<trkpt lat="41.739952" lon="70.258086"><ele>3143.3</ele></trkpt>
<trkpt lat="41.739903" lon="70.258103"><ele>3144.5</ele></trkpt>
<trkpt lat="41.739836" lon="70.258098"><ele>3147.6</ele></trkpt>
<trkpt lat="41.739693" lon="70.258161"><ele>3154.9</ele></trkpt>
<trkpt lat="41.739666" lon="70.258230"><ele>3160.3</ele></trkpt>
<trkpt lat="41.739646" lon="70.258349"><ele>3167.2</ele></trkpt>
<trkpt lat="41.739623" lon="70.258377"><ele>3168.6</ele></trkpt>
<trkpt lat="41.739612" lon="70.258370"><ele>3169.5</ele></trkpt>
<trkpt lat="41.739603" lon="70.258418"><ele>3171.7</ele></trkpt>
<trkpt lat="41.739576" lon="70.258446"><ele>3173.1</ele></trkpt>
<trkpt lat="41.739506" lon="70.258420"><ele>3177.0</ele></trkpt>
<trkpt lat="41.739454" lon="70.258432"><ele>3180.8</ele></trkpt>
<trkpt lat="41.739463" lon="70.258423"><ele>3180.7</ele></trkpt>
<trkpt lat="41.739421" lon="70.258455"><ele>3183.1</ele></trkpt>
<trkpt lat="41.739375" lon="70.258416"><ele>3186.1</ele></trkpt>
<trkpt lat="41.739337" lon="70.258418"><ele>3187.4</ele></trkpt>
<trkpt lat="41.739281" lon="70.258512"><ele>3193.9</ele></trkpt>
<trkpt lat="41.739098" lon="70.258646"><ele>3204.6</ele></trkpt>
<trkpt lat="41.739064" lon="70.258612"><ele>3208.5</ele></trkpt>
<trkpt lat="41.739073" lon="70.258602"><ele>3209.4</ele></trkpt>
<trkpt lat="41.738942" lon="70.258626"><ele>3211.7</ele></trkpt>
<trkpt lat="41.738954" lon="70.258619"><ele>3212.3</ele></trkpt>
<trkpt lat="41.738946" lon="70.258602"><ele>3212.0</ele></trkpt>
<trkpt lat="41.738896" lon="70.258607"><ele>3213.6</ele></trkpt>
<trkpt lat="41.738859" lon="70.258568"><ele>3216.7</ele></trkpt>
<trkpt lat="41.738832" lon="70.258586"><ele>3219.2</ele></trkpt>
<trkpt lat="41.738809" lon="70.258547"><ele>3221.8</ele></trkpt>
<trkpt lat="41.738776" lon="70.258577"><ele>3225.9</ele></trkpt>
<trkpt lat="41.738746" lon="70.258532"><ele>3230.5</ele></trkpt>
<trkpt lat="41.738726" lon="70.258585"><ele>3231.3</ele></trkpt>
<trkpt lat="41.738727" lon="70.258527"><ele>3232.0</ele></trkpt>
<trkpt lat="41.738729" lon="70.258564"><ele>3231.9</ele></trkpt>
<trkpt lat="41.738717" lon="70.258537"><ele>3232.0</ele></trkpt>
<trkpt lat="41.738724" lon="70.258519"><ele>3231.2</ele></trkpt>
<trkpt lat="41.738732" lon="70.258530"><ele>3231.2</ele></trkpt>
<trkpt lat="41.738718" lon="70.258508"><ele>3232.1</ele></trkpt>
<trkpt lat="41.738728" lon="70.258530"><ele>3231.7</ele></trkpt>
<trkpt lat="41.738744" lon="70.258525"><ele>3232.5</ele></trkpt>
<trkpt lat="41.738713" lon="70.258490"><ele>3232.5</ele></trkpt>
<trkpt lat="41.738605" lon="70.258489"><ele>3236.8</ele></trkpt>
<trkpt lat="41.738582" lon="70.258457"><ele>3238.0</ele></trkpt>
<trkpt lat="41.738529" lon="70.258301"><ele>3240.9</ele></trkpt>
<trkpt lat="41.738529" lon="70.258216"><ele>3241.5</ele></trkpt>
<trkpt lat="41.738510" lon="70.258167"><ele>3242.5</ele></trkpt>
<trkpt lat="41.738466" lon="70.258144"><ele>3245.7</ele></trkpt>
<trkpt lat="41.738442" lon="70.258151"><ele>3245.6</ele></trkpt>
<trkpt lat="41.738436" lon="70.258118"><ele>3244.3</ele></trkpt>
<trkpt lat="41.738389" lon="70.258145"><ele>3245.2</ele></trkpt>
<trkpt lat="41.738303" lon="70.258157"><ele>3245.3</ele></trkpt>
<trkpt lat="41.738285" lon="70.258121"><ele>3246.3</ele></trkpt>
<trkpt lat="41.738300" lon="70.258129"><ele>3246.3</ele></trkpt>
<trkpt lat="41.738323" lon="70.258102"><ele>3246.1</ele></trkpt>
<trkpt lat="41.738305" lon="70.258097"><ele>3246.5</ele></trkpt>
<trkpt lat="41.738321" lon="70.258107"><ele>3246.0</ele></trkpt>
<trkpt lat="41.738311" lon="70.258087"><ele>3246.2</ele></trkpt>
<trkpt lat="41.738249" lon="70.258101"><ele>3247.7</ele></trkpt>
<trkpt lat="41.738187" lon="70.258069"><ele>3250.4</ele></trkpt>
<trkpt lat="41.738194" lon="70.258131"><ele>3253.1</ele></trkpt>
<trkpt lat="41.738213" lon="70.258146"><ele>3253.5</ele></trkpt>
<trkpt lat="41.738222" lon="70.258196"><ele>3255.9</ele></trkpt>
<trkpt lat="41.738221" lon="70.258123"><ele>3254.7</ele></trkpt>
<trkpt lat="41.738257" lon="70.258123"><ele>3254.1</ele></trkpt>
<trkpt lat="41.738247" lon="70.258124"><ele>3254.2</ele></trkpt>
<trkpt lat="41.738338" lon="70.258229"><ele>3256.3</ele></trkpt>
<trkpt lat="41.738398" lon="70.258222"><ele>3256.9</ele></trkpt>
<trkpt lat="41.738383" lon="70.258202"><ele>3256.9</ele></trkpt>
<trkpt lat="41.738398" lon="70.258186"><ele>3255.7</ele></trkpt>
<trkpt lat="41.738412" lon="70.258221"><ele>3255.8</ele></trkpt>
<trkpt lat="41.738311" lon="70.258170"><ele>3255.3</ele></trkpt>
<trkpt lat="41.738293" lon="70.258121"><ele>3254.6</ele></trkpt>
<trkpt lat="41.738256" lon="70.258097"><ele>3254.3</ele></trkpt>
<trkpt lat="41.738266" lon="70.258082"><ele>3254.1</ele></trkpt>
<trkpt lat="41.738214" lon="70.258118"><ele>3253.7</ele></trkpt>
<trkpt lat="41.738153" lon="70.258098"><ele>3252.6</ele></trkpt>
<trkpt lat="41.738084" lon="70.258046"><ele>3252.2</ele></trkpt>
<trkpt lat="41.738007" lon="70.257892"><ele>3248.0</ele></trkpt>
<trkpt lat="41.737995" lon="70.257840"><ele>3246.3</ele></trkpt>
<trkpt lat="41.737980" lon="70.257938"><ele>3248.3</ele></trkpt>
<trkpt lat="41.737933" lon="70.257971"><ele>3250.8</ele></trkpt>
<trkpt lat="41.737916" lon="70.258042"><ele>3253.4</ele></trkpt>
<trkpt lat="41.737871" lon="70.258073"><ele>3254.8</ele></trkpt>
<trkpt lat="41.737857" lon="70.258059"><ele>3255.8</ele></trkpt>
<trkpt lat="41.737831" lon="70.258073"><ele>3258.4</ele></trkpt>
<trkpt lat="41.737886" lon="70.258060"><ele>3260.9</ele></trkpt>
<trkpt lat="41.737869" lon="70.258035"><ele>3260.8</ele></trkpt>
<trkpt lat="41.737877" lon="70.258061"><ele>3261.5</ele></trkpt>
<trkpt lat="41.737883" lon="70.258017"><ele>3261.3</ele></trkpt>
<trkpt lat="41.737898" lon="70.258020"><ele>3260.7</ele></trkpt>
<trkpt lat="41.737903" lon="70.258069"><ele>3262.1</ele></trkpt>
<trkpt lat="41.737866" lon="70.258152"><ele>3266.7</ele></trkpt>
<trkpt lat="41.737877" lon="70.258192"><ele>3268.0</ele></trkpt>
<trkpt lat="41.737854" lon="70.258178"><ele>3268.0</ele></trkpt>
<trkpt lat="41.737826" lon="70.258198"><ele>3269.9</ele></trkpt>
<trkpt lat="41.737828" lon="70.258231"><ele>3271.1</ele></trkpt>
<trkpt lat="41.737837" lon="70.258222"><ele>3271.2</ele></trkpt>
<trkpt lat="41.737792" lon="70.258267"><ele>3274.7</ele></trkpt>
<trkpt lat="41.737796" lon="70.258295"><ele>3276.3</ele></trkpt>
<trkpt lat="41.737757" lon="70.258335"><ele>3279.0</ele></trkpt>
<trkpt lat="41.737732" lon="70.258316"><ele>3281.8</ele></trkpt>
<trkpt lat="41.737757" lon="70.258287"><ele>3281.4</ele></trkpt>
<trkpt lat="41.737742" lon="70.258322"><ele>3282.9</ele></trkpt>
<trkpt lat="41.737700" lon="70.258320"><ele>3286.7</ele></trkpt>
<trkpt lat="41.737753" lon="70.258306"><ele>3286.6</ele></trkpt>
<trkpt lat="41.737743" lon="70.258297"><ele>3287.0</ele></trkpt>
<trkpt lat="41.737758" lon="70.258307"><ele>3286.6</ele></trkpt>
<trkpt lat="41.737726" lon="70.258342"><ele>3287.6</ele></trkpt>
<trkpt lat="41.737728" lon="70.258380"><ele>3290.4</ele></trkpt>
<trkpt lat="41.737700" lon="70.258402"><ele>3291.8</ele></trkpt>
<trkpt lat="41.737707" lon="70.258418"><ele>3292.7</ele></trkpt>
<trkpt lat="41.737744" lon="70.258420"><ele>3294.5</ele></trkpt>
<trkpt lat="41.737763" lon="70.258398"><ele>3294.8</ele></trkpt>
<trkpt lat="41.737759" lon="70.258429"><ele>3295.4</ele></trkpt>
<trkpt lat="41.737714" lon="70.258441"><ele>3295.5</ele></trkpt>
<trkpt lat="41.737661" lon="70.258433"><ele>3298.8</ele></trkpt>
<trkpt lat="41.737649" lon="70.258381"><ele>3303.3</ele></trkpt>
<trkpt lat="41.737601" lon="70.258344"><ele>3305.9</ele></trkpt>
<trkpt lat="41.737602" lon="70.258364"><ele>3308.4</ele></trkpt>
<trkpt lat="41.737574" lon="70.258370"><ele>3308.8</ele></trkpt>
<trkpt lat="41.737574" lon="70.258347"><ele>3309.0</ele></trkpt>
<trkpt lat="41.737540" lon="70.258341"><ele>3309.1</ele></trkpt>
<trkpt lat="41.737484" lon="70.258253"><ele>3309.8</ele></trkpt>
<trkpt lat="41.737453" lon="70.258231"><ele>3310.2</ele></trkpt>
<trkpt lat="41.737388" lon="70.258240"><ele>3309.4</ele></trkpt>
<trkpt lat="41.737334" lon="70.258281"><ele>3308.8</ele></trkpt>
<trkpt lat="41.737278" lon="70.258273"><ele>3308.9</ele></trkpt>
<trkpt lat="41.737189" lon="70.258304"><ele>3307.3</ele></trkpt>
<trkpt lat="41.737155" lon="70.258294"><ele>3306.3</ele></trkpt>
<trkpt lat="41.737062" lon="70.258315"><ele>3303.4</ele></trkpt>
<trkpt lat="41.737008" lon="70.258265"><ele>3301.5</ele></trkpt>
<trkpt lat="41.736908" lon="70.258238"><ele>3302.3</ele></trkpt>
<trkpt lat="41.736856" lon="70.258170"><ele>3305.9</ele></trkpt>
<trkpt lat="41.736813" lon="70.258151"><ele>3307.5</ele></trkpt>
<trkpt lat="41.736784" lon="70.258104"><ele>3311.1</ele></trkpt>
<trkpt lat="41.736825" lon="70.258033"><ele>3313.6</ele></trkpt>
<trkpt lat="41.736726" lon="70.258106"><ele>3316.5</ele></trkpt>
<trkpt lat="41.736677" lon="70.258074"><ele>3315.5</ele></trkpt>
<trkpt lat="41.736556" lon="70.258049"><ele>3311.9</ele></trkpt>
<trkpt lat="41.736493" lon="70.257997"><ele>3309.0</ele></trkpt>
<trkpt lat="41.736465" lon="70.258003"><ele>3308.4</ele></trkpt>
<trkpt lat="41.736424" lon="70.257978"><ele>3307.4</ele></trkpt>
<trkpt lat="41.736385" lon="70.257996"><ele>3306.3</ele></trkpt>
<trkpt lat="41.736362" lon="70.257964"><ele>3305.7</ele></trkpt>
<trkpt lat="41.736317" lon="70.257958"><ele>3306.1</ele></trkpt>
<trkpt lat="41.736294" lon="70.258009"><ele>3307.7</ele></trkpt>
<trkpt lat="41.736263" lon="70.257982"><ele>3310.0</ele></trkpt>
<trkpt lat="41.736222" lon="70.258025"><ele>3312.1</ele></trkpt>
<trkpt lat="41.736230" lon="70.258057"><ele>3314.0</ele></trkpt>
<trkpt lat="41.736159" lon="70.258059"><ele>3318.7</ele></trkpt>
<trkpt lat="41.736151" lon="70.258102"><ele>3321.8</ele></trkpt>
<trkpt lat="41.736119" lon="70.258141"><ele>3324.9</ele></trkpt>
<trkpt lat="41.736152" lon="70.258130"><ele>3325.9</ele></trkpt>
<trkpt lat="41.736111" lon="70.258161"><ele>3327.0</ele></trkpt>
<trkpt lat="41.736145" lon="70.258128"><ele>3327.0</ele></trkpt>
<trkpt lat="41.736096" lon="70.258137"><ele>3327.4</ele></trkpt>
<trkpt lat="41.736038" lon="70.258101"><ele>3328.9</ele></trkpt>
<trkpt lat="41.736007" lon="70.258043"><ele>3329.5</ele></trkpt>
<trkpt lat="41.736000" lon="70.257990"><ele>3327.7</ele></trkpt>
<trkpt lat="41.735901" lon="70.257894"><ele>3325.0</ele></trkpt>
<trkpt lat="41.735828" lon="70.257861"><ele>3321.9</ele></trkpt>
<trkpt lat="41.735743" lon="70.257861"><ele>3319.7</ele></trkpt>
<trkpt lat="41.735583" lon="70.258014"><ele>3319.4</ele></trkpt>
<trkpt lat="41.735536" lon="70.258026"><ele>3320.2</ele></trkpt>
<trkpt lat="41.735481" lon="70.258078"><ele>3322.1</ele></trkpt>
<trkpt lat="41.735367" lon="70.258109"><ele>3325.7</ele></trkpt>
<trkpt lat="41.735275" lon="70.258185"><ele>3332.6</ele></trkpt>
<trkpt lat="41.735261" lon="70.258240"><ele>3336.1</ele></trkpt>
<trkpt lat="41.735272" lon="70.258307"><ele>3339.2</ele></trkpt>
<trkpt lat="41.735232" lon="70.258375"><ele>3344.4</ele></trkpt>
<trkpt lat="41.735231" lon="70.258357"><ele>3344.5</ele></trkpt>
<trkpt lat="41.735214" lon="70.258437"><ele>3349.4</ele></trkpt>
<trkpt lat="41.735230" lon="70.258475"><ele>3349.8</ele></trkpt>
<trkpt lat="41.735218" lon="70.258583"><ele>3354.6</ele></trkpt>
<trkpt lat="41.735127" lon="70.258667"><ele>3357.4</ele></trkpt>
<trkpt lat="41.735127" lon="70.258719"><ele>3359.9</ele></trkpt>
<trkpt lat="41.735111" lon="70.258742"><ele>3361.0</ele></trkpt>
<trkpt lat="41.735134" lon="70.258777"><ele>3362.5</ele></trkpt>
<trkpt lat="41.735129" lon="70.258799"><ele>3363.2</ele></trkpt>
<trkpt lat="41.735110" lon="70.258805"><ele>3365.3</ele></trkpt>
<trkpt lat="41.735111" lon="70.258877"><ele>3367.6</ele></trkpt>
<trkpt lat="41.735051" lon="70.258913"><ele>3369.6</ele></trkpt>
<trkpt lat="41.735025" lon="70.258902"><ele>3371.4</ele></trkpt>
<trkpt lat="41.735007" lon="70.258965"><ele>3374.6</ele></trkpt>
<trkpt lat="41.734893" lon="70.259084"><ele>3378.1</ele></trkpt>
<trkpt lat="41.734817" lon="70.259140"><ele>3379.9</ele></trkpt>
<trkpt lat="41.734780" lon="70.259146"><ele>3379.3</ele></trkpt>
<trkpt lat="41.734815" lon="70.259146"><ele>3379.2</ele></trkpt>
</trkseg></trk>
</gpx>