<?xml version='1.0' encoding='utf-8'?>
<gpx xmlns="http://www.topografix.com/GPX/1/1" xmlns:ns2="https://gurumaps.app/gpx/v3" xmlns:xsi="http://www.w3.org/2001/XMLSchema-instance" version="1.1" creator="Guru Maps/5.8.0" xsi:schemaLocation="http://www.topografix.com/GPX/1/1 http://www.topografix.com/GPX/1/1/gpx.xsd https://gurumaps.app/gpx/v3 https://gurumaps.app/gpx/v3/schema.xsd">
 <trk>
  <name>06.06.2025 Qashqadaryo. Suv tushar sharsharasi </name>
  <type>TrackStyle_4CAF50C8</type>
  <extensions>
   <ns2:time>2025-06-06T03:21:13.352Z</ns2:time>
  </extensions>
  <trkseg>
   <trkpt lat="38.9534131411" lon="67.3347789997"><ele>1974.934</ele></trkpt>
   <trkpt lat="38.9532922741" lon="67.3348117729"><ele>1972.106</ele></trkpt>
   <trkpt lat="38.9531978519" lon="67.3348026367"><ele>1977.319</ele></trkpt>
   <trkpt lat="38.9531304195" lon="67.3347675165"><ele>1979.718</ele></trkpt>
   <trkpt lat="38.953088049" lon="67.3348113539"><ele>1979.564</ele></trkpt>
   <trkpt lat="38.9530965986" lon="67.3348401038"><ele>1979.29</ele></trkpt>
   <trkpt lat="38.9530158389" lon="67.3349371662"><ele>1977.534</ele></trkpt>
   <trkpt lat="38.9528244382" lon="67.3349639883"><ele>1979.0</ele></trkpt>
   <trkpt lat="38.9527915811" lon="67.3349794948"><ele>1980.48</ele></trkpt>
   <trkpt lat="38.9527622444" lon="67.3350264335"><ele>1978.209</ele></trkpt>
   <trkpt lat="38.9526741506" lon="67.3348980227"><ele>1979.565</ele></trkpt>
   <trkpt lat="38.9526714265" lon="67.3348493239"><ele>1980.756</ele></trkpt>
   <trkpt lat="38.9526282597" lon="67.3347343242"><ele>1979.237</ele></trkpt>
   <trkpt lat="38.9526709236" lon="67.3347531834"><ele>1980.132</ele></trkpt>
   <trkpt lat="38.9526451493" lon="67.3347164707"><ele>1985.952</ele></trkpt>
   <trkpt lat="38.9526141781" lon="67.3347176442"><ele>1989.334</ele></trkpt>
   <trkpt lat="38.9526293913" lon="67.3347259423"><ele>1989.475</ele></trkpt>
   <trkpt lat="38.9526294751" lon="67.3346824402"><ele>1984.388</ele></trkpt>
   <trkpt lat="38.9526450654" lon="67.334675567"><ele>1980.664</ele></trkpt>
   <trkpt lat="38.9526178662" lon="67.3347861243"><ele>1978.351</ele></trkpt>
   <trkpt lat="38.9526557105" lon="67.3349659161"><ele>1979.698</ele></trkpt>
   <trkpt lat="38.9526500527" lon="67.3350271879"><ele>1979.789</ele></trkpt>
   <trkpt lat="38.9526134657" lon="67.3351056425"><ele>1979.471</ele></trkpt>
   <trkpt lat="38.9525785969" lon="67.3351176286"><ele>1980.588</ele></trkpt>
   <trkpt lat="38.9524459952" lon="67.3350840172"><ele>1983.023</ele></trkpt>
   <trkpt lat="38.9524252919" lon="67.3351122642"><ele>1984.877</ele></trkpt>
   <trkpt lat="38.9523920577" lon="67.335070187"><ele>1985.29</ele></trkpt>
   <trkpt lat="38.9522857752" lon="67.3350897169"><ele>1989.362</ele></trkpt>
   <trkpt lat="38.9522562289" lon="67.3351789841"><ele>1990.838</ele></trkpt>
   <trkpt lat="38.9522341845" lon="67.3354335425"><ele>1994.672</ele></trkpt>
   <trkpt lat="38.9521866592" lon="67.3355778789"><ele>1997.686</ele></trkpt>
   <trkpt lat="38.9521862401" lon="67.3356614465"><ele>1999.614</ele></trkpt>
   <trkpt lat="38.9522169178" lon="67.3357817268"><ele>2001.444</ele></trkpt>
   <trkpt lat="38.9522083683" lon="67.3358926194"><ele>2002.055</ele></trkpt>
   <trkpt lat="38.9521856952" lon="67.3359636141"><ele>2002.601</ele></trkpt>
   <trkpt lat="38.9521558557" lon="67.3360113909"><ele>2003.394</ele></trkpt>
   <trkpt lat="38.9518693203" lon="67.3362086171"><ele>2012.665</ele></trkpt>
   <trkpt lat="38.9518557416" lon="67.3362584056"><ele>2012.086</ele></trkpt>
   <trkpt lat="38.951772174" lon="67.3363589046"><ele>2011.849</ele></trkpt>
   <trkpt lat="38.9517117824" lon="67.3365456534"><ele>2014.492</ele></trkpt>
   <trkpt lat="38.951692504" lon="67.3366707114"><ele>2015.649</ele></trkpt>
   <trkpt lat="38.9515564658" lon="67.3369620664"><ele>2021.531</ele></trkpt>
   <trkpt lat="38.9514514405" lon="67.3371292854"><ele>2024.952</ele></trkpt>
   <trkpt lat="38.9513969581" lon="67.3371833486"><ele>2026.21</ele></trkpt>
   <trkpt lat="38.9513871932" lon="67.3372380825"><ele>2027.164</ele></trkpt>
   <trkpt lat="38.9512940703" lon="67.3373000247"><ele>2026.899</ele></trkpt>
   <trkpt lat="38.9512338463" lon="67.3374110011"><ele>2025.762</ele></trkpt>
   <trkpt lat="38.9511987261" lon="67.3374318721"><ele>2025.159</ele></trkpt>
   <trkpt lat="38.9511083273" lon="67.3375643061"><ele>2025.088</ele></trkpt>
   <trkpt lat="38.9510247597" lon="67.3376407491"><ele>2024.754</ele></trkpt>
   <trkpt lat="38.9509720376" lon="67.3377637116"><ele>2026.833</ele></trkpt>
   <trkpt lat="38.9508814292" lon="67.3379101435"><ele>2028.212</ele></trkpt>
   <trkpt lat="38.9508676829" lon="67.3379606025"><ele>2027.899</ele></trkpt>
   <trkpt lat="38.9508760229" lon="67.3380268195"><ele>2027.743</ele></trkpt>
   <trkpt lat="38.9508448422" lon="67.3381347785"><ele>2029.151</ele></trkpt>
   <trkpt lat="38.9508118175" lon="67.3381944576"><ele>2031.177</ele></trkpt>
   <trkpt lat="38.9507797148" lon="67.3383712319"><ele>2031.779</ele></trkpt>
   <trkpt lat="38.9507484922" lon="67.3384040052"><ele>2033.065</ele></trkpt>
   <trkpt lat="38.9507039005" lon="67.3385112097"><ele>2034.552</ele></trkpt>
   <trkpt lat="38.9505238153" lon="67.3386534506"><ele>2040.404</ele></trkpt>
   <trkpt lat="38.9505052494" lon="67.3387138841"><ele>2041.552</ele></trkpt>
   <trkpt lat="38.950480397" lon="67.3387319891"><ele>2042.244</ele></trkpt>
   <trkpt lat="38.9504259985" lon="67.3389263654"><ele>2045.69</ele></trkpt>
   <trkpt lat="38.9504406249" lon="67.3390018025"><ele>2045.348</ele></trkpt>
   <trkpt lat="38.9504315305" lon="67.3392095899"><ele>2048.314</ele></trkpt>
   <trkpt lat="38.9504509346" lon="67.3394076543"><ele>2050.745</ele></trkpt>
   <trkpt lat="38.9504337098" lon="67.3394301178"><ele>2050.238</ele></trkpt>
   <trkpt lat="38.9503941053" lon="67.3396044614"><ele>2052.755</ele></trkpt>
   <trkpt lat="38.9503745336" lon="67.3396089038"><ele>2053.31</ele></trkpt>
   <trkpt lat="38.9503818678" lon="67.339653747"><ele>2052.865</ele></trkpt>
   <trkpt lat="38.9503594881" lon="67.3397638852"><ele>2057.114</ele></trkpt>
   <trkpt lat="38.9503164051" lon="67.3397929704"><ele>2059.506</ele></trkpt>
   <trkpt lat="38.9502968753" lon="67.3398922121"><ele>2061.499</ele></trkpt>
   <trkpt lat="38.9502682511" lon="67.3399508854"><ele>2061.399</ele></trkpt>
   <trkpt lat="38.9502344301" lon="67.3399783781"><ele>2063.693</ele></trkpt>
   <trkpt lat="38.9501718592" lon="67.3400807211"><ele>2065.827</ele></trkpt>
   <trkpt lat="38.9501315422" lon="67.3402350319"><ele>2069.559</ele></trkpt>
   <trkpt lat="38.9501515331" lon="67.340289179"><ele>2068.232</ele></trkpt>
   <trkpt lat="38.950126094" lon="67.3403154144"><ele>2070.077</ele></trkpt>
   <trkpt lat="38.9501372838" lon="67.3404057713"><ele>2071.851</ele></trkpt>
   <trkpt lat="38.950160376" lon="67.3404473455"><ele>2070.429</ele></trkpt>
   <trkpt lat="38.9501553049" lon="67.3404905962"><ele>2071.024</ele></trkpt>
   <trkpt lat="38.9501807021" lon="67.3405472578"><ele>2072.974</ele></trkpt>
   <trkpt lat="38.9502123019" lon="67.3405454138"><ele>2074.0</ele></trkpt>
   <trkpt lat="38.9502238689" lon="67.3405730741"><ele>2070.659</ele></trkpt>
   <trkpt lat="38.9502490146" lon="67.3405464196"><ele>2071.555</ele></trkpt>
   <trkpt lat="38.9502430215" lon="67.3405718168"><ele>2074.06</ele></trkpt>
   <trkpt lat="38.9502321251" lon="67.3405697213"><ele>2074.792</ele></trkpt>
   <trkpt lat="38.9503307801" lon="67.3405294882"><ele>2073.596</ele></trkpt>
   <trkpt lat="38.950362296" lon="67.3405707272"><ele>2073.241</ele></trkpt>
   <trkpt lat="38.9504245736" lon="67.3405917657"><ele>2073.847</ele></trkpt>
   <trkpt lat="38.9504560895" lon="67.3405579028"><ele>2074.016</ele></trkpt>
   <trkpt lat="38.9504605319" lon="67.3405275604"><ele>2074.398</ele></trkpt>
   <trkpt lat="38.9505229352" lon="67.3405555559"><ele>2078.582</ele></trkpt>
   <trkpt lat="38.9505386513" lon="67.3405496886"><ele>2078.573</ele></trkpt>
   <trkpt lat="38.9505449377" lon="67.3405149037"><ele>2078.842</ele></trkpt>
   <trkpt lat="38.9505884817" lon="67.3405285662"><ele>2084.924</ele></trkpt>
   <trkpt lat="38.9505957739" lon="67.3405472578"><ele>2086.656</ele></trkpt>
   <trkpt lat="38.9506211711" lon="67.340541642"><ele>2087.36</ele></trkpt>
   <trkpt lat="38.9506227637" lon="67.3405220283"><ele>2086.435</ele></trkpt>
   <trkpt lat="38.9506464844" lon="67.3405278118"><ele>2087.058</ele></trkpt>
   <trkpt lat="38.9506648408" lon="67.34049529"><ele>2087.984</ele></trkpt>
   <trkpt lat="38.9506827781" lon="67.3405130597"><ele>2089.559</ele></trkpt>
   <trkpt lat="38.9506977398" lon="67.3405047616"><ele>2088.204</ele></trkpt>
   <trkpt lat="38.9506668525" lon="67.3405257163"><ele>2090.36</ele></trkpt>
   <trkpt lat="38.9506811855" lon="67.3406636825"><ele>2096.516</ele></trkpt>
   <trkpt lat="38.9507030623" lon="67.340706514"><ele>2098.924</ele></trkpt>
   <trkpt lat="38.9507026432" lon="67.3407982958"><ele>2099.282</ele></trkpt>
   <trkpt lat="38.950724981" lon="67.3408106172"><ele>2101.648</ele></trkpt>
   <trkpt lat="38.9507532699" lon="67.3408671951"><ele>2108.429</ele></trkpt>
   <trkpt lat="38.9507308902" lon="67.3408472461"><ele>2109.806</ele></trkpt>
   <trkpt lat="38.9507151741" lon="67.3408729786"><ele>2111.077</ele></trkpt>
   <trkpt lat="38.9506730551" lon="67.340861663"><ele>2113.074</ele></trkpt>
   <trkpt lat="38.9506819818" lon="67.3408724757"><ele>2112.241</ele></trkpt>
   <trkpt lat="38.9506673135" lon="67.3408935143"><ele>2111.804</ele></trkpt>
   <trkpt lat="38.9506035691" lon="67.3408780077"><ele>2115.956</ele></trkpt>
   <trkpt lat="38.9505699158" lon="67.3408448992"><ele>2116.357</ele></trkpt>
   <trkpt lat="38.9505134217" lon="67.3408733139"><ele>2118.439</ele></trkpt>
   <trkpt lat="38.9504752422" lon="67.3408692906"><ele>2117.652</ele></trkpt>
   <trkpt lat="38.9504505155" lon="67.3409072606"><ele>2118.46</ele></trkpt>
   <trkpt lat="38.9503943149" lon="67.3408920055"><ele>2117.891</ele></trkpt>
   <trkpt lat="38.9504254117" lon="67.3409094399"><ele>2117.855</ele></trkpt>
   <trkpt lat="38.950407223" lon="67.3409046622"><ele>2117.707</ele></trkpt>
   <trkpt lat="38.9504135094" lon="67.3409158101"><ele>2117.567</ele></trkpt>
   <trkpt lat="38.9504057562" lon="67.3409059195"><ele>2118.284</ele></trkpt>
   <trkpt lat="38.9504808999" lon="67.3408988787"><ele>2119.577</ele></trkpt>
   <trkpt lat="38.950480858" lon="67.34087323"><ele>2118.335</ele></trkpt>
   <trkpt lat="38.9504738172" lon="67.340900555"><ele>2120.801</ele></trkpt>
   <trkpt lat="38.9504829535" lon="67.3408851323"><ele>2119.646</ele></trkpt>
   <trkpt lat="38.9504918802" lon="67.3408969508"><ele>2119.182</ele></trkpt>
   <trkpt lat="38.9504808161" lon="67.3408739844"><ele>2116.95</ele></trkpt>
   <trkpt lat="38.9504700873" lon="67.3409008065"><ele>2120.624</ele></trkpt>
   <trkpt lat="38.9504853424" lon="67.3408972023"><ele>2119.846</ele></trkpt>
   <trkpt lat="38.9504764994" lon="67.3408650158"><ele>2119.757</ele></trkpt>
   <trkpt lat="38.9504755774" lon="67.3408943524"><ele>2120.108</ele></trkpt>
   <trkpt lat="38.9504985439" lon="67.3409024829"><ele>2120.197</ele></trkpt>
   <trkpt lat="38.9504985858" lon="67.3408617468"><ele>2117.892</ele></trkpt>
   <trkpt lat="38.9504874378" lon="67.3408619983"><ele>2117.592</ele></trkpt>
   <trkpt lat="38.9505063809" lon="67.3408327455"><ele>2116.481</ele></trkpt>
   <trkpt lat="38.9505036149" lon="67.3408538678"><ele>2117.027</ele></trkpt>
   <trkpt lat="38.9504240287" lon="67.3408480005"><ele>2116.677</ele></trkpt>
   <trkpt lat="38.9504437681" lon="67.3408723919"><ele>2116.478</ele></trkpt>
   <trkpt lat="38.9505039921" lon="67.3408594837"><ele>2116.883</ele></trkpt>
   <trkpt lat="38.9504855519" lon="67.3408595675"><ele>2115.907</ele></trkpt>
   <trkpt lat="38.950484588" lon="67.3408858867"><ele>2115.738</ele></trkpt>
   <trkpt lat="38.9505181575" lon="67.3408525267"><ele>2114.9</ele></trkpt>
   <trkpt lat="38.9505305208" lon="67.3408734815"><ele>2115.326</ele></trkpt>
   <trkpt lat="38.9504840012" lon="67.3408824501"><ele>2117.148</ele></trkpt>
   <trkpt lat="38.9505359271" lon="67.3408865573"><ele>2117.894</ele></trkpt>
   <trkpt lat="38.9504831211" lon="67.3408975376"><ele>2118.621</ele></trkpt>
   <trkpt lat="38.9504661897" lon="67.3409213422"><ele>2118.351</ele></trkpt>
   <trkpt lat="38.9505046626" lon="67.3409795126"><ele>2119.454</ele></trkpt>
   <trkpt lat="38.9504546227" lon="67.3410652594"><ele>2117.052</ele></trkpt>
   <trkpt lat="38.9504218075" lon="67.3410359228"><ele>2115.172</ele></trkpt>
   <trkpt lat="38.9504167365" lon="67.3410489147"><ele>2114.876</ele></trkpt>
   <trkpt lat="38.9504373979" lon="67.3410618229"><ele>2113.475</ele></trkpt>
   <trkpt lat="38.9504320334" lon="67.3410832805"><ele>2113.356</ele></trkpt>
   </trkseg>
 </trk>
</gpx>