<?xml version='1.0' encoding='utf-8'?>
<gpx xmlns="http://www.topografix.com/GPX/1/1" version="1.1"><trk><trkseg><trkpt lat="41.526058" lon="69.647797"><ele>600</ele></trkpt><trkpt lat="41.52615" lon="69.647942"><ele>598</ele></trkpt><trkpt lat="41.526291" lon="69.648216"><ele>599</ele></trkpt><trkpt lat="41.5266" lon="69.64872"><ele>595</ele></trkpt><trkpt lat="41.526707" lon="69.648849"><ele>594</ele></trkpt><trkpt lat="41.526863" lon="69.649147"><ele>597</ele></trkpt><trkpt lat="41.527054" lon="69.649452"><ele>597</ele></trkpt><trkpt lat="41.527145" lon="69.649635"><ele>596</ele></trkpt><trkpt lat="41.527767" lon="69.650688"><ele>597</ele></trkpt><trkpt lat="41.528271" lon="69.651596"><ele>597</ele></trkpt><trkpt lat="41.529549" lon="69.653793"><ele>596</ele></trkpt><trkpt lat="41.5303" lon="69.655167"><ele>595</ele></trkpt><trkpt lat="41.530781" lon="69.65596"><ele>595</ele></trkpt><trkpt lat="41.531174" lon="69.656769"><ele>597</ele></trkpt><trkpt lat="41.531456" lon="69.657166"><ele>597</ele></trkpt><trkpt lat="41.531536" lon="69.657364"><ele>597</ele></trkpt><trkpt lat="41.531799" lon="69.657753"><ele>597</ele></trkpt><trkpt lat="41.531898" lon="69.657974"><ele>599</ele></trkpt><trkpt lat="41.532265" lon="69.658592"><ele>597</ele></trkpt><trkpt lat="41.532303" lon="69.658707"><ele>599</ele></trkpt><trkpt lat="41.532494" lon="69.659073"><ele>600</ele></trkpt><trkpt lat="41.533203" lon="69.660309"><ele>602</ele></trkpt><trkpt lat="41.533401" lon="69.660683"><ele>603</ele></trkpt><trkpt lat="41.533745" lon="69.661255"><ele>603</ele></trkpt><trkpt lat="41.534523" lon="69.662628"><ele>603</ele></trkpt><trkpt lat="41.535278" lon="69.664024"><ele>604</ele></trkpt><trkpt lat="41.535362" lon="69.664207"><ele>604</ele></trkpt><trkpt lat="41.535656" lon="69.664665"><ele>602</ele></trkpt><trkpt lat="41.536095" lon="69.665489"><ele>602</ele></trkpt><trkpt lat="41.536716" lon="69.666512"><ele>602</ele></trkpt><trkpt lat="41.536949" lon="69.666985"><ele>602</ele></trkpt><trkpt lat="41.537342" lon="69.667633"><ele>604</ele></trkpt><trkpt lat="41.537575" lon="69.668083"><ele>603</ele></trkpt><trkpt lat="41.537834" lon="69.668526"><ele>605</ele></trkpt><trkpt lat="41.537952" lon="69.66877"><ele>605</ele></trkpt><trkpt lat="41.538486" lon="69.669716"><ele>604</ele></trkpt><trkpt lat="41.538887" lon="69.670364"><ele>602</ele></trkpt><trkpt lat="41.539135" lon="69.670822"><ele>601</ele></trkpt><trkpt lat="41.539639" lon="69.671661"><ele>600</ele></trkpt><trkpt lat="41.539742" lon="69.671883"><ele>602</ele></trkpt><trkpt lat="41.539875" lon="69.672089"><ele>602</ele></trkpt><trkpt lat="41.540691" lon="69.673569"><ele>601</ele></trkpt><trkpt lat="41.541138" lon="69.674431"><ele>601</ele></trkpt><trkpt lat="41.542091" lon="69.676071"><ele>598</ele></trkpt><trkpt lat="41.54248" lon="69.676804"><ele>601</ele></trkpt><trkpt lat="41.54398" lon="69.679443"><ele>601</ele></trkpt><trkpt lat="41.544167" lon="69.679802"><ele>602</ele></trkpt><trkpt lat="41.544804" lon="69.680832"><ele>602</ele></trkpt><trkpt lat="41.545345" lon="69.681786"><ele>599</ele></trkpt><trkpt lat="41.545826" lon="69.682579"><ele>599</ele></trkpt><trkpt lat="41.546429" lon="69.68364"><ele>600</ele></trkpt><trkpt lat="41.546551" lon="69.683823"><ele>601</ele></trkpt><trkpt lat="41.546997" lon="69.684692"><ele>603</ele></trkpt><trkpt lat="41.547382" lon="69.685341"><ele>601</ele></trkpt><trkpt lat="41.548119" lon="69.686638"><ele>604</ele></trkpt><trkpt lat="41.548233" lon="69.686867"><ele>606</ele></trkpt><trkpt lat="41.548649" lon="69.687569"><ele>606</ele></trkpt><trkpt lat="41.54892" lon="69.68808"><ele>605</ele></trkpt><trkpt lat="41.549454" lon="69.68898"><ele>604</ele></trkpt><trkpt lat="41.54969" lon="69.689445"><ele>606</ele></trkpt><trkpt lat="41.550087" lon="69.69014"><ele>608</ele></trkpt><trkpt lat="41.550274" lon="69.690536"><ele>610</ele></trkpt><trkpt lat="41.550453" lon="69.690849"><ele>613</ele></trkpt><trkpt lat="41.550655" lon="69.691139"><ele>613</ele></trkpt><trkpt lat="41.550762" lon="69.691246"><ele>613</ele></trkpt><trkpt lat="41.550858" lon="69.691376"><ele>613</ele></trkpt><trkpt lat="41.551098" lon="69.691605"><ele>612</ele></trkpt><trkpt lat="41.551235" lon="69.691643"><ele>612</ele></trkpt><trkpt lat="41.551479" lon="69.691696"><ele>611</ele></trkpt><trkpt lat="41.551792" lon="69.691734"><ele>611</ele></trkpt><trkpt lat="41.553902" lon="69.691681"><ele>613</ele></trkpt><trkpt lat="41.554054" lon="69.691696"><ele>613</ele></trkpt><trkpt lat="41.554367" lon="69.691795"><ele>612</ele></trkpt><trkpt lat="41.554504" lon="69.691887"><ele>612</ele></trkpt><trkpt lat="41.554741" lon="69.692146"><ele>614</ele></trkpt><trkpt lat="41.554916" lon="69.692474"><ele>614</ele></trkpt><trkpt lat="41.555141" lon="69.693054"><ele>614</ele></trkpt><trkpt lat="41.555305" lon="69.69342"><ele>614</ele></trkpt><trkpt lat="41.555481" lon="69.693893"><ele>614</ele></trkpt><trkpt lat="41.555561" lon="69.694061"><ele>616</ele></trkpt><trkpt lat="41.555622" lon="69.69397"><ele>617</ele></trkpt><trkpt lat="41.555424" lon="69.693565"><ele>618</ele></trkpt><trkpt lat="41.555199" lon="69.692917"><ele>615</ele></trkpt><trkpt lat="41.554852" lon="69.692169"><ele>610</ele></trkpt><trkpt lat="41.554585" lon="69.691681"><ele>614</ele></trkpt><trkpt lat="41.554565" lon="69.691254"><ele>614</ele></trkpt><trkpt lat="41.554501" lon="69.691002"><ele>613</ele></trkpt><trkpt lat="41.554142" lon="69.690163"><ele>613</ele></trkpt><trkpt lat="41.554089" lon="69.689987"><ele>613</ele></trkpt><trkpt lat="41.553932" lon="69.689659"><ele>613</ele></trkpt><trkpt lat="41.553898" lon="69.689499"><ele>612</ele></trkpt><trkpt lat="41.553825" lon="69.689331"><ele>612</ele></trkpt><trkpt lat="41.553776" lon="69.689148"><ele>613</ele></trkpt><trkpt lat="41.553265" lon="69.687775"><ele>618</ele></trkpt><trkpt lat="41.552956" lon="69.687096"><ele>616</ele></trkpt><trkpt lat="41.552769" lon="69.686546"><ele>611</ele></trkpt><trkpt lat="41.552483" lon="69.685844"><ele>613</ele></trkpt><trkpt lat="41.552223" lon="69.685143"><ele>615</ele></trkpt><trkpt lat="41.551678" lon="69.684143"><ele>614</ele></trkpt><trkpt lat="41.55159" lon="69.683929"><ele>613</ele></trkpt><trkpt lat="41.551464" lon="69.683746"><ele>614</ele></trkpt><trkpt lat="41.551464" lon="69.683594"><ele>614</ele></trkpt><trkpt lat="41.551384" lon="69.683456"><ele>614</ele></trkpt><trkpt lat="41.551285" lon="69.683197"><ele>616</ele></trkpt><trkpt lat="41.551289" lon="69.682999"><ele>615</ele></trkpt><trkpt lat="41.551369" lon="69.682831"><ele>616</ele></trkpt><trkpt lat="41.55143" lon="69.682739"><ele>616</ele></trkpt><trkpt lat="41.551792" lon="69.682434"><ele>619</ele></trkpt><trkpt lat="41.551918" lon="69.68222"><ele>619</ele></trkpt><trkpt lat="41.551811" lon="69.682022"><ele>619</ele></trkpt><trkpt lat="41.551392" lon="69.681488"><ele>615</ele></trkpt><trkpt lat="41.551258" lon="69.681282"><ele>615</ele></trkpt><trkpt lat="41.551102" lon="69.681015"><ele>614</ele></trkpt><trkpt lat="41.551083" lon="69.680878"><ele>613</ele></trkpt><trkpt lat="41.551167" lon="69.680748"><ele>614</ele></trkpt><trkpt lat="41.551296" lon="69.680626"><ele>616</ele></trkpt><trkpt lat="41.55143" lon="69.680466"><ele>617</ele></trkpt><trkpt lat="41.551727" lon="69.680077"><ele>619</ele></trkpt><trkpt lat="41.552269" lon="69.679459"><ele>624</ele></trkpt><trkpt lat="41.552895" lon="69.678604"><ele>623</ele></trkpt><trkpt lat="41.552979" lon="69.678535"><ele>624</ele></trkpt><trkpt lat="41.553112" lon="69.678307"><ele>625</ele></trkpt><trkpt lat="41.553211" lon="69.6782"><ele>623</ele></trkpt><trkpt lat="41.553555" lon="69.677704"><ele>625</ele></trkpt><trkpt lat="41.553802" lon="69.677429"><ele>625</ele></trkpt><trkpt lat="41.554188" lon="69.676956"><ele>626</ele></trkpt><trkpt lat="41.554356" lon="69.67672"><ele>628</ele></trkpt><trkpt lat="41.554535" lon="69.676537"><ele>628</ele></trkpt><trkpt lat="41.554623" lon="69.676392"><ele>626</ele></trkpt><trkpt lat="41.555054" lon="69.675911"><ele>627</ele></trkpt><trkpt lat="41.555149" lon="69.675896"><ele>627</ele></trkpt><trkpt lat="41.555408" lon="69.67617"><ele>629</ele></trkpt><trkpt lat="41.55547" lon="69.6763"><ele>629</ele></trkpt><trkpt lat="41.555759" lon="69.676697"><ele>628</ele></trkpt><trkpt lat="41.555962" lon="69.67701"><ele>626</ele></trkpt><trkpt lat="41.556072" lon="69.677071"><ele>627</ele></trkpt><trkpt lat="41.556156" lon="69.677002"><ele>628</ele></trkpt><trkpt lat="41.556225" lon="69.676918"><ele>629</ele></trkpt><trkpt lat="41.556305" lon="69.676781"><ele>628</ele></trkpt><trkpt lat="41.556404" lon="69.676682"><ele>628</ele></trkpt><trkpt lat="41.55648" lon="69.676552"><ele>626</ele></trkpt><trkpt lat="41.556877" lon="69.676079"><ele>625</ele></trkpt><trkpt lat="41.556992" lon="69.675888"><ele>626</ele></trkpt><trkpt lat="41.55735" lon="69.675514"><ele>626</ele></trkpt><trkpt lat="41.557575" lon="69.675194"><ele>627</ele></trkpt><trkpt lat="41.557743" lon="69.675011"><ele>630</ele></trkpt><trkpt lat="41.557812" lon="69.674904"><ele>631</ele></trkpt><trkpt lat="41.557976" lon="69.674545"><ele>633</ele></trkpt><trkpt lat="41.558258" lon="69.673744"><ele>638</ele></trkpt><trkpt lat="41.558445" lon="69.673332"><ele>635</ele></trkpt><trkpt lat="41.55854" lon="69.673172"><ele>636</ele></trkpt><trkpt lat="41.558914" lon="69.67231"><ele>631</ele></trkpt><trkpt lat="41.558979" lon="69.671768"><ele>636</ele></trkpt><trkpt lat="41.558987" lon="69.67131"><ele>637</ele></trkpt><trkpt lat="41.559013" lon="69.671181"><ele>637</ele></trkpt><trkpt lat="41.55909" lon="69.671089"><ele>639</ele></trkpt><trkpt lat="41.559376" lon="69.671143"><ele>632</ele></trkpt><trkpt lat="41.559559" lon="69.671021"><ele>636</ele></trkpt><trkpt lat="41.559639" lon="69.670937"><ele>637</ele></trkpt><trkpt lat="41.559814" lon="69.670578"><ele>641</ele></trkpt><trkpt lat="41.559887" lon="69.670464"><ele>642</ele></trkpt><trkpt lat="41.56004" lon="69.670296"><ele>646</ele></trkpt><trkpt lat="41.560272" lon="69.670082"><ele>647</ele></trkpt><trkpt lat="41.56039" lon="69.670006"><ele>649</ele></trkpt><trkpt lat="41.56049" lon="69.669907"><ele>649</ele></trkpt><trkpt lat="41.560665" lon="69.669685"><ele>647</ele></trkpt><trkpt lat="41.561253" lon="69.669289"><ele>651</ele></trkpt><trkpt lat="41.561676" lon="69.668922"><ele>652</ele></trkpt><trkpt lat="41.561783" lon="69.668846"><ele>652</ele></trkpt><trkpt lat="41.562206" lon="69.668686"><ele>656</ele></trkpt><trkpt lat="41.562332" lon="69.668602"><ele>657</ele></trkpt><trkpt lat="41.562626" lon="69.668457"><ele>656</ele></trkpt><trkpt lat="41.563091" lon="69.668106"><ele>661</ele></trkpt><trkpt lat="41.563446" lon="69.667908"><ele>659</ele></trkpt><trkpt lat="41.563526" lon="69.667786"><ele>659</ele></trkpt><trkpt lat="41.563797" lon="69.667114"><ele>663</ele></trkpt><trkpt lat="41.563873" lon="69.667015"><ele>663</ele></trkpt><trkpt lat="41.564041" lon="69.66684"><ele>664</ele></trkpt><trkpt lat="41.564129" lon="69.666771"><ele>662</ele></trkpt><trkpt lat="41.564495" lon="69.66655"><ele>664</ele></trkpt><trkpt lat="41.564751" lon="69.666336"><ele>665</ele></trkpt><trkpt lat="41.565224" lon="69.665749"><ele>667</ele></trkpt><trkpt lat="41.565361" lon="69.665558"><ele>669</ele></trkpt><trkpt lat="41.565479" lon="69.665352"><ele>673</ele></trkpt><trkpt lat="41.565559" lon="69.665253"><ele>673</ele></trkpt><trkpt lat="41.565739" lon="69.665154"><ele>675</ele></trkpt><trkpt lat="41.565804" lon="69.665054"><ele>678</ele></trkpt><trkpt lat="41.565895" lon="69.664665"><ele>673</ele></trkpt><trkpt lat="41.565971" lon="69.664436"><ele>674</ele></trkpt><trkpt lat="41.566002" lon="69.664146"><ele>674</ele></trkpt><trkpt lat="41.56604" lon="69.664009"><ele>676</ele></trkpt><trkpt lat="41.566223" lon="69.663681"><ele>679</ele></trkpt><trkpt lat="41.566364" lon="69.6633"><ele>678</ele></trkpt><trkpt lat="41.566486" lon="69.663116"><ele>677</ele></trkpt><trkpt lat="41.566624" lon="69.662865"><ele>678</ele></trkpt><trkpt lat="41.566734" lon="69.662605"><ele>679</ele></trkpt><trkpt lat="41.566914" lon="69.662285"><ele>678</ele></trkpt><trkpt lat="41.56715" lon="69.661667"><ele>680</ele></trkpt><trkpt lat="41.567245" lon="69.661354"><ele>683</ele></trkpt><trkpt lat="41.567295" lon="69.661255"><ele>680</ele></trkpt><trkpt lat="41.567738" lon="69.660835"><ele>683</ele></trkpt><trkpt lat="41.567947" lon="69.660706"><ele>683</ele></trkpt><trkpt lat="41.568047" lon="69.660622"><ele>685</ele></trkpt><trkpt lat="41.568211" lon="69.660454"><ele>686</ele></trkpt><trkpt lat="41.568275" lon="69.660362"><ele>686</ele></trkpt><trkpt lat="41.568794" lon="69.659904"><ele>692</ele></trkpt><trkpt lat="41.569084" lon="69.659523"><ele>689</ele></trkpt><trkpt lat="41.56921" lon="69.659203"><ele>690</ele></trkpt><trkpt lat="41.569283" lon="69.659088"><ele>689</ele></trkpt><trkpt lat="41.569355" lon="69.659019"><ele>688</ele></trkpt><trkpt lat="41.569412" lon="69.658913"><ele>691</ele></trkpt><trkpt lat="41.569485" lon="69.658836"><ele>692</ele></trkpt><trkpt lat="41.569664" lon="69.658699"><ele>693</ele></trkpt><trkpt lat="41.569958" lon="69.658615"><ele>698</ele></trkpt><trkpt lat="41.570274" lon="69.658562"><ele>701</ele></trkpt><trkpt lat="41.570595" lon="69.658417"><ele>705</ele></trkpt><trkpt lat="41.570683" lon="69.658356"><ele>705</ele></trkpt><trkpt lat="41.571304" lon="69.657791"><ele>706</ele></trkpt><trkpt lat="41.571407" lon="69.65773"><ele>707</ele></trkpt><trkpt lat="41.571777" lon="69.657578"><ele>709</ele></trkpt><trkpt lat="41.571869" lon="69.657585"><ele>710</ele></trkpt><trkpt lat="41.572018" lon="69.657646"><ele>698</ele></trkpt><trkpt lat="41.572445" lon="69.657761"><ele>712</ele></trkpt><trkpt lat="41.57267" lon="69.6577"><ele>715</ele></trkpt><trkpt lat="41.573032" lon="69.657455"><ele>717</ele></trkpt><trkpt lat="41.573338" lon="69.657173"><ele>720</ele></trkpt><trkpt lat="41.573494" lon="69.656998"><ele>716</ele></trkpt><trkpt lat="41.573555" lon="69.656883"><ele>712</ele></trkpt><trkpt lat="41.573593" lon="69.656754"><ele>713</ele></trkpt><trkpt lat="41.573582" lon="69.656876"><ele>713</ele></trkpt><trkpt lat="41.573452" lon="69.657059"><ele>713</ele></trkpt><trkpt lat="41.573524" lon="69.657135"><ele>711</ele></trkpt><trkpt lat="41.573624" lon="69.65715"><ele>712</ele></trkpt><trkpt lat="41.573883" lon="69.657288"><ele>708</ele></trkpt><trkpt lat="41.573978" lon="69.657272"><ele>711</ele></trkpt><trkpt lat="41.57407" lon="69.657295"><ele>710</ele></trkpt><trkpt lat="41.574345" lon="69.65728"><ele>708</ele></trkpt><trkpt lat="41.574623" lon="69.657333"><ele>708</ele></trkpt><trkpt lat="41.574806" lon="69.657303"><ele>711</ele></trkpt><trkpt lat="41.574986" lon="69.657356"><ele>713</ele></trkpt><trkpt lat="41.575069" lon="69.65731"><ele>713</ele></trkpt><trkpt lat="41.575157" lon="69.657288"><ele>714</ele></trkpt><trkpt lat="41.57526" lon="69.657326"><ele>714</ele></trkpt><trkpt lat="41.575432" lon="69.657227"><ele>715</ele></trkpt><trkpt lat="41.575523" lon="69.657211"><ele>718</ele></trkpt><trkpt lat="41.575588" lon="69.657295"><ele>716</ele></trkpt><trkpt lat="41.575829" lon="69.657829"><ele>716</ele></trkpt><trkpt lat="41.575912" lon="69.657883"><ele>717</ele></trkpt><trkpt lat="41.57597" lon="69.657982"><ele>717</ele></trkpt><trkpt lat="41.575901" lon="69.657906"><ele>723</ele></trkpt><trkpt lat="41.575859" lon="69.657799"><ele>722</ele></trkpt><trkpt lat="41.575935" lon="69.65786"><ele>718</ele></trkpt><trkpt lat="41.576027" lon="69.657822"><ele>718</ele></trkpt><trkpt lat="41.57621" lon="69.657845"><ele>720</ele></trkpt><trkpt lat="41.576305" lon="69.657837"><ele>722</ele></trkpt><trkpt lat="41.576397" lon="69.657784"><ele>723</ele></trkpt><trkpt lat="41.576466" lon="69.6577"><ele>723</ele></trkpt><trkpt lat="41.576488" lon="69.657578"><ele>726</ele></trkpt><trkpt lat="41.576633" lon="69.657417"><ele>728</ele></trkpt><trkpt lat="41.576637" lon="69.657166"><ele>725</ele></trkpt><trkpt lat="41.576672" lon="69.657043"><ele>729</ele></trkpt><trkpt lat="41.576668" lon="69.656921"><ele>730</ele></trkpt><trkpt lat="41.576633" lon="69.656807"><ele>730</ele></trkpt><trkpt lat="41.576691" lon="69.656708"><ele>732</ele></trkpt><trkpt lat="41.576782" lon="69.656654"><ele>732</ele></trkpt><trkpt lat="41.576874" lon="69.656631"><ele>730</ele></trkpt><trkpt lat="41.576962" lon="69.656639"><ele>729</ele></trkpt><trkpt lat="41.577049" lon="69.656693"><ele>732</ele></trkpt><trkpt lat="41.57761" lon="69.656525"><ele>723</ele></trkpt><trkpt lat="41.57769" lon="69.65657"><ele>725</ele></trkpt><trkpt lat="41.577785" lon="69.656563"><ele>725</ele></trkpt><trkpt lat="41.577873" lon="69.656593"><ele>729</ele></trkpt><trkpt lat="41.577789" lon="69.65654"><ele>730</ele></trkpt><trkpt lat="41.577599" lon="69.65654"><ele>728</ele></trkpt><trkpt lat="41.577408" lon="69.656586"><ele>728</ele></trkpt><trkpt lat="41.577408" lon="69.656456"><ele>726</ele></trkpt><trkpt lat="41.577572" lon="69.656349"><ele>739</ele></trkpt><trkpt lat="41.57766" lon="69.656342"><ele>738</ele></trkpt><trkpt lat="41.577839" lon="69.656265"><ele>737</ele></trkpt><trkpt lat="41.57782" lon="69.656143"><ele>734</ele></trkpt><trkpt lat="41.577896" lon="69.656067"><ele>739</ele></trkpt><trkpt lat="41.578087" lon="69.65609"><ele>735</ele></trkpt><trkpt lat="41.578274" lon="69.656029"><ele>735</ele></trkpt><trkpt lat="41.578365" lon="69.656059"><ele>736</ele></trkpt><trkpt lat="41.578449" lon="69.656013"><ele>736</ele></trkpt><trkpt lat="41.578537" lon="69.655991"><ele>735</ele></trkpt><trkpt lat="41.578632" lon="69.655998"><ele>729</ele></trkpt><trkpt lat="41.578674" lon="69.656105"><ele>730</ele></trkpt><trkpt lat="41.578667" lon="69.656349"><ele>733</ele></trkpt><trkpt lat="41.578739" lon="69.656425"><ele>738</ele></trkpt><trkpt lat="41.578674" lon="69.656532"><ele>742</ele></trkpt><trkpt lat="41.578602" lon="69.656601"><ele>743</ele></trkpt><trkpt lat="41.578629" lon="69.656723"><ele>739</ele></trkpt><trkpt lat="41.57859" lon="69.656853"><ele>740</ele></trkpt><trkpt lat="41.578587" lon="69.656975"><ele>739</ele></trkpt><trkpt lat="41.57856" lon="69.657089"><ele>744</ele></trkpt><trkpt lat="41.578537" lon="69.65696"><ele>742</ele></trkpt><trkpt lat="41.578617" lon="69.656586"><ele>747</ele></trkpt><trkpt lat="41.578663" lon="69.656479"><ele>751</ele></trkpt><trkpt lat="41.578663" lon="69.656349"><ele>750</ele></trkpt><trkpt lat="41.578754" lon="69.656342"><ele>746</ele></trkpt><trkpt lat="41.578709" lon="69.656227"><ele>743</ele></trkpt><trkpt lat="41.578789" lon="69.656151"><ele>742</ele></trkpt><trkpt lat="41.578972" lon="69.656189"><ele>736</ele></trkpt><trkpt lat="41.579041" lon="69.656265"><ele>735</ele></trkpt><trkpt lat="41.579208" lon="69.656372"><ele>739</ele></trkpt><trkpt lat="41.579399" lon="69.65641"><ele>744</ele></trkpt><trkpt lat="41.579483" lon="69.656464"><ele>746</ele></trkpt><trkpt lat="41.579575" lon="69.656456"><ele>742</ele></trkpt><trkpt lat="41.579781" lon="69.656204"><ele>744</ele></trkpt><trkpt lat="41.579842" lon="69.656105"><ele>743</ele></trkpt><trkpt lat="41.579918" lon="69.656044"><ele>742</ele></trkpt><trkpt lat="41.580093" lon="69.655968"><ele>742</ele></trkpt><trkpt lat="41.580227" lon="69.655792"><ele>746</ele></trkpt><trkpt lat="41.580395" lon="69.655678"><ele>748</ele></trkpt><trkpt lat="41.580444" lon="69.655579"><ele>752</ele></trkpt><trkpt lat="41.580635" lon="69.655556"><ele>756</ele></trkpt><trkpt lat="41.580723" lon="69.655525"><ele>755</ele></trkpt><trkpt lat="41.580799" lon="69.655457"><ele>756</ele></trkpt><trkpt lat="41.580891" lon="69.655434"><ele>757</ele></trkpt><trkpt lat="41.580982" lon="69.655441"><ele>758</ele></trkpt><trkpt lat="41.581051" lon="69.655533"><ele>759</ele></trkpt><trkpt lat="41.581242" lon="69.655548"><ele>763</ele></trkpt><trkpt lat="41.581436" lon="69.655525"><ele>765</ele></trkpt><trkpt lat="41.581528" lon="69.65551"><ele>767</ele></trkpt><trkpt lat="41.581604" lon="69.655441"><ele>771</ele></trkpt><trkpt lat="41.581692" lon="69.655403"><ele>776</ele></trkpt><trkpt lat="41.581764" lon="69.655319"><ele>781</ele></trkpt><trkpt lat="41.581856" lon="69.655312"><ele>779</ele></trkpt><trkpt lat="41.581944" lon="69.65535"><ele>777</ele></trkpt><trkpt lat="41.582035" lon="69.65535"><ele>778</ele></trkpt><trkpt lat="41.582115" lon="69.655289"><ele>778</ele></trkpt><trkpt lat="41.582298" lon="69.655258"><ele>783</ele></trkpt><trkpt lat="41.582367" lon="69.655342"><ele>787</ele></trkpt><trkpt lat="41.582458" lon="69.65535"><ele>787</ele></trkpt><trkpt lat="41.582733" lon="69.655434"><ele>792</ele></trkpt><trkpt lat="41.582909" lon="69.655312"><ele>796</ele></trkpt><trkpt lat="41.583187" lon="69.655197"><ele>797</ele></trkpt><trkpt lat="41.583263" lon="69.655121"><ele>801</ele></trkpt><trkpt lat="41.583347" lon="69.655083"><ele>806</ele></trkpt><trkpt lat="41.583435" lon="69.655128"><ele>802</ele></trkpt><trkpt lat="41.583504" lon="69.655212"><ele>801</ele></trkpt><trkpt lat="41.583694" lon="69.655182"><ele>802</ele></trkpt><trkpt lat="41.583874" lon="69.655106"><ele>804</ele></trkpt><trkpt lat="41.583954" lon="69.655029"><ele>806</ele></trkpt><trkpt lat="41.584007" lon="69.65493"><ele>803</ele></trkpt><trkpt lat="41.584145" lon="69.654739"><ele>807</ele></trkpt><trkpt lat="41.584435" lon="69.654411"><ele>812</ele></trkpt><trkpt lat="41.584621" lon="69.654366"><ele>812</ele></trkpt><trkpt lat="41.584713" lon="69.654312"><ele>814</ele></trkpt><trkpt lat="41.584805" lon="69.654305"><ele>815</ele></trkpt><trkpt lat="41.584858" lon="69.654404"><ele>814</ele></trkpt><trkpt lat="41.584854" lon="69.654274"><ele>818</ele></trkpt><trkpt lat="41.585037" lon="69.654366"><ele>807</ele></trkpt><trkpt lat="41.585224" lon="69.654411"><ele>810</ele></trkpt><trkpt lat="41.5853" lon="69.654472"><ele>810</ele></trkpt><trkpt lat="41.585342" lon="69.654579"><ele>810</ele></trkpt><trkpt lat="41.585598" lon="69.654739"><ele>805</ele></trkpt><trkpt lat="41.585693" lon="69.654762"><ele>807</ele></trkpt><trkpt lat="41.585751" lon="69.654671"><ele>808</ele></trkpt><trkpt lat="41.585697" lon="69.654572"><ele>805</ele></trkpt><trkpt lat="41.585674" lon="69.654198"><ele>808</ele></trkpt><trkpt lat="41.585632" lon="69.653961"><ele>808</ele></trkpt><trkpt lat="41.585632" lon="69.653831"><ele>805</ele></trkpt><trkpt lat="41.585659" lon="69.653717"><ele>809</ele></trkpt><trkpt lat="41.585754" lon="69.653496"><ele>801</ele></trkpt><trkpt lat="41.58577" lon="69.653374"><ele>798</ele></trkpt><trkpt lat="41.585701" lon="69.653137"><ele>793</ele></trkpt><trkpt lat="41.585548" lon="69.652985"><ele>786</ele></trkpt><trkpt lat="41.585461" lon="69.65303"><ele>781</ele></trkpt><trkpt lat="41.585396" lon="69.653122"><ele>780</ele></trkpt><trkpt lat="41.585407" lon="69.653"><ele>776</ele></trkpt><trkpt lat="41.585499" lon="69.65303"><ele>780</ele></trkpt><trkpt lat="41.585594" lon="69.653015"><ele>776</ele></trkpt><trkpt lat="41.585678" lon="69.653069"><ele>775</ele></trkpt><trkpt lat="41.585865" lon="69.653099"><ele>774</ele></trkpt><trkpt lat="41.586098" lon="69.653305"><ele>764</ele></trkpt><trkpt lat="41.586235" lon="69.653473"><ele>768</ele></trkpt><trkpt lat="41.586319" lon="69.653519"><ele>774</ele></trkpt><trkpt lat="41.586365" lon="69.653618"><ele>774</ele></trkpt><trkpt lat="41.586563" lon="69.653625"><ele>771</ele></trkpt><trkpt lat="41.586651" lon="69.653595"><ele>777</ele></trkpt><trkpt lat="41.586823" lon="69.653488"><ele>777</ele></trkpt><trkpt lat="41.586906" lon="69.653542"><ele>779</ele></trkpt><trkpt lat="41.586994" lon="69.653488"><ele>779</ele></trkpt><trkpt lat="41.587086" lon="69.653473"><ele>779</ele></trkpt><trkpt lat="41.587173" lon="69.653511"><ele>780</ele></trkpt><trkpt lat="41.587433" lon="69.653366"><ele>781</ele></trkpt><trkpt lat="41.587505" lon="69.653282"><ele>781</ele></trkpt><trkpt lat="41.587585" lon="69.653221"><ele>781</ele></trkpt><trkpt lat="41.587856" lon="69.653122"><ele>784</ele></trkpt><trkpt lat="41.588039" lon="69.653107"><ele>780</ele></trkpt><trkpt lat="41.588131" lon="69.653076"><ele>783</ele></trkpt><trkpt lat="41.588207" lon="69.653"><ele>786</ele></trkpt><trkpt lat="41.588299" lon="69.653008"><ele>788</ele></trkpt><trkpt lat="41.58839" lon="69.652969"><ele>789</ele></trkpt><trkpt lat="41.588482" lon="69.652962"><ele>788</ele></trkpt><trkpt lat="41.588566" lon="69.653023"><ele>791</ele></trkpt><trkpt lat="41.588657" lon="69.653015"><ele>792</ele></trkpt><trkpt lat="41.588848" lon="69.65329"><ele>789</ele></trkpt><trkpt lat="41.589024" lon="69.653381"><ele>790</ele></trkpt><trkpt lat="41.589115" lon="69.653404"><ele>792</ele></trkpt><trkpt lat="41.589207" lon="69.653389"><ele>794</ele></trkpt><trkpt lat="41.589348" lon="69.653221"><ele>795</ele></trkpt><trkpt lat="41.589336" lon="69.653107"><ele>796</ele></trkpt><trkpt lat="41.589397" lon="69.653015"><ele>796</ele></trkpt><trkpt lat="41.589443" lon="69.653122"><ele>794</ele></trkpt><trkpt lat="41.589657" lon="69.65287"><ele>795</ele></trkpt><trkpt lat="41.589924" lon="69.652771"><ele>798</ele></trkpt><trkpt lat="41.590111" lon="69.652809"><ele>801</ele></trkpt><trkpt lat="41.590191" lon="69.652863"><ele>799</ele></trkpt><trkpt lat="41.590286" lon="69.652878"><ele>800</ele></trkpt><trkpt lat="41.59045" lon="69.653"><ele>801</ele></trkpt><trkpt lat="41.590637" lon="69.653053"><ele>805</ele></trkpt><trkpt lat="41.590813" lon="69.65313"><ele>808</ele></trkpt><trkpt lat="41.590935" lon="69.652916"><ele>806</ele></trkpt><trkpt lat="41.591007" lon="69.652832"><ele>805</ele></trkpt><trkpt lat="41.591198" lon="69.652374"><ele>799</ele></trkpt><trkpt lat="41.591377" lon="69.652405"><ele>804</ele></trkpt><trkpt lat="41.591454" lon="69.652481"><ele>808</ele></trkpt><trkpt lat="41.591549" lon="69.652473"><ele>809</ele></trkpt><trkpt lat="41.591602" lon="69.652374"><ele>807</ele></trkpt><trkpt lat="41.591682" lon="69.652435"><ele>811</ele></trkpt><trkpt lat="41.59174" lon="69.652527"><ele>811</ele></trkpt><trkpt lat="41.591835" lon="69.652557"><ele>815</ele></trkpt><trkpt lat="41.591911" lon="69.652634"><ele>815</ele></trkpt><trkpt lat="41.592094" lon="69.652679"><ele>815</ele></trkpt><trkpt lat="41.592289" lon="69.652397"><ele>817</ele></trkpt><trkpt lat="41.592369" lon="69.652168"><ele>816</ele></trkpt><trkpt lat="41.592445" lon="69.6521"><ele>814</ele></trkpt><trkpt lat="41.59251" lon="69.651863"><ele>812</ele></trkpt><trkpt lat="41.592583" lon="69.651787"><ele>813</ele></trkpt><trkpt lat="41.592487" lon="69.651779"><ele>816</ele></trkpt><trkpt lat="41.592403" lon="69.651718"><ele>819</ele></trkpt><trkpt lat="41.592594" lon="69.651756"><ele>821</ele></trkpt><trkpt lat="41.592678" lon="69.651802"><ele>816</ele></trkpt><trkpt lat="41.592735" lon="69.651711"><ele>817</ele></trkpt><trkpt lat="41.592892" lon="69.651573"><ele>819</ele></trkpt><trkpt lat="41.593075" lon="69.651497"><ele>820</ele></trkpt><trkpt lat="41.593235" lon="69.651382"><ele>824</ele></trkpt><trkpt lat="41.593422" lon="69.651321"><ele>825</ele></trkpt><trkpt lat="41.593739" lon="69.651077"><ele>823</ele></trkpt><trkpt lat="41.593929" lon="69.651054"><ele>825</ele></trkpt><trkpt lat="41.594013" lon="69.650993"><ele>823</ele></trkpt><trkpt lat="41.594093" lon="69.651054"><ele>823</ele></trkpt><trkpt lat="41.594173" lon="69.650993"><ele>822</ele></trkpt><trkpt lat="41.594166" lon="69.650871"><ele>825</ele></trkpt><trkpt lat="41.594257" lon="69.650887"><ele>826</ele></trkpt><trkpt lat="41.594349" lon="69.650848"><ele>829</ele></trkpt><trkpt lat="41.594631" lon="69.650787"><ele>827</ele></trkpt><trkpt lat="41.594715" lon="69.650749"><ele>827</ele></trkpt><trkpt lat="41.594807" lon="69.650749"><ele>831</ele></trkpt><trkpt lat="41.594883" lon="69.650681"><ele>834</ele></trkpt><trkpt lat="41.595413" lon="69.649971"><ele>829</ele></trkpt><trkpt lat="41.595509" lon="69.64994"><ele>828</ele></trkpt><trkpt lat="41.595882" lon="69.649895"><ele>833</ele></trkpt><trkpt lat="41.59605" lon="69.650009"><ele>835</ele></trkpt><trkpt lat="41.596226" lon="69.650085"><ele>841</ele></trkpt><trkpt lat="41.596317" lon="69.650093"><ele>842</ele></trkpt><trkpt lat="41.596409" lon="69.650085"><ele>845</ele></trkpt><trkpt lat="41.596565" lon="69.649925"><ele>843</ele></trkpt><trkpt lat="41.596619" lon="69.649826"><ele>841</ele></trkpt><trkpt lat="41.596695" lon="69.64975"><ele>840</ele></trkpt><trkpt lat="41.59668" lon="69.649628"><ele>840</ele></trkpt><trkpt lat="41.596619" lon="69.649529"><ele>842</ele></trkpt><trkpt lat="41.596653" lon="69.649284"><ele>843</ele></trkpt><trkpt lat="41.596718" lon="69.649048"><ele>839</ele></trkpt><trkpt lat="41.596687" lon="69.648926"><ele>841</ele></trkpt><trkpt lat="41.596771" lon="69.64888"><ele>845</ele></trkpt><trkpt lat="41.59687" lon="69.648674"><ele>844</ele></trkpt><trkpt lat="41.596935" lon="69.648582"><ele>847</ele></trkpt><trkpt lat="41.597095" lon="69.648453"><ele>838</ele></trkpt><trkpt lat="41.597225" lon="69.64827"><ele>840</ele></trkpt><trkpt lat="41.59724" lon="69.648148"><ele>842</ele></trkpt><trkpt lat="41.597183" lon="69.648056"><ele>845</ele></trkpt><trkpt lat="41.597179" lon="69.64817"><ele>847</ele></trkpt><trkpt lat="41.597244" lon="69.648094"><ele>853</ele></trkpt><trkpt lat="41.597267" lon="69.647964"><ele>855</ele></trkpt><trkpt lat="41.597229" lon="69.647858"><ele>857</ele></trkpt><trkpt lat="41.59705" lon="69.647903"><ele>853</ele></trkpt><trkpt lat="41.59721" lon="69.647781"><ele>857</ele></trkpt><trkpt lat="41.597462" lon="69.647408"><ele>861</ele></trkpt><trkpt lat="41.597507" lon="69.647293"><ele>862</ele></trkpt><trkpt lat="41.59774" lon="69.647057"><ele>864</ele></trkpt><trkpt lat="41.597927" lon="69.646782"><ele>862</ele></trkpt><trkpt lat="41.598026" lon="69.646568"><ele>865</ele></trkpt><trkpt lat="41.59816" lon="69.645844"><ele>870</ele></trkpt><trkpt lat="41.598179" lon="69.645714"><ele>870</ele></trkpt><trkpt lat="41.598171" lon="69.645592"><ele>867</ele></trkpt><trkpt lat="41.598263" lon="69.64537"><ele>870</ele></trkpt><trkpt lat="41.598278" lon="69.645241"><ele>870</ele></trkpt><trkpt lat="41.598362" lon="69.645012"><ele>872</ele></trkpt><trkpt lat="41.598347" lon="69.644882"><ele>872</ele></trkpt><trkpt lat="41.598366" lon="69.644745"><ele>874</ele></trkpt><trkpt lat="41.598305" lon="69.644493"><ele>876</ele></trkpt><trkpt lat="41.598259" lon="69.644386"><ele>878</ele></trkpt><trkpt lat="41.598289" lon="69.644264"><ele>874</ele></trkpt><trkpt lat="41.598469" lon="69.643974"><ele>877</ele></trkpt><trkpt lat="41.598541" lon="69.64389"><ele>880</ele></trkpt><trkpt lat="41.598728" lon="69.643936"><ele>880</ele></trkpt><trkpt lat="41.598904" lon="69.643845"><ele>882</ele></trkpt><trkpt lat="41.599045" lon="69.643684"><ele>889</ele></trkpt><trkpt lat="41.599087" lon="69.643578"><ele>890</ele></trkpt><trkpt lat="41.599136" lon="69.643341"><ele>888</ele></trkpt><trkpt lat="41.599178" lon="69.643227"><ele>888</ele></trkpt><trkpt lat="41.599308" lon="69.643036"><ele>887</ele></trkpt><trkpt lat="41.599472" lon="69.642723"><ele>891</ele></trkpt><trkpt lat="41.599548" lon="69.642647"><ele>892</ele></trkpt><trkpt lat="41.599678" lon="69.642464"><ele>893</ele></trkpt><trkpt lat="41.599834" lon="69.642319"><ele>893</ele></trkpt><trkpt lat="41.600006" lon="69.642204"><ele>892</ele></trkpt><trkpt lat="41.600063" lon="69.642113"><ele>892</ele></trkpt><trkpt lat="41.600136" lon="69.642036"><ele>895</ele></trkpt><trkpt lat="41.600182" lon="69.64193"><ele>895</ele></trkpt><trkpt lat="41.600327" lon="69.641777"><ele>893</ele></trkpt><trkpt lat="41.600372" lon="69.64167"><ele>892</ele></trkpt><trkpt lat="41.60046" lon="69.641624"><ele>892</ele></trkpt><trkpt lat="41.600655" lon="69.641602"><ele>900</ele></trkpt><trkpt lat="41.600723" lon="69.641518"><ele>903</ele></trkpt><trkpt lat="41.60078" lon="69.641403"><ele>903</ele></trkpt><trkpt lat="41.600853" lon="69.641319"><ele>905</ele></trkpt><trkpt lat="41.600945" lon="69.641273"><ele>906</ele></trkpt><trkpt lat="41.601017" lon="69.641205"><ele>906</ele></trkpt><trkpt lat="41.601192" lon="69.641113"><ele>909</ele></trkpt><trkpt lat="41.601292" lon="69.641098"><ele>907</ele></trkpt><trkpt lat="41.601551" lon="69.640945"><ele>908</ele></trkpt><trkpt lat="41.601643" lon="69.640915"><ele>909</ele></trkpt><trkpt lat="41.60183" lon="69.64093"><ele>916</ele></trkpt><trkpt lat="41.601925" lon="69.640884"><ele>914</ele></trkpt><trkpt lat="41.602215" lon="69.640572"><ele>919</ele></trkpt><trkpt lat="41.602402" lon="69.640533"><ele>916</ele></trkpt><trkpt lat="41.602486" lon="69.64048"><ele>922</ele></trkpt><trkpt lat="41.602581" lon="69.640503"><ele>922</ele></trkpt><trkpt lat="41.602665" lon="69.640556"><ele>922</ele></trkpt><trkpt lat="41.602699" lon="69.640442"><ele>923</ele></trkpt><trkpt lat="41.60268" lon="69.640327"><ele>929</ele></trkpt><trkpt lat="41.602741" lon="69.640236"><ele>918</ele></trkpt><trkpt lat="41.602417" lon="69.640465"><ele>931</ele></trkpt><trkpt lat="41.602318" lon="69.640457"><ele>932</ele></trkpt><trkpt lat="41.602276" lon="69.640579"><ele>922</ele></trkpt><trkpt lat="41.602272" lon="69.640694"><ele>922</ele></trkpt><trkpt lat="41.602356" lon="69.640747"><ele>925</ele></trkpt><trkpt lat="41.602386" lon="69.640862"><ele>932</ele></trkpt><trkpt lat="41.602444" lon="69.640953"><ele>935</ele></trkpt><trkpt lat="41.602676" lon="69.640747"><ele>943</ele></trkpt><trkpt lat="41.602718" lon="69.64064"><ele>944</ele></trkpt><trkpt lat="41.602726" lon="69.640511"><ele>946</ele></trkpt><trkpt lat="41.602787" lon="69.640411"><ele>946</ele></trkpt><trkpt lat="41.602734" lon="69.640511"><ele>944</ele></trkpt><trkpt lat="41.602791" lon="69.640411"><ele>947</ele></trkpt><trkpt lat="41.602882" lon="69.640396"><ele>946</ele></trkpt><trkpt lat="41.60281" lon="69.640472"><ele>947</ele></trkpt><trkpt lat="41.602722" lon="69.640533"><ele>945</ele></trkpt><trkpt lat="41.60313" lon="69.640213"><ele>951</ele></trkpt><trkpt lat="41.603588" lon="69.640053"><ele>951</ele></trkpt><trkpt lat="41.603748" lon="69.6399"><ele>955</ele></trkpt><trkpt lat="41.603844" lon="69.63987"><ele>954</ele></trkpt><trkpt lat="41.60416" lon="69.639603"><ele>962</ele></trkpt><trkpt lat="41.604248" lon="69.639557"><ele>959</ele></trkpt><trkpt lat="41.604324" lon="69.639488"><ele>958</ele></trkpt><trkpt lat="41.60437" lon="69.639366"><ele>958</ele></trkpt><trkpt lat="41.6045" lon="69.639183"><ele>957</ele></trkpt><trkpt lat="41.604553" lon="69.639084"><ele>958</ele></trkpt><trkpt lat="41.604588" lon="69.638962"><ele>961</ele></trkpt><trkpt lat="41.604652" lon="69.638878"><ele>964</ele></trkpt><trkpt lat="41.604706" lon="69.638763"><ele>966</ele></trkpt><trkpt lat="41.604771" lon="69.638664"><ele>964</ele></trkpt><trkpt lat="41.604939" lon="69.638527"><ele>965</ele></trkpt><trkpt lat="41.605213" lon="69.638382"><ele>963</ele></trkpt><trkpt lat="41.605309" lon="69.638359"><ele>964</ele></trkpt><trkpt lat="41.605396" lon="69.638313"><ele>967</ele></trkpt><trkpt lat="41.60556" lon="69.638191"><ele>965</ele></trkpt><trkpt lat="41.605747" lon="69.63813"><ele>965</ele></trkpt><trkpt lat="41.605831" lon="69.638084"><ele>964</ele></trkpt><trkpt lat="41.605995" lon="69.637947"><ele>968</ele></trkpt><trkpt lat="41.606094" lon="69.637955"><ele>970</ele></trkpt><trkpt lat="41.606285" lon="69.637917"><ele>974</ele></trkpt><trkpt lat="41.606628" lon="69.637741"><ele>973</ele></trkpt><trkpt lat="41.606823" lon="69.637718"><ele>976</ele></trkpt><trkpt lat="41.607002" lon="69.637604"><ele>975</ele></trkpt><trkpt lat="41.607105" lon="69.637596"><ele>972</ele></trkpt><trkpt lat="41.607292" lon="69.637543"><ele>971</ele></trkpt><trkpt lat="41.607376" lon="69.637489"><ele>974</ele></trkpt><trkpt lat="41.607441" lon="69.63739"><ele>977</ele></trkpt><trkpt lat="41.607533" lon="69.637352"><ele>978</ele></trkpt><trkpt lat="41.607624" lon="69.637344"><ele>981</ele></trkpt><trkpt lat="41.607704" lon="69.63739"><ele>988</ele></trkpt><trkpt lat="41.607796" lon="69.637375"><ele>987</ele></trkpt><trkpt lat="41.607891" lon="69.637398"><ele>983</ele></trkpt><trkpt lat="41.608078" lon="69.637398"><ele>986</ele></trkpt><trkpt lat="41.608349" lon="69.637337"><ele>984</ele></trkpt><trkpt lat="41.608444" lon="69.637337"><ele>988</ele></trkpt><trkpt lat="41.608543" lon="69.637367"><ele>988</ele></trkpt><trkpt lat="41.608734" lon="69.637367"><ele>989</ele></trkpt><trkpt lat="41.608913" lon="69.637306"><ele>994</ele></trkpt><trkpt lat="41.609009" lon="69.637329"><ele>992</ele></trkpt><trkpt lat="41.60907" lon="69.637421"><ele>1000</ele></trkpt><trkpt lat="41.609241" lon="69.63755"><ele>1007</ele></trkpt><trkpt lat="41.60939" lon="69.637711"><ele>1009</ele></trkpt><trkpt lat="41.609486" lon="69.637703"><ele>1003</ele></trkpt><trkpt lat="41.60957" lon="69.637642"><ele>1003</ele></trkpt><trkpt lat="41.609627" lon="69.637733"><ele>1001</ele></trkpt><trkpt lat="41.609665" lon="69.637848"><ele>1000</ele></trkpt><trkpt lat="41.609749" lon="69.637901"><ele>1003</ele></trkpt><trkpt lat="41.609783" lon="69.638023"><ele>1004</ele></trkpt><trkpt lat="41.609848" lon="69.638115"><ele>1005</ele></trkpt><trkpt lat="41.609882" lon="69.638229"><ele>1006</ele></trkpt><trkpt lat="41.609833" lon="69.638115"><ele>1011</ele></trkpt><trkpt lat="41.609962" lon="69.638313"><ele>1009</ele></trkpt><trkpt lat="41.609997" lon="69.638435"><ele>1006</ele></trkpt><trkpt lat="41.610008" lon="69.638557"><ele>1010</ele></trkpt><trkpt lat="41.610035" lon="69.638443"><ele>1012</ele></trkpt><trkpt lat="41.609882" lon="69.6381"><ele>1011</ele></trkpt><trkpt lat="41.609871" lon="69.63797"><ele>1011</ele></trkpt><trkpt lat="41.609951" lon="69.637909"><ele>1013</ele></trkpt><trkpt lat="41.610039" lon="69.637947"><ele>1014</ele></trkpt><trkpt lat="41.610126" lon="69.637932"><ele>1015</ele></trkpt><trkpt lat="41.61018" lon="69.637833"><ele>1017</ele></trkpt><trkpt lat="41.610092" lon="69.637871"><ele>1020</ele></trkpt><trkpt lat="41.610134" lon="69.637756"><ele>1014</ele></trkpt><trkpt lat="41.610226" lon="69.637764"><ele>1015</ele></trkpt><trkpt lat="41.610321" lon="69.637741"><ele>1020</ele></trkpt><trkpt lat="41.610352" lon="69.637627"><ele>1018</ele></trkpt><trkpt lat="41.610302" lon="69.637527"><ele>1018</ele></trkpt><trkpt lat="41.610386" lon="69.637566"><ele>1024</ele></trkpt><trkpt lat="41.610569" lon="69.637611"><ele>1022</ele></trkpt><trkpt lat="41.610729" lon="69.637474"><ele>1024</ele></trkpt><trkpt lat="41.610924" lon="69.637436"><ele>1021</ele></trkpt><trkpt lat="41.611019" lon="69.637436"><ele>1022</ele></trkpt><trkpt lat="41.611103" lon="69.63739"><ele>1026</ele></trkpt><trkpt lat="41.611195" lon="69.637367"><ele>1025</ele></trkpt><trkpt lat="41.611244" lon="69.637466"><ele>1027</ele></trkpt><trkpt lat="41.611343" lon="69.637482"><ele>1027</ele></trkpt><trkpt lat="41.611462" lon="69.637665"><ele>1039</ele></trkpt><trkpt lat="41.611404" lon="69.63755"><ele>1036</ele></trkpt><trkpt lat="41.611397" lon="69.637428"><ele>1037</ele></trkpt><trkpt lat="41.611362" lon="69.637314"><ele>1033</ele></trkpt><trkpt lat="41.611439" lon="69.637245"><ele>1030</ele></trkpt><trkpt lat="41.611343" lon="69.63726"><ele>1028</ele></trkpt><trkpt lat="41.611282" lon="69.63736"><ele>1029</ele></trkpt><trkpt lat="41.611374" lon="69.637581"><ele>1034</ele></trkpt><trkpt lat="41.611431" lon="69.63768"><ele>1038</ele></trkpt><trkpt lat="41.61145" lon="69.637802"><ele>1042</ele></trkpt><trkpt lat="41.611488" lon="69.637917"><ele>1049</ele></trkpt><trkpt lat="41.611473" lon="69.638039"><ele>1054</ele></trkpt><trkpt lat="41.611401" lon="69.638107"><ele>1057</ele></trkpt><trkpt lat="41.611263" lon="69.63829"><ele>1057</ele></trkpt><trkpt lat="41.611198" lon="69.638382"><ele>1058</ele></trkpt><trkpt lat="41.611149" lon="69.638489"><ele>1057</ele></trkpt><trkpt lat="41.611221" lon="69.638565"><ele>1058</ele></trkpt><trkpt lat="41.611294" lon="69.638481"><ele>1060</ele></trkpt><trkpt lat="41.611279" lon="69.638611"><ele>1059</ele></trkpt><trkpt lat="41.611317" lon="69.638725"><ele>1061</ele></trkpt><trkpt lat="41.611443" lon="69.638916"><ele>1064</ele></trkpt><trkpt lat="41.611488" lon="69.639023"><ele>1069</ele></trkpt><trkpt lat="41.611576" lon="69.639069"><ele>1070</ele></trkpt><trkpt lat="41.611637" lon="69.63916"><ele>1073</ele></trkpt><trkpt lat="41.611725" lon="69.63913"><ele>1074</ele></trkpt><trkpt lat="41.61182" lon="69.63913"><ele>1075</ele></trkpt><trkpt lat="41.611904" lon="69.639175"><ele>1078</ele></trkpt><trkpt lat="41.611996" lon="69.63916"><ele>1081</ele></trkpt><trkpt lat="41.612186" lon="69.639175"><ele>1087</ele></trkpt><trkpt lat="41.612282" lon="69.639206"><ele>1091</ele></trkpt><trkpt lat="41.612354" lon="69.639137"><ele>1092</ele></trkpt><trkpt lat="41.612419" lon="69.639236"><ele>1097</ele></trkpt><trkpt lat="41.612591" lon="69.639336"><ele>1104</ele></trkpt><trkpt lat="41.612732" lon="69.639511"><ele>1106</ele></trkpt><trkpt lat="41.612812" lon="69.63958"><ele>1111</ele></trkpt><trkpt lat="41.612907" lon="69.63961"><ele>1108</ele></trkpt><trkpt lat="41.612965" lon="69.639702"><ele>1113</ele></trkpt><trkpt lat="41.61306" lon="69.63974"><ele>1109</ele></trkpt><trkpt lat="41.61311" lon="69.639847"><ele>1107</ele></trkpt><trkpt lat="41.613117" lon="69.639969"><ele>1112</ele></trkpt><trkpt lat="41.613159" lon="69.640091"><ele>1112</ele></trkpt><trkpt lat="41.613243" lon="69.640144"><ele>1110</ele></trkpt><trkpt lat="41.613308" lon="69.640236"><ele>1116</ele></trkpt><trkpt lat="41.613476" lon="69.640541"><ele>1108</ele></trkpt><trkpt lat="41.613567" lon="69.640533"><ele>1107</ele></trkpt><trkpt lat="41.613636" lon="69.640617"><ele>1110</ele></trkpt><trkpt lat="41.613758" lon="69.640816"><ele>1110</ele></trkpt><trkpt lat="41.613857" lon="69.640839"><ele>1112</ele></trkpt><trkpt lat="41.613941" lon="69.640892"><ele>1114</ele></trkpt><trkpt lat="41.614014" lon="69.640976"><ele>1117</ele></trkpt><trkpt lat="41.614056" lon="69.641098"><ele>1124</ele></trkpt><trkpt lat="41.614124" lon="69.641174"><ele>1119</ele></trkpt><trkpt lat="41.614082" lon="69.641426"><ele>1119</ele></trkpt><trkpt lat="41.614128" lon="69.641525"><ele>1117</ele></trkpt><trkpt lat="41.61412" lon="69.641655"><ele>1112</ele></trkpt><trkpt lat="41.614159" lon="69.641541"><ele>1105</ele></trkpt><trkpt lat="41.61412" lon="69.641296"><ele>1107</ele></trkpt><trkpt lat="41.614155" lon="69.641174"><ele>1107</ele></trkpt><trkpt lat="41.614067" lon="69.640945"><ele>1106</ele></trkpt><trkpt lat="41.613903" lon="69.640816"><ele>1110</ele></trkpt><trkpt lat="41.613815" lon="69.640778"><ele>1105</ele></trkpt><trkpt lat="41.613773" lon="69.640656"><ele>1104</ele></trkpt><trkpt lat="41.613708" lon="69.640572"><ele>1098</ele></trkpt><trkpt lat="41.613537" lon="69.640457"><ele>1094</ele></trkpt><trkpt lat="41.613483" lon="69.640343"><ele>1094</ele></trkpt><trkpt lat="41.613422" lon="69.640106"><ele>1092</ele></trkpt><trkpt lat="41.613346" lon="69.640038"><ele>1089</ele></trkpt><trkpt lat="41.613262" lon="69.639816"><ele>1091</ele></trkpt><trkpt lat="41.613132" lon="69.639618"><ele>1087</ele></trkpt><trkpt lat="41.613037" lon="69.639557"><ele>1086</ele></trkpt><trkpt lat="41.612946" lon="69.639557"><ele>1088</ele></trkpt><trkpt lat="41.612934" lon="69.639442"><ele>1095</ele></trkpt><trkpt lat="41.612968" lon="69.639328"><ele>1098</ele></trkpt><trkpt lat="41.613106" lon="69.639503"><ele>1120</ele></trkpt><trkpt lat="41.613235" lon="69.639847"><ele>1125</ele></trkpt><trkpt lat="41.613251" lon="69.639977"><ele>1126</ele></trkpt><trkpt lat="41.613285" lon="69.639862"><ele>1128</ele></trkpt><trkpt lat="41.613403" lon="69.640045"><ele>1129</ele></trkpt><trkpt lat="41.613487" lon="69.640106"><ele>1129</ele></trkpt><trkpt lat="41.613541" lon="69.640213"><ele>1129</ele></trkpt><trkpt lat="41.613609" lon="69.640297"><ele>1129</ele></trkpt><trkpt lat="41.613834" lon="69.640526"><ele>1132</ele></trkpt><trkpt lat="41.613895" lon="69.640633"><ele>1137</ele></trkpt><trkpt lat="41.61393" lon="69.640747"><ele>1135</ele></trkpt><trkpt lat="41.614014" lon="69.640831"><ele>1136</ele></trkpt><trkpt lat="41.614071" lon="69.640923"><ele>1137</ele></trkpt><trkpt lat="41.614178" lon="69.641136"><ele>1141</ele></trkpt><trkpt lat="41.614197" lon="69.64138"><ele>1140</ele></trkpt><trkpt lat="41.614235" lon="69.641495"><ele>1143</ele></trkpt><trkpt lat="41.614254" lon="69.641617"><ele>1143</ele></trkpt><trkpt lat="41.614349" lon="69.641609"><ele>1140</ele></trkpt><trkpt lat="41.614441" lon="69.641647"><ele>1143</ele></trkpt><trkpt lat="41.614323" lon="69.641846"><ele>1143</ele></trkpt><trkpt lat="41.614319" lon="69.641968"><ele>1141</ele></trkpt><trkpt lat="41.614231" lon="69.641983"><ele>1142</ele></trkpt><trkpt lat="41.614319" lon="69.641968"><ele>1143</ele></trkpt><trkpt lat="41.614254" lon="69.642052"><ele>1138</ele></trkpt><trkpt lat="41.614166" lon="69.64209"><ele>1139</ele></trkpt><trkpt lat="41.614246" lon="69.642029"><ele>1143</ele></trkpt><trkpt lat="41.614292" lon="69.641922"><ele>1144</ele></trkpt><trkpt lat="41.614243" lon="69.642029"><ele>1140</ele></trkpt><trkpt lat="41.614151" lon="69.642075"><ele>1140</ele></trkpt><trkpt lat="41.614246" lon="69.642036"><ele>1142</ele></trkpt><trkpt lat="41.614185" lon="69.642128"><ele>1146</ele></trkpt><trkpt lat="41.614082" lon="69.642136"><ele>1143</ele></trkpt><trkpt lat="41.613983" lon="69.64212"><ele>1143</ele></trkpt><trkpt lat="41.614067" lon="69.642166"><ele>1145</ele></trkpt><trkpt lat="41.614159" lon="69.642174"><ele>1146</ele></trkpt><trkpt lat="41.614292" lon="69.641998"><ele>1144</ele></trkpt><trkpt lat="41.614365" lon="69.641777"><ele>1142</ele></trkpt><trkpt lat="41.614456" lon="69.641747"><ele>1142</ele></trkpt><trkpt lat="41.614464" lon="69.641617"><ele>1145</ele></trkpt><trkpt lat="41.614292" lon="69.641319"><ele>1141</ele></trkpt><trkpt lat="41.614193" lon="69.640968"><ele>1136</ele></trkpt><trkpt lat="41.614117" lon="69.640892"><ele>1135</ele></trkpt><trkpt lat="41.613914" lon="69.640625"><ele>1131</ele></trkpt><trkpt lat="41.613857" lon="69.640518"><ele>1129</ele></trkpt><trkpt lat="41.613777" lon="69.64045"><ele>1133</ele></trkpt><trkpt lat="41.613647" lon="69.640251"><ele>1133</ele></trkpt><trkpt lat="41.613476" lon="69.640121"><ele>1137</ele></trkpt><trkpt lat="41.613354" lon="69.639946"><ele>1132</ele></trkpt><trkpt lat="41.613316" lon="69.639824"><ele>1131</ele></trkpt><trkpt lat="41.613194" lon="69.639626"><ele>1132</ele></trkpt><trkpt lat="41.61293" lon="69.63945"><ele>1130</ele></trkpt><trkpt lat="41.612751" lon="69.639488"><ele>1118</ele></trkpt><trkpt lat="41.612663" lon="69.639435"><ele>1117</ele></trkpt><trkpt lat="41.612587" lon="69.639359"><ele>1114</ele></trkpt><trkpt lat="41.612404" lon="69.63932"><ele>1110</ele></trkpt><trkpt lat="41.612324" lon="69.639244"><ele>1108</ele></trkpt><trkpt lat="41.61227" lon="69.639145"><ele>1103</ele></trkpt><trkpt lat="41.612179" lon="69.639114"><ele>1100</ele></trkpt><trkpt lat="41.612125" lon="69.63887"><ele>1092</ele></trkpt><trkpt lat="41.612038" lon="69.63884"><ele>1090</ele></trkpt><trkpt lat="41.611855" lon="69.638947"><ele>1082</ele></trkpt><trkpt lat="41.611671" lon="69.638893"><ele>1081</ele></trkpt><trkpt lat="41.611599" lon="69.638977"><ele>1077</ele></trkpt><trkpt lat="41.611511" lon="69.638931"><ele>1075</ele></trkpt><trkpt lat="41.611217" lon="69.638954"><ele>1071</ele></trkpt><trkpt lat="41.61116" lon="69.638847"><ele>1066</ele></trkpt><trkpt lat="41.610981" lon="69.638718"><ele>1065</ele></trkpt><trkpt lat="41.610878" lon="69.63868"><ele>1063</ele></trkpt><trkpt lat="41.610813" lon="69.638588"><ele>1056</ele></trkpt><trkpt lat="41.610832" lon="69.638451"><ele>1055</ele></trkpt><trkpt lat="41.610775" lon="69.638565"><ele>1047</ele></trkpt><trkpt lat="41.61071" lon="69.638481"><ele>1053</ele></trkpt><trkpt lat="41.610523" lon="69.638443"><ele>1049</ele></trkpt><trkpt lat="41.61034" lon="69.638367"><ele>1044</ele></trkpt><trkpt lat="41.610344" lon="69.638237"><ele>1037</ele></trkpt><trkpt lat="41.610279" lon="69.63813"><ele>1032</ele></trkpt><trkpt lat="41.610188" lon="69.6381"><ele>1029</ele></trkpt><trkpt lat="41.609932" lon="69.637939"><ele>1020</ele></trkpt><trkpt lat="41.609837" lon="69.637962"><ele>1014</ele></trkpt><trkpt lat="41.609756" lon="69.637894"><ele>1012</ele></trkpt><trkpt lat="41.609566" lon="69.637817"><ele>1003</ele></trkpt><trkpt lat="41.609543" lon="69.637703"><ele>1005</ele></trkpt><trkpt lat="41.60947" lon="69.637634"><ele>1000</ele></trkpt><trkpt lat="41.609379" lon="69.637627"><ele>1000</ele></trkpt><trkpt lat="41.609226" lon="69.637466"><ele>1001</ele></trkpt><trkpt lat="41.608955" lon="69.637306"><ele>997</ele></trkpt></trkseg></trk></gpx>