<?xml version='1.0' encoding='utf-8'?>
<gpx xmlns="http://www.topografix.com/GPX/1/1" version="1.1" creator="Sayr">
<trk><name>От стоянки под перевалом Бадак к озеру и обратно</name><trkseg>
<trkpt lat="41.821773" lon="70.458611"><ele>3220.1</ele></trkpt>
<trkpt lat="41.821771" lon="70.458629"><ele>3196.0</ele></trkpt>
<trkpt lat="41.821755" lon="70.458598"><ele>3213.0</ele></trkpt>
<trkpt lat="41.821829" lon="70.458770"><ele>3212.0</ele></trkpt>
<trkpt lat="41.821959" lon="70.458811"><ele>3216.0</ele></trkpt>
<trkpt lat="41.822012" lon="70.458898"><ele>3219.3</ele></trkpt>
<trkpt lat="41.822095" lon="70.458943"><ele>3220.0</ele></trkpt>
<trkpt lat="41.822280" lon="70.459007"><ele>3224.0</ele></trkpt>
<trkpt lat="41.822466" lon="70.459182"><ele>3228.0</ele></trkpt>
<trkpt lat="41.822611" lon="70.459250"><ele>3238.0</ele></trkpt>
<trkpt lat="41.822681" lon="70.459262"><ele>3238.0</ele></trkpt>
<trkpt lat="41.822710" lon="70.459300"><ele>3234.0</ele></trkpt>
<trkpt lat="41.822808" lon="70.459348"><ele>3240.0</ele></trkpt>
<trkpt lat="41.822940" lon="70.459497"><ele>3246.0</ele></trkpt>
<trkpt lat="41.822996" lon="70.459577"><ele>3246.0</ele></trkpt>
<trkpt lat="41.823015" lon="70.459652"><ele>3244.0</ele></trkpt>
<trkpt lat="41.823042" lon="70.459679"><ele>3244.0</ele></trkpt>
<trkpt lat="41.823151" lon="70.459772"><ele>3240.0</ele></trkpt>
<trkpt lat="41.823172" lon="70.459725"><ele>3244.0</ele></trkpt>
<trkpt lat="41.823231" lon="70.459751"><ele>3240.0</ele></trkpt>
<trkpt lat="41.823323" lon="70.459895"><ele>3242.0</ele></trkpt>
<trkpt lat="41.823322" lon="70.459954"><ele>3240.0</ele></trkpt>
<trkpt lat="41.823340" lon="70.460014"><ele>3240.0</ele></trkpt>
<trkpt lat="41.823365" lon="70.460037"><ele>3236.0</ele></trkpt>
<trkpt lat="41.823386" lon="70.460340"><ele>3234.0</ele></trkpt>
<trkpt lat="41.823559" lon="70.460597"><ele>3234.0</ele></trkpt>
<trkpt lat="41.823643" lon="70.460823"><ele>3232.0</ele></trkpt>
<trkpt lat="41.823724" lon="70.460937"><ele>3236.1</ele></trkpt>
<trkpt lat="41.823776" lon="70.461061"><ele>3234.0</ele></trkpt>
<trkpt lat="41.823820" lon="70.461116"><ele>3234.0</ele></trkpt>
<trkpt lat="41.823912" lon="70.461350"><ele>3234.0</ele></trkpt>
<trkpt lat="41.823987" lon="70.461400"><ele>3232.0</ele></trkpt>
<trkpt lat="41.824078" lon="70.461497"><ele>3228.0</ele></trkpt>
<trkpt lat="41.824112" lon="70.461502"><ele>3228.0</ele></trkpt>
<trkpt lat="41.824185" lon="70.461598"><ele>3228.0</ele></trkpt>
<trkpt lat="41.824232" lon="70.461797"><ele>3229.0</ele></trkpt>
<trkpt lat="41.824269" lon="70.461842"><ele>3230.0</ele></trkpt>
<trkpt lat="41.824278" lon="70.461959"><ele>3228.0</ele></trkpt>
<trkpt lat="41.824303" lon="70.462034"><ele>3229.0</ele></trkpt>
<trkpt lat="41.824381" lon="70.462076"><ele>3228.0</ele></trkpt>
<trkpt lat="41.824429" lon="70.462169"><ele>3231.0</ele></trkpt>
<trkpt lat="41.824495" lon="70.462148"><ele>3229.0</ele></trkpt>
<trkpt lat="41.824528" lon="70.462179"><ele>3232.0</ele></trkpt>
<trkpt lat="41.824679" lon="70.462155"><ele>3234.0</ele></trkpt>
<trkpt lat="41.824791" lon="70.462383"><ele>3230.0</ele></trkpt>
<trkpt lat="41.824909" lon="70.462539"><ele>3233.0</ele></trkpt>
<trkpt lat="41.824984" lon="70.462595"><ele>3232.0</ele></trkpt>
<trkpt lat="41.824989" lon="70.462625"><ele>3234.0</ele></trkpt>
<trkpt lat="41.824922" lon="70.463000"><ele>3239.0</ele></trkpt>
<trkpt lat="41.824810" lon="70.462924"><ele>3245.0</ele></trkpt>
<trkpt lat="41.824788" lon="70.462811"><ele>3248.0</ele></trkpt>
<trkpt lat="41.824794" lon="70.462708"><ele>3250.0</ele></trkpt>
<trkpt lat="41.824762" lon="70.462686"><ele>3249.0</ele></trkpt>
<trkpt lat="41.824792" lon="70.462888"><ele>3246.0</ele></trkpt>
<trkpt lat="41.824916" lon="70.463225"><ele>3248.0</ele></trkpt>
<trkpt lat="41.824952" lon="70.463448"><ele>3252.0</ele></trkpt>
<trkpt lat="41.825039" lon="70.463665"><ele>3252.0</ele></trkpt>
<trkpt lat="41.825137" lon="70.463805"><ele>3256.0</ele></trkpt>
<trkpt lat="41.825333" lon="70.463998"><ele>3256.0</ele></trkpt>
<trkpt lat="41.825427" lon="70.464059"><ele>3258.0</ele></trkpt>
<trkpt lat="41.825623" lon="70.464261"><ele>3260.0</ele></trkpt>
<trkpt lat="41.825978" lon="70.464357"><ele>3267.0</ele></trkpt>
<trkpt lat="41.826129" lon="70.464358"><ele>3270.0</ele></trkpt>
<trkpt lat="41.826457" lon="70.464459"><ele>3276.0</ele></trkpt>
<trkpt lat="41.826904" lon="70.464523"><ele>3285.0</ele></trkpt>
<trkpt lat="41.827120" lon="70.464532"><ele>3285.0</ele></trkpt>
<trkpt lat="41.827248" lon="70.464581"><ele>3288.0</ele></trkpt>
<trkpt lat="41.827308" lon="70.464634"><ele>3290.0</ele></trkpt>
<trkpt lat="41.827228" lon="70.464865"><ele>3294.0</ele></trkpt>
<trkpt lat="41.827213" lon="70.465054"><ele>3296.0</ele></trkpt>
<trkpt lat="41.827328" lon="70.465357"><ele>3294.0</ele></trkpt>
<trkpt lat="41.827399" lon="70.465437"><ele>3294.0</ele></trkpt>
<trkpt lat="41.827419" lon="70.465583"><ele>3292.0</ele></trkpt>
<trkpt lat="41.827461" lon="70.465680"><ele>3292.0</ele></trkpt>
<trkpt lat="41.827513" lon="70.465734"><ele>3283.0</ele></trkpt>
<trkpt lat="41.827653" lon="70.466056"><ele>3291.0</ele></trkpt>
<trkpt lat="41.827668" lon="70.466127"><ele>3288.0</ele></trkpt>
<trkpt lat="41.827638" lon="70.466381"><ele>3297.0</ele></trkpt>
<trkpt lat="41.827652" lon="70.466607"><ele>3301.0</ele></trkpt>
<trkpt lat="41.827644" lon="70.466667"><ele>3297.0</ele></trkpt>
<trkpt lat="41.827677" lon="70.467002"><ele>3298.0</ele></trkpt>
<trkpt lat="41.827658" lon="70.467054"><ele>3302.0</ele></trkpt>
<trkpt lat="41.827653" lon="70.467132"><ele>3300.0</ele></trkpt>
<trkpt lat="41.827671" lon="70.467165"><ele>3300.0</ele></trkpt>
<trkpt lat="41.827672" lon="70.467225"><ele>3300.0</ele></trkpt>
<trkpt lat="41.827763" lon="70.467517"><ele>3297.0</ele></trkpt>
<trkpt lat="41.827957" lon="70.467734"><ele>3296.0</ele></trkpt>
<trkpt lat="41.828066" lon="70.467824"><ele>3296.0</ele></trkpt>
<trkpt lat="41.828244" lon="70.468176"><ele>3303.0</ele></trkpt>
<trkpt lat="41.828422" lon="70.468342"><ele>3304.0</ele></trkpt>
<trkpt lat="41.828481" lon="70.468433"><ele>3304.6</ele></trkpt>
<trkpt lat="41.828828" lon="70.468725"><ele>3304.0</ele></trkpt>
<trkpt lat="41.828927" lon="70.468870"><ele>3303.0</ele></trkpt>
<trkpt lat="41.829125" lon="70.468960"><ele>3298.0</ele></trkpt>
<trkpt lat="41.829321" lon="70.469005"><ele>3298.0</ele></trkpt>
<trkpt lat="41.829532" lon="70.469199"><ele>3297.0</ele></trkpt>
<trkpt lat="41.829628" lon="70.469260"><ele>3297.0</ele></trkpt>
<trkpt lat="41.829804" lon="70.469484"><ele>3294.0</ele></trkpt>
<trkpt lat="41.829896" lon="70.469572"><ele>3294.0</ele></trkpt>
<trkpt lat="41.830279" lon="70.470089"><ele>3291.0</ele></trkpt>
<trkpt lat="41.830464" lon="70.470298"><ele>3292.0</ele></trkpt>
<trkpt lat="41.830523" lon="70.470344"><ele>3293.0</ele></trkpt>
<trkpt lat="41.830552" lon="70.470407"><ele>3294.2</ele></trkpt>
<trkpt lat="41.830756" lon="70.470569"><ele>3294.0</ele></trkpt>
<trkpt lat="41.830904" lon="70.470760"><ele>3292.0</ele></trkpt>
<trkpt lat="41.830968" lon="70.470899"><ele>3293.0</ele></trkpt>
<trkpt lat="41.831019" lon="70.470942"><ele>3290.0</ele></trkpt>
<trkpt lat="41.831160" lon="70.471143"><ele>3288.0</ele></trkpt>
<trkpt lat="41.831274" lon="70.471386"><ele>3285.0</ele></trkpt>
<trkpt lat="41.831296" lon="70.471495"><ele>3284.0</ele></trkpt>
<trkpt lat="41.831467" lon="70.471724"><ele>3280.0</ele></trkpt>
<trkpt lat="41.831526" lon="70.471770"><ele>3279.0</ele></trkpt>
<trkpt lat="41.831728" lon="70.472070"><ele>3280.0</ele></trkpt>
<trkpt lat="41.831809" lon="70.472150"><ele>3280.0</ele></trkpt>
<trkpt lat="41.831979" lon="70.472419"><ele>3279.0</ele></trkpt>
<trkpt lat="41.832129" lon="70.472605"><ele>3282.0</ele></trkpt>
<trkpt lat="41.832274" lon="70.472906"><ele>3282.0</ele></trkpt>
<trkpt lat="41.832384" lon="70.473001"><ele>3285.0</ele></trkpt>
<trkpt lat="41.832537" lon="70.473090"><ele>3285.0</ele></trkpt>
<trkpt lat="41.832750" lon="70.473314"><ele>3287.0</ele></trkpt>
<trkpt lat="41.832850" lon="70.473379"><ele>3288.0</ele></trkpt>
<trkpt lat="41.833134" lon="70.473637"><ele>3291.0</ele></trkpt>
<trkpt lat="41.833697" lon="70.473907"><ele>3291.0</ele></trkpt>
<trkpt lat="41.833881" lon="70.474023"><ele>3294.0</ele></trkpt>
<trkpt lat="41.834012" lon="70.474136"><ele>3294.0</ele></trkpt>
<trkpt lat="41.834055" lon="70.474194"><ele>3296.0</ele></trkpt>
<trkpt lat="41.834142" lon="70.474360"><ele>3294.0</ele></trkpt>
<trkpt lat="41.834363" lon="70.474680"><ele>3296.0</ele></trkpt>
<trkpt lat="41.834457" lon="70.474869"><ele>3300.0</ele></trkpt>
<trkpt lat="41.834654" lon="70.475353"><ele>3303.0</ele></trkpt>
<trkpt lat="41.834885" lon="70.476054"><ele>3303.0</ele></trkpt>
<trkpt lat="41.834986" lon="70.476249"><ele>3304.0</ele></trkpt>
<trkpt lat="41.835075" lon="70.476568"><ele>3303.0</ele></trkpt>
<trkpt lat="41.835176" lon="70.476763"><ele>3303.0</ele></trkpt>
<trkpt lat="41.835194" lon="70.476864"><ele>3302.0</ele></trkpt>
<trkpt lat="41.835386" lon="70.477334"><ele>3298.0</ele></trkpt>
<trkpt lat="41.835452" lon="70.477550"><ele>3294.0</ele></trkpt>
<trkpt lat="41.835488" lon="70.477610"><ele>3292.0</ele></trkpt>
<trkpt lat="41.835584" lon="70.477977"><ele>3285.0</ele></trkpt>
<trkpt lat="41.835602" lon="70.478102"><ele>3284.0</ele></trkpt>
<trkpt lat="41.835668" lon="70.478208"><ele>3282.0</ele></trkpt>
<trkpt lat="41.835730" lon="70.478354"><ele>3280.0</ele></trkpt>
<trkpt lat="41.835727" lon="70.478421"><ele>3278.0</ele></trkpt>
<trkpt lat="41.835744" lon="70.478463"><ele>3276.0</ele></trkpt>
<trkpt lat="41.835821" lon="70.478548"><ele>3277.0</ele></trkpt>
<trkpt lat="41.835961" lon="70.478675"><ele>3276.0</ele></trkpt>
<trkpt lat="41.835987" lon="70.478797"><ele>3277.0</ele></trkpt>
<trkpt lat="41.836071" lon="70.479004"><ele>3275.0</ele></trkpt>
<trkpt lat="41.836085" lon="70.479110"><ele>3276.0</ele></trkpt>
<trkpt lat="41.836135" lon="70.479284"><ele>3276.0</ele></trkpt>
<trkpt lat="41.836358" lon="70.479774"><ele>3280.0</ele></trkpt>
<trkpt lat="41.836396" lon="70.479821"><ele>3280.0</ele></trkpt>
<trkpt lat="41.836450" lon="70.480029"><ele>3282.0</ele></trkpt>
<trkpt lat="41.836532" lon="70.480107"><ele>3282.0</ele></trkpt>
<trkpt lat="41.836574" lon="70.480219"><ele>3285.0</ele></trkpt>
<trkpt lat="41.836626" lon="70.480294"><ele>3288.0</ele></trkpt>
<trkpt lat="41.836767" lon="70.480436"><ele>3288.0</ele></trkpt>
<trkpt lat="41.836985" lon="70.480618"><ele>3295.0</ele></trkpt>
<trkpt lat="41.837075" lon="70.480659"><ele>3294.0</ele></trkpt>
<trkpt lat="41.837242" lon="70.480672"><ele>3300.0</ele></trkpt>
<trkpt lat="41.837560" lon="70.480735"><ele>3304.0</ele></trkpt>
<trkpt lat="41.837631" lon="70.480783"><ele>3306.0</ele></trkpt>
<trkpt lat="41.837770" lon="70.480820"><ele>3310.0</ele></trkpt>
<trkpt lat="41.837906" lon="70.480823"><ele>3312.0</ele></trkpt>
<trkpt lat="41.838104" lon="70.480894"><ele>3316.0</ele></trkpt>
<trkpt lat="41.838206" lon="70.480890"><ele>3319.0</ele></trkpt>
<trkpt lat="41.838304" lon="70.480856"><ele>3320.0</ele></trkpt>
<trkpt lat="41.838400" lon="70.480949"><ele>3318.0</ele></trkpt>
<trkpt lat="41.838528" lon="70.481110"><ele>3316.0</ele></trkpt>
<trkpt lat="41.838642" lon="70.481128"><ele>3314.0</ele></trkpt>
<trkpt lat="41.839026" lon="70.481078"><ele>3313.0</ele></trkpt>
<trkpt lat="41.839175" lon="70.481122"><ele>3297.0</ele></trkpt>
<trkpt lat="41.839227" lon="70.481349"><ele>3312.0</ele></trkpt>
<trkpt lat="41.839286" lon="70.481415"><ele>3310.0</ele></trkpt>
<trkpt lat="41.839297" lon="70.481478"><ele>3310.0</ele></trkpt>
<trkpt lat="41.839512" lon="70.481871"><ele>3312.0</ele></trkpt>
<trkpt lat="41.839585" lon="70.481935"><ele>3311.0</ele></trkpt>
<trkpt lat="41.839624" lon="70.482050"><ele>3312.0</ele></trkpt>
<trkpt lat="41.839674" lon="70.482093"><ele>3313.0</ele></trkpt>
<trkpt lat="41.839725" lon="70.482182"><ele>3315.0</ele></trkpt>
<trkpt lat="41.839845" lon="70.482317"><ele>3315.0</ele></trkpt>
<trkpt lat="41.839905" lon="70.482349"><ele>3318.0</ele></trkpt>
<trkpt lat="41.839948" lon="70.482404"><ele>3315.0</ele></trkpt>
<trkpt lat="41.840064" lon="70.482449"><ele>3322.0</ele></trkpt>
<trkpt lat="41.840298" lon="70.482494"><ele>3316.0</ele></trkpt>
<trkpt lat="41.840499" lon="70.482506"><ele>3320.0</ele></trkpt>
<trkpt lat="41.840710" lon="70.482560"><ele>3320.0</ele></trkpt>
<trkpt lat="41.840788" lon="70.482606"><ele>3320.0</ele></trkpt>
<trkpt lat="41.840858" lon="70.482666"><ele>3318.0</ele></trkpt>
<trkpt lat="41.840880" lon="70.482728"><ele>3318.0</ele></trkpt>
<trkpt lat="41.840918" lon="70.482778"><ele>3318.0</ele></trkpt>
<trkpt lat="41.840946" lon="70.482866"><ele>3321.0</ele></trkpt>
<trkpt lat="41.841019" lon="70.482924"><ele>3318.0</ele></trkpt>
<trkpt lat="41.841087" lon="70.483046"><ele>3318.0</ele></trkpt>
<trkpt lat="41.841193" lon="70.483172"><ele>3320.0</ele></trkpt>
<trkpt lat="41.841432" lon="70.483277"><ele>3320.0</ele></trkpt>
<trkpt lat="41.841551" lon="70.483350"><ele>3323.0</ele></trkpt>
<trkpt lat="41.841597" lon="70.483410"><ele>3321.0</ele></trkpt>
<trkpt lat="41.841727" lon="70.483520"><ele>3329.3</ele></trkpt>
<trkpt lat="41.841905" lon="70.483576"><ele>3330.0</ele></trkpt>
<trkpt lat="41.841959" lon="70.483622"><ele>3328.0</ele></trkpt>
<trkpt lat="41.842290" lon="70.483659"><ele>3326.0</ele></trkpt>
<trkpt lat="41.842334" lon="70.483561"><ele>3329.0</ele></trkpt>
<trkpt lat="41.842387" lon="70.483508"><ele>3323.0</ele></trkpt>
<trkpt lat="41.842347" lon="70.483695"><ele>3324.0</ele></trkpt>
<trkpt lat="41.842392" lon="70.483935"><ele>3318.0</ele></trkpt>
<trkpt lat="41.842372" lon="70.483992"><ele>3322.0</ele></trkpt>
<trkpt lat="41.842415" lon="70.484233"><ele>3318.0</ele></trkpt>
<trkpt lat="41.842436" lon="70.484302"><ele>3316.0</ele></trkpt>
<trkpt lat="41.842474" lon="70.484362"><ele>3316.0</ele></trkpt>
<trkpt lat="41.842489" lon="70.484464"><ele>3316.0</ele></trkpt>
<trkpt lat="41.842529" lon="70.484559"><ele>3314.0</ele></trkpt>
<trkpt lat="41.842610" lon="70.484672"><ele>3312.0</ele></trkpt>
<trkpt lat="41.842698" lon="70.484729"><ele>3312.0</ele></trkpt>
<trkpt lat="41.842867" lon="70.484911"><ele>3310.0</ele></trkpt>
<trkpt lat="41.842940" lon="70.484918"><ele>3312.0</ele></trkpt>
<trkpt lat="41.842967" lon="70.484942"><ele>3310.0</ele></trkpt>
<trkpt lat="41.843064" lon="70.484945"><ele>3308.0</ele></trkpt>
<trkpt lat="41.843204" lon="70.485008"><ele>3312.0</ele></trkpt>
<trkpt lat="41.843438" lon="70.485161"><ele>3312.0</ele></trkpt>
<trkpt lat="41.843786" lon="70.485290"><ele>3312.0</ele></trkpt>
<trkpt lat="41.843889" lon="70.485269"><ele>3315.0</ele></trkpt>
<trkpt lat="41.844037" lon="70.485204"><ele>3317.0</ele></trkpt>
<trkpt lat="41.844158" lon="70.485230"><ele>3300.0</ele></trkpt>
<trkpt lat="41.844058" lon="70.485331"><ele>3310.0</ele></trkpt>
<trkpt lat="41.844050" lon="70.485379"><ele>3310.0</ele></trkpt>
<trkpt lat="41.844066" lon="70.485449"><ele>3305.0</ele></trkpt>
<trkpt lat="41.844052" lon="70.485527"><ele>3303.0</ele></trkpt>
<trkpt lat="41.844050" lon="70.485749"><ele>3300.0</ele></trkpt>
<trkpt lat="41.844027" lon="70.485807"><ele>3300.0</ele></trkpt>
<trkpt lat="41.844025" lon="70.486024"><ele>3297.0</ele></trkpt>
<trkpt lat="41.843992" lon="70.486163"><ele>3292.0</ele></trkpt>
<trkpt lat="41.843991" lon="70.486325"><ele>3291.0</ele></trkpt>
<trkpt lat="41.844045" lon="70.486609"><ele>3288.0</ele></trkpt>
<trkpt lat="41.844176" lon="70.486891"><ele>3291.0</ele></trkpt>
<trkpt lat="41.844488" lon="70.487229"><ele>3285.0</ele></trkpt>
<trkpt lat="41.844629" lon="70.487326"><ele>3285.0</ele></trkpt>
<trkpt lat="41.844736" lon="70.487376"><ele>3285.0</ele></trkpt>
<trkpt lat="41.844942" lon="70.487435"><ele>3288.0</ele></trkpt>
<trkpt lat="41.845226" lon="70.487408"><ele>3285.0</ele></trkpt>
<trkpt lat="41.845487" lon="70.487448"><ele>3284.0</ele></trkpt>
<trkpt lat="41.845570" lon="70.487479"><ele>3281.0</ele></trkpt>
<trkpt lat="41.845619" lon="70.487550"><ele>3275.0</ele></trkpt>
<trkpt lat="41.845618" lon="70.487607"><ele>3135.0</ele></trkpt>
<trkpt lat="41.845601" lon="70.487522"><ele>3280.0</ele></trkpt>
<trkpt lat="41.845400" lon="70.487498"><ele>3283.0</ele></trkpt>
<trkpt lat="41.845346" lon="70.487507"><ele>3282.0</ele></trkpt>
<trkpt lat="41.845272" lon="70.487562"><ele>3282.0</ele></trkpt>
<trkpt lat="41.845101" lon="70.487771"><ele>3280.0</ele></trkpt>
<trkpt lat="41.845047" lon="70.487811"><ele>3281.0</ele></trkpt>
<trkpt lat="41.845043" lon="70.487957"><ele>3279.4</ele></trkpt>
<trkpt lat="41.845062" lon="70.487985"><ele>3276.0</ele></trkpt>
<trkpt lat="41.845009" lon="70.488037"><ele>3276.0</ele></trkpt>
<trkpt lat="41.845000" lon="70.488104"><ele>3272.0</ele></trkpt>
<trkpt lat="41.844968" lon="70.488147"><ele>3274.0</ele></trkpt>
<trkpt lat="41.844971" lon="70.488187"><ele>3270.0</ele></trkpt>
<trkpt lat="41.844922" lon="70.488277"><ele>3273.6</ele></trkpt>
<trkpt lat="41.844963" lon="70.488350"><ele>3270.0</ele></trkpt>
<trkpt lat="41.844985" lon="70.488500"><ele>3267.0</ele></trkpt>
<trkpt lat="41.844972" lon="70.488571"><ele>3267.0</ele></trkpt>
<trkpt lat="41.845008" lon="70.488725"><ele>3264.0</ele></trkpt>
<trkpt lat="41.845051" lon="70.488810"><ele>3260.0</ele></trkpt>
<trkpt lat="41.845052" lon="70.488850"><ele>3258.0</ele></trkpt>
<trkpt lat="41.845093" lon="70.488890"><ele>3256.0</ele></trkpt>
<trkpt lat="41.845134" lon="70.488989"><ele>3258.0</ele></trkpt>
<trkpt lat="41.845129" lon="70.489059"><ele>3258.0</ele></trkpt>
<trkpt lat="41.845146" lon="70.489085"><ele>3256.0</ele></trkpt>
<trkpt lat="41.845158" lon="70.489264"><ele>3252.0</ele></trkpt>
<trkpt lat="41.845199" lon="70.489410"><ele>3252.0</ele></trkpt>
<trkpt lat="41.845198" lon="70.489508"><ele>3252.0</ele></trkpt>
<trkpt lat="41.845246" lon="70.489756"><ele>3248.0</ele></trkpt>
<trkpt lat="41.845373" lon="70.490020"><ele>3246.0</ele></trkpt>
<trkpt lat="41.845407" lon="70.490179"><ele>3245.0</ele></trkpt>
<trkpt lat="41.845496" lon="70.490406"><ele>3244.0</ele></trkpt>
<trkpt lat="41.845559" lon="70.490651"><ele>3238.0</ele></trkpt>
<trkpt lat="41.845676" lon="70.490826"><ele>3237.0</ele></trkpt>
<trkpt lat="41.845784" lon="70.491034"><ele>3238.0</ele></trkpt>
<trkpt lat="41.845906" lon="70.491207"><ele>3234.0</ele></trkpt>
<trkpt lat="41.845983" lon="70.491421"><ele>3232.0</ele></trkpt>
<trkpt lat="41.846054" lon="70.491347"><ele>3228.0</ele></trkpt>
<trkpt lat="41.846119" lon="70.491322"><ele>3223.0</ele></trkpt>
<trkpt lat="41.846397" lon="70.491408"><ele>3213.0</ele></trkpt>
<trkpt lat="41.846554" lon="70.491514"><ele>3207.0</ele></trkpt>
<trkpt lat="41.846591" lon="70.491568"><ele>3207.0</ele></trkpt>
<trkpt lat="41.846855" lon="70.491712"><ele>3200.0</ele></trkpt>
<trkpt lat="41.846903" lon="70.491768"><ele>3198.0</ele></trkpt>
<trkpt lat="41.846937" lon="70.491869"><ele>3198.0</ele></trkpt>
<trkpt lat="41.847027" lon="70.492046"><ele>3195.0</ele></trkpt>
<trkpt lat="41.847065" lon="70.492066"><ele>3195.0</ele></trkpt>
<trkpt lat="41.847105" lon="70.492058"><ele>3193.0</ele></trkpt>
<trkpt lat="41.847273" lon="70.492295"><ele>3188.0</ele></trkpt>
<trkpt lat="41.847326" lon="70.492335"><ele>3186.0</ele></trkpt>
<trkpt lat="41.847383" lon="70.492431"><ele>3186.0</ele></trkpt>
<trkpt lat="41.847486" lon="70.492535"><ele>3183.0</ele></trkpt>
<trkpt lat="41.847550" lon="70.492556"><ele>3182.0</ele></trkpt>
<trkpt lat="41.847595" lon="70.492717"><ele>3180.0</ele></trkpt>
<trkpt lat="41.847637" lon="70.492785"><ele>3180.0</ele></trkpt>
<trkpt lat="41.847747" lon="70.492945"><ele>3177.0</ele></trkpt>
<trkpt lat="41.847987" lon="70.493195"><ele>3177.0</ele></trkpt>
<trkpt lat="41.848060" lon="70.493329"><ele>3176.0</ele></trkpt>
<trkpt lat="41.848191" lon="70.493503"><ele>3176.0</ele></trkpt>
<trkpt lat="41.848648" lon="70.494023"><ele>3174.0</ele></trkpt>
<trkpt lat="41.848909" lon="70.494231"><ele>3168.0</ele></trkpt>
<trkpt lat="41.849236" lon="70.494434"><ele>3166.0</ele></trkpt>
<trkpt lat="41.849823" lon="70.494572"><ele>3160.0</ele></trkpt>
<trkpt lat="41.849983" lon="70.494568"><ele>3160.0</ele></trkpt>
<trkpt lat="41.850087" lon="70.494602"><ele>3156.0</ele></trkpt>
<trkpt lat="41.850151" lon="70.494583"><ele>3156.0</ele></trkpt>
<trkpt lat="41.850253" lon="70.494589"><ele>3155.0</ele></trkpt>
<trkpt lat="41.850307" lon="70.494629"><ele>3156.0</ele></trkpt>
<trkpt lat="41.850367" lon="70.494628"><ele>3153.0</ele></trkpt>
<trkpt lat="41.850421" lon="70.494659"><ele>3154.0</ele></trkpt>
<trkpt lat="41.850514" lon="70.494645"><ele>3153.0</ele></trkpt>
<trkpt lat="41.850623" lon="70.494666"><ele>3152.0</ele></trkpt>
<trkpt lat="41.850860" lon="70.494638"><ele>3150.0</ele></trkpt>
<trkpt lat="41.851113" lon="70.494679"><ele>3146.0</ele></trkpt>
<trkpt lat="41.851250" lon="70.494646"><ele>3140.0</ele></trkpt>
<trkpt lat="41.851314" lon="70.494655"><ele>3140.0</ele></trkpt>
<trkpt lat="41.851337" lon="70.494681"><ele>3141.0</ele></trkpt>
<trkpt lat="41.851360" lon="70.494839"><ele>3145.0</ele></trkpt>
<trkpt lat="41.851416" lon="70.494952"><ele>3145.0</ele></trkpt>
<trkpt lat="41.851423" lon="70.495017"><ele>3144.0</ele></trkpt>
<trkpt lat="41.851456" lon="70.495094"><ele>3144.0</ele></trkpt>
<trkpt lat="41.851506" lon="70.495292"><ele>3144.0</ele></trkpt>
<trkpt lat="41.851528" lon="70.495320"><ele>3143.3</ele></trkpt>
<trkpt lat="41.851537" lon="70.495369"><ele>3140.0</ele></trkpt>
<trkpt lat="41.851564" lon="70.495388"><ele>3140.0</ele></trkpt>
<trkpt lat="41.851630" lon="70.495384"><ele>3140.0</ele></trkpt>
<trkpt lat="41.851684" lon="70.495338"><ele>3140.0</ele></trkpt>
<trkpt lat="41.851698" lon="70.495305"><ele>3140.0</ele></trkpt>
<trkpt lat="41.851803" lon="70.495263"><ele>3137.0</ele></trkpt>
<trkpt lat="41.851890" lon="70.495399"><ele>3126.0</ele></trkpt>
<trkpt lat="41.851919" lon="70.495390"><ele>3125.0</ele></trkpt>
<trkpt lat="41.852070" lon="70.495157"><ele>3121.0</ele></trkpt>
<trkpt lat="41.852141" lon="70.494980"><ele>3120.0</ele></trkpt>
<trkpt lat="41.852148" lon="70.494908"><ele>3117.0</ele></trkpt>
<trkpt lat="41.852199" lon="70.494812"><ele>3115.0</ele></trkpt>
<trkpt lat="41.852259" lon="70.494751"><ele>3115.0</ele></trkpt>
<trkpt lat="41.852292" lon="70.494741"><ele>3112.0</ele></trkpt>
<trkpt lat="41.852457" lon="70.494570"><ele>3108.0</ele></trkpt>
<trkpt lat="41.852491" lon="70.494613"><ele>3102.0</ele></trkpt>
<trkpt lat="41.852602" lon="70.494679"><ele>3099.0</ele></trkpt>
<trkpt lat="41.852853" lon="70.494465"><ele>3093.4</ele></trkpt>
<trkpt lat="41.852976" lon="70.494414"><ele>3088.0</ele></trkpt>
<trkpt lat="41.853058" lon="70.494409"><ele>3087.0</ele></trkpt>
<trkpt lat="41.853139" lon="70.494346"><ele>3084.0</ele></trkpt>
<trkpt lat="41.853227" lon="70.494349"><ele>3084.0</ele></trkpt>
<trkpt lat="41.853315" lon="70.494403"><ele>3079.0</ele></trkpt>
<trkpt lat="41.853415" lon="70.494410"><ele>3073.0</ele></trkpt>
<trkpt lat="41.853577" lon="70.494478"><ele>3068.0</ele></trkpt>
<trkpt lat="41.853673" lon="70.494452"><ele>3068.0</ele></trkpt>
<trkpt lat="41.853767" lon="70.494499"><ele>3064.0</ele></trkpt>
<trkpt lat="41.853801" lon="70.494497"><ele>3063.0</ele></trkpt>
<trkpt lat="41.853845" lon="70.494478"><ele>3062.0</ele></trkpt>
<trkpt lat="41.853922" lon="70.494352"><ele>3064.0</ele></trkpt>
<trkpt lat="41.853970" lon="70.494302"><ele>3058.0</ele></trkpt>
<trkpt lat="41.854063" lon="70.494277"><ele>3055.0</ele></trkpt>
<trkpt lat="41.854446" lon="70.493997"><ele>3040.0</ele></trkpt>
<trkpt lat="41.854557" lon="70.493973"><ele>3036.0</ele></trkpt>
<trkpt lat="41.854622" lon="70.493983"><ele>3032.0</ele></trkpt>
<trkpt lat="41.854771" lon="70.493926"><ele>3030.0</ele></trkpt>
<trkpt lat="41.854833" lon="70.493929"><ele>3024.0</ele></trkpt>
<trkpt lat="41.854947" lon="70.494043"><ele>3027.0</ele></trkpt>
<trkpt lat="41.855264" lon="70.494086"><ele>3032.0</ele></trkpt>
<trkpt lat="41.855457" lon="70.494234"><ele>3031.0</ele></trkpt>
<trkpt lat="41.855503" lon="70.494307"><ele>3040.0</ele></trkpt>
<trkpt lat="41.855602" lon="70.494371"><ele>3040.0</ele></trkpt>
<trkpt lat="41.855642" lon="70.494362"><ele>3043.0</ele></trkpt>
<trkpt lat="41.855736" lon="70.494454"><ele>3044.0</ele></trkpt>
<trkpt lat="41.855876" lon="70.494490"><ele>3044.0</ele></trkpt>
<trkpt lat="41.855990" lon="70.494548"><ele>3047.0</ele></trkpt>
<trkpt lat="41.856048" lon="70.494629"><ele>3048.0</ele></trkpt>
<trkpt lat="41.856156" lon="70.494857"><ele>3045.0</ele></trkpt>
<trkpt lat="41.856151" lon="70.494887"><ele>3046.0</ele></trkpt>
<trkpt lat="41.856227" lon="70.495072"><ele>3048.0</ele></trkpt>
<trkpt lat="41.856241" lon="70.495154"><ele>3052.0</ele></trkpt>
<trkpt lat="41.856226" lon="70.495217"><ele>3050.0</ele></trkpt>
<trkpt lat="41.856267" lon="70.495308"><ele>3055.0</ele></trkpt>
<trkpt lat="41.856270" lon="70.495372"><ele>3054.0</ele></trkpt>
<trkpt lat="41.856332" lon="70.495555"><ele>3060.0</ele></trkpt>
<trkpt lat="41.856403" lon="70.495689"><ele>3060.0</ele></trkpt>
<trkpt lat="41.856453" lon="70.495868"><ele>3062.0</ele></trkpt>
<trkpt lat="41.856477" lon="70.495887"><ele>3059.0</ele></trkpt>
<trkpt lat="41.856539" lon="70.496070"><ele>3070.0</ele></trkpt>
<trkpt lat="41.856526" lon="70.496147"><ele>3078.0</ele></trkpt>
<trkpt lat="41.856556" lon="70.496258"><ele>3078.0</ele></trkpt>
<trkpt lat="41.856590" lon="70.496311"><ele>3080.0</ele></trkpt>
<trkpt lat="41.856597" lon="70.496361"><ele>3081.0</ele></trkpt>
<trkpt lat="41.856643" lon="70.496376"><ele>3076.0</ele></trkpt>
<trkpt lat="41.856638" lon="70.496409"><ele>3080.0</ele></trkpt>
<trkpt lat="41.856711" lon="70.496624"><ele>3087.0</ele></trkpt>
<trkpt lat="41.856841" lon="70.496839"><ele>3096.0</ele></trkpt>
<trkpt lat="41.856908" lon="70.497108"><ele>3100.0</ele></trkpt>
<trkpt lat="41.856972" lon="70.497243"><ele>3108.0</ele></trkpt>
<trkpt lat="41.856975" lon="70.497279"><ele>3105.0</ele></trkpt>
<trkpt lat="41.857026" lon="70.497367"><ele>3108.0</ele></trkpt>
<trkpt lat="41.857095" lon="70.497667"><ele>3115.0</ele></trkpt>
<trkpt lat="41.857084" lon="70.497785"><ele>3120.0</ele></trkpt>
<trkpt lat="41.857173" lon="70.497983"><ele>3122.0</ele></trkpt>
<trkpt lat="41.857409" lon="70.498312"><ele>3132.0</ele></trkpt>
<trkpt lat="41.857447" lon="70.498342"><ele>3132.0</ele></trkpt>
<trkpt lat="41.857477" lon="70.498401"><ele>3129.0</ele></trkpt>
<trkpt lat="41.857507" lon="70.498417"><ele>3132.0</ele></trkpt>
<trkpt lat="41.857621" lon="70.498607"><ele>3138.0</ele></trkpt>
<trkpt lat="41.857671" lon="70.498741"><ele>3144.0</ele></trkpt>
<trkpt lat="41.857776" lon="70.498870"><ele>3150.0</ele></trkpt>
<trkpt lat="41.857812" lon="70.498947"><ele>3152.0</ele></trkpt>
<trkpt lat="41.857837" lon="70.498962"><ele>3151.0</ele></trkpt>
<trkpt lat="41.857921" lon="70.499146"><ele>3160.0</ele></trkpt>
<trkpt lat="41.858006" lon="70.499379"><ele>3160.0</ele></trkpt>
<trkpt lat="41.858055" lon="70.499580"><ele>3164.0</ele></trkpt>
<trkpt lat="41.858102" lon="70.499667"><ele>3168.0</ele></trkpt>
<trkpt lat="41.858145" lon="70.499965"><ele>3175.0</ele></trkpt>
<trkpt lat="41.858130" lon="70.500006"><ele>3177.0</ele></trkpt>
<trkpt lat="41.858159" lon="70.500080"><ele>3178.0</ele></trkpt>
<trkpt lat="41.858134" lon="70.500096"><ele>3178.0</ele></trkpt>
<trkpt lat="41.858170" lon="70.500134"><ele>3177.0</ele></trkpt>
<trkpt lat="41.858205" lon="70.500230"><ele>3180.0</ele></trkpt>
<trkpt lat="41.858199" lon="70.500357"><ele>3182.0</ele></trkpt>
<trkpt lat="41.858235" lon="70.500543"><ele>3186.0</ele></trkpt>
<trkpt lat="41.858212" lon="70.500761"><ele>3192.0</ele></trkpt>
<trkpt lat="41.858237" lon="70.501652"><ele>3202.0</ele></trkpt>
<trkpt lat="41.858251" lon="70.501686"><ele>3203.5</ele></trkpt>
<trkpt lat="41.858235" lon="70.501856"><ele>3204.0</ele></trkpt>
<trkpt lat="41.858274" lon="70.502049"><ele>3205.0</ele></trkpt>
<trkpt lat="41.858275" lon="70.502126"><ele>3210.0</ele></trkpt>
<trkpt lat="41.858330" lon="70.502310"><ele>3212.0</ele></trkpt>
<trkpt lat="41.858382" lon="70.502429"><ele>3216.0</ele></trkpt>
<trkpt lat="41.858396" lon="70.502551"><ele>3215.0</ele></trkpt>
<trkpt lat="41.858449" lon="70.502660"><ele>3218.0</ele></trkpt>
<trkpt lat="41.858464" lon="70.502796"><ele>3220.0</ele></trkpt>
<trkpt lat="41.858681" lon="70.503073"><ele>3223.0</ele></trkpt>
<trkpt lat="41.858731" lon="70.503183"><ele>3228.0</ele></trkpt>
<trkpt lat="41.858857" lon="70.503372"><ele>3230.0</ele></trkpt>
<trkpt lat="41.858922" lon="70.503535"><ele>3234.0</ele></trkpt>
<trkpt lat="41.859100" lon="70.503757"><ele>3240.0</ele></trkpt>
<trkpt lat="41.859175" lon="70.503982"><ele>3246.0</ele></trkpt>
<trkpt lat="41.859306" lon="70.504168"><ele>3245.0</ele></trkpt>
<trkpt lat="41.859315" lon="70.504263"><ele>3252.0</ele></trkpt>
<trkpt lat="41.859385" lon="70.504477"><ele>3260.0</ele></trkpt>
<trkpt lat="41.859393" lon="70.504668"><ele>3265.0</ele></trkpt>
<trkpt lat="41.859426" lon="70.504771"><ele>3266.0</ele></trkpt>
<trkpt lat="41.859426" lon="70.504828"><ele>3270.0</ele></trkpt>
<trkpt lat="41.859474" lon="70.505057"><ele>3270.0</ele></trkpt>
<trkpt lat="41.859476" lon="70.505161"><ele>3275.0</ele></trkpt>
<trkpt lat="41.859511" lon="70.505323"><ele>3276.0</ele></trkpt>
<trkpt lat="41.859673" lon="70.505493"><ele>3285.0</ele></trkpt>
<trkpt lat="41.859690" lon="70.505545"><ele>3285.0</ele></trkpt>
<trkpt lat="41.859803" lon="70.505645"><ele>3292.0</ele></trkpt>
<trkpt lat="41.859821" lon="70.505687"><ele>3290.0</ele></trkpt>
<trkpt lat="41.860075" lon="70.505830"><ele>3303.0</ele></trkpt>
<trkpt lat="41.860109" lon="70.505880"><ele>3303.0</ele></trkpt>
<trkpt lat="41.860377" lon="70.506084"><ele>3312.0</ele></trkpt>
<trkpt lat="41.860925" lon="70.506561"><ele>3332.0</ele></trkpt>
<trkpt lat="41.861103" lon="70.506814"><ele>3344.0</ele></trkpt>
<trkpt lat="41.861252" lon="70.507090"><ele>3354.0</ele></trkpt>
<trkpt lat="41.861415" lon="70.507463"><ele>3360.0</ele></trkpt>
<trkpt lat="41.861504" lon="70.507558"><ele>3364.0</ele></trkpt>
<trkpt lat="41.861685" lon="70.507842"><ele>3368.0</ele></trkpt>
<trkpt lat="41.861813" lon="70.507957"><ele>3379.5</ele></trkpt>
<trkpt lat="41.862080" lon="70.508249"><ele>3390.0</ele></trkpt>
<trkpt lat="41.862265" lon="70.508405"><ele>3393.0</ele></trkpt>
<trkpt lat="41.862354" lon="70.508447"><ele>3392.0</ele></trkpt>
<trkpt lat="41.862671" lon="70.508793"><ele>3410.0</ele></trkpt>
<trkpt lat="41.862965" lon="70.508952"><ele>3422.0</ele></trkpt>
<trkpt lat="41.862996" lon="70.508973"><ele>3420.0</ele></trkpt>
<trkpt lat="41.863061" lon="70.509068"><ele>3426.0</ele></trkpt>
<trkpt lat="41.863133" lon="70.509090"><ele>3425.0</ele></trkpt>
<trkpt lat="41.863161" lon="70.509454"><ele>3432.0</ele></trkpt>
<trkpt lat="41.863191" lon="70.509507"><ele>3442.0</ele></trkpt>
<trkpt lat="41.863349" lon="70.509580"><ele>3448.0</ele></trkpt>
<trkpt lat="41.863400" lon="70.509634"><ele>3450.0</ele></trkpt>
<trkpt lat="41.863430" lon="70.509694"><ele>3450.0</ele></trkpt>
<trkpt lat="41.863550" lon="70.509733"><ele>3452.0</ele></trkpt>
<trkpt lat="41.863718" lon="70.509843"><ele>3455.0</ele></trkpt>
<trkpt lat="41.863895" lon="70.509993"><ele>3456.0</ele></trkpt>
<trkpt lat="41.864036" lon="70.510213"><ele>3458.0</ele></trkpt>
<trkpt lat="41.864114" lon="70.510070"><ele>3456.0</ele></trkpt>
<trkpt lat="41.864148" lon="70.510074"><ele>3441.0</ele></trkpt>
<trkpt lat="41.864275" lon="70.510177"><ele>3446.0</ele></trkpt>
<trkpt lat="41.864303" lon="70.510172"><ele>3442.0</ele></trkpt>
<trkpt lat="41.864373" lon="70.510267"><ele>3440.0</ele></trkpt>
<trkpt lat="41.864397" lon="70.510271"><ele>3443.0</ele></trkpt>
<trkpt lat="41.864509" lon="70.510424"><ele>3438.0</ele></trkpt>
<trkpt lat="41.864521" lon="70.510597"><ele>3432.0</ele></trkpt>
<trkpt lat="41.864616" lon="70.510737"><ele>3426.0</ele></trkpt>
<trkpt lat="41.864628" lon="70.510861"><ele>3426.0</ele></trkpt>
<trkpt lat="41.864643" lon="70.510889"><ele>3426.0</ele></trkpt>
<trkpt lat="41.864827" lon="70.510953"><ele>3420.0</ele></trkpt>
<trkpt lat="41.864930" lon="70.511024"><ele>3417.0</ele></trkpt>
<trkpt lat="41.864984" lon="70.511041"><ele>3411.0</ele></trkpt>
<trkpt lat="41.865001" lon="70.511086"><ele>3414.0</ele></trkpt>
<trkpt lat="41.865105" lon="70.511177"><ele>3399.0</ele></trkpt>
<trkpt lat="41.865100" lon="70.511336"><ele>3402.0</ele></trkpt>
<trkpt lat="41.865112" lon="70.511406"><ele>3404.0</ele></trkpt>
<trkpt lat="41.865170" lon="70.511478"><ele>3400.0</ele></trkpt>
<trkpt lat="41.865179" lon="70.511516"><ele>3402.1</ele></trkpt>
<trkpt lat="41.865216" lon="70.511547"><ele>3395.0</ele></trkpt>
<trkpt lat="41.865254" lon="70.511643"><ele>3396.0</ele></trkpt>
<trkpt lat="41.865305" lon="70.511684"><ele>3393.0</ele></trkpt>
<trkpt lat="41.865343" lon="70.511825"><ele>3392.0</ele></trkpt>
<trkpt lat="41.865372" lon="70.511895"><ele>3393.0</ele></trkpt>
<trkpt lat="41.865402" lon="70.511926"><ele>3380.0</ele></trkpt>
<trkpt lat="41.865359" lon="70.511868"><ele>3381.0</ele></trkpt>
<trkpt lat="41.865344" lon="70.511776"><ele>3394.0</ele></trkpt>
<trkpt lat="41.865304" lon="70.511710"><ele>3393.0</ele></trkpt>
<trkpt lat="41.865250" lon="70.511518"><ele>3395.0</ele></trkpt>
<trkpt lat="41.865210" lon="70.511503"><ele>3398.0</ele></trkpt>
<trkpt lat="41.865140" lon="70.511423"><ele>3400.0</ele></trkpt>
<trkpt lat="41.865151" lon="70.511399"><ele>3402.0</ele></trkpt>
<trkpt lat="41.865123" lon="70.511085"><ele>3410.0</ele></trkpt>
<trkpt lat="41.865084" lon="70.511056"><ele>3411.0</ele></trkpt>
<trkpt lat="41.865061" lon="70.510988"><ele>3408.0</ele></trkpt>
<trkpt lat="41.865024" lon="70.510968"><ele>3414.0</ele></trkpt>
<trkpt lat="41.864992" lon="70.510829"><ele>3418.0</ele></trkpt>
<trkpt lat="41.864961" lon="70.510760"><ele>3416.0</ele></trkpt>
<trkpt lat="41.864905" lon="70.510707"><ele>3424.0</ele></trkpt>
<trkpt lat="41.864778" lon="70.510331"><ele>3438.0</ele></trkpt>
<trkpt lat="41.864593" lon="70.510160"><ele>3440.0</ele></trkpt>
<trkpt lat="41.864370" lon="70.510042"><ele>3444.0</ele></trkpt>
<trkpt lat="41.864307" lon="70.509986"><ele>3447.0</ele></trkpt>
<trkpt lat="41.864221" lon="70.509987"><ele>3454.0</ele></trkpt>
<trkpt lat="41.864169" lon="70.510042"><ele>3456.0</ele></trkpt>
<trkpt lat="41.864138" lon="70.510041"><ele>3459.0</ele></trkpt>
<trkpt lat="41.864112" lon="70.509786"><ele>3462.0</ele></trkpt>
<trkpt lat="41.864125" lon="70.509603"><ele>3466.0</ele></trkpt>
<trkpt lat="41.864183" lon="70.509377"><ele>3473.0</ele></trkpt>
<trkpt lat="41.864218" lon="70.509322"><ele>3474.0</ele></trkpt>
<trkpt lat="41.864221" lon="70.509240"><ele>3456.0</ele></trkpt>
<trkpt lat="41.864002" lon="70.509449"><ele>3468.0</ele></trkpt>
<trkpt lat="41.863937" lon="70.509467"><ele>3465.0</ele></trkpt>
<trkpt lat="41.863891" lon="70.509504"><ele>3464.0</ele></trkpt>
<trkpt lat="41.863854" lon="70.509504"><ele>3464.0</ele></trkpt>
<trkpt lat="41.863772" lon="70.509555"><ele>3459.0</ele></trkpt>
<trkpt lat="41.863724" lon="70.509530"><ele>3460.0</ele></trkpt>
<trkpt lat="41.863698" lon="70.509549"><ele>3457.0</ele></trkpt>
<trkpt lat="41.863638" lon="70.509675"><ele>3455.0</ele></trkpt>
<trkpt lat="41.863585" lon="70.509731"><ele>3452.0</ele></trkpt>
<trkpt lat="41.863373" lon="70.509642"><ele>3448.0</ele></trkpt>
<trkpt lat="41.863326" lon="70.509556"><ele>3444.0</ele></trkpt>
<trkpt lat="41.863173" lon="70.509495"><ele>3438.0</ele></trkpt>
<trkpt lat="41.863159" lon="70.509253"><ele>3428.0</ele></trkpt>
<trkpt lat="41.863167" lon="70.509120"><ele>3424.0</ele></trkpt>
<trkpt lat="41.863152" lon="70.509069"><ele>3426.0</ele></trkpt>
<trkpt lat="41.863059" lon="70.509054"><ele>3420.0</ele></trkpt>
<trkpt lat="41.863000" lon="70.508951"><ele>3420.0</ele></trkpt>
<trkpt lat="41.862675" lon="70.508760"><ele>3406.0</ele></trkpt>
<trkpt lat="41.862584" lon="70.508682"><ele>3404.0</ele></trkpt>
<trkpt lat="41.862565" lon="70.508640"><ele>3403.2</ele></trkpt>
<trkpt lat="41.862521" lon="70.508617"><ele>3400.0</ele></trkpt>
<trkpt lat="41.862508" lon="70.508588"><ele>3399.0</ele></trkpt>
<trkpt lat="41.862334" lon="70.508582"><ele>3392.0</ele></trkpt>
<trkpt lat="41.862287" lon="70.508517"><ele>3388.0</ele></trkpt>
<trkpt lat="41.862071" lon="70.508318"><ele>3383.0</ele></trkpt>
<trkpt lat="41.861930" lon="70.508080"><ele>3378.0</ele></trkpt>
<trkpt lat="41.861804" lon="70.507930"><ele>3372.0</ele></trkpt>
<trkpt lat="41.861476" lon="70.507349"><ele>3355.0</ele></trkpt>
<trkpt lat="41.861382" lon="70.507080"><ele>3352.0</ele></trkpt>
<trkpt lat="41.861361" lon="70.506968"><ele>3351.0</ele></trkpt>
<trkpt lat="41.861318" lon="70.506881"><ele>3348.0</ele></trkpt>
<trkpt lat="41.861246" lon="70.506789"><ele>3345.0</ele></trkpt>
<trkpt lat="41.861156" lon="70.506725"><ele>3340.0</ele></trkpt>
<trkpt lat="41.861125" lon="70.506662"><ele>3340.0</ele></trkpt>
<trkpt lat="41.861057" lon="70.506645"><ele>3336.0</ele></trkpt>
<trkpt lat="41.860840" lon="70.506488"><ele>3324.0</ele></trkpt>
<trkpt lat="41.860777" lon="70.506411"><ele>3325.0</ele></trkpt>
<trkpt lat="41.860674" lon="70.506346"><ele>3322.0</ele></trkpt>
<trkpt lat="41.860616" lon="70.506283"><ele>3318.0</ele></trkpt>
<trkpt lat="41.860624" lon="70.506259"><ele>3320.0</ele></trkpt>
<trkpt lat="41.860561" lon="70.506220"><ele>3316.0</ele></trkpt>
<trkpt lat="41.860452" lon="70.506031"><ele>3308.0</ele></trkpt>
<trkpt lat="41.860348" lon="70.505963"><ele>3307.1</ele></trkpt>
<trkpt lat="41.860339" lon="70.505920"><ele>3304.0</ele></trkpt>
<trkpt lat="41.860247" lon="70.505866"><ele>3300.0</ele></trkpt>
<trkpt lat="41.860156" lon="70.505705"><ele>3300.0</ele></trkpt>
<trkpt lat="41.860108" lon="70.505583"><ele>3298.0</ele></trkpt>
<trkpt lat="41.860011" lon="70.505460"><ele>3293.0</ele></trkpt>
<trkpt lat="41.859962" lon="70.505365"><ele>3291.0</ele></trkpt>
<trkpt lat="41.859912" lon="70.505322"><ele>3288.0</ele></trkpt>
<trkpt lat="41.859864" lon="70.505203"><ele>3289.0</ele></trkpt>
<trkpt lat="41.859762" lon="70.505266"><ele>3287.0</ele></trkpt>
<trkpt lat="41.859605" lon="70.505294"><ele>3281.0</ele></trkpt>
<trkpt lat="41.859575" lon="70.505322"><ele>3279.0</ele></trkpt>
<trkpt lat="41.859538" lon="70.505283"><ele>3276.0</ele></trkpt>
<trkpt lat="41.859514" lon="70.505210"><ele>3272.0</ele></trkpt>
<trkpt lat="41.859518" lon="70.505030"><ele>3270.0</ele></trkpt>
<trkpt lat="41.859475" lon="70.504888"><ele>3264.0</ele></trkpt>
<trkpt lat="41.859480" lon="70.504673"><ele>3260.0</ele></trkpt>
<trkpt lat="41.859433" lon="70.504477"><ele>3258.0</ele></trkpt>
<trkpt lat="41.859397" lon="70.504415"><ele>3256.0</ele></trkpt>
<trkpt lat="41.859376" lon="70.504298"><ele>3252.0</ele></trkpt>
<trkpt lat="41.859189" lon="70.503952"><ele>3240.0</ele></trkpt>
<trkpt lat="41.859145" lon="70.503973"><ele>3244.0</ele></trkpt>
<trkpt lat="41.859093" lon="70.503940"><ele>3240.0</ele></trkpt>
<trkpt lat="41.859064" lon="70.503785"><ele>3237.0</ele></trkpt>
<trkpt lat="41.859016" lon="70.503659"><ele>3235.0</ele></trkpt>
<trkpt lat="41.858867" lon="70.503513"><ele>3230.0</ele></trkpt>
<trkpt lat="41.858825" lon="70.503320"><ele>3231.0</ele></trkpt>
<trkpt lat="41.858566" lon="70.502866"><ele>3225.0</ele></trkpt>
<trkpt lat="41.858487" lon="70.502796"><ele>3223.0</ele></trkpt>
<trkpt lat="41.858449" lon="70.502610"><ele>3222.0</ele></trkpt>
<trkpt lat="41.858459" lon="70.502543"><ele>3220.0</ele></trkpt>
<trkpt lat="41.858428" lon="70.502474"><ele>3219.0</ele></trkpt>
<trkpt lat="41.858418" lon="70.502227"><ele>3213.0</ele></trkpt>
<trkpt lat="41.858380" lon="70.502157"><ele>3213.0</ele></trkpt>
<trkpt lat="41.858350" lon="70.502023"><ele>3210.0</ele></trkpt>
<trkpt lat="41.858315" lon="70.501978"><ele>3208.0</ele></trkpt>
<trkpt lat="41.858286" lon="70.501807"><ele>3204.0</ele></trkpt>
<trkpt lat="41.858270" lon="70.501770"><ele>3204.0</ele></trkpt>
<trkpt lat="41.858211" lon="70.501733"><ele>3201.0</ele></trkpt>
<trkpt lat="41.858177" lon="70.501662"><ele>3200.0</ele></trkpt>
<trkpt lat="41.858171" lon="70.501561"><ele>3200.0</ele></trkpt>
<trkpt lat="41.858185" lon="70.501462"><ele>3197.0</ele></trkpt>
<trkpt lat="41.858133" lon="70.501246"><ele>3196.0</ele></trkpt>
<trkpt lat="41.858145" lon="70.500832"><ele>3186.0</ele></trkpt>
<trkpt lat="41.858163" lon="70.500792"><ele>3187.7</ele></trkpt>
<trkpt lat="41.858167" lon="70.500726"><ele>3184.0</ele></trkpt>
<trkpt lat="41.858144" lon="70.500696"><ele>3184.0</ele></trkpt>
<trkpt lat="41.858136" lon="70.500617"><ele>3183.0</ele></trkpt>
<trkpt lat="41.858160" lon="70.500384"><ele>3176.0</ele></trkpt>
<trkpt lat="41.858103" lon="70.500336"><ele>3176.0</ele></trkpt>
<trkpt lat="41.858076" lon="70.500237"><ele>3176.0</ele></trkpt>
<trkpt lat="41.858080" lon="70.500185"><ele>3175.8</ele></trkpt>
<trkpt lat="41.858029" lon="70.500060"><ele>3171.0</ele></trkpt>
<trkpt lat="41.858055" lon="70.499992"><ele>3170.0</ele></trkpt>
<trkpt lat="41.857998" lon="70.499723"><ele>3165.0</ele></trkpt>
<trkpt lat="41.857994" lon="70.499629"><ele>3164.0</ele></trkpt>
<trkpt lat="41.858030" lon="70.499507"><ele>3162.0</ele></trkpt>
<trkpt lat="41.858021" lon="70.499389"><ele>3161.0</ele></trkpt>
<trkpt lat="41.857943" lon="70.499275"><ele>3159.0</ele></trkpt>
<trkpt lat="41.857953" lon="70.499193"><ele>3159.0</ele></trkpt>
<trkpt lat="41.857933" lon="70.499161"><ele>3157.0</ele></trkpt>
<trkpt lat="41.857921" lon="70.499090"><ele>3156.0</ele></trkpt>
<trkpt lat="41.857902" lon="70.499061"><ele>3156.0</ele></trkpt>
<trkpt lat="41.857844" lon="70.499030"><ele>3156.0</ele></trkpt>
<trkpt lat="41.857854" lon="70.498967"><ele>3153.0</ele></trkpt>
<trkpt lat="41.857828" lon="70.498945"><ele>3151.0</ele></trkpt>
<trkpt lat="41.857805" lon="70.498847"><ele>3148.0</ele></trkpt>
<trkpt lat="41.857779" lon="70.498825"><ele>3150.0</ele></trkpt>
<trkpt lat="41.857721" lon="70.498835"><ele>3148.0</ele></trkpt>
<trkpt lat="41.857666" lon="70.498794"><ele>3144.0</ele></trkpt>
<trkpt lat="41.857601" lon="70.498606"><ele>3140.0</ele></trkpt>
<trkpt lat="41.857558" lon="70.498552"><ele>3140.0</ele></trkpt>
<trkpt lat="41.857554" lon="70.498481"><ele>3136.0</ele></trkpt>
<trkpt lat="41.857415" lon="70.498376"><ele>3132.0</ele></trkpt>
<trkpt lat="41.857346" lon="70.498260"><ele>3130.0</ele></trkpt>
<trkpt lat="41.857319" lon="70.498241"><ele>3130.0</ele></trkpt>
<trkpt lat="41.857270" lon="70.498130"><ele>3128.0</ele></trkpt>
<trkpt lat="41.857221" lon="70.498083"><ele>3124.0</ele></trkpt>
<trkpt lat="41.857129" lon="70.497929"><ele>3120.0</ele></trkpt>
<trkpt lat="41.857097" lon="70.497822"><ele>3119.9</ele></trkpt>
<trkpt lat="41.857101" lon="70.497768"><ele>3118.0</ele></trkpt>
<trkpt lat="41.857007" lon="70.497629"><ele>3116.0</ele></trkpt>
<trkpt lat="41.857013" lon="70.497581"><ele>3115.0</ele></trkpt>
<trkpt lat="41.856966" lon="70.497528"><ele>3114.0</ele></trkpt>
<trkpt lat="41.856948" lon="70.497462"><ele>3114.0</ele></trkpt>
<trkpt lat="41.856857" lon="70.497359"><ele>3111.0</ele></trkpt>
<trkpt lat="41.856851" lon="70.497322"><ele>3111.0</ele></trkpt>
<trkpt lat="41.856887" lon="70.497216"><ele>3108.0</ele></trkpt>
<trkpt lat="41.856881" lon="70.497134"><ele>3108.0</ele></trkpt>
<trkpt lat="41.856855" lon="70.497075"><ele>3109.0</ele></trkpt>
<trkpt lat="41.856880" lon="70.496981"><ele>3104.0</ele></trkpt>
<trkpt lat="41.856868" lon="70.496914"><ele>3102.0</ele></trkpt>
<trkpt lat="41.856832" lon="70.496892"><ele>3100.0</ele></trkpt>
<trkpt lat="41.856839" lon="70.496826"><ele>3097.0</ele></trkpt>
<trkpt lat="41.856794" lon="70.496806"><ele>3096.0</ele></trkpt>
<trkpt lat="41.856775" lon="70.496773"><ele>3098.0</ele></trkpt>
<trkpt lat="41.856777" lon="70.496735"><ele>3095.0</ele></trkpt>
<trkpt lat="41.856743" lon="70.496709"><ele>3094.0</ele></trkpt>
<trkpt lat="41.856743" lon="70.496641"><ele>3091.0</ele></trkpt>
<trkpt lat="41.856712" lon="70.496631"><ele>3090.0</ele></trkpt>
<trkpt lat="41.856666" lon="70.496572"><ele>3090.0</ele></trkpt>
<trkpt lat="41.856652" lon="70.496460"><ele>3085.0</ele></trkpt>
<trkpt lat="41.856620" lon="70.496411"><ele>3083.0</ele></trkpt>
<trkpt lat="41.856617" lon="70.496364"><ele>3078.0</ele></trkpt>
<trkpt lat="41.856647" lon="70.496360"><ele>3080.0</ele></trkpt>
<trkpt lat="41.856614" lon="70.496337"><ele>3080.0</ele></trkpt>
<trkpt lat="41.856600" lon="70.496215"><ele>3076.0</ele></trkpt>
<trkpt lat="41.856560" lon="70.496131"><ele>3074.0</ele></trkpt>
<trkpt lat="41.856518" lon="70.496120"><ele>3072.0</ele></trkpt>
<trkpt lat="41.856480" lon="70.496023"><ele>3070.0</ele></trkpt>
<trkpt lat="41.856501" lon="70.495989"><ele>3072.0</ele></trkpt>
<trkpt lat="41.856509" lon="70.495927"><ele>3068.0</ele></trkpt>
<trkpt lat="41.856484" lon="70.495820"><ele>3066.0</ele></trkpt>
<trkpt lat="41.856440" lon="70.495775"><ele>3065.0</ele></trkpt>
<trkpt lat="41.856413" lon="70.495705"><ele>3064.0</ele></trkpt>
<trkpt lat="41.856335" lon="70.495667"><ele>3059.0</ele></trkpt>
<trkpt lat="41.856286" lon="70.495595"><ele>3056.0</ele></trkpt>
<trkpt lat="41.856160" lon="70.495222"><ele>3048.0</ele></trkpt>
<trkpt lat="41.856167" lon="70.495190"><ele>3047.0</ele></trkpt>
<trkpt lat="41.856115" lon="70.494976"><ele>3043.0</ele></trkpt>
<trkpt lat="41.856118" lon="70.494924"><ele>3044.0</ele></trkpt>
<trkpt lat="41.856155" lon="70.494857"><ele>3042.0</ele></trkpt>
<trkpt lat="41.856105" lon="70.494776"><ele>3042.0</ele></trkpt>
<trkpt lat="41.856058" lon="70.494734"><ele>3042.0</ele></trkpt>
<trkpt lat="41.855969" lon="70.494563"><ele>3042.0</ele></trkpt>
<trkpt lat="41.855848" lon="70.494497"><ele>3042.0</ele></trkpt>
<trkpt lat="41.855738" lon="70.494364"><ele>3039.0</ele></trkpt>
<trkpt lat="41.855679" lon="70.494338"><ele>3039.0</ele></trkpt>
<trkpt lat="41.855673" lon="70.494268"><ele>3036.0</ele></trkpt>
<trkpt lat="41.855630" lon="70.494248"><ele>3037.0</ele></trkpt>
<trkpt lat="41.855603" lon="70.494193"><ele>3034.0</ele></trkpt>
<trkpt lat="41.855526" lon="70.494107"><ele>3030.0</ele></trkpt>
<trkpt lat="41.855411" lon="70.493883"><ele>3026.1</ele></trkpt>
<trkpt lat="41.855339" lon="70.493995"><ele>3024.0</ele></trkpt>
<trkpt lat="41.854823" lon="70.494107"><ele>3030.0</ele></trkpt>
<trkpt lat="41.854798" lon="70.494134"><ele>3030.4</ele></trkpt>
<trkpt lat="41.854738" lon="70.494124"><ele>3030.0</ele></trkpt>
<trkpt lat="41.854698" lon="70.494062"><ele>3032.0</ele></trkpt>
<trkpt lat="41.854607" lon="70.494128"><ele>3026.0</ele></trkpt>
<trkpt lat="41.854504" lon="70.494125"><ele>3035.0</ele></trkpt>
<trkpt lat="41.854448" lon="70.494105"><ele>3040.3</ele></trkpt>
<trkpt lat="41.854378" lon="70.494040"><ele>3044.0</ele></trkpt>
<trkpt lat="41.854192" lon="70.494066"><ele>3050.0</ele></trkpt>
<trkpt lat="41.854158" lon="70.494054"><ele>3053.2</ele></trkpt>
<trkpt lat="41.853755" lon="70.494208"><ele>3064.0</ele></trkpt>
<trkpt lat="41.853686" lon="70.494212"><ele>3060.0</ele></trkpt>
<trkpt lat="41.853574" lon="70.494155"><ele>3071.0</ele></trkpt>
<trkpt lat="41.853220" lon="70.494125"><ele>3080.0</ele></trkpt>
<trkpt lat="41.853110" lon="70.494163"><ele>3087.0</ele></trkpt>
<trkpt lat="41.852987" lon="70.494177"><ele>3093.0</ele></trkpt>
<trkpt lat="41.852933" lon="70.494141"><ele>3091.0</ele></trkpt>
<trkpt lat="41.852739" lon="70.493939"><ele>3096.0</ele></trkpt>
<trkpt lat="41.852667" lon="70.493900"><ele>3095.0</ele></trkpt>
<trkpt lat="41.852536" lon="70.493780"><ele>3094.0</ele></trkpt>
<trkpt lat="41.852394" lon="70.493697"><ele>3092.0</ele></trkpt>
<trkpt lat="41.852325" lon="70.493619"><ele>3094.0</ele></trkpt>
<trkpt lat="41.852279" lon="70.493597"><ele>3096.0</ele></trkpt>
<trkpt lat="41.852275" lon="70.493627"><ele>3095.0</ele></trkpt>
<trkpt lat="41.852239" lon="70.493634"><ele>3093.0</ele></trkpt>
<trkpt lat="41.852153" lon="70.493744"><ele>3102.0</ele></trkpt>
<trkpt lat="41.852037" lon="70.493723"><ele>3109.0</ele></trkpt>
<trkpt lat="41.851948" lon="70.493797"><ele>3115.0</ele></trkpt>
<trkpt lat="41.851886" lon="70.493926"><ele>3117.0</ele></trkpt>
<trkpt lat="41.851543" lon="70.494175"><ele>3123.0</ele></trkpt>
<trkpt lat="41.851353" lon="70.494234"><ele>3120.0</ele></trkpt>
<trkpt lat="41.851269" lon="70.494284"><ele>3126.0</ele></trkpt>
<trkpt lat="41.851117" lon="70.494237"><ele>3130.0</ele></trkpt>
<trkpt lat="41.850601" lon="70.494344"><ele>3135.0</ele></trkpt>
<trkpt lat="41.850382" lon="70.494308"><ele>3138.0</ele></trkpt>
<trkpt lat="41.850179" lon="70.494311"><ele>3144.0</ele></trkpt>
<trkpt lat="41.850010" lon="70.494339"><ele>3143.0</ele></trkpt>
<trkpt lat="41.849137" lon="70.494286"><ele>3162.0</ele></trkpt>
<trkpt lat="41.848968" lon="70.494207"><ele>3160.0</ele></trkpt>
<trkpt lat="41.848910" lon="70.494115"><ele>3162.0</ele></trkpt>
<trkpt lat="41.848742" lon="70.493959"><ele>3165.0</ele></trkpt>
<trkpt lat="41.848620" lon="70.493893"><ele>3164.0</ele></trkpt>
<trkpt lat="41.848440" lon="70.493718"><ele>3169.0</ele></trkpt>
<trkpt lat="41.848379" lon="70.493696"><ele>3171.0</ele></trkpt>
<trkpt lat="41.848082" lon="70.493346"><ele>3172.0</ele></trkpt>
<trkpt lat="41.847881" lon="70.493069"><ele>3174.0</ele></trkpt>
<trkpt lat="41.847695" lon="70.492879"><ele>3172.0</ele></trkpt>
<trkpt lat="41.847608" lon="70.492732"><ele>3176.0</ele></trkpt>
<trkpt lat="41.847583" lon="70.492580"><ele>3177.0</ele></trkpt>
<trkpt lat="41.847527" lon="70.492512"><ele>3180.0</ele></trkpt>
<trkpt lat="41.847392" lon="70.492429"><ele>3180.0</ele></trkpt>
<trkpt lat="41.847346" lon="70.492370"><ele>3181.0</ele></trkpt>
<trkpt lat="41.847304" lon="70.492276"><ele>3184.0</ele></trkpt>
<trkpt lat="41.847199" lon="70.492191"><ele>3185.0</ele></trkpt>
<trkpt lat="41.847079" lon="70.492050"><ele>3188.0</ele></trkpt>
<trkpt lat="41.846949" lon="70.491876"><ele>3192.0</ele></trkpt>
<trkpt lat="41.846909" lon="70.491757"><ele>3196.0</ele></trkpt>
<trkpt lat="41.846510" lon="70.491468"><ele>3194.0</ele></trkpt>
<trkpt lat="41.846447" lon="70.491393"><ele>3206.0</ele></trkpt>
<trkpt lat="41.846333" lon="70.491236"><ele>3210.0</ele></trkpt>
<trkpt lat="41.846042" lon="70.490719"><ele>3222.0</ele></trkpt>
<trkpt lat="41.845753" lon="70.490327"><ele>3228.0</ele></trkpt>
<trkpt lat="41.845631" lon="70.490132"><ele>3228.0</ele></trkpt>
<trkpt lat="41.845538" lon="70.489891"><ele>3233.0</ele></trkpt>
<trkpt lat="41.845451" lon="70.489750"><ele>3236.0</ele></trkpt>
<trkpt lat="41.845343" lon="70.489510"><ele>3240.0</ele></trkpt>
<trkpt lat="41.845319" lon="70.489291"><ele>3244.0</ele></trkpt>
<trkpt lat="41.845295" lon="70.489230"><ele>3244.0</ele></trkpt>
<trkpt lat="41.845288" lon="70.489146"><ele>3247.0</ele></trkpt>
<trkpt lat="41.845250" lon="70.489058"><ele>3246.0</ele></trkpt>
<trkpt lat="41.845227" lon="70.488842"><ele>3252.0</ele></trkpt>
<trkpt lat="41.845163" lon="70.488744"><ele>3255.0</ele></trkpt>
<trkpt lat="41.845144" lon="70.488685"><ele>3252.0</ele></trkpt>
<trkpt lat="41.845147" lon="70.488532"><ele>3255.0</ele></trkpt>
<trkpt lat="41.845126" lon="70.488429"><ele>3256.0</ele></trkpt>
<trkpt lat="41.845141" lon="70.488313"><ele>3261.0</ele></trkpt>
<trkpt lat="41.845190" lon="70.488225"><ele>3264.0</ele></trkpt>
<trkpt lat="41.845219" lon="70.488107"><ele>3267.0</ele></trkpt>
<trkpt lat="41.845243" lon="70.487835"><ele>3273.0</ele></trkpt>
<trkpt lat="41.845221" lon="70.487731"><ele>3276.0</ele></trkpt>
<trkpt lat="41.845249" lon="70.487637"><ele>3278.0</ele></trkpt>
<trkpt lat="41.845315" lon="70.487530"><ele>3276.0</ele></trkpt>
<trkpt lat="41.845302" lon="70.487484"><ele>3280.0</ele></trkpt>
<trkpt lat="41.845037" lon="70.487454"><ele>3280.0</ele></trkpt>
<trkpt lat="41.844880" lon="70.487486"><ele>3280.0</ele></trkpt>
<trkpt lat="41.844741" lon="70.487486"><ele>3280.0</ele></trkpt>
<trkpt lat="41.844676" lon="70.487467"><ele>3280.0</ele></trkpt>
<trkpt lat="41.844541" lon="70.487470"><ele>3284.0</ele></trkpt>
<trkpt lat="41.844409" lon="70.487431"><ele>3284.0</ele></trkpt>
<trkpt lat="41.844209" lon="70.487234"><ele>3288.0</ele></trkpt>
<trkpt lat="41.844122" lon="70.487112"><ele>3288.0</ele></trkpt>
<trkpt lat="41.844017" lon="70.486925"><ele>3288.0</ele></trkpt>
<trkpt lat="41.843953" lon="70.486765"><ele>3286.0</ele></trkpt>
<trkpt lat="41.843931" lon="70.486663"><ele>3285.0</ele></trkpt>
<trkpt lat="41.843924" lon="70.486067"><ele>3299.0</ele></trkpt>
<trkpt lat="41.843952" lon="70.485961"><ele>3300.0</ele></trkpt>
<trkpt lat="41.843951" lon="70.485816"><ele>3304.0</ele></trkpt>
<trkpt lat="41.843936" lon="70.485681"><ele>3305.0</ele></trkpt>
<trkpt lat="41.843838" lon="70.485562"><ele>3310.0</ele></trkpt>
<trkpt lat="41.843865" lon="70.485379"><ele>3312.0</ele></trkpt>
<trkpt lat="41.843872" lon="70.485201"><ele>3306.0</ele></trkpt>
<trkpt lat="41.843812" lon="70.485315"><ele>3312.0</ele></trkpt>
<trkpt lat="41.843400" lon="70.485681"><ele>3320.0</ele></trkpt>
<trkpt lat="41.843231" lon="70.485734"><ele>3330.0</ele></trkpt>
<trkpt lat="41.843213" lon="70.485768"><ele>3330.0</ele></trkpt>
<trkpt lat="41.843119" lon="70.485833"><ele>3331.0</ele></trkpt>
<trkpt lat="41.843005" lon="70.485806"><ele>3337.0</ele></trkpt>
<trkpt lat="41.842938" lon="70.485769"><ele>3338.0</ele></trkpt>
<trkpt lat="41.842886" lon="70.485800"><ele>3344.0</ele></trkpt>
<trkpt lat="41.842830" lon="70.485660"><ele>3347.0</ele></trkpt>
<trkpt lat="41.842752" lon="70.485646"><ele>3352.0</ele></trkpt>
<trkpt lat="41.842675" lon="70.485575"><ele>3348.0</ele></trkpt>
<trkpt lat="41.842546" lon="70.485519"><ele>3354.0</ele></trkpt>
<trkpt lat="41.842393" lon="70.485340"><ele>3352.0</ele></trkpt>
<trkpt lat="41.842312" lon="70.485283"><ele>3355.0</ele></trkpt>
<trkpt lat="41.842195" lon="70.485165"><ele>3360.0</ele></trkpt>
<trkpt lat="41.842074" lon="70.484971"><ele>3357.0</ele></trkpt>
<trkpt lat="41.842024" lon="70.484829"><ele>3362.0</ele></trkpt>
<trkpt lat="41.841955" lon="70.484718"><ele>3360.0</ele></trkpt>
<trkpt lat="41.841929" lon="70.484611"><ele>3366.4</ele></trkpt>
<trkpt lat="41.841941" lon="70.484535"><ele>3360.0</ele></trkpt>
<trkpt lat="41.841927" lon="70.484454"><ele>3362.0</ele></trkpt>
<trkpt lat="41.841941" lon="70.484426"><ele>3361.3</ele></trkpt>
<trkpt lat="41.841946" lon="70.484153"><ele>3348.0</ele></trkpt>
<trkpt lat="41.841924" lon="70.484109"><ele>3350.0</ele></trkpt>
<trkpt lat="41.841945" lon="70.484015"><ele>3342.0</ele></trkpt>
<trkpt lat="41.842022" lon="70.484029"><ele>3342.0</ele></trkpt>
<trkpt lat="41.842031" lon="70.483976"><ele>3339.0</ele></trkpt>
<trkpt lat="41.842081" lon="70.483899"><ele>3336.0</ele></trkpt>
<trkpt lat="41.842157" lon="70.483881"><ele>3328.0</ele></trkpt>
<trkpt lat="41.842162" lon="70.483848"><ele>3325.0</ele></trkpt>
<trkpt lat="41.842246" lon="70.483758"><ele>3328.0</ele></trkpt>
<trkpt lat="41.842238" lon="70.483711"><ele>3328.0</ele></trkpt>
<trkpt lat="41.842272" lon="70.483632"><ele>3325.0</ele></trkpt>
<trkpt lat="41.842268" lon="70.483601"><ele>3325.0</ele></trkpt>
<trkpt lat="41.842169" lon="70.483567"><ele>3324.0</ele></trkpt>
<trkpt lat="41.842101" lon="70.483566"><ele>3321.0</ele></trkpt>
<trkpt lat="41.841967" lon="70.483513"><ele>3320.0</ele></trkpt>
<trkpt lat="41.841908" lon="70.483355"><ele>3320.0</ele></trkpt>
<trkpt lat="41.841761" lon="70.483311"><ele>3318.2</ele></trkpt>
<trkpt lat="41.841694" lon="70.483262"><ele>3315.0</ele></trkpt>
<trkpt lat="41.841583" lon="70.483116"><ele>3312.0</ele></trkpt>
<trkpt lat="41.841400" lon="70.483060"><ele>3312.0</ele></trkpt>
<trkpt lat="41.841213" lon="70.482955"><ele>3312.0</ele></trkpt>
<trkpt lat="41.841031" lon="70.482700"><ele>3306.0</ele></trkpt>
<trkpt lat="41.840947" lon="70.482496"><ele>3306.0</ele></trkpt>
<trkpt lat="41.840935" lon="70.482401"><ele>3304.0</ele></trkpt>
<trkpt lat="41.840897" lon="70.482376"><ele>3305.0</ele></trkpt>
<trkpt lat="41.840468" lon="70.482254"><ele>3304.0</ele></trkpt>
<trkpt lat="41.840176" lon="70.482140"><ele>3304.0</ele></trkpt>
<trkpt lat="41.840096" lon="70.482073"><ele>3303.0</ele></trkpt>
<trkpt lat="41.840009" lon="70.482043"><ele>3300.0</ele></trkpt>
<trkpt lat="41.839930" lon="70.481986"><ele>3300.0</ele></trkpt>
<trkpt lat="41.839896" lon="70.481934"><ele>3297.0</ele></trkpt>
<trkpt lat="41.839700" lon="70.481802"><ele>3297.0</ele></trkpt>
<trkpt lat="41.839609" lon="70.481688"><ele>3297.0</ele></trkpt>
<trkpt lat="41.839591" lon="70.481633"><ele>3296.0</ele></trkpt>
<trkpt lat="41.839513" lon="70.481559"><ele>3297.0</ele></trkpt>
<trkpt lat="41.839486" lon="70.481503"><ele>3300.0</ele></trkpt>
<trkpt lat="41.839373" lon="70.481361"><ele>3300.0</ele></trkpt>
<trkpt lat="41.839328" lon="70.481155"><ele>3290.0</ele></trkpt>
<trkpt lat="41.839274" lon="70.481092"><ele>3304.0</ele></trkpt>
<trkpt lat="41.839242" lon="70.481002"><ele>3308.0</ele></trkpt>
<trkpt lat="41.838974" lon="70.481008"><ele>3306.0</ele></trkpt>
<trkpt lat="41.838781" lon="70.481118"><ele>3312.0</ele></trkpt>
<trkpt lat="41.838655" lon="70.481121"><ele>3314.0</ele></trkpt>
<trkpt lat="41.838515" lon="70.481078"><ele>3316.0</ele></trkpt>
<trkpt lat="41.838403" lon="70.480997"><ele>3316.0</ele></trkpt>
<trkpt lat="41.838315" lon="70.480885"><ele>3315.0</ele></trkpt>
<trkpt lat="41.838153" lon="70.480909"><ele>3316.0</ele></trkpt>
<trkpt lat="41.838088" lon="70.480898"><ele>3312.0</ele></trkpt>
<trkpt lat="41.837934" lon="70.480828"><ele>3310.0</ele></trkpt>
<trkpt lat="41.837703" lon="70.480815"><ele>3304.0</ele></trkpt>
<trkpt lat="41.836927" lon="70.480551"><ele>3288.0</ele></trkpt>
<trkpt lat="41.836670" lon="70.480313"><ele>3282.0</ele></trkpt>
<trkpt lat="41.836477" lon="70.480045"><ele>3278.0</ele></trkpt>
<trkpt lat="41.836373" lon="70.479872"><ele>3276.0</ele></trkpt>
<trkpt lat="41.836355" lon="70.479795"><ele>3276.0</ele></trkpt>
<trkpt lat="41.836252" lon="70.479648"><ele>3273.0</ele></trkpt>
<trkpt lat="41.836113" lon="70.479078"><ele>3270.0</ele></trkpt>
<trkpt lat="41.836004" lon="70.478804"><ele>3270.0</ele></trkpt>
<trkpt lat="41.835987" lon="70.478694"><ele>3270.0</ele></trkpt>
<trkpt lat="41.835959" lon="70.478660"><ele>3268.0</ele></trkpt>
<trkpt lat="41.835918" lon="70.478565"><ele>3274.0</ele></trkpt>
<trkpt lat="41.835916" lon="70.478527"><ele>3276.0</ele></trkpt>
<trkpt lat="41.835847" lon="70.478401"><ele>3276.0</ele></trkpt>
<trkpt lat="41.835754" lon="70.478104"><ele>3276.0</ele></trkpt>
<trkpt lat="41.835716" lon="70.478066"><ele>3282.0</ele></trkpt>
<trkpt lat="41.835695" lon="70.478008"><ele>3282.0</ele></trkpt>
<trkpt lat="41.835488" lon="70.477667"><ele>3288.0</ele></trkpt>
<trkpt lat="41.835188" lon="70.477202"><ele>3290.0</ele></trkpt>
<trkpt lat="41.835157" lon="70.477110"><ele>3291.0</ele></trkpt>
<trkpt lat="41.834951" lon="70.476711"><ele>3292.0</ele></trkpt>
<trkpt lat="41.834860" lon="70.476499"><ele>3288.0</ele></trkpt>
<trkpt lat="41.834806" lon="70.476415"><ele>3290.0</ele></trkpt>
<trkpt lat="41.834698" lon="70.476007"><ele>3291.0</ele></trkpt>
<trkpt lat="41.834657" lon="70.475921"><ele>3288.0</ele></trkpt>
<trkpt lat="41.834517" lon="70.475482"><ele>3288.0</ele></trkpt>
<trkpt lat="41.834418" lon="70.475243"><ele>3288.0</ele></trkpt>
<trkpt lat="41.834404" lon="70.475173"><ele>3288.0</ele></trkpt>
<trkpt lat="41.834348" lon="70.475050"><ele>3287.0</ele></trkpt>
<trkpt lat="41.834192" lon="70.474597"><ele>3288.0</ele></trkpt>
<trkpt lat="41.833999" lon="70.474267"><ele>3288.0</ele></trkpt>
<trkpt lat="41.833920" lon="70.474185"><ele>3288.0</ele></trkpt>
<trkpt lat="41.833846" lon="70.474062"><ele>3288.0</ele></trkpt>
<trkpt lat="41.833581" lon="70.473898"><ele>3287.0</ele></trkpt>
<trkpt lat="41.833460" lon="70.473794"><ele>3288.0</ele></trkpt>
<trkpt lat="41.833315" lon="70.473718"><ele>3288.0</ele></trkpt>
<trkpt lat="41.833056" lon="70.473544"><ele>3285.0</ele></trkpt>
<trkpt lat="41.832778" lon="70.473321"><ele>3285.0</ele></trkpt>
<trkpt lat="41.832537" lon="70.473085"><ele>3279.0</ele></trkpt>
<trkpt lat="41.832310" lon="70.472927"><ele>3279.0</ele></trkpt>
<trkpt lat="41.832211" lon="70.472751"><ele>3276.0</ele></trkpt>
<trkpt lat="41.832073" lon="70.472610"><ele>3276.0</ele></trkpt>
<trkpt lat="41.831911" lon="70.472367"><ele>3276.1</ele></trkpt>
<trkpt lat="41.831878" lon="70.472274"><ele>3276.0</ele></trkpt>
<trkpt lat="41.831717" lon="70.472055"><ele>3276.0</ele></trkpt>
<trkpt lat="41.831616" lon="70.471968"><ele>3277.0</ele></trkpt>
<trkpt lat="41.831540" lon="70.471856"><ele>3276.0</ele></trkpt>
<trkpt lat="41.831282" lon="70.471553"><ele>3276.0</ele></trkpt>
<trkpt lat="41.831212" lon="70.471429"><ele>3277.0</ele></trkpt>
<trkpt lat="41.831092" lon="70.471313"><ele>3280.0</ele></trkpt>
<trkpt lat="41.830986" lon="70.471172"><ele>3282.0</ele></trkpt>
<trkpt lat="41.830774" lon="70.470959"><ele>3280.0</ele></trkpt>
<trkpt lat="41.830736" lon="70.470901"><ele>3281.0</ele></trkpt>
<trkpt lat="41.830612" lon="70.470793"><ele>3282.0</ele></trkpt>
<trkpt lat="41.830380" lon="70.470676"><ele>3282.0</ele></trkpt>
<trkpt lat="41.830331" lon="70.470635"><ele>3282.0</ele></trkpt>
<trkpt lat="41.830244" lon="70.470422"><ele>3285.0</ele></trkpt>
<trkpt lat="41.830204" lon="70.470275"><ele>3288.0</ele></trkpt>
<trkpt lat="41.830090" lon="70.470040"><ele>3288.0</ele></trkpt>
<trkpt lat="41.830015" lon="70.469842"><ele>3291.0</ele></trkpt>
<trkpt lat="41.829976" lon="70.469656"><ele>3294.0</ele></trkpt>
<trkpt lat="41.829795" lon="70.469399"><ele>3291.0</ele></trkpt>
<trkpt lat="41.829478" lon="70.469149"><ele>3292.0</ele></trkpt>
<trkpt lat="41.829362" lon="70.469077"><ele>3292.0</ele></trkpt>
<trkpt lat="41.828810" lon="70.468832"><ele>3297.0</ele></trkpt>
<trkpt lat="41.828784" lon="70.468797"><ele>3294.0</ele></trkpt>
<trkpt lat="41.828697" lon="70.468764"><ele>3300.0</ele></trkpt>
<trkpt lat="41.828639" lon="70.468714"><ele>3300.0</ele></trkpt>
<trkpt lat="41.828504" lon="70.468657"><ele>3296.0</ele></trkpt>
<trkpt lat="41.828235" lon="70.468435"><ele>3296.0</ele></trkpt>
<trkpt lat="41.827896" lon="70.468058"><ele>3294.0</ele></trkpt>
<trkpt lat="41.827565" lon="70.467786"><ele>3300.0</ele></trkpt>
<trkpt lat="41.827472" lon="70.467636"><ele>3308.0</ele></trkpt>
<trkpt lat="41.827416" lon="70.467507"><ele>3310.0</ele></trkpt>
<trkpt lat="41.827322" lon="70.467386"><ele>3310.0</ele></trkpt>
<trkpt lat="41.827306" lon="70.467326"><ele>3315.0</ele></trkpt>
<trkpt lat="41.827171" lon="70.467070"><ele>3315.0</ele></trkpt>
<trkpt lat="41.827135" lon="70.466856"><ele>3315.0</ele></trkpt>
<trkpt lat="41.827079" lon="70.466663"><ele>3324.0</ele></trkpt>
<trkpt lat="41.827051" lon="70.466623"><ele>3320.0</ele></trkpt>
<trkpt lat="41.827005" lon="70.466492"><ele>3324.0</ele></trkpt>
<trkpt lat="41.826977" lon="70.466323"><ele>3324.0</ele></trkpt>
<trkpt lat="41.826967" lon="70.466140"><ele>3326.7</ele></trkpt>
<trkpt lat="41.826922" lon="70.466005"><ele>3325.0</ele></trkpt>
<trkpt lat="41.826833" lon="70.465893"><ele>3326.0</ele></trkpt>
<trkpt lat="41.826732" lon="70.465811"><ele>3328.0</ele></trkpt>
<trkpt lat="41.826476" lon="70.465507"><ele>3324.0</ele></trkpt>
<trkpt lat="41.826464" lon="70.465467"><ele>3318.0</ele></trkpt>
<trkpt lat="41.826228" lon="70.465379"><ele>3312.0</ele></trkpt>
<trkpt lat="41.826068" lon="70.465261"><ele>3304.0</ele></trkpt>
<trkpt lat="41.826035" lon="70.465202"><ele>3306.0</ele></trkpt>
<trkpt lat="41.825992" lon="70.465182"><ele>3301.0</ele></trkpt>
<trkpt lat="41.825957" lon="70.465106"><ele>3302.0</ele></trkpt>
<trkpt lat="41.825957" lon="70.465053"><ele>3300.0</ele></trkpt>
<trkpt lat="41.825853" lon="70.464969"><ele>3294.0</ele></trkpt>
<trkpt lat="41.825824" lon="70.464996"><ele>3296.0</ele></trkpt>
<trkpt lat="41.825894" lon="70.464951"><ele>3278.0</ele></trkpt>
<trkpt lat="41.826068" lon="70.464962"><ele>3299.0</ele></trkpt>
<trkpt lat="41.826173" lon="70.464995"><ele>3295.0</ele></trkpt>
<trkpt lat="41.826185" lon="70.464952"><ele>3296.0</ele></trkpt>
<trkpt lat="41.826154" lon="70.464800"><ele>3289.0</ele></trkpt>
<trkpt lat="41.826033" lon="70.464681"><ele>3278.0</ele></trkpt>
<trkpt lat="41.825856" lon="70.464615"><ele>3272.0</ele></trkpt>
<trkpt lat="41.825807" lon="70.464564"><ele>3273.0</ele></trkpt>
<trkpt lat="41.825606" lon="70.464534"><ele>3270.0</ele></trkpt>
<trkpt lat="41.825459" lon="70.464441"><ele>3264.0</ele></trkpt>
<trkpt lat="41.825382" lon="70.464293"><ele>3260.0</ele></trkpt>
<trkpt lat="41.825277" lon="70.464151"><ele>3258.0</ele></trkpt>
<trkpt lat="41.825226" lon="70.464108"><ele>3258.0</ele></trkpt>
<trkpt lat="41.825066" lon="70.463809"><ele>3252.0</ele></trkpt>
<trkpt lat="41.825028" lon="70.463686"><ele>3252.0</ele></trkpt>
<trkpt lat="41.824993" lon="70.463648"><ele>3251.0</ele></trkpt>
<trkpt lat="41.824980" lon="70.463469"><ele>3248.0</ele></trkpt>
<trkpt lat="41.824938" lon="70.463326"><ele>3246.0</ele></trkpt>
<trkpt lat="41.824944" lon="70.463230"><ele>3246.0</ele></trkpt>
<trkpt lat="41.824847" lon="70.463039"><ele>3244.0</ele></trkpt>
<trkpt lat="41.824830" lon="70.462915"><ele>3244.0</ele></trkpt>
<trkpt lat="41.824767" lon="70.462703"><ele>3246.0</ele></trkpt>
<trkpt lat="41.824698" lon="70.462581"><ele>3240.0</ele></trkpt>
<trkpt lat="41.824689" lon="70.462460"><ele>3243.0</ele></trkpt>
<trkpt lat="41.824701" lon="70.462392"><ele>3240.0</ele></trkpt>
<trkpt lat="41.824640" lon="70.462307"><ele>3237.0</ele></trkpt>
<trkpt lat="41.824726" lon="70.462469"><ele>3234.0</ele></trkpt>
<trkpt lat="41.824773" lon="70.462471"><ele>3240.0</ele></trkpt>
<trkpt lat="41.824806" lon="70.462418"><ele>3234.0</ele></trkpt>
<trkpt lat="41.824839" lon="70.462423"><ele>3234.0</ele></trkpt>
<trkpt lat="41.824712" lon="70.462160"><ele>3235.0</ele></trkpt>
<trkpt lat="41.824677" lon="70.462125"><ele>3230.0</ele></trkpt>
<trkpt lat="41.824588" lon="70.462168"><ele>3228.0</ele></trkpt>
<trkpt lat="41.824539" lon="70.462164"><ele>3234.0</ele></trkpt>
<trkpt lat="41.824520" lon="70.462136"><ele>3232.0</ele></trkpt>
<trkpt lat="41.824476" lon="70.462172"><ele>3230.0</ele></trkpt>
<trkpt lat="41.824427" lon="70.462136"><ele>3225.0</ele></trkpt>
<trkpt lat="41.824374" lon="70.462038"><ele>3225.0</ele></trkpt>
<trkpt lat="41.824324" lon="70.461816"><ele>3228.0</ele></trkpt>
<trkpt lat="41.824331" lon="70.461917"><ele>3227.0</ele></trkpt>
<trkpt lat="41.824289" lon="70.461919"><ele>3228.0</ele></trkpt>
<trkpt lat="41.824242" lon="70.461879"><ele>3228.0</ele></trkpt>
<trkpt lat="41.824202" lon="70.461797"><ele>3230.0</ele></trkpt>
<trkpt lat="41.824152" lon="70.461778"><ele>3230.0</ele></trkpt>
<trkpt lat="41.824028" lon="70.461587"><ele>3228.0</ele></trkpt>
<trkpt lat="41.823978" lon="70.461411"><ele>3232.0</ele></trkpt>
<trkpt lat="41.823937" lon="70.461350"><ele>3231.0</ele></trkpt>
<trkpt lat="41.823874" lon="70.461200"><ele>3232.0</ele></trkpt>
<trkpt lat="41.823823" lon="70.460983"><ele>3234.0</ele></trkpt>
<trkpt lat="41.823791" lon="70.460922"><ele>3231.0</ele></trkpt>
<trkpt lat="41.823659" lon="70.460772"><ele>3232.0</ele></trkpt>
<trkpt lat="41.823574" lon="70.460552"><ele>3231.0</ele></trkpt>
<trkpt lat="41.823445" lon="70.460493"><ele>3231.0</ele></trkpt>
<trkpt lat="41.823355" lon="70.460425"><ele>3234.0</ele></trkpt>
<trkpt lat="41.823280" lon="70.460399"><ele>3232.0</ele></trkpt>
<trkpt lat="41.823230" lon="70.460318"><ele>3235.0</ele></trkpt>
<trkpt lat="41.823166" lon="70.460272"><ele>3234.0</ele></trkpt>
<trkpt lat="41.823114" lon="70.460170"><ele>3231.0</ele></trkpt>
<trkpt lat="41.823054" lon="70.460145"><ele>3230.0</ele></trkpt>
<trkpt lat="41.822855" lon="70.459927"><ele>3234.0</ele></trkpt>
<trkpt lat="41.822798" lon="70.459919"><ele>3230.0</ele></trkpt>
<trkpt lat="41.822538" lon="70.459785"><ele>3226.0</ele></trkpt>
<trkpt lat="41.822506" lon="70.459688"><ele>3225.0</ele></trkpt>
<trkpt lat="41.822468" lon="70.459661"><ele>3222.0</ele></trkpt>
<trkpt lat="41.822417" lon="70.459572"><ele>3224.0</ele></trkpt>
<trkpt lat="41.822291" lon="70.459281"><ele>3220.0</ele></trkpt>
<trkpt lat="41.822271" lon="70.459089"><ele>3219.0</ele></trkpt>
<trkpt lat="41.822216" lon="70.459007"><ele>3217.0</ele></trkpt>
<trkpt lat="41.822112" lon="70.458931"><ele>3216.0</ele></trkpt>
<trkpt lat="41.821941" lon="70.458837"><ele>3214.0</ele></trkpt>
<trkpt lat="41.821882" lon="70.458845"><ele>3212.0</ele></trkpt>
<trkpt lat="41.821851" lon="70.458804"><ele>3212.0</ele></trkpt>
<trkpt lat="41.821805" lon="70.458639"><ele>3213.8</ele></trkpt>
</trkseg></trk>
</gpx>