<?xml version='1.0' encoding='utf-8'?>
<gpx xmlns="http://www.topografix.com/GPX/1/1" version="1.1" creator="Sayr">
<trk><name>К озёрам Келимчика и Тойпана с перевала, кольцо</name><trkseg>
<trkpt lat="41.283829" lon="70.444351"><ele>2423.7</ele></trkpt>
<trkpt lat="41.283832" lon="70.444305"><ele>2420.0</ele></trkpt>
<trkpt lat="41.283868" lon="70.444241"><ele>2423.0</ele></trkpt>
<trkpt lat="41.283915" lon="70.444201"><ele>2420.0</ele></trkpt>
<trkpt lat="41.284024" lon="70.444054"><ele>2423.0</ele></trkpt>
<trkpt lat="41.284162" lon="70.443919"><ele>2424.0</ele></trkpt>
<trkpt lat="41.284238" lon="70.443909"><ele>2427.0</ele></trkpt>
<trkpt lat="41.284335" lon="70.443843"><ele>2428.0</ele></trkpt>
<trkpt lat="41.284399" lon="70.443823"><ele>2429.0</ele></trkpt>
<trkpt lat="41.284483" lon="70.443709"><ele>2430.0</ele></trkpt>
<trkpt lat="41.284552" lon="70.443734"><ele>2431.0</ele></trkpt>
<trkpt lat="41.284702" lon="70.443694"><ele>2432.0</ele></trkpt>
<trkpt lat="41.284720" lon="70.443619"><ele>2432.0</ele></trkpt>
<trkpt lat="41.284772" lon="70.443576"><ele>2433.0</ele></trkpt>
<trkpt lat="41.284817" lon="70.443477"><ele>2436.0</ele></trkpt>
<trkpt lat="41.284870" lon="70.443433"><ele>2436.0</ele></trkpt>
<trkpt lat="41.284917" lon="70.443345"><ele>2439.0</ele></trkpt>
<trkpt lat="41.284917" lon="70.443237"><ele>2440.0</ele></trkpt>
<trkpt lat="41.284975" lon="70.443117"><ele>2440.0</ele></trkpt>
<trkpt lat="41.284977" lon="70.443081"><ele>2440.0</ele></trkpt>
<trkpt lat="41.285040" lon="70.443003"><ele>2444.0</ele></trkpt>
<trkpt lat="41.285104" lon="70.442827"><ele>2442.0</ele></trkpt>
<trkpt lat="41.285179" lon="70.442764"><ele>2444.0</ele></trkpt>
<trkpt lat="41.285299" lon="70.442725"><ele>2446.0</ele></trkpt>
<trkpt lat="41.285385" lon="70.442628"><ele>2448.0</ele></trkpt>
<trkpt lat="41.285476" lon="70.442581"><ele>2449.0</ele></trkpt>
<trkpt lat="41.285556" lon="70.442442"><ele>2452.8</ele></trkpt>
<trkpt lat="41.285629" lon="70.442385"><ele>2454.0</ele></trkpt>
<trkpt lat="41.285675" lon="70.442322"><ele>2454.0</ele></trkpt>
<trkpt lat="41.285718" lon="70.442239"><ele>2452.0</ele></trkpt>
<trkpt lat="41.285744" lon="70.442145"><ele>2455.0</ele></trkpt>
<trkpt lat="41.285900" lon="70.441921"><ele>2460.0</ele></trkpt>
<trkpt lat="41.285948" lon="70.441682"><ele>2463.0</ele></trkpt>
<trkpt lat="41.285974" lon="70.441622"><ele>2464.0</ele></trkpt>
<trkpt lat="41.286063" lon="70.441503"><ele>2466.0</ele></trkpt>
<trkpt lat="41.286119" lon="70.441296"><ele>2472.0</ele></trkpt>
<trkpt lat="41.286260" lon="70.441212"><ele>2473.0</ele></trkpt>
<trkpt lat="41.286350" lon="70.441073"><ele>2474.0</ele></trkpt>
<trkpt lat="41.286459" lon="70.441026"><ele>2475.0</ele></trkpt>
<trkpt lat="41.286475" lon="70.440968"><ele>2475.0</ele></trkpt>
<trkpt lat="41.286498" lon="70.440947"><ele>2479.0</ele></trkpt>
<trkpt lat="41.286568" lon="70.440939"><ele>2480.0</ele></trkpt>
<trkpt lat="41.286726" lon="70.440813"><ele>2484.0</ele></trkpt>
<trkpt lat="41.286815" lon="70.440717"><ele>2486.0</ele></trkpt>
<trkpt lat="41.286864" lon="70.440616"><ele>2488.0</ele></trkpt>
<trkpt lat="41.286899" lon="70.440601"><ele>2489.0</ele></trkpt>
<trkpt lat="41.287019" lon="70.440643"><ele>2490.0</ele></trkpt>
<trkpt lat="41.287292" lon="70.440474"><ele>2495.0</ele></trkpt>
<trkpt lat="41.287378" lon="70.440457"><ele>2500.0</ele></trkpt>
<trkpt lat="41.287467" lon="70.440362"><ele>2502.0</ele></trkpt>
<trkpt lat="41.287484" lon="70.440299"><ele>2504.0</ele></trkpt>
<trkpt lat="41.287539" lon="70.440247"><ele>2506.0</ele></trkpt>
<trkpt lat="41.287608" lon="70.440250"><ele>2504.0</ele></trkpt>
<trkpt lat="41.287699" lon="70.440296"><ele>2510.0</ele></trkpt>
<trkpt lat="41.287755" lon="70.440279"><ele>2512.0</ele></trkpt>
<trkpt lat="41.287884" lon="70.440322"><ele>2513.0</ele></trkpt>
<trkpt lat="41.288103" lon="70.440327"><ele>2520.0</ele></trkpt>
<trkpt lat="41.288134" lon="70.440302"><ele>2520.0</ele></trkpt>
<trkpt lat="41.288239" lon="70.440303"><ele>2526.0</ele></trkpt>
<trkpt lat="41.288449" lon="70.440225"><ele>2532.0</ele></trkpt>
<trkpt lat="41.288485" lon="70.440230"><ele>2530.0</ele></trkpt>
<trkpt lat="41.288582" lon="70.440177"><ele>2531.0</ele></trkpt>
<trkpt lat="41.288644" lon="70.440203"><ele>2535.0</ele></trkpt>
<trkpt lat="41.288719" lon="70.440193"><ele>2534.0</ele></trkpt>
<trkpt lat="41.288757" lon="70.440219"><ele>2533.0</ele></trkpt>
<trkpt lat="41.288785" lon="70.440278"><ele>2536.0</ele></trkpt>
<trkpt lat="41.288837" lon="70.440301"><ele>2540.0</ele></trkpt>
<trkpt lat="41.289120" lon="70.440309"><ele>2549.0</ele></trkpt>
<trkpt lat="41.289207" lon="70.440290"><ele>2550.0</ele></trkpt>
<trkpt lat="41.289321" lon="70.440208"><ele>2550.0</ele></trkpt>
<trkpt lat="41.289395" lon="70.440181"><ele>2554.0</ele></trkpt>
<trkpt lat="41.289623" lon="70.440146"><ele>2556.0</ele></trkpt>
<trkpt lat="41.289742" lon="70.440176"><ele>2555.0</ele></trkpt>
<trkpt lat="41.289934" lon="70.440089"><ele>2562.0</ele></trkpt>
<trkpt lat="41.289968" lon="70.440042"><ele>2568.0</ele></trkpt>
<trkpt lat="41.290076" lon="70.440041"><ele>2568.0</ele></trkpt>
<trkpt lat="41.290128" lon="70.439956"><ele>2569.0</ele></trkpt>
<trkpt lat="41.290255" lon="70.439943"><ele>2576.0</ele></trkpt>
<trkpt lat="41.290339" lon="70.439896"><ele>2575.0</ele></trkpt>
<trkpt lat="41.290368" lon="70.439901"><ele>2578.0</ele></trkpt>
<trkpt lat="41.290567" lon="70.439822"><ele>2583.9</ele></trkpt>
<trkpt lat="41.290600" lon="70.439747"><ele>2583.0</ele></trkpt>
<trkpt lat="41.290754" lon="70.439629"><ele>2593.3</ele></trkpt>
<trkpt lat="41.290899" lon="70.439553"><ele>2598.0</ele></trkpt>
<trkpt lat="41.290912" lon="70.439473"><ele>2598.0</ele></trkpt>
<trkpt lat="41.291006" lon="70.439408"><ele>2604.0</ele></trkpt>
<trkpt lat="41.291006" lon="70.439375"><ele>2606.0</ele></trkpt>
<trkpt lat="41.291038" lon="70.439327"><ele>2601.0</ele></trkpt>
<trkpt lat="41.291280" lon="70.439217"><ele>2610.0</ele></trkpt>
<trkpt lat="41.291385" lon="70.439087"><ele>2618.0</ele></trkpt>
<trkpt lat="41.291403" lon="70.439031"><ele>2624.0</ele></trkpt>
<trkpt lat="41.291436" lon="70.438990"><ele>2626.0</ele></trkpt>
<trkpt lat="41.291449" lon="70.438917"><ele>2628.0</ele></trkpt>
<trkpt lat="41.291545" lon="70.438825"><ele>2632.0</ele></trkpt>
<trkpt lat="41.291573" lon="70.438748"><ele>2636.0</ele></trkpt>
<trkpt lat="41.291588" lon="70.438592"><ele>2641.0</ele></trkpt>
<trkpt lat="41.291685" lon="70.438556"><ele>2646.0</ele></trkpt>
<trkpt lat="41.291772" lon="70.438418"><ele>2650.0</ele></trkpt>
<trkpt lat="41.291855" lon="70.438377"><ele>2655.0</ele></trkpt>
<trkpt lat="41.291949" lon="70.438282"><ele>2653.0</ele></trkpt>
<trkpt lat="41.291991" lon="70.438149"><ele>2658.0</ele></trkpt>
<trkpt lat="41.292073" lon="70.438065"><ele>2664.0</ele></trkpt>
<trkpt lat="41.292085" lon="70.437974"><ele>2667.0</ele></trkpt>
<trkpt lat="41.292184" lon="70.437775"><ele>2676.0</ele></trkpt>
<trkpt lat="41.292212" lon="70.437687"><ele>2674.0</ele></trkpt>
<trkpt lat="41.292303" lon="70.437613"><ele>2678.0</ele></trkpt>
<trkpt lat="41.292335" lon="70.437528"><ele>2680.0</ele></trkpt>
<trkpt lat="41.292323" lon="70.437487"><ele>2681.0</ele></trkpt>
<trkpt lat="41.292392" lon="70.437452"><ele>2684.0</ele></trkpt>
<trkpt lat="41.292453" lon="70.437346"><ele>2685.0</ele></trkpt>
<trkpt lat="41.292491" lon="70.437141"><ele>2691.0</ele></trkpt>
<trkpt lat="41.292586" lon="70.436985"><ele>2695.0</ele></trkpt>
<trkpt lat="41.292592" lon="70.436935"><ele>2698.0</ele></trkpt>
<trkpt lat="41.292712" lon="70.436638"><ele>2706.0</ele></trkpt>
<trkpt lat="41.292722" lon="70.436526"><ele>2712.0</ele></trkpt>
<trkpt lat="41.292765" lon="70.436425"><ele>2710.0</ele></trkpt>
<trkpt lat="41.292763" lon="70.436342"><ele>2715.0</ele></trkpt>
<trkpt lat="41.292792" lon="70.436285"><ele>2720.0</ele></trkpt>
<trkpt lat="41.292785" lon="70.436242"><ele>2726.0</ele></trkpt>
<trkpt lat="41.292833" lon="70.436106"><ele>2731.4</ele></trkpt>
<trkpt lat="41.292833" lon="70.435884"><ele>2730.0</ele></trkpt>
<trkpt lat="41.292867" lon="70.435783"><ele>2738.0</ele></trkpt>
<trkpt lat="41.292915" lon="70.435709"><ele>2740.0</ele></trkpt>
<trkpt lat="41.292907" lon="70.435664"><ele>2746.0</ele></trkpt>
<trkpt lat="41.292996" lon="70.435614"><ele>2750.0</ele></trkpt>
<trkpt lat="41.292997" lon="70.435470"><ele>2748.0</ele></trkpt>
<trkpt lat="41.293038" lon="70.435397"><ele>2761.4</ele></trkpt>
<trkpt lat="41.292992" lon="70.435294"><ele>2758.0</ele></trkpt>
<trkpt lat="41.293019" lon="70.435187"><ele>2765.0</ele></trkpt>
<trkpt lat="41.292985" lon="70.435069"><ele>2772.0</ele></trkpt>
<trkpt lat="41.292980" lon="70.435012"><ele>2772.0</ele></trkpt>
<trkpt lat="41.292998" lon="70.434966"><ele>2777.0</ele></trkpt>
<trkpt lat="41.292982" lon="70.434886"><ele>2780.0</ele></trkpt>
<trkpt lat="41.293003" lon="70.434805"><ele>2784.0</ele></trkpt>
<trkpt lat="41.293010" lon="70.434842"><ele>2787.3</ele></trkpt>
<trkpt lat="41.293006" lon="70.434788"><ele>2784.0</ele></trkpt>
<trkpt lat="41.293049" lon="70.434646"><ele>2788.0</ele></trkpt>
<trkpt lat="41.293103" lon="70.434638"><ele>2794.0</ele></trkpt>
<trkpt lat="41.293101" lon="70.434565"><ele>2790.0</ele></trkpt>
<trkpt lat="41.293069" lon="70.434448"><ele>2795.0</ele></trkpt>
<trkpt lat="41.293161" lon="70.434333"><ele>2805.0</ele></trkpt>
<trkpt lat="41.293223" lon="70.434318"><ele>2808.0</ele></trkpt>
<trkpt lat="41.293224" lon="70.434288"><ele>2800.0</ele></trkpt>
<trkpt lat="41.293322" lon="70.434214"><ele>2816.0</ele></trkpt>
<trkpt lat="41.293458" lon="70.434290"><ele>2819.0</ele></trkpt>
<trkpt lat="41.293520" lon="70.434299"><ele>2821.0</ele></trkpt>
<trkpt lat="41.293669" lon="70.434213"><ele>2827.0</ele></trkpt>
<trkpt lat="41.293712" lon="70.434174"><ele>2830.0</ele></trkpt>
<trkpt lat="41.293708" lon="70.434115"><ele>2834.0</ele></trkpt>
<trkpt lat="41.293724" lon="70.434069"><ele>2835.0</ele></trkpt>
<trkpt lat="41.293788" lon="70.434057"><ele>2835.0</ele></trkpt>
<trkpt lat="41.293816" lon="70.434020"><ele>2838.0</ele></trkpt>
<trkpt lat="41.293814" lon="70.433972"><ele>2844.0</ele></trkpt>
<trkpt lat="41.293834" lon="70.433978"><ele>2844.0</ele></trkpt>
<trkpt lat="41.293820" lon="70.433915"><ele>2840.0</ele></trkpt>
<trkpt lat="41.293849" lon="70.433854"><ele>2850.0</ele></trkpt>
<trkpt lat="41.293842" lon="70.433781"><ele>2848.0</ele></trkpt>
<trkpt lat="41.294114" lon="70.433689"><ele>2865.0</ele></trkpt>
<trkpt lat="41.294113" lon="70.433615"><ele>2872.0</ele></trkpt>
<trkpt lat="41.294179" lon="70.433539"><ele>2876.0</ele></trkpt>
<trkpt lat="41.294208" lon="70.433556"><ele>2872.0</ele></trkpt>
<trkpt lat="41.294293" lon="70.433495"><ele>2880.0</ele></trkpt>
<trkpt lat="41.294289" lon="70.433453"><ele>2880.0</ele></trkpt>
<trkpt lat="41.294433" lon="70.433281"><ele>2894.0</ele></trkpt>
<trkpt lat="41.294485" lon="70.433254"><ele>2892.0</ele></trkpt>
<trkpt lat="41.294516" lon="70.433183"><ele>2895.0</ele></trkpt>
<trkpt lat="41.294659" lon="70.433111"><ele>2905.0</ele></trkpt>
<trkpt lat="41.294679" lon="70.433047"><ele>2901.0</ele></trkpt>
<trkpt lat="41.294714" lon="70.433023"><ele>2906.0</ele></trkpt>
<trkpt lat="41.294775" lon="70.433035"><ele>2898.0</ele></trkpt>
<trkpt lat="41.294782" lon="70.432949"><ele>2922.0</ele></trkpt>
<trkpt lat="41.294816" lon="70.432963"><ele>2916.0</ele></trkpt>
<trkpt lat="41.294845" lon="70.432942"><ele>2928.0</ele></trkpt>
<trkpt lat="41.294874" lon="70.432860"><ele>2930.0</ele></trkpt>
<trkpt lat="41.294939" lon="70.432777"><ele>2937.0</ele></trkpt>
<trkpt lat="41.294934" lon="70.432701"><ele>2940.0</ele></trkpt>
<trkpt lat="41.295002" lon="70.432665"><ele>2941.0</ele></trkpt>
<trkpt lat="41.295091" lon="70.432517"><ele>2948.0</ele></trkpt>
<trkpt lat="41.295121" lon="70.432493"><ele>2949.2</ele></trkpt>
<trkpt lat="41.295125" lon="70.432443"><ele>2945.0</ele></trkpt>
<trkpt lat="41.295238" lon="70.432295"><ele>2952.0</ele></trkpt>
<trkpt lat="41.295303" lon="70.432131"><ele>2953.0</ele></trkpt>
<trkpt lat="41.295530" lon="70.431933"><ele>2966.0</ele></trkpt>
<trkpt lat="41.295603" lon="70.431787"><ele>2971.0</ele></trkpt>
<trkpt lat="41.295760" lon="70.431635"><ele>2970.0</ele></trkpt>
<trkpt lat="41.295794" lon="70.431567"><ele>2982.0</ele></trkpt>
<trkpt lat="41.295783" lon="70.431514"><ele>2982.0</ele></trkpt>
<trkpt lat="41.295849" lon="70.431462"><ele>2986.0</ele></trkpt>
<trkpt lat="41.295875" lon="70.431405"><ele>2988.0</ele></trkpt>
<trkpt lat="41.295867" lon="70.431339"><ele>2988.0</ele></trkpt>
<trkpt lat="41.295891" lon="70.431266"><ele>2992.0</ele></trkpt>
<trkpt lat="41.295876" lon="70.431202"><ele>2996.0</ele></trkpt>
<trkpt lat="41.295930" lon="70.431092"><ele>3000.0</ele></trkpt>
<trkpt lat="41.295953" lon="70.430888"><ele>3000.0</ele></trkpt>
<trkpt lat="41.296083" lon="70.430618"><ele>3003.0</ele></trkpt>
<trkpt lat="41.296079" lon="70.430574"><ele>3014.0</ele></trkpt>
<trkpt lat="41.296047" lon="70.430519"><ele>3008.0</ele></trkpt>
<trkpt lat="41.296046" lon="70.430364"><ele>3022.0</ele></trkpt>
<trkpt lat="41.296061" lon="70.430277"><ele>3024.0</ele></trkpt>
<trkpt lat="41.296107" lon="70.430165"><ele>3028.0</ele></trkpt>
<trkpt lat="41.296233" lon="70.429728"><ele>3040.0</ele></trkpt>
<trkpt lat="41.296230" lon="70.429625"><ele>3034.0</ele></trkpt>
<trkpt lat="41.296203" lon="70.429573"><ele>3042.0</ele></trkpt>
<trkpt lat="41.296190" lon="70.429348"><ele>3041.0</ele></trkpt>
<trkpt lat="41.296233" lon="70.429249"><ele>3045.0</ele></trkpt>
<trkpt lat="41.296236" lon="70.429201"><ele>3048.0</ele></trkpt>
<trkpt lat="41.296219" lon="70.429155"><ele>3050.0</ele></trkpt>
<trkpt lat="41.296232" lon="70.429032"><ele>3050.0</ele></trkpt>
<trkpt lat="41.296301" lon="70.428818"><ele>3053.0</ele></trkpt>
<trkpt lat="41.296321" lon="70.428690"><ele>3056.0</ele></trkpt>
<trkpt lat="41.296269" lon="70.428502"><ele>3052.0</ele></trkpt>
<trkpt lat="41.296283" lon="70.428468"><ele>3064.0</ele></trkpt>
<trkpt lat="41.296270" lon="70.428394"><ele>3060.0</ele></trkpt>
<trkpt lat="41.296297" lon="70.428352"><ele>3069.0</ele></trkpt>
<trkpt lat="41.296278" lon="70.428298"><ele>3065.0</ele></trkpt>
<trkpt lat="41.296290" lon="70.428244"><ele>3070.0</ele></trkpt>
<trkpt lat="41.296397" lon="70.428217"><ele>3075.0</ele></trkpt>
<trkpt lat="41.296570" lon="70.428223"><ele>3077.0</ele></trkpt>
<trkpt lat="41.296576" lon="70.428204"><ele>3087.0</ele></trkpt>
<trkpt lat="41.296647" lon="70.428160"><ele>3088.0</ele></trkpt>
<trkpt lat="41.296684" lon="70.428030"><ele>3094.0</ele></trkpt>
<trkpt lat="41.296770" lon="70.427892"><ele>3100.0</ele></trkpt>
<trkpt lat="41.296782" lon="70.427794"><ele>3104.0</ele></trkpt>
<trkpt lat="41.296801" lon="70.427757"><ele>3103.0</ele></trkpt>
<trkpt lat="41.296776" lon="70.427695"><ele>3108.0</ele></trkpt>
<trkpt lat="41.296823" lon="70.427602"><ele>3112.0</ele></trkpt>
<trkpt lat="41.296747" lon="70.427537"><ele>3116.0</ele></trkpt>
<trkpt lat="41.296724" lon="70.427473"><ele>3120.0</ele></trkpt>
<trkpt lat="41.296745" lon="70.427382"><ele>3120.0</ele></trkpt>
<trkpt lat="41.296699" lon="70.427223"><ele>3128.0</ele></trkpt>
<trkpt lat="41.296767" lon="70.427113"><ele>3138.0</ele></trkpt>
<trkpt lat="41.296788" lon="70.426955"><ele>3135.0</ele></trkpt>
<trkpt lat="41.296904" lon="70.426797"><ele>3150.0</ele></trkpt>
<trkpt lat="41.296913" lon="70.426750"><ele>3153.0</ele></trkpt>
<trkpt lat="41.296873" lon="70.426699"><ele>3154.0</ele></trkpt>
<trkpt lat="41.296965" lon="70.426438"><ele>3164.0</ele></trkpt>
<trkpt lat="41.296927" lon="70.426304"><ele>3168.0</ele></trkpt>
<trkpt lat="41.296905" lon="70.426291"><ele>3173.0</ele></trkpt>
<trkpt lat="41.296919" lon="70.426165"><ele>3180.0</ele></trkpt>
<trkpt lat="41.296909" lon="70.426045"><ele>3184.0</ele></trkpt>
<trkpt lat="41.296937" lon="70.425870"><ele>3188.0</ele></trkpt>
<trkpt lat="41.296992" lon="70.425710"><ele>3188.0</ele></trkpt>
<trkpt lat="41.297015" lon="70.425533"><ele>3195.0</ele></trkpt>
<trkpt lat="41.297007" lon="70.425449"><ele>3196.0</ele></trkpt>
<trkpt lat="41.297073" lon="70.425269"><ele>3200.0</ele></trkpt>
<trkpt lat="41.297055" lon="70.425099"><ele>3204.0</ele></trkpt>
<trkpt lat="41.297073" lon="70.424975"><ele>3204.0</ele></trkpt>
<trkpt lat="41.297142" lon="70.424925"><ele>3207.0</ele></trkpt>
<trkpt lat="41.297162" lon="70.424833"><ele>3208.0</ele></trkpt>
<trkpt lat="41.297156" lon="70.424689"><ele>3212.0</ele></trkpt>
<trkpt lat="41.297174" lon="70.424528"><ele>3214.0</ele></trkpt>
<trkpt lat="41.297203" lon="70.424452"><ele>3216.0</ele></trkpt>
<trkpt lat="41.297232" lon="70.424292"><ele>3216.0</ele></trkpt>
<trkpt lat="41.297301" lon="70.424142"><ele>3220.0</ele></trkpt>
<trkpt lat="41.297283" lon="70.424017"><ele>3226.0</ele></trkpt>
<trkpt lat="41.297299" lon="70.423936"><ele>3227.0</ele></trkpt>
<trkpt lat="41.297265" lon="70.423866"><ele>3227.0</ele></trkpt>
<trkpt lat="41.297272" lon="70.423833"><ele>3228.0</ele></trkpt>
<trkpt lat="41.297311" lon="70.423783"><ele>3230.0</ele></trkpt>
<trkpt lat="41.297375" lon="70.423568"><ele>3231.0</ele></trkpt>
<trkpt lat="41.297351" lon="70.423436"><ele>3235.0</ele></trkpt>
<trkpt lat="41.297389" lon="70.423294"><ele>3236.0</ele></trkpt>
<trkpt lat="41.297405" lon="70.423113"><ele>3239.0</ele></trkpt>
<trkpt lat="41.297380" lon="70.423054"><ele>3240.0</ele></trkpt>
<trkpt lat="41.297392" lon="70.422959"><ele>3241.0</ele></trkpt>
<trkpt lat="41.297373" lon="70.422871"><ele>3240.9</ele></trkpt>
<trkpt lat="41.297382" lon="70.422700"><ele>3240.0</ele></trkpt>
<trkpt lat="41.297342" lon="70.422605"><ele>3243.0</ele></trkpt>
<trkpt lat="41.297338" lon="70.422554"><ele>3245.0</ele></trkpt>
<trkpt lat="41.297362" lon="70.422451"><ele>3246.0</ele></trkpt>
<trkpt lat="41.297429" lon="70.422307"><ele>3249.0</ele></trkpt>
<trkpt lat="41.297453" lon="70.422212"><ele>3250.0</ele></trkpt>
<trkpt lat="41.297460" lon="70.422076"><ele>3248.0</ele></trkpt>
<trkpt lat="41.297489" lon="70.422028"><ele>3256.0</ele></trkpt>
<trkpt lat="41.297505" lon="70.421938"><ele>3256.0</ele></trkpt>
<trkpt lat="41.297604" lon="70.421771"><ele>3258.0</ele></trkpt>
<trkpt lat="41.297643" lon="70.421627"><ele>3260.0</ele></trkpt>
<trkpt lat="41.297656" lon="70.421560"><ele>3260.0</ele></trkpt>
<trkpt lat="41.297636" lon="70.421388"><ele>3268.0</ele></trkpt>
<trkpt lat="41.297711" lon="70.421204"><ele>3272.0</ele></trkpt>
<trkpt lat="41.297772" lon="70.420805"><ele>3279.0</ele></trkpt>
<trkpt lat="41.297848" lon="70.420679"><ele>3284.0</ele></trkpt>
<trkpt lat="41.297885" lon="70.420526"><ele>3288.0</ele></trkpt>
<trkpt lat="41.297894" lon="70.420479"><ele>3289.5</ele></trkpt>
<trkpt lat="41.297875" lon="70.420497"><ele>3288.0</ele></trkpt>
<trkpt lat="41.297875" lon="70.420417"><ele>3285.0</ele></trkpt>
<trkpt lat="41.297830" lon="70.420285"><ele>3289.0</ele></trkpt>
<trkpt lat="41.297859" lon="70.420075"><ele>3300.0</ele></trkpt>
<trkpt lat="41.297860" lon="70.419963"><ele>3300.0</ele></trkpt>
<trkpt lat="41.297896" lon="70.419883"><ele>3300.0</ele></trkpt>
<trkpt lat="41.297914" lon="70.419752"><ele>3304.0</ele></trkpt>
<trkpt lat="41.298009" lon="70.419377"><ele>3308.0</ele></trkpt>
<trkpt lat="41.298109" lon="70.419142"><ele>3312.0</ele></trkpt>
<trkpt lat="41.298158" lon="70.418890"><ele>3316.0</ele></trkpt>
<trkpt lat="41.298151" lon="70.418827"><ele>3316.0</ele></trkpt>
<trkpt lat="41.298182" lon="70.418733"><ele>3316.0</ele></trkpt>
<trkpt lat="41.298171" lon="70.418674"><ele>3315.0</ele></trkpt>
<trkpt lat="41.298224" lon="70.418532"><ele>3321.0</ele></trkpt>
<trkpt lat="41.298289" lon="70.418284"><ele>3324.0</ele></trkpt>
<trkpt lat="41.298280" lon="70.418244"><ele>3325.9</ele></trkpt>
<trkpt lat="41.298321" lon="70.418122"><ele>3325.0</ele></trkpt>
<trkpt lat="41.298371" lon="70.417787"><ele>3334.0</ele></trkpt>
<trkpt lat="41.298414" lon="70.417667"><ele>3335.0</ele></trkpt>
<trkpt lat="41.298419" lon="70.417601"><ele>3339.0</ele></trkpt>
<trkpt lat="41.298404" lon="70.417561"><ele>3339.0</ele></trkpt>
<trkpt lat="41.298433" lon="70.417317"><ele>3344.0</ele></trkpt>
<trkpt lat="41.298432" lon="70.416993"><ele>3348.0</ele></trkpt>
<trkpt lat="41.298399" lon="70.416835"><ele>3352.0</ele></trkpt>
<trkpt lat="41.298432" lon="70.416548"><ele>3358.3</ele></trkpt>
<trkpt lat="41.298384" lon="70.416345"><ele>3363.0</ele></trkpt>
<trkpt lat="41.298349" lon="70.416101"><ele>3368.0</ele></trkpt>
<trkpt lat="41.298310" lon="70.416015"><ele>3370.0</ele></trkpt>
<trkpt lat="41.298306" lon="70.415950"><ele>3371.0</ele></trkpt>
<trkpt lat="41.298260" lon="70.415814"><ele>3366.0</ele></trkpt>
<trkpt lat="41.298221" lon="70.415778"><ele>3372.0</ele></trkpt>
<trkpt lat="41.298142" lon="70.415613"><ele>3377.0</ele></trkpt>
<trkpt lat="41.298106" lon="70.415580"><ele>3380.0</ele></trkpt>
<trkpt lat="41.298086" lon="70.415515"><ele>3379.0</ele></trkpt>
<trkpt lat="41.298030" lon="70.415435"><ele>3378.0</ele></trkpt>
<trkpt lat="41.298022" lon="70.415369"><ele>3381.0</ele></trkpt>
<trkpt lat="41.297997" lon="70.415320"><ele>3384.7</ele></trkpt>
<trkpt lat="41.297896" lon="70.415202"><ele>3385.0</ele></trkpt>
<trkpt lat="41.297844" lon="70.415086"><ele>3384.0</ele></trkpt>
<trkpt lat="41.297819" lon="70.414985"><ele>3385.0</ele></trkpt>
<trkpt lat="41.297773" lon="70.414898"><ele>3384.0</ele></trkpt>
<trkpt lat="41.297739" lon="70.414884"><ele>3388.0</ele></trkpt>
<trkpt lat="41.297628" lon="70.414752"><ele>3388.0</ele></trkpt>
<trkpt lat="41.297531" lon="70.414683"><ele>3396.0</ele></trkpt>
<trkpt lat="41.297422" lon="70.414571"><ele>3394.0</ele></trkpt>
<trkpt lat="41.297390" lon="70.414560"><ele>3393.0</ele></trkpt>
<trkpt lat="41.297232" lon="70.414309"><ele>3402.0</ele></trkpt>
<trkpt lat="41.297214" lon="70.414171"><ele>3401.0</ele></trkpt>
<trkpt lat="41.297175" lon="70.414054"><ele>3404.0</ele></trkpt>
<trkpt lat="41.297081" lon="70.413951"><ele>3408.0</ele></trkpt>
<trkpt lat="41.297036" lon="70.413941"><ele>3410.0</ele></trkpt>
<trkpt lat="41.296992" lon="70.413771"><ele>3414.0</ele></trkpt>
<trkpt lat="41.296933" lon="70.413691"><ele>3416.0</ele></trkpt>
<trkpt lat="41.296903" lon="70.413589"><ele>3416.0</ele></trkpt>
<trkpt lat="41.296829" lon="70.413457"><ele>3424.0</ele></trkpt>
<trkpt lat="41.296790" lon="70.413227"><ele>3423.0</ele></trkpt>
<trkpt lat="41.296792" lon="70.413076"><ele>3430.0</ele></trkpt>
<trkpt lat="41.296723" lon="70.412750"><ele>3440.0</ele></trkpt>
<trkpt lat="41.296765" lon="70.412610"><ele>3440.0</ele></trkpt>
<trkpt lat="41.296757" lon="70.412524"><ele>3444.0</ele></trkpt>
<trkpt lat="41.296818" lon="70.412353"><ele>3447.0</ele></trkpt>
<trkpt lat="41.296814" lon="70.412235"><ele>3450.0</ele></trkpt>
<trkpt lat="41.296843" lon="70.412079"><ele>3450.0</ele></trkpt>
<trkpt lat="41.296831" lon="70.412013"><ele>3451.0</ele></trkpt>
<trkpt lat="41.296839" lon="70.411925"><ele>3454.8</ele></trkpt>
<trkpt lat="41.296823" lon="70.411859"><ele>3450.0</ele></trkpt>
<trkpt lat="41.296839" lon="70.411812"><ele>3434.0</ele></trkpt>
<trkpt lat="41.296849" lon="70.411368"><ele>3455.0</ele></trkpt>
<trkpt lat="41.296803" lon="70.411142"><ele>3456.0</ele></trkpt>
<trkpt lat="41.296798" lon="70.410934"><ele>3456.0</ele></trkpt>
<trkpt lat="41.296776" lon="70.410831"><ele>3457.0</ele></trkpt>
<trkpt lat="41.296789" lon="70.410776"><ele>3456.0</ele></trkpt>
<trkpt lat="41.296725" lon="70.410576"><ele>3456.0</ele></trkpt>
<trkpt lat="41.296537" lon="70.410245"><ele>3458.0</ele></trkpt>
<trkpt lat="41.296511" lon="70.410042"><ele>3456.0</ele></trkpt>
<trkpt lat="41.296532" lon="70.409637"><ele>3456.0</ele></trkpt>
<trkpt lat="41.296517" lon="70.409522"><ele>3456.0</ele></trkpt>
<trkpt lat="41.296546" lon="70.409277"><ele>3459.0</ele></trkpt>
<trkpt lat="41.296529" lon="70.409107"><ele>3458.0</ele></trkpt>
<trkpt lat="41.296536" lon="70.408984"><ele>3456.0</ele></trkpt>
<trkpt lat="41.296579" lon="70.408809"><ele>3464.0</ele></trkpt>
<trkpt lat="41.296580" lon="70.408718"><ele>3462.0</ele></trkpt>
<trkpt lat="41.296550" lon="70.408626"><ele>3464.0</ele></trkpt>
<trkpt lat="41.296626" lon="70.408061"><ele>3470.0</ele></trkpt>
<trkpt lat="41.296667" lon="70.407903"><ele>3472.0</ele></trkpt>
<trkpt lat="41.296663" lon="70.407600"><ele>3476.0</ele></trkpt>
<trkpt lat="41.296645" lon="70.407549"><ele>3478.0</ele></trkpt>
<trkpt lat="41.296656" lon="70.407409"><ele>3480.0</ele></trkpt>
<trkpt lat="41.296638" lon="70.407254"><ele>3480.0</ele></trkpt>
<trkpt lat="41.296669" lon="70.406715"><ele>3488.0</ele></trkpt>
<trkpt lat="41.296755" lon="70.405994"><ele>3495.0</ele></trkpt>
<trkpt lat="41.296914" lon="70.405384"><ele>3500.0</ele></trkpt>
<trkpt lat="41.296941" lon="70.405067"><ele>3505.0</ele></trkpt>
<trkpt lat="41.296818" lon="70.405103"><ele>3507.0</ele></trkpt>
<trkpt lat="41.296735" lon="70.405081"><ele>3510.0</ele></trkpt>
<trkpt lat="41.296693" lon="70.405128"><ele>3510.0</ele></trkpt>
<trkpt lat="41.296608" lon="70.405035"><ele>3514.0</ele></trkpt>
<trkpt lat="41.296492" lon="70.405117"><ele>3516.0</ele></trkpt>
<trkpt lat="41.296453" lon="70.405211"><ele>3516.0</ele></trkpt>
<trkpt lat="41.296532" lon="70.404874"><ele>3516.0</ele></trkpt>
<trkpt lat="41.296577" lon="70.404822"><ele>3516.0</ele></trkpt>
<trkpt lat="41.296604" lon="70.404724"><ele>3516.0</ele></trkpt>
<trkpt lat="41.296596" lon="70.404615"><ele>3513.0</ele></trkpt>
<trkpt lat="41.296642" lon="70.404446"><ele>3516.0</ele></trkpt>
<trkpt lat="41.296650" lon="70.404316"><ele>3515.0</ele></trkpt>
<trkpt lat="41.296637" lon="70.404253"><ele>3515.0</ele></trkpt>
<trkpt lat="41.296690" lon="70.404132"><ele>3519.0</ele></trkpt>
<trkpt lat="41.296700" lon="70.404045"><ele>3520.0</ele></trkpt>
<trkpt lat="41.296757" lon="70.403962"><ele>3516.0</ele></trkpt>
<trkpt lat="41.296785" lon="70.403866"><ele>3516.0</ele></trkpt>
<trkpt lat="41.296850" lon="70.403783"><ele>3516.0</ele></trkpt>
<trkpt lat="41.296903" lon="70.403628"><ele>3516.0</ele></trkpt>
<trkpt lat="41.296923" lon="70.403405"><ele>3516.0</ele></trkpt>
<trkpt lat="41.296970" lon="70.403184"><ele>3518.0</ele></trkpt>
<trkpt lat="41.297138" lon="70.402732"><ele>3520.0</ele></trkpt>
<trkpt lat="41.297314" lon="70.402549"><ele>3520.0</ele></trkpt>
<trkpt lat="41.297359" lon="70.402475"><ele>3527.7</ele></trkpt>
<trkpt lat="41.297414" lon="70.402329"><ele>3529.0</ele></trkpt>
<trkpt lat="41.297468" lon="70.402295"><ele>3528.0</ele></trkpt>
<trkpt lat="41.297506" lon="70.402255"><ele>3533.0</ele></trkpt>
<trkpt lat="41.297528" lon="70.402203"><ele>3534.0</ele></trkpt>
<trkpt lat="41.297563" lon="70.402187"><ele>3523.0</ele></trkpt>
<trkpt lat="41.297599" lon="70.402141"><ele>3535.0</ele></trkpt>
<trkpt lat="41.297671" lon="70.401981"><ele>3536.0</ele></trkpt>
<trkpt lat="41.297762" lon="70.401923"><ele>3544.0</ele></trkpt>
<trkpt lat="41.297767" lon="70.401867"><ele>3545.0</ele></trkpt>
<trkpt lat="41.297830" lon="70.401824"><ele>3544.0</ele></trkpt>
<trkpt lat="41.297857" lon="70.401701"><ele>3546.0</ele></trkpt>
<trkpt lat="41.297893" lon="70.401657"><ele>3552.0</ele></trkpt>
<trkpt lat="41.297908" lon="70.401598"><ele>3550.0</ele></trkpt>
<trkpt lat="41.297991" lon="70.401537"><ele>3549.0</ele></trkpt>
<trkpt lat="41.298245" lon="70.401524"><ele>3552.0</ele></trkpt>
<trkpt lat="41.298258" lon="70.401437"><ele>3552.0</ele></trkpt>
<trkpt lat="41.298175" lon="70.401208"><ele>3545.0</ele></trkpt>
<trkpt lat="41.298249" lon="70.400948"><ele>3540.0</ele></trkpt>
<trkpt lat="41.298267" lon="70.400836"><ele>3540.0</ele></trkpt>
<trkpt lat="41.298320" lon="70.400670"><ele>3540.0</ele></trkpt>
<trkpt lat="41.298381" lon="70.400626"><ele>3540.0</ele></trkpt>
<trkpt lat="41.298412" lon="70.400542"><ele>3534.0</ele></trkpt>
<trkpt lat="41.298509" lon="70.400387"><ele>3535.0</ele></trkpt>
<trkpt lat="41.298569" lon="70.400130"><ele>3535.0</ele></trkpt>
<trkpt lat="41.298657" lon="70.399979"><ele>3535.0</ele></trkpt>
<trkpt lat="41.298711" lon="70.399930"><ele>3534.0</ele></trkpt>
<trkpt lat="41.298786" lon="70.399899"><ele>3538.0</ele></trkpt>
<trkpt lat="41.298814" lon="70.399867"><ele>3537.0</ele></trkpt>
<trkpt lat="41.298826" lon="70.399801"><ele>3535.0</ele></trkpt>
<trkpt lat="41.299060" lon="70.399587"><ele>3540.0</ele></trkpt>
<trkpt lat="41.299122" lon="70.399479"><ele>3538.0</ele></trkpt>
<trkpt lat="41.299164" lon="70.399451"><ele>3540.0</ele></trkpt>
<trkpt lat="41.299260" lon="70.399456"><ele>3538.0</ele></trkpt>
<trkpt lat="41.299307" lon="70.399499"><ele>3537.0</ele></trkpt>
<trkpt lat="41.299477" lon="70.399507"><ele>3534.0</ele></trkpt>
<trkpt lat="41.299531" lon="70.399486"><ele>3535.0</ele></trkpt>
<trkpt lat="41.299589" lon="70.399507"><ele>3536.0</ele></trkpt>
<trkpt lat="41.299547" lon="70.399488"><ele>3519.0</ele></trkpt>
<trkpt lat="41.299585" lon="70.399449"><ele>3535.0</ele></trkpt>
<trkpt lat="41.299659" lon="70.399298"><ele>3540.0</ele></trkpt>
<trkpt lat="41.299652" lon="70.399199"><ele>3539.0</ele></trkpt>
<trkpt lat="41.299621" lon="70.399097"><ele>3538.0</ele></trkpt>
<trkpt lat="41.299667" lon="70.398886"><ele>3537.0</ele></trkpt>
<trkpt lat="41.299688" lon="70.398827"><ele>3536.0</ele></trkpt>
<trkpt lat="41.299745" lon="70.398763"><ele>3538.0</ele></trkpt>
<trkpt lat="41.299825" lon="70.398420"><ele>3540.0</ele></trkpt>
<trkpt lat="41.299865" lon="70.398368"><ele>3542.0</ele></trkpt>
<trkpt lat="41.299877" lon="70.398325"><ele>3542.0</ele></trkpt>
<trkpt lat="41.299915" lon="70.398104"><ele>3542.0</ele></trkpt>
<trkpt lat="41.299934" lon="70.398078"><ele>3540.0</ele></trkpt>
<trkpt lat="41.299937" lon="70.398014"><ele>3546.0</ele></trkpt>
<trkpt lat="41.300034" lon="70.397968"><ele>3552.0</ele></trkpt>
<trkpt lat="41.300041" lon="70.397938"><ele>3550.0</ele></trkpt>
<trkpt lat="41.300111" lon="70.397891"><ele>3551.0</ele></trkpt>
<trkpt lat="41.300135" lon="70.397827"><ele>3555.0</ele></trkpt>
<trkpt lat="41.300159" lon="70.397673"><ele>3558.0</ele></trkpt>
<trkpt lat="41.300194" lon="70.397589"><ele>3563.0</ele></trkpt>
<trkpt lat="41.300184" lon="70.397514"><ele>3563.0</ele></trkpt>
<trkpt lat="41.300272" lon="70.397273"><ele>3570.0</ele></trkpt>
<trkpt lat="41.300286" lon="70.397199"><ele>3574.0</ele></trkpt>
<trkpt lat="41.300300" lon="70.397017"><ele>3580.0</ele></trkpt>
<trkpt lat="41.300284" lon="70.396958"><ele>3576.0</ele></trkpt>
<trkpt lat="41.300288" lon="70.396862"><ele>3582.0</ele></trkpt>
<trkpt lat="41.300321" lon="70.396699"><ele>3584.0</ele></trkpt>
<trkpt lat="41.300246" lon="70.396555"><ele>3592.0</ele></trkpt>
<trkpt lat="41.300249" lon="70.396379"><ele>3589.0</ele></trkpt>
<trkpt lat="41.300186" lon="70.396264"><ele>3600.0</ele></trkpt>
<trkpt lat="41.300196" lon="70.396214"><ele>3604.0</ele></trkpt>
<trkpt lat="41.300122" lon="70.396123"><ele>3604.0</ele></trkpt>
<trkpt lat="41.300081" lon="70.396004"><ele>3608.0</ele></trkpt>
<trkpt lat="41.300019" lon="70.395984"><ele>3608.0</ele></trkpt>
<trkpt lat="41.300041" lon="70.395915"><ele>3612.0</ele></trkpt>
<trkpt lat="41.300021" lon="70.395866"><ele>3614.0</ele></trkpt>
<trkpt lat="41.300041" lon="70.395677"><ele>3617.0</ele></trkpt>
<trkpt lat="41.300064" lon="70.395611"><ele>3614.0</ele></trkpt>
<trkpt lat="41.299920" lon="70.395486"><ele>3629.0</ele></trkpt>
<trkpt lat="41.299894" lon="70.395493"><ele>3627.0</ele></trkpt>
<trkpt lat="41.299853" lon="70.395440"><ele>3631.2</ele></trkpt>
<trkpt lat="41.299853" lon="70.395398"><ele>3626.0</ele></trkpt>
<trkpt lat="41.299727" lon="70.395353"><ele>3638.0</ele></trkpt>
<trkpt lat="41.299716" lon="70.395302"><ele>3632.0</ele></trkpt>
<trkpt lat="41.299679" lon="70.395250"><ele>3608.0</ele></trkpt>
<trkpt lat="41.299686" lon="70.395220"><ele>3639.0</ele></trkpt>
<trkpt lat="41.299638" lon="70.395109"><ele>3642.0</ele></trkpt>
<trkpt lat="41.299554" lon="70.395008"><ele>3645.0</ele></trkpt>
<trkpt lat="41.299554" lon="70.394986"><ele>3645.0</ele></trkpt>
<trkpt lat="41.299446" lon="70.394986"><ele>3652.0</ele></trkpt>
<trkpt lat="41.299465" lon="70.394918"><ele>3652.0</ele></trkpt>
<trkpt lat="41.299447" lon="70.394888"><ele>3647.0</ele></trkpt>
<trkpt lat="41.299402" lon="70.394896"><ele>3654.0</ele></trkpt>
<trkpt lat="41.299429" lon="70.394799"><ele>3659.0</ele></trkpt>
<trkpt lat="41.299406" lon="70.394770"><ele>3661.0</ele></trkpt>
<trkpt lat="41.299366" lon="70.394765"><ele>3662.0</ele></trkpt>
<trkpt lat="41.299331" lon="70.394724"><ele>3666.0</ele></trkpt>
<trkpt lat="41.299289" lon="70.394734"><ele>3666.0</ele></trkpt>
<trkpt lat="41.299296" lon="70.394685"><ele>3665.0</ele></trkpt>
<trkpt lat="41.299259" lon="70.394656"><ele>3670.0</ele></trkpt>
<trkpt lat="41.299258" lon="70.394568"><ele>3672.0</ele></trkpt>
<trkpt lat="41.299202" lon="70.394462"><ele>3680.0</ele></trkpt>
<trkpt lat="41.299221" lon="70.394362"><ele>3682.0</ele></trkpt>
<trkpt lat="41.299184" lon="70.394341"><ele>3683.0</ele></trkpt>
<trkpt lat="41.299168" lon="70.394287"><ele>3687.0</ele></trkpt>
<trkpt lat="41.299118" lon="70.394284"><ele>3688.0</ele></trkpt>
<trkpt lat="41.299029" lon="70.394228"><ele>3689.0</ele></trkpt>
<trkpt lat="41.299032" lon="70.394166"><ele>3698.0</ele></trkpt>
<trkpt lat="41.299103" lon="70.394072"><ele>3702.0</ele></trkpt>
<trkpt lat="41.299149" lon="70.393891"><ele>3707.0</ele></trkpt>
<trkpt lat="41.299121" lon="70.393858"><ele>3708.0</ele></trkpt>
<trkpt lat="41.299100" lon="70.393861"><ele>3706.0</ele></trkpt>
<trkpt lat="41.299108" lon="70.393808"><ele>3703.0</ele></trkpt>
<trkpt lat="41.299100" lon="70.393850"><ele>3707.0</ele></trkpt>
<trkpt lat="41.299061" lon="70.393854"><ele>3708.0</ele></trkpt>
<trkpt lat="41.299119" lon="70.393821"><ele>3705.6</ele></trkpt>
<trkpt lat="41.299126" lon="70.393858"><ele>3704.0</ele></trkpt>
<trkpt lat="41.299199" lon="70.393853"><ele>3703.0</ele></trkpt>
<trkpt lat="41.299228" lon="70.393884"><ele>3696.0</ele></trkpt>
<trkpt lat="41.299267" lon="70.393885"><ele>3700.0</ele></trkpt>
<trkpt lat="41.299331" lon="70.393847"><ele>3696.0</ele></trkpt>
<trkpt lat="41.299267" lon="70.393892"><ele>3696.0</ele></trkpt>
<trkpt lat="41.299209" lon="70.394092"><ele>3690.0</ele></trkpt>
<trkpt lat="41.299166" lon="70.394121"><ele>3691.0</ele></trkpt>
<trkpt lat="41.299082" lon="70.394377"><ele>3684.0</ele></trkpt>
<trkpt lat="41.299151" lon="70.394409"><ele>3680.0</ele></trkpt>
<trkpt lat="41.299306" lon="70.394440"><ele>3672.0</ele></trkpt>
<trkpt lat="41.299309" lon="70.394510"><ele>3657.0</ele></trkpt>
<trkpt lat="41.299399" lon="70.394546"><ele>3664.0</ele></trkpt>
<trkpt lat="41.299386" lon="70.394717"><ele>3662.0</ele></trkpt>
<trkpt lat="41.299415" lon="70.394742"><ele>3660.0</ele></trkpt>
<trkpt lat="41.299414" lon="70.394769"><ele>3655.0</ele></trkpt>
<trkpt lat="41.299389" lon="70.394790"><ele>3659.0</ele></trkpt>
<trkpt lat="41.299410" lon="70.394834"><ele>3653.0</ele></trkpt>
<trkpt lat="41.299442" lon="70.394875"><ele>3651.0</ele></trkpt>
<trkpt lat="41.299509" lon="70.394833"><ele>3652.4</ele></trkpt>
<trkpt lat="41.299522" lon="70.394843"><ele>3651.0</ele></trkpt>
<trkpt lat="41.299687" lon="70.394997"><ele>3640.0</ele></trkpt>
<trkpt lat="41.299706" lon="70.395084"><ele>3640.0</ele></trkpt>
<trkpt lat="41.299761" lon="70.395146"><ele>3640.0</ele></trkpt>
<trkpt lat="41.299715" lon="70.395168"><ele>3635.0</ele></trkpt>
<trkpt lat="41.299715" lon="70.395262"><ele>3633.0</ele></trkpt>
<trkpt lat="41.299743" lon="70.395342"><ele>3629.0</ele></trkpt>
<trkpt lat="41.299704" lon="70.395474"><ele>3630.0</ele></trkpt>
<trkpt lat="41.299824" lon="70.395597"><ele>3623.0</ele></trkpt>
<trkpt lat="41.299842" lon="70.395764"><ele>3612.0</ele></trkpt>
<trkpt lat="41.299833" lon="70.395836"><ele>3612.0</ele></trkpt>
<trkpt lat="41.299891" lon="70.395893"><ele>3610.0</ele></trkpt>
<trkpt lat="41.299876" lon="70.396019"><ele>3600.0</ele></trkpt>
<trkpt lat="41.299911" lon="70.396152"><ele>3601.0</ele></trkpt>
<trkpt lat="41.299877" lon="70.396263"><ele>3598.0</ele></trkpt>
<trkpt lat="41.299890" lon="70.396295"><ele>3588.0</ele></trkpt>
<trkpt lat="41.299873" lon="70.396320"><ele>3597.0</ele></trkpt>
<trkpt lat="41.299885" lon="70.396489"><ele>3588.0</ele></trkpt>
<trkpt lat="41.299873" lon="70.396586"><ele>3586.0</ele></trkpt>
<trkpt lat="41.299905" lon="70.396681"><ele>3584.0</ele></trkpt>
<trkpt lat="41.299896" lon="70.396722"><ele>3575.0</ele></trkpt>
<trkpt lat="41.299915" lon="70.396763"><ele>3582.0</ele></trkpt>
<trkpt lat="41.299914" lon="70.396838"><ele>3576.0</ele></trkpt>
<trkpt lat="41.299877" lon="70.396896"><ele>3576.0</ele></trkpt>
<trkpt lat="41.299885" lon="70.397094"><ele>3564.0</ele></trkpt>
<trkpt lat="41.299812" lon="70.397244"><ele>3558.0</ele></trkpt>
<trkpt lat="41.299846" lon="70.397414"><ele>3560.0</ele></trkpt>
<trkpt lat="41.299956" lon="70.397428"><ele>3560.0</ele></trkpt>
<trkpt lat="41.299995" lon="70.397452"><ele>3559.0</ele></trkpt>
<trkpt lat="41.299974" lon="70.397571"><ele>3558.0</ele></trkpt>
<trkpt lat="41.300023" lon="70.397666"><ele>3551.0</ele></trkpt>
<trkpt lat="41.300023" lon="70.397737"><ele>3551.0</ele></trkpt>
<trkpt lat="41.300184" lon="70.398027"><ele>3545.0</ele></trkpt>
<trkpt lat="41.300186" lon="70.398173"><ele>3544.0</ele></trkpt>
<trkpt lat="41.300149" lon="70.398310"><ele>3540.0</ele></trkpt>
<trkpt lat="41.300154" lon="70.398397"><ele>3540.0</ele></trkpt>
<trkpt lat="41.300172" lon="70.398443"><ele>3531.0</ele></trkpt>
<trkpt lat="41.300109" lon="70.398549"><ele>3535.0</ele></trkpt>
<trkpt lat="41.300121" lon="70.398666"><ele>3534.0</ele></trkpt>
<trkpt lat="41.300103" lon="70.398957"><ele>3530.0</ele></trkpt>
<trkpt lat="41.300117" lon="70.399083"><ele>3534.0</ele></trkpt>
<trkpt lat="41.300094" lon="70.399149"><ele>3534.0</ele></trkpt>
<trkpt lat="41.300126" lon="70.399577"><ele>3532.0</ele></trkpt>
<trkpt lat="41.300111" lon="70.399822"><ele>3532.0</ele></trkpt>
<trkpt lat="41.300229" lon="70.400098"><ele>3530.0</ele></trkpt>
<trkpt lat="41.300231" lon="70.400268"><ele>3534.0</ele></trkpt>
<trkpt lat="41.300247" lon="70.400327"><ele>3534.0</ele></trkpt>
<trkpt lat="41.300246" lon="70.400548"><ele>3532.0</ele></trkpt>
<trkpt lat="41.300228" lon="70.400577"><ele>3534.0</ele></trkpt>
<trkpt lat="41.300221" lon="70.400702"><ele>3530.0</ele></trkpt>
<trkpt lat="41.300138" lon="70.400864"><ele>3531.0</ele></trkpt>
<trkpt lat="41.300087" lon="70.400932"><ele>3531.0</ele></trkpt>
<trkpt lat="41.300027" lon="70.400960"><ele>3532.0</ele></trkpt>
<trkpt lat="41.300033" lon="70.401055"><ele>3532.0</ele></trkpt>
<trkpt lat="41.300097" lon="70.401172"><ele>3532.0</ele></trkpt>
<trkpt lat="41.300122" lon="70.401252"><ele>3531.0</ele></trkpt>
<trkpt lat="41.300052" lon="70.401340"><ele>3531.0</ele></trkpt>
<trkpt lat="41.300039" lon="70.401380"><ele>3532.0</ele></trkpt>
<trkpt lat="41.299968" lon="70.401447"><ele>3534.0</ele></trkpt>
<trkpt lat="41.299972" lon="70.401492"><ele>3533.0</ele></trkpt>
<trkpt lat="41.299954" lon="70.401544"><ele>3533.0</ele></trkpt>
<trkpt lat="41.299932" lon="70.401729"><ele>3532.0</ele></trkpt>
<trkpt lat="41.299792" lon="70.401961"><ele>3532.0</ele></trkpt>
<trkpt lat="41.299701" lon="70.402210"><ele>3534.0</ele></trkpt>
<trkpt lat="41.299625" lon="70.402333"><ele>3536.0</ele></trkpt>
<trkpt lat="41.299608" lon="70.402405"><ele>3536.0</ele></trkpt>
<trkpt lat="41.299618" lon="70.402599"><ele>3534.0</ele></trkpt>
<trkpt lat="41.299638" lon="70.402672"><ele>3536.0</ele></trkpt>
<trkpt lat="41.299653" lon="70.402812"><ele>3534.0</ele></trkpt>
<trkpt lat="41.299642" lon="70.402848"><ele>3536.0</ele></trkpt>
<trkpt lat="41.299657" lon="70.402901"><ele>3534.0</ele></trkpt>
<trkpt lat="41.299594" lon="70.402995"><ele>3531.0</ele></trkpt>
<trkpt lat="41.299599" lon="70.403030"><ele>3531.0</ele></trkpt>
<trkpt lat="41.299483" lon="70.403139"><ele>3525.0</ele></trkpt>
<trkpt lat="41.299483" lon="70.403176"><ele>3525.0</ele></trkpt>
<trkpt lat="41.299382" lon="70.403364"><ele>3522.0</ele></trkpt>
<trkpt lat="41.299364" lon="70.403546"><ele>3515.0</ele></trkpt>
<trkpt lat="41.299323" lon="70.403595"><ele>3516.0</ele></trkpt>
<trkpt lat="41.299337" lon="70.403629"><ele>3515.0</ele></trkpt>
<trkpt lat="41.299335" lon="70.403714"><ele>3512.0</ele></trkpt>
<trkpt lat="41.299359" lon="70.403790"><ele>3510.0</ele></trkpt>
<trkpt lat="41.299307" lon="70.403864"><ele>3504.0</ele></trkpt>
<trkpt lat="41.299268" lon="70.403962"><ele>3504.0</ele></trkpt>
<trkpt lat="41.299218" lon="70.404013"><ele>3504.3</ele></trkpt>
<trkpt lat="41.299184" lon="70.404104"><ele>3500.0</ele></trkpt>
<trkpt lat="41.299152" lon="70.404136"><ele>3500.0</ele></trkpt>
<trkpt lat="41.299147" lon="70.404171"><ele>3498.0</ele></trkpt>
<trkpt lat="41.299123" lon="70.404196"><ele>3500.0</ele></trkpt>
<trkpt lat="41.299059" lon="70.404213"><ele>3497.0</ele></trkpt>
<trkpt lat="41.299050" lon="70.404248"><ele>3496.0</ele></trkpt>
<trkpt lat="41.298992" lon="70.404290"><ele>3493.0</ele></trkpt>
<trkpt lat="41.298918" lon="70.404385"><ele>3489.0</ele></trkpt>
<trkpt lat="41.298894" lon="70.404559"><ele>3486.0</ele></trkpt>
<trkpt lat="41.298898" lon="70.404717"><ele>3484.0</ele></trkpt>
<trkpt lat="41.298889" lon="70.404793"><ele>3483.0</ele></trkpt>
<trkpt lat="41.298855" lon="70.404847"><ele>3483.0</ele></trkpt>
<trkpt lat="41.298863" lon="70.404887"><ele>3483.0</ele></trkpt>
<trkpt lat="41.298851" lon="70.404957"><ele>3482.0</ele></trkpt>
<trkpt lat="41.298813" lon="70.404988"><ele>3480.0</ele></trkpt>
<trkpt lat="41.298770" lon="70.405087"><ele>3481.0</ele></trkpt>
<trkpt lat="41.298747" lon="70.405252"><ele>3480.0</ele></trkpt>
<trkpt lat="41.298673" lon="70.405445"><ele>3480.0</ele></trkpt>
<trkpt lat="41.298625" lon="70.405658"><ele>3480.0</ele></trkpt>
<trkpt lat="41.298624" lon="70.405735"><ele>3480.0</ele></trkpt>
<trkpt lat="41.298566" lon="70.405903"><ele>3479.0</ele></trkpt>
<trkpt lat="41.298503" lon="70.406391"><ele>3477.0</ele></trkpt>
<trkpt lat="41.298499" lon="70.406605"><ele>3476.0</ele></trkpt>
<trkpt lat="41.298474" lon="70.406654"><ele>3476.0</ele></trkpt>
<trkpt lat="41.298467" lon="70.406789"><ele>3474.0</ele></trkpt>
<trkpt lat="41.298431" lon="70.406935"><ele>3471.0</ele></trkpt>
<trkpt lat="41.298407" lon="70.407165"><ele>3471.0</ele></trkpt>
<trkpt lat="41.298341" lon="70.407426"><ele>3469.0</ele></trkpt>
<trkpt lat="41.298330" lon="70.407588"><ele>3466.0</ele></trkpt>
<trkpt lat="41.298300" lon="70.407624"><ele>3465.0</ele></trkpt>
<trkpt lat="41.298274" lon="70.407750"><ele>3464.0</ele></trkpt>
<trkpt lat="41.298208" lon="70.407920"><ele>3462.0</ele></trkpt>
<trkpt lat="41.298086" lon="70.408347"><ele>3462.0</ele></trkpt>
<trkpt lat="41.298083" lon="70.408479"><ele>3460.0</ele></trkpt>
<trkpt lat="41.298041" lon="70.408580"><ele>3460.0</ele></trkpt>
<trkpt lat="41.297937" lon="70.408977"><ele>3456.0</ele></trkpt>
<trkpt lat="41.297951" lon="70.409228"><ele>3455.0</ele></trkpt>
<trkpt lat="41.297943" lon="70.409298"><ele>3456.0</ele></trkpt>
<trkpt lat="41.297912" lon="70.409355"><ele>3456.0</ele></trkpt>
<trkpt lat="41.297917" lon="70.409611"><ele>3453.0</ele></trkpt>
<trkpt lat="41.297889" lon="70.409792"><ele>3453.0</ele></trkpt>
<trkpt lat="41.297858" lon="70.409867"><ele>3454.0</ele></trkpt>
<trkpt lat="41.297857" lon="70.409946"><ele>3455.0</ele></trkpt>
<trkpt lat="41.297809" lon="70.410088"><ele>3456.0</ele></trkpt>
<trkpt lat="41.297772" lon="70.410334"><ele>3454.0</ele></trkpt>
<trkpt lat="41.297714" lon="70.410516"><ele>3454.0</ele></trkpt>
<trkpt lat="41.297700" lon="70.410610"><ele>3456.0</ele></trkpt>
<trkpt lat="41.297669" lon="70.410681"><ele>3456.0</ele></trkpt>
<trkpt lat="41.297638" lon="70.410818"><ele>3458.0</ele></trkpt>
<trkpt lat="41.297619" lon="70.410844"><ele>3456.0</ele></trkpt>
<trkpt lat="41.297609" lon="70.410915"><ele>3456.0</ele></trkpt>
<trkpt lat="41.297568" lon="70.410974"><ele>3458.0</ele></trkpt>
<trkpt lat="41.297538" lon="70.411074"><ele>3458.0</ele></trkpt>
<trkpt lat="41.297362" lon="70.411397"><ele>3454.0</ele></trkpt>
<trkpt lat="41.297183" lon="70.411622"><ele>3453.0</ele></trkpt>
<trkpt lat="41.297145" lon="70.411722"><ele>3453.0</ele></trkpt>
<trkpt lat="41.297137" lon="70.411787"><ele>3450.0</ele></trkpt>
<trkpt lat="41.297099" lon="70.411859"><ele>3450.0</ele></trkpt>
<trkpt lat="41.297012" lon="70.411896"><ele>3447.0</ele></trkpt>
<trkpt lat="41.296999" lon="70.411930"><ele>3447.0</ele></trkpt>
<trkpt lat="41.297002" lon="70.412022"><ele>3444.0</ele></trkpt>
<trkpt lat="41.296978" lon="70.412116"><ele>3444.0</ele></trkpt>
<trkpt lat="41.296964" lon="70.412146"><ele>3444.0</ele></trkpt>
<trkpt lat="41.296902" lon="70.412166"><ele>3445.0</ele></trkpt>
<trkpt lat="41.296852" lon="70.412235"><ele>3444.0</ele></trkpt>
<trkpt lat="41.296844" lon="70.412352"><ele>3442.0</ele></trkpt>
<trkpt lat="41.296825" lon="70.412378"><ele>3442.0</ele></trkpt>
<trkpt lat="41.296786" lon="70.412540"><ele>3439.0</ele></trkpt>
<trkpt lat="41.296791" lon="70.412830"><ele>3432.0</ele></trkpt>
<trkpt lat="41.296780" lon="70.412966"><ele>3429.0</ele></trkpt>
<trkpt lat="41.296756" lon="70.413032"><ele>3428.0</ele></trkpt>
<trkpt lat="41.296746" lon="70.413147"><ele>3426.0</ele></trkpt>
<trkpt lat="41.296757" lon="70.413206"><ele>3422.0</ele></trkpt>
<trkpt lat="41.296742" lon="70.413271"><ele>3424.0</ele></trkpt>
<trkpt lat="41.296763" lon="70.413328"><ele>3424.0</ele></trkpt>
<trkpt lat="41.296758" lon="70.413478"><ele>3420.0</ele></trkpt>
<trkpt lat="41.296716" lon="70.413621"><ele>3419.0</ele></trkpt>
<trkpt lat="41.296751" lon="70.413668"><ele>3417.0</ele></trkpt>
<trkpt lat="41.296764" lon="70.413780"><ele>3416.0</ele></trkpt>
<trkpt lat="41.296712" lon="70.413914"><ele>3414.0</ele></trkpt>
<trkpt lat="41.296721" lon="70.414018"><ele>3414.0</ele></trkpt>
<trkpt lat="41.296744" lon="70.414083"><ele>3414.0</ele></trkpt>
<trkpt lat="41.296742" lon="70.414203"><ele>3411.0</ele></trkpt>
<trkpt lat="41.296763" lon="70.414262"><ele>3410.0</ele></trkpt>
<trkpt lat="41.296761" lon="70.414529"><ele>3408.0</ele></trkpt>
<trkpt lat="41.296822" lon="70.414736"><ele>3408.0</ele></trkpt>
<trkpt lat="41.297026" lon="70.415139"><ele>3406.0</ele></trkpt>
<trkpt lat="41.297047" lon="70.415215"><ele>3405.0</ele></trkpt>
<trkpt lat="41.297124" lon="70.415329"><ele>3405.0</ele></trkpt>
<trkpt lat="41.297156" lon="70.415338"><ele>3402.0</ele></trkpt>
<trkpt lat="41.297246" lon="70.415428"><ele>3400.0</ele></trkpt>
<trkpt lat="41.297277" lon="70.415481"><ele>3399.0</ele></trkpt>
<trkpt lat="41.297334" lon="70.415511"><ele>3395.0</ele></trkpt>
<trkpt lat="41.297445" lon="70.415637"><ele>3395.0</ele></trkpt>
<trkpt lat="41.297541" lon="70.415705"><ele>3392.0</ele></trkpt>
<trkpt lat="41.297608" lon="70.415810"><ele>3390.0</ele></trkpt>
<trkpt lat="41.297665" lon="70.415859"><ele>3390.0</ele></trkpt>
<trkpt lat="41.297776" lon="70.416100"><ele>3387.0</ele></trkpt>
<trkpt lat="41.297834" lon="70.416161"><ele>3386.0</ele></trkpt>
<trkpt lat="41.297846" lon="70.416209"><ele>3381.0</ele></trkpt>
<trkpt lat="41.297786" lon="70.416459"><ele>3384.0</ele></trkpt>
<trkpt lat="41.297758" lon="70.416515"><ele>3381.0</ele></trkpt>
<trkpt lat="41.297781" lon="70.416626"><ele>3375.0</ele></trkpt>
<trkpt lat="41.297889" lon="70.416589"><ele>3372.0</ele></trkpt>
<trkpt lat="41.297923" lon="70.416638"><ele>3362.0</ele></trkpt>
<trkpt lat="41.298032" lon="70.416609"><ele>3364.0</ele></trkpt>
<trkpt lat="41.298112" lon="70.416627"><ele>3359.0</ele></trkpt>
<trkpt lat="41.298137" lon="70.416668"><ele>3353.0</ele></trkpt>
<trkpt lat="41.298134" lon="70.416808"><ele>3355.0</ele></trkpt>
<trkpt lat="41.298203" lon="70.416852"><ele>3352.0</ele></trkpt>
<trkpt lat="41.298256" lon="70.416937"><ele>3348.0</ele></trkpt>
<trkpt lat="41.298273" lon="70.417021"><ele>3345.0</ele></trkpt>
<trkpt lat="41.298266" lon="70.417162"><ele>3342.0</ele></trkpt>
<trkpt lat="41.298237" lon="70.417249"><ele>3341.0</ele></trkpt>
<trkpt lat="41.298306" lon="70.417433"><ele>3338.0</ele></trkpt>
<trkpt lat="41.298338" lon="70.417453"><ele>3336.0</ele></trkpt>
<trkpt lat="41.298313" lon="70.417497"><ele>3335.0</ele></trkpt>
<trkpt lat="41.298305" lon="70.417576"><ele>3332.0</ele></trkpt>
<trkpt lat="41.298326" lon="70.417619"><ele>3331.0</ele></trkpt>
<trkpt lat="41.298304" lon="70.417744"><ele>3327.0</ele></trkpt>
<trkpt lat="41.298318" lon="70.417853"><ele>3324.0</ele></trkpt>
<trkpt lat="41.298359" lon="70.417898"><ele>3325.0</ele></trkpt>
<trkpt lat="41.298378" lon="70.418015"><ele>3322.0</ele></trkpt>
<trkpt lat="41.298347" lon="70.418088"><ele>3321.0</ele></trkpt>
<trkpt lat="41.298330" lon="70.418192"><ele>3318.0</ele></trkpt>
<trkpt lat="41.298372" lon="70.418250"><ele>3315.0</ele></trkpt>
<trkpt lat="41.298361" lon="70.418320"><ele>3315.0</ele></trkpt>
<trkpt lat="41.298401" lon="70.418522"><ele>3313.7</ele></trkpt>
<trkpt lat="41.298391" lon="70.418623"><ele>3310.0</ele></trkpt>
<trkpt lat="41.298365" lon="70.418690"><ele>3310.0</ele></trkpt>
<trkpt lat="41.298376" lon="70.418732"><ele>3307.0</ele></trkpt>
<trkpt lat="41.298336" lon="70.418787"><ele>3308.0</ele></trkpt>
<trkpt lat="41.298296" lon="70.418905"><ele>3307.0</ele></trkpt>
<trkpt lat="41.298314" lon="70.418976"><ele>3305.0</ele></trkpt>
<trkpt lat="41.298310" lon="70.419101"><ele>3298.0</ele></trkpt>
<trkpt lat="41.298260" lon="70.419201"><ele>3302.0</ele></trkpt>
<trkpt lat="41.298175" lon="70.419452"><ele>3296.0</ele></trkpt>
<trkpt lat="41.298229" lon="70.419494"><ele>3290.0</ele></trkpt>
<trkpt lat="41.298227" lon="70.419531"><ele>3292.0</ele></trkpt>
<trkpt lat="41.298154" lon="70.419673"><ele>3292.0</ele></trkpt>
<trkpt lat="41.298103" lon="70.419739"><ele>3291.0</ele></trkpt>
<trkpt lat="41.298065" lon="70.419761"><ele>3291.0</ele></trkpt>
<trkpt lat="41.297991" lon="70.419880"><ele>3292.0</ele></trkpt>
<trkpt lat="41.297969" lon="70.419955"><ele>3292.0</ele></trkpt>
<trkpt lat="41.297888" lon="70.420067"><ele>3291.0</ele></trkpt>
<trkpt lat="41.297699" lon="70.420476"><ele>3283.0</ele></trkpt>
<trkpt lat="41.297750" lon="70.420491"><ele>3280.0</ele></trkpt>
<trkpt lat="41.297766" lon="70.420557"><ele>3280.0</ele></trkpt>
<trkpt lat="41.297820" lon="70.420574"><ele>3276.0</ele></trkpt>
<trkpt lat="41.297783" lon="70.420753"><ele>3270.0</ele></trkpt>
<trkpt lat="41.297767" lon="70.421028"><ele>3266.0</ele></trkpt>
<trkpt lat="41.297738" lon="70.421202"><ele>3263.0</ele></trkpt>
<trkpt lat="41.297703" lon="70.421243"><ele>3264.0</ele></trkpt>
<trkpt lat="41.297684" lon="70.421307"><ele>3255.0</ele></trkpt>
<trkpt lat="41.297695" lon="70.421375"><ele>3258.0</ele></trkpt>
<trkpt lat="41.297738" lon="70.421334"><ele>3258.0</ele></trkpt>
<trkpt lat="41.297795" lon="70.421343"><ele>3255.0</ele></trkpt>
<trkpt lat="41.297753" lon="70.421706"><ele>3253.0</ele></trkpt>
<trkpt lat="41.297811" lon="70.421875"><ele>3250.0</ele></trkpt>
<trkpt lat="41.297888" lon="70.422273"><ele>3244.0</ele></trkpt>
<trkpt lat="41.297884" lon="70.422310"><ele>3244.0</ele></trkpt>
<trkpt lat="41.297860" lon="70.422457"><ele>3240.0</ele></trkpt>
<trkpt lat="41.297833" lon="70.422512"><ele>3240.0</ele></trkpt>
<trkpt lat="41.297834" lon="70.422587"><ele>3237.0</ele></trkpt>
<trkpt lat="41.297735" lon="70.422886"><ele>3234.0</ele></trkpt>
<trkpt lat="41.297646" lon="70.423007"><ele>3231.0</ele></trkpt>
<trkpt lat="41.297626" lon="70.423125"><ele>3234.0</ele></trkpt>
<trkpt lat="41.297595" lon="70.423190"><ele>3232.0</ele></trkpt>
<trkpt lat="41.297544" lon="70.423140"><ele>3232.0</ele></trkpt>
<trkpt lat="41.297508" lon="70.423140"><ele>3236.0</ele></trkpt>
<trkpt lat="41.297389" lon="70.423331"><ele>3233.1</ele></trkpt>
<trkpt lat="41.297389" lon="70.423357"><ele>3232.0</ele></trkpt>
<trkpt lat="41.297364" lon="70.423391"><ele>3232.0</ele></trkpt>
<trkpt lat="41.297348" lon="70.423508"><ele>3229.0</ele></trkpt>
<trkpt lat="41.297314" lon="70.423584"><ele>3225.0</ele></trkpt>
<trkpt lat="41.297303" lon="70.423675"><ele>3224.0</ele></trkpt>
<trkpt lat="41.297312" lon="70.423705"><ele>3225.0</ele></trkpt>
<trkpt lat="41.297297" lon="70.423739"><ele>3225.0</ele></trkpt>
<trkpt lat="41.297285" lon="70.423877"><ele>3225.0</ele></trkpt>
<trkpt lat="41.297274" lon="70.423906"><ele>3222.0</ele></trkpt>
<trkpt lat="41.297243" lon="70.423904"><ele>3222.0</ele></trkpt>
<trkpt lat="41.297226" lon="70.423929"><ele>3224.0</ele></trkpt>
<trkpt lat="41.297205" lon="70.424136"><ele>3219.0</ele></trkpt>
<trkpt lat="41.297271" lon="70.424182"><ele>3211.0</ele></trkpt>
<trkpt lat="41.297288" lon="70.424237"><ele>3211.0</ele></trkpt>
<trkpt lat="41.297256" lon="70.424303"><ele>3210.0</ele></trkpt>
<trkpt lat="41.297204" lon="70.424512"><ele>3210.0</ele></trkpt>
<trkpt lat="41.297182" lon="70.424701"><ele>3204.0</ele></trkpt>
<trkpt lat="41.297185" lon="70.424875"><ele>3200.0</ele></trkpt>
<trkpt lat="41.297166" lon="70.424935"><ele>3201.0</ele></trkpt>
<trkpt lat="41.297129" lon="70.424949"><ele>3199.0</ele></trkpt>
<trkpt lat="41.297093" lon="70.425012"><ele>3200.0</ele></trkpt>
<trkpt lat="41.297091" lon="70.425106"><ele>3196.0</ele></trkpt>
<trkpt lat="41.297117" lon="70.425182"><ele>3195.0</ele></trkpt>
<trkpt lat="41.297057" lon="70.425322"><ele>3196.0</ele></trkpt>
<trkpt lat="41.297061" lon="70.425471"><ele>3189.0</ele></trkpt>
<trkpt lat="41.297046" lon="70.425533"><ele>3186.0</ele></trkpt>
<trkpt lat="41.296920" lon="70.425760"><ele>3184.0</ele></trkpt>
<trkpt lat="41.296940" lon="70.425855"><ele>3180.0</ele></trkpt>
<trkpt lat="41.296928" lon="70.426005"><ele>3173.0</ele></trkpt>
<trkpt lat="41.296936" lon="70.426070"><ele>3176.0</ele></trkpt>
<trkpt lat="41.296853" lon="70.426254"><ele>3167.0</ele></trkpt>
<trkpt lat="41.296841" lon="70.426334"><ele>3165.0</ele></trkpt>
<trkpt lat="41.296817" lon="70.426366"><ele>3161.0</ele></trkpt>
<trkpt lat="41.296733" lon="70.426409"><ele>3164.0</ele></trkpt>
<trkpt lat="41.296763" lon="70.426432"><ele>3159.0</ele></trkpt>
<trkpt lat="41.296720" lon="70.426477"><ele>3160.0</ele></trkpt>
<trkpt lat="41.296603" lon="70.426505"><ele>3150.0</ele></trkpt>
<trkpt lat="41.296457" lon="70.426499"><ele>3148.0</ele></trkpt>
<trkpt lat="41.296310" lon="70.426538"><ele>3141.0</ele></trkpt>
<trkpt lat="41.296307" lon="70.426571"><ele>3136.0</ele></trkpt>
<trkpt lat="41.296179" lon="70.426712"><ele>3132.0</ele></trkpt>
<trkpt lat="41.296161" lon="70.426908"><ele>3123.0</ele></trkpt>
<trkpt lat="41.296186" lon="70.426952"><ele>3120.0</ele></trkpt>
<trkpt lat="41.296174" lon="70.426988"><ele>3120.0</ele></trkpt>
<trkpt lat="41.296193" lon="70.427039"><ele>3115.0</ele></trkpt>
<trkpt lat="41.296171" lon="70.427083"><ele>3117.0</ele></trkpt>
<trkpt lat="41.296189" lon="70.427114"><ele>3116.0</ele></trkpt>
<trkpt lat="41.296161" lon="70.427145"><ele>3113.0</ele></trkpt>
<trkpt lat="41.296119" lon="70.427307"><ele>3111.0</ele></trkpt>
<trkpt lat="41.296141" lon="70.427474"><ele>3105.0</ele></trkpt>
<trkpt lat="41.296102" lon="70.427533"><ele>3102.0</ele></trkpt>
<trkpt lat="41.296160" lon="70.427545"><ele>3104.0</ele></trkpt>
<trkpt lat="41.296205" lon="70.427519"><ele>3100.0</ele></trkpt>
<trkpt lat="41.296157" lon="70.427644"><ele>3096.0</ele></trkpt>
<trkpt lat="41.296158" lon="70.427679"><ele>3097.0</ele></trkpt>
<trkpt lat="41.296081" lon="70.427816"><ele>3094.0</ele></trkpt>
<trkpt lat="41.296049" lon="70.427970"><ele>3092.0</ele></trkpt>
<trkpt lat="41.296071" lon="70.428056"><ele>3088.0</ele></trkpt>
<trkpt lat="41.296017" lon="70.428387"><ele>3082.0</ele></trkpt>
<trkpt lat="41.296016" lon="70.428529"><ele>3075.0</ele></trkpt>
<trkpt lat="41.295999" lon="70.428638"><ele>3073.0</ele></trkpt>
<trkpt lat="41.296022" lon="70.428779"><ele>3069.0</ele></trkpt>
<trkpt lat="41.295999" lon="70.428848"><ele>3068.0</ele></trkpt>
<trkpt lat="41.296001" lon="70.428912"><ele>3066.0</ele></trkpt>
<trkpt lat="41.295963" lon="70.429127"><ele>3062.7</ele></trkpt>
<trkpt lat="41.295923" lon="70.429221"><ele>3060.0</ele></trkpt>
<trkpt lat="41.295946" lon="70.429241"><ele>3060.0</ele></trkpt>
<trkpt lat="41.295900" lon="70.429268"><ele>3062.0</ele></trkpt>
<trkpt lat="41.295912" lon="70.429324"><ele>3059.0</ele></trkpt>
<trkpt lat="41.295893" lon="70.429361"><ele>3055.0</ele></trkpt>
<trkpt lat="41.295910" lon="70.429414"><ele>3055.0</ele></trkpt>
<trkpt lat="41.295892" lon="70.429498"><ele>3055.0</ele></trkpt>
<trkpt lat="41.295842" lon="70.429558"><ele>3050.0</ele></trkpt>
<trkpt lat="41.295873" lon="70.429566"><ele>3048.0</ele></trkpt>
<trkpt lat="41.295860" lon="70.429605"><ele>3048.0</ele></trkpt>
<trkpt lat="41.295885" lon="70.429631"><ele>3048.0</ele></trkpt>
<trkpt lat="41.295884" lon="70.429672"><ele>3048.0</ele></trkpt>
<trkpt lat="41.295865" lon="70.429700"><ele>3047.0</ele></trkpt>
<trkpt lat="41.295885" lon="70.429784"><ele>3045.0</ele></trkpt>
<trkpt lat="41.295837" lon="70.429876"><ele>3043.0</ele></trkpt>
<trkpt lat="41.295852" lon="70.429979"><ele>3036.0</ele></trkpt>
<trkpt lat="41.295814" lon="70.430081"><ele>3038.0</ele></trkpt>
<trkpt lat="41.295839" lon="70.430102"><ele>3036.0</ele></trkpt>
<trkpt lat="41.295839" lon="70.430154"><ele>3034.0</ele></trkpt>
<trkpt lat="41.295872" lon="70.430178"><ele>3031.0</ele></trkpt>
<trkpt lat="41.295833" lon="70.430278"><ele>3029.0</ele></trkpt>
<trkpt lat="41.295829" lon="70.430314"><ele>3028.0</ele></trkpt>
<trkpt lat="41.295850" lon="70.430338"><ele>3020.0</ele></trkpt>
<trkpt lat="41.295822" lon="70.430463"><ele>3022.7</ele></trkpt>
<trkpt lat="41.295872" lon="70.430503"><ele>3017.0</ele></trkpt>
<trkpt lat="41.295858" lon="70.430552"><ele>3016.0</ele></trkpt>
<trkpt lat="41.295887" lon="70.430582"><ele>3012.0</ele></trkpt>
<trkpt lat="41.295855" lon="70.430685"><ele>3011.0</ele></trkpt>
<trkpt lat="41.295889" lon="70.430745"><ele>3007.0</ele></trkpt>
<trkpt lat="41.295863" lon="70.430830"><ele>3006.0</ele></trkpt>
<trkpt lat="41.295890" lon="70.430905"><ele>3004.0</ele></trkpt>
<trkpt lat="41.295865" lon="70.430937"><ele>3003.9</ele></trkpt>
<trkpt lat="41.295828" lon="70.431047"><ele>2995.0</ele></trkpt>
<trkpt lat="41.295878" lon="70.431105"><ele>2992.0</ele></trkpt>
<trkpt lat="41.295864" lon="70.431128"><ele>2994.0</ele></trkpt>
<trkpt lat="41.295893" lon="70.431137"><ele>2994.6</ele></trkpt>
<trkpt lat="41.295922" lon="70.431189"><ele>2989.0</ele></trkpt>
<trkpt lat="41.295903" lon="70.431289"><ele>2988.0</ele></trkpt>
<trkpt lat="41.295930" lon="70.431308"><ele>2985.0</ele></trkpt>
<trkpt lat="41.295924" lon="70.431379"><ele>2985.0</ele></trkpt>
<trkpt lat="41.295960" lon="70.431392"><ele>2982.0</ele></trkpt>
<trkpt lat="41.295951" lon="70.431423"><ele>2983.0</ele></trkpt>
<trkpt lat="41.295923" lon="70.431458"><ele>2980.0</ele></trkpt>
<trkpt lat="41.295833" lon="70.431504"><ele>2979.0</ele></trkpt>
<trkpt lat="41.295684" lon="70.431663"><ele>2976.0</ele></trkpt>
<trkpt lat="41.295526" lon="70.431743"><ele>2970.0</ele></trkpt>
<trkpt lat="41.295506" lon="70.431784"><ele>2968.0</ele></trkpt>
<trkpt lat="41.295314" lon="70.431909"><ele>2961.0</ele></trkpt>
<trkpt lat="41.295285" lon="70.431969"><ele>2960.0</ele></trkpt>
<trkpt lat="41.295073" lon="70.432213"><ele>2956.0</ele></trkpt>
<trkpt lat="41.295057" lon="70.432276"><ele>2956.0</ele></trkpt>
<trkpt lat="41.294956" lon="70.432356"><ele>2947.0</ele></trkpt>
<trkpt lat="41.294918" lon="70.432366"><ele>2945.0</ele></trkpt>
<trkpt lat="41.294900" lon="70.432416"><ele>2946.0</ele></trkpt>
<trkpt lat="41.295005" lon="70.432568"><ele>2940.0</ele></trkpt>
<trkpt lat="41.294961" lon="70.432726"><ele>2931.0</ele></trkpt>
<trkpt lat="41.294865" lon="70.432728"><ele>2931.0</ele></trkpt>
<trkpt lat="41.294907" lon="70.432906"><ele>2925.0</ele></trkpt>
<trkpt lat="41.294895" lon="70.432946"><ele>2920.0</ele></trkpt>
<trkpt lat="41.294851" lon="70.432933"><ele>2918.0</ele></trkpt>
<trkpt lat="41.294851" lon="70.432984"><ele>2917.0</ele></trkpt>
<trkpt lat="41.294825" lon="70.433064"><ele>2915.0</ele></trkpt>
<trkpt lat="41.294687" lon="70.433048"><ele>2907.0</ele></trkpt>
<trkpt lat="41.294649" lon="70.433063"><ele>2911.0</ele></trkpt>
<trkpt lat="41.294617" lon="70.433099"><ele>2908.0</ele></trkpt>
<trkpt lat="41.294571" lon="70.433110"><ele>2904.0</ele></trkpt>
<trkpt lat="41.294573" lon="70.433151"><ele>2900.0</ele></trkpt>
<trkpt lat="41.294508" lon="70.433209"><ele>2900.0</ele></trkpt>
<trkpt lat="41.294319" lon="70.433352"><ele>2889.0</ele></trkpt>
<trkpt lat="41.294393" lon="70.433513"><ele>2882.0</ele></trkpt>
<trkpt lat="41.294353" lon="70.433564"><ele>2877.0</ele></trkpt>
<trkpt lat="41.294296" lon="70.433576"><ele>2876.0</ele></trkpt>
<trkpt lat="41.294329" lon="70.433698"><ele>2870.0</ele></trkpt>
<trkpt lat="41.294324" lon="70.433736"><ele>2868.0</ele></trkpt>
<trkpt lat="41.294270" lon="70.433815"><ele>2860.0</ele></trkpt>
<trkpt lat="41.294084" lon="70.433928"><ele>2850.0</ele></trkpt>
<trkpt lat="41.293960" lon="70.433939"><ele>2841.0</ele></trkpt>
<trkpt lat="41.293941" lon="70.433983"><ele>2844.0</ele></trkpt>
<trkpt lat="41.293905" lon="70.433975"><ele>2843.0</ele></trkpt>
<trkpt lat="41.293891" lon="70.434008"><ele>2844.0</ele></trkpt>
<trkpt lat="41.293897" lon="70.434064"><ele>2838.0</ele></trkpt>
<trkpt lat="41.293872" lon="70.434091"><ele>2840.0</ele></trkpt>
<trkpt lat="41.293678" lon="70.434069"><ele>2830.0</ele></trkpt>
<trkpt lat="41.293606" lon="70.434119"><ele>2826.0</ele></trkpt>
<trkpt lat="41.293598" lon="70.434154"><ele>2830.0</ele></trkpt>
<trkpt lat="41.293491" lon="70.434133"><ele>2825.0</ele></trkpt>
<trkpt lat="41.293537" lon="70.434222"><ele>2825.0</ele></trkpt>
<trkpt lat="41.293537" lon="70.434289"><ele>2825.0</ele></trkpt>
<trkpt lat="41.293438" lon="70.434294"><ele>2820.0</ele></trkpt>
<trkpt lat="41.293356" lon="70.434220"><ele>2817.0</ele></trkpt>
<trkpt lat="41.293313" lon="70.434222"><ele>2816.0</ele></trkpt>
<trkpt lat="41.293308" lon="70.434285"><ele>2818.0</ele></trkpt>
<trkpt lat="41.293256" lon="70.434313"><ele>2810.0</ele></trkpt>
<trkpt lat="41.293243" lon="70.434446"><ele>2804.0</ele></trkpt>
<trkpt lat="41.293207" lon="70.434464"><ele>2806.0</ele></trkpt>
<trkpt lat="41.293195" lon="70.434497"><ele>2800.0</ele></trkpt>
<trkpt lat="41.293022" lon="70.434498"><ele>2799.0</ele></trkpt>
<trkpt lat="41.292840" lon="70.434609"><ele>2792.0</ele></trkpt>
<trkpt lat="41.292829" lon="70.434642"><ele>2790.0</ele></trkpt>
<trkpt lat="41.292850" lon="70.434744"><ele>2784.0</ele></trkpt>
<trkpt lat="41.292821" lon="70.434773"><ele>2784.0</ele></trkpt>
<trkpt lat="41.292836" lon="70.434810"><ele>2779.0</ele></trkpt>
<trkpt lat="41.292808" lon="70.434830"><ele>2780.0</ele></trkpt>
<trkpt lat="41.292812" lon="70.434868"><ele>2777.0</ele></trkpt>
<trkpt lat="41.292782" lon="70.434896"><ele>2776.0</ele></trkpt>
<trkpt lat="41.292764" lon="70.434969"><ele>2772.0</ele></trkpt>
<trkpt lat="41.292712" lon="70.435017"><ele>2770.0</ele></trkpt>
<trkpt lat="41.292710" lon="70.435085"><ele>2770.0</ele></trkpt>
<trkpt lat="41.292645" lon="70.435119"><ele>2766.0</ele></trkpt>
<trkpt lat="41.292652" lon="70.435192"><ele>2762.0</ele></trkpt>
<trkpt lat="41.292564" lon="70.435266"><ele>2760.0</ele></trkpt>
<trkpt lat="41.292570" lon="70.435310"><ele>2757.0</ele></trkpt>
<trkpt lat="41.292455" lon="70.435418"><ele>2753.0</ele></trkpt>
<trkpt lat="41.292434" lon="70.435499"><ele>2752.0</ele></trkpt>
<trkpt lat="41.292284" lon="70.435607"><ele>2744.0</ele></trkpt>
<trkpt lat="41.292268" lon="70.435694"><ele>2740.0</ele></trkpt>
<trkpt lat="41.292184" lon="70.435752"><ele>2738.0</ele></trkpt>
<trkpt lat="41.292148" lon="70.435758"><ele>2738.1</ele></trkpt>
<trkpt lat="41.292135" lon="70.435801"><ele>2729.0</ele></trkpt>
<trkpt lat="41.292128" lon="70.436043"><ele>2726.0</ele></trkpt>
<trkpt lat="41.292148" lon="70.436137"><ele>2724.0</ele></trkpt>
<trkpt lat="41.292121" lon="70.436179"><ele>2722.0</ele></trkpt>
<trkpt lat="41.292116" lon="70.436323"><ele>2715.0</ele></trkpt>
<trkpt lat="41.292092" lon="70.436352"><ele>2714.0</ele></trkpt>
<trkpt lat="41.292006" lon="70.436388"><ele>2712.0</ele></trkpt>
<trkpt lat="41.292001" lon="70.436452"><ele>2706.0</ele></trkpt>
<trkpt lat="41.291965" lon="70.436546"><ele>2705.0</ele></trkpt>
<trkpt lat="41.291908" lon="70.436555"><ele>2703.0</ele></trkpt>
<trkpt lat="41.291810" lon="70.436771"><ele>2694.0</ele></trkpt>
<trkpt lat="41.291822" lon="70.436846"><ele>2690.0</ele></trkpt>
<trkpt lat="41.291731" lon="70.436848"><ele>2692.0</ele></trkpt>
<trkpt lat="41.291686" lon="70.436871"><ele>2689.0</ele></trkpt>
<trkpt lat="41.291688" lon="70.436961"><ele>2690.0</ele></trkpt>
<trkpt lat="41.291633" lon="70.436974"><ele>2684.0</ele></trkpt>
<trkpt lat="41.291630" lon="70.437045"><ele>2684.0</ele></trkpt>
<trkpt lat="41.291598" lon="70.437065"><ele>2673.0</ele></trkpt>
<trkpt lat="41.291589" lon="70.437148"><ele>2673.0</ele></trkpt>
<trkpt lat="41.291521" lon="70.437207"><ele>2673.0</ele></trkpt>
<trkpt lat="41.291392" lon="70.437250"><ele>2669.0</ele></trkpt>
<trkpt lat="41.291334" lon="70.437319"><ele>2664.0</ele></trkpt>
<trkpt lat="41.291324" lon="70.437392"><ele>2663.0</ele></trkpt>
<trkpt lat="41.291251" lon="70.437409"><ele>2658.0</ele></trkpt>
<trkpt lat="41.291232" lon="70.437434"><ele>2660.0</ele></trkpt>
<trkpt lat="41.291245" lon="70.437515"><ele>2654.0</ele></trkpt>
<trkpt lat="41.291166" lon="70.437550"><ele>2655.0</ele></trkpt>
<trkpt lat="41.291166" lon="70.437654"><ele>2652.0</ele></trkpt>
<trkpt lat="41.291080" lon="70.437651"><ele>2649.0</ele></trkpt>
<trkpt lat="41.291061" lon="70.437733"><ele>2648.0</ele></trkpt>
<trkpt lat="41.291068" lon="70.437834"><ele>2645.0</ele></trkpt>
<trkpt lat="41.291021" lon="70.437863"><ele>2643.0</ele></trkpt>
<trkpt lat="41.291037" lon="70.437918"><ele>2640.0</ele></trkpt>
<trkpt lat="41.291008" lon="70.437958"><ele>2640.0</ele></trkpt>
<trkpt lat="41.290974" lon="70.437968"><ele>2639.0</ele></trkpt>
<trkpt lat="41.290952" lon="70.438047"><ele>2636.0</ele></trkpt>
<trkpt lat="41.290957" lon="70.438125"><ele>2632.0</ele></trkpt>
<trkpt lat="41.290868" lon="70.438135"><ele>2629.0</ele></trkpt>
<trkpt lat="41.290847" lon="70.438199"><ele>2625.0</ele></trkpt>
<trkpt lat="41.290846" lon="70.438271"><ele>2625.0</ele></trkpt>
<trkpt lat="41.290722" lon="70.438310"><ele>2618.0</ele></trkpt>
<trkpt lat="41.290594" lon="70.438450"><ele>2614.0</ele></trkpt>
<trkpt lat="41.290566" lon="70.438591"><ele>2610.0</ele></trkpt>
<trkpt lat="41.290467" lon="70.438620"><ele>2605.0</ele></trkpt>
<trkpt lat="41.290456" lon="70.438691"><ele>2608.6</ele></trkpt>
<trkpt lat="41.290419" lon="70.438783"><ele>2604.0</ele></trkpt>
<trkpt lat="41.290369" lon="70.438828"><ele>2601.0</ele></trkpt>
<trkpt lat="41.290287" lon="70.438976"><ele>2594.0</ele></trkpt>
<trkpt lat="41.290172" lon="70.439047"><ele>2590.0</ele></trkpt>
<trkpt lat="41.290117" lon="70.439192"><ele>2586.0</ele></trkpt>
<trkpt lat="41.289864" lon="70.439321"><ele>2580.1</ele></trkpt>
<trkpt lat="41.289819" lon="70.439377"><ele>2578.0</ele></trkpt>
<trkpt lat="41.289727" lon="70.439447"><ele>2575.0</ele></trkpt>
<trkpt lat="41.289640" lon="70.439598"><ele>2568.0</ele></trkpt>
<trkpt lat="41.289586" lon="70.439651"><ele>2570.0</ele></trkpt>
<trkpt lat="41.289567" lon="70.439708"><ele>2568.0</ele></trkpt>
<trkpt lat="41.289514" lon="70.439750"><ele>2565.0</ele></trkpt>
<trkpt lat="41.289481" lon="70.439856"><ele>2565.0</ele></trkpt>
<trkpt lat="41.289423" lon="70.439901"><ele>2564.0</ele></trkpt>
<trkpt lat="41.289342" lon="70.440028"><ele>2557.0</ele></trkpt>
<trkpt lat="41.289276" lon="70.440089"><ele>2548.0</ele></trkpt>
<trkpt lat="41.289261" lon="70.440165"><ele>2552.0</ele></trkpt>
<trkpt lat="41.289192" lon="70.440195"><ele>2553.0</ele></trkpt>
<trkpt lat="41.289173" lon="70.440287"><ele>2550.0</ele></trkpt>
<trkpt lat="41.289137" lon="70.440345"><ele>2548.0</ele></trkpt>
<trkpt lat="41.289117" lon="70.440415"><ele>2548.0</ele></trkpt>
<trkpt lat="41.289059" lon="70.440449"><ele>2544.0</ele></trkpt>
<trkpt lat="41.289040" lon="70.440534"><ele>2544.0</ele></trkpt>
<trkpt lat="41.288971" lon="70.440571"><ele>2541.0</ele></trkpt>
<trkpt lat="41.288933" lon="70.440636"><ele>2541.0</ele></trkpt>
<trkpt lat="41.288762" lon="70.440686"><ele>2535.0</ele></trkpt>
<trkpt lat="41.288712" lon="70.440751"><ele>2532.0</ele></trkpt>
<trkpt lat="41.288544" lon="70.440833"><ele>2530.0</ele></trkpt>
<trkpt lat="41.288512" lon="70.440831"><ele>2529.0</ele></trkpt>
<trkpt lat="41.288476" lon="70.440887"><ele>2528.0</ele></trkpt>
<trkpt lat="41.288439" lon="70.440872"><ele>2529.0</ele></trkpt>
<trkpt lat="41.288346" lon="70.440888"><ele>2523.0</ele></trkpt>
<trkpt lat="41.288317" lon="70.440916"><ele>2522.0</ele></trkpt>
<trkpt lat="41.288196" lon="70.440800"><ele>2515.0</ele></trkpt>
<trkpt lat="41.288040" lon="70.440851"><ele>2515.0</ele></trkpt>
<trkpt lat="41.288020" lon="70.440821"><ele>2514.0</ele></trkpt>
<trkpt lat="41.287967" lon="70.440834"><ele>2514.0</ele></trkpt>
<trkpt lat="41.287929" lon="70.440810"><ele>2510.0</ele></trkpt>
<trkpt lat="41.287907" lon="70.440782"><ele>2512.0</ele></trkpt>
<trkpt lat="41.287905" lon="70.440729"><ele>2508.0</ele></trkpt>
<trkpt lat="41.287704" lon="70.440489"><ele>2510.0</ele></trkpt>
<trkpt lat="41.287644" lon="70.440362"><ele>2510.0</ele></trkpt>
<trkpt lat="41.287587" lon="70.440308"><ele>2508.0</ele></trkpt>
<trkpt lat="41.287546" lon="70.440330"><ele>2502.0</ele></trkpt>
<trkpt lat="41.287477" lon="70.440304"><ele>2504.0</ele></trkpt>
<trkpt lat="41.287449" lon="70.440331"><ele>2504.0</ele></trkpt>
<trkpt lat="41.287237" lon="70.440384"><ele>2499.2</ele></trkpt>
<trkpt lat="41.287111" lon="70.440479"><ele>2493.0</ele></trkpt>
<trkpt lat="41.287056" lon="70.440584"><ele>2489.0</ele></trkpt>
<trkpt lat="41.287068" lon="70.440628"><ele>2485.0</ele></trkpt>
<trkpt lat="41.286980" lon="70.440631"><ele>2490.0</ele></trkpt>
<trkpt lat="41.286890" lon="70.440592"><ele>2487.0</ele></trkpt>
<trkpt lat="41.286768" lon="70.440691"><ele>2487.0</ele></trkpt>
<trkpt lat="41.286703" lon="70.440715"><ele>2486.0</ele></trkpt>
<trkpt lat="41.286593" lon="70.440830"><ele>2481.0</ele></trkpt>
<trkpt lat="41.286528" lon="70.440822"><ele>2480.0</ele></trkpt>
<trkpt lat="41.286468" lon="70.440847"><ele>2481.0</ele></trkpt>
<trkpt lat="41.286407" lon="70.440817"><ele>2481.0</ele></trkpt>
<trkpt lat="41.286380" lon="70.440780"><ele>2482.0</ele></trkpt>
<trkpt lat="41.286316" lon="70.440768"><ele>2481.0</ele></trkpt>
<trkpt lat="41.286275" lon="70.440702"><ele>2478.0</ele></trkpt>
<trkpt lat="41.286239" lon="70.440688"><ele>2480.0</ele></trkpt>
<trkpt lat="41.286145" lon="70.440740"><ele>2481.0</ele></trkpt>
<trkpt lat="41.286138" lon="70.440777"><ele>2479.0</ele></trkpt>
<trkpt lat="41.286156" lon="70.440843"><ele>2478.0</ele></trkpt>
<trkpt lat="41.286134" lon="70.440880"><ele>2477.0</ele></trkpt>
<trkpt lat="41.286098" lon="70.441022"><ele>2476.0</ele></trkpt>
<trkpt lat="41.285996" lon="70.441071"><ele>2475.0</ele></trkpt>
<trkpt lat="41.285824" lon="70.441325"><ele>2469.0</ele></trkpt>
<trkpt lat="41.285818" lon="70.441423"><ele>2467.0</ele></trkpt>
<trkpt lat="41.285763" lon="70.441520"><ele>2468.0</ele></trkpt>
<trkpt lat="41.285754" lon="70.441611"><ele>2465.0</ele></trkpt>
<trkpt lat="41.285662" lon="70.441787"><ele>2460.0</ele></trkpt>
<trkpt lat="41.285608" lon="70.441838"><ele>2460.0</ele></trkpt>
<trkpt lat="41.285579" lon="70.441898"><ele>2461.0</ele></trkpt>
<trkpt lat="41.285560" lon="70.441967"><ele>2458.0</ele></trkpt>
<trkpt lat="41.285553" lon="70.442163"><ele>2456.0</ele></trkpt>
<trkpt lat="41.285527" lon="70.442239"><ele>2456.0</ele></trkpt>
<trkpt lat="41.285331" lon="70.442484"><ele>2448.0</ele></trkpt>
<trkpt lat="41.285284" lon="70.442619"><ele>2444.0</ele></trkpt>
<trkpt lat="41.285280" lon="70.442732"><ele>2441.0</ele></trkpt>
<trkpt lat="41.285068" lon="70.442897"><ele>2442.0</ele></trkpt>
<trkpt lat="41.284998" lon="70.442892"><ele>2442.0</ele></trkpt>
<trkpt lat="41.284847" lon="70.443134"><ele>2440.0</ele></trkpt>
<trkpt lat="41.284743" lon="70.443160"><ele>2438.0</ele></trkpt>
<trkpt lat="41.284673" lon="70.443232"><ele>2436.0</ele></trkpt>
<trkpt lat="41.284495" lon="70.443300"><ele>2434.0</ele></trkpt>
<trkpt lat="41.284420" lon="70.443361"><ele>2432.0</ele></trkpt>
<trkpt lat="41.284267" lon="70.443538"><ele>2432.9</ele></trkpt>
<trkpt lat="41.284127" lon="70.443787"><ele>2429.0</ele></trkpt>
<trkpt lat="41.284005" lon="70.443950"><ele>2429.0</ele></trkpt>
<trkpt lat="41.284018" lon="70.443986"><ele>2427.0</ele></trkpt>
<trkpt lat="41.283956" lon="70.444117"><ele>2426.0</ele></trkpt>
<trkpt lat="41.283946" lon="70.444176"><ele>2423.0</ele></trkpt>
<trkpt lat="41.283830" lon="70.444369"><ele>2421.0</ele></trkpt>
<trkpt lat="41.283808" lon="70.444450"><ele>2420.0</ele></trkpt>
<trkpt lat="41.283672" lon="70.444612"><ele>2418.0</ele></trkpt>
<trkpt lat="41.283672" lon="70.444677"><ele>2415.0</ele></trkpt>
<trkpt lat="41.283702" lon="70.444701"><ele>2415.0</ele></trkpt>
<trkpt lat="41.283707" lon="70.444737"><ele>2414.0</ele></trkpt>
<trkpt lat="41.283642" lon="70.444828"><ele>2408.0</ele></trkpt>
<trkpt lat="41.283614" lon="70.444795"><ele>2412.0</ele></trkpt>
<trkpt lat="41.283577" lon="70.444804"><ele>2412.0</ele></trkpt>
<trkpt lat="41.283535" lon="70.444843"><ele>2412.0</ele></trkpt>
<trkpt lat="41.283527" lon="70.444880"><ele>2410.0</ele></trkpt>
<trkpt lat="41.283360" lon="70.445155"><ele>2407.0</ele></trkpt>
<trkpt lat="41.283002" lon="70.445527"><ele>2403.0</ele></trkpt>
<trkpt lat="41.282953" lon="70.445605"><ele>2403.6</ele></trkpt>
</trkseg></trk>
</gpx>