<?xml version='1.0' encoding='utf-8'?>
<gpx xmlns="http://www.topografix.com/GPX/1/1" version="1.1"><trk><trkseg><trkpt lat="41.91370500" lon="70.34251200"><ele>1247.20</ele></trkpt><trkpt lat="41.91368600" lon="70.34232300"><ele>1249.53</ele></trkpt><trkpt lat="41.91363500" lon="70.34219000"><ele>1252.61</ele></trkpt><trkpt lat="41.91361600" lon="70.34202300"><ele>1255.59</ele></trkpt><trkpt lat="41.91374700" lon="70.34144100"><ele>1257.50</ele></trkpt><trkpt lat="41.91378800" lon="70.34119300"><ele>1257.48</ele></trkpt><trkpt lat="41.91379400" lon="70.34070500"><ele>1259.52</ele></trkpt><trkpt lat="41.91381700" lon="70.34034500"><ele>1260.29</ele></trkpt><trkpt lat="41.91384900" lon="70.34011900"><ele>1260.46</ele></trkpt><trkpt lat="41.91384900" lon="70.33987900"><ele>1262.07</ele></trkpt><trkpt lat="41.91391200" lon="70.33960100"><ele>1262.79</ele></trkpt><trkpt lat="41.91397000" lon="70.33923300"><ele>1264.75</ele></trkpt><trkpt lat="41.91405200" lon="70.33856500"><ele>1266.88</ele></trkpt><trkpt lat="41.91397300" lon="70.33826500"><ele>1271.41</ele></trkpt><trkpt lat="41.91393500" lon="70.33800900"><ele>1274.56</ele></trkpt><trkpt lat="41.91401100" lon="70.33772200"><ele>1274.15</ele></trkpt><trkpt lat="41.91401100" lon="70.33719100"><ele>1278.45</ele></trkpt><trkpt lat="41.91373400" lon="70.33630500"><ele>1292.12</ele></trkpt><trkpt lat="41.91354600" lon="70.33601400"><ele>1296.72</ele></trkpt><trkpt lat="41.91341500" lon="70.33592400"><ele>1299.18</ele></trkpt><trkpt lat="41.91330800" lon="70.33577800"><ele>1301.71</ele></trkpt><trkpt lat="41.91334500" lon="70.33568400"><ele>1301.51</ele></trkpt><trkpt lat="41.91345200" lon="70.33564900"><ele>1300.12</ele></trkpt><trkpt lat="41.91375600" lon="70.33571600"><ele>1296.56</ele></trkpt><trkpt lat="41.91387700" lon="70.33568000"><ele>1295.96</ele></trkpt><trkpt lat="41.91402700" lon="70.33559400"><ele>1295.65</ele></trkpt><trkpt lat="41.91419200" lon="70.33544200"><ele>1295.49</ele></trkpt><trkpt lat="41.91421300" lon="70.33531800"><ele>1296.61</ele></trkpt><trkpt lat="41.91422400" lon="70.33495400"><ele>1300.43</ele></trkpt><trkpt lat="41.91436100" lon="70.33450900"><ele>1300.35</ele></trkpt><trkpt lat="41.91435600" lon="70.33417500"><ele>1302.81</ele></trkpt><trkpt lat="41.91437500" lon="70.33405100"><ele>1302.86</ele></trkpt><trkpt lat="41.91448000" lon="70.33378600"><ele>1300.10</ele></trkpt><trkpt lat="41.91463300" lon="70.33363600"><ele>1294.81</ele></trkpt><trkpt lat="41.91476900" lon="70.33341600"><ele>1291.73</ele></trkpt><trkpt lat="41.91478100" lon="70.33329600"><ele>1292.40</ele></trkpt><trkpt lat="41.91476400" lon="70.33315700"><ele>1294.30</ele></trkpt><trkpt lat="41.91471800" lon="70.33301300"><ele>1297.37</ele></trkpt><trkpt lat="41.91464400" lon="70.33287400"><ele>1301.45</ele></trkpt><trkpt lat="41.91464400" lon="70.33272000"><ele>1303.09</ele></trkpt><trkpt lat="41.91469400" lon="70.33240600"><ele>1303.96</ele></trkpt><trkpt lat="41.91473400" lon="70.33225800"><ele>1303.52</ele></trkpt><trkpt lat="41.91473600" lon="70.33195500"><ele>1304.42</ele></trkpt><trkpt lat="41.91471100" lon="70.33184300"><ele>1305.33</ele></trkpt><trkpt lat="41.91465700" lon="70.33171000"><ele>1307.01</ele></trkpt><trkpt lat="41.91452300" lon="70.33156500"><ele>1310.60</ele></trkpt><trkpt lat="41.91441100" lon="70.33140200"><ele>1313.42</ele></trkpt><trkpt lat="41.91435200" lon="70.33120300"><ele>1314.90</ele></trkpt><trkpt lat="41.91434400" lon="70.33087900"><ele>1316.29</ele></trkpt><trkpt lat="41.91441600" lon="70.33068000"><ele>1317.01</ele></trkpt><trkpt lat="41.91464800" lon="70.33048300"><ele>1316.53</ele></trkpt><trkpt lat="41.91506600" lon="70.33030400"><ele>1315.76</ele></trkpt><trkpt lat="41.91523700" lon="70.33017500"><ele>1317.21</ele></trkpt><trkpt lat="41.91538600" lon="70.33014100"><ele>1317.87</ele></trkpt><trkpt lat="41.91545100" lon="70.33003700"><ele>1319.42</ele></trkpt><trkpt lat="41.91543000" lon="70.32958300"><ele>1323.10</ele></trkpt><trkpt lat="41.91516400" lon="70.32891100"><ele>1327.21</ele></trkpt><trkpt lat="41.91513700" lon="70.32874800"><ele>1327.22</ele></trkpt><trkpt lat="41.91516000" lon="70.32853300"><ele>1326.64</ele></trkpt><trkpt lat="41.91522000" lon="70.32827600"><ele>1326.14</ele></trkpt><trkpt lat="41.91527800" lon="70.32810000"><ele>1325.82</ele></trkpt><trkpt lat="41.91524500" lon="70.32807800"><ele>1326.06</ele></trkpt><trkpt lat="41.91511600" lon="70.32783500"><ele>1327.38</ele></trkpt><trkpt lat="41.91512100" lon="70.32757900"><ele>1328.61</ele></trkpt><trkpt lat="41.91507600" lon="70.32747800"><ele>1330.13</ele></trkpt><trkpt lat="41.91505400" lon="70.32732100"><ele>1332.65</ele></trkpt><trkpt lat="41.91508200" lon="70.32717700"><ele>1334.63</ele></trkpt><trkpt lat="41.91558700" lon="70.32664900"><ele>1331.89</ele></trkpt><trkpt lat="41.91574100" lon="70.32618600"><ele>1333.64</ele></trkpt><trkpt lat="41.91589600" lon="70.32560500"><ele>1337.68</ele></trkpt><trkpt lat="41.91606000" lon="70.32542600"><ele>1337.72</ele></trkpt><trkpt lat="41.91622100" lon="70.32504700"><ele>1340.52</ele></trkpt><trkpt lat="41.91635600" lon="70.32494200"><ele>1341.22</ele></trkpt><trkpt lat="41.91672800" lon="70.32428900"><ele>1348.67</ele></trkpt><trkpt lat="41.91664700" lon="70.32411700"><ele>1349.37</ele></trkpt><trkpt lat="41.91667500" lon="70.32382100"><ele>1352.23</ele></trkpt><trkpt lat="41.91686800" lon="70.32373300"><ele>1353.96</ele></trkpt><trkpt lat="41.91700500" lon="70.32353600"><ele>1356.33</ele></trkpt><trkpt lat="41.91705200" lon="70.32330400"><ele>1358.41</ele></trkpt><trkpt lat="41.91735900" lon="70.32272300"><ele>1368.43</ele></trkpt><trkpt lat="41.91753300" lon="70.32262500"><ele>1369.46</ele></trkpt><trkpt lat="41.91782200" lon="70.32209500"><ele>1366.61</ele></trkpt><trkpt lat="41.91811000" lon="70.32186900"><ele>1361.42</ele></trkpt><trkpt lat="41.91831700" lon="70.32178100"><ele>1358.37</ele></trkpt><trkpt lat="41.91837200" lon="70.32169900"><ele>1358.13</ele></trkpt><trkpt lat="41.91845200" lon="70.32169500"><ele>1357.24</ele></trkpt><trkpt lat="41.91857400" lon="70.32157800"><ele>1356.88</ele></trkpt><trkpt lat="41.91862900" lon="70.32155400"><ele>1356.64</ele></trkpt><trkpt lat="41.91866200" lon="70.32151900"><ele>1356.58</ele></trkpt><trkpt lat="41.91863900" lon="70.32146400"><ele>1356.91</ele></trkpt><trkpt lat="41.91865800" lon="70.32138000"><ele>1357.26</ele></trkpt><trkpt lat="41.91874500" lon="70.32133800"><ele>1357.11</ele></trkpt><trkpt lat="41.91887200" lon="70.32133100"><ele>1356.88</ele></trkpt><trkpt lat="41.91891700" lon="70.32130100"><ele>1357.10</ele></trkpt><trkpt lat="41.91895100" lon="70.32122500"><ele>1358.02</ele></trkpt><trkpt lat="41.91900100" lon="70.32120200"><ele>1358.34</ele></trkpt><trkpt lat="41.91905600" lon="70.32124100"><ele>1357.61</ele></trkpt><trkpt lat="41.91908900" lon="70.32121300"><ele>1357.92</ele></trkpt><trkpt lat="41.91909700" lon="70.32115400"><ele>1359.00</ele></trkpt><trkpt lat="41.91906900" lon="70.32102700"><ele>1363.05</ele></trkpt><trkpt lat="41.91919100" lon="70.32095700"><ele>1365.02</ele></trkpt><trkpt lat="41.91927400" lon="70.32096100"><ele>1363.63</ele></trkpt><trkpt lat="41.91936200" lon="70.32105600"><ele>1358.91</ele></trkpt><trkpt lat="41.91948000" lon="70.32103800"><ele>1357.90</ele></trkpt><trkpt lat="41.91956700" lon="70.32094100"><ele>1359.63</ele></trkpt><trkpt lat="41.91956900" lon="70.32087500"><ele>1362.24</ele></trkpt><trkpt lat="41.91959400" lon="70.32078900"><ele>1366.07</ele></trkpt><trkpt lat="41.91962600" lon="70.32079200"><ele>1365.09</ele></trkpt><trkpt lat="41.91970400" lon="70.32068900"><ele>1368.54</ele></trkpt><trkpt lat="41.91974100" lon="70.32058700"><ele>1373.13</ele></trkpt><trkpt lat="41.91977700" lon="70.32057300"><ele>1372.35</ele></trkpt><trkpt lat="41.91982300" lon="70.32059900"><ele>1369.09</ele></trkpt><trkpt lat="41.91998500" lon="70.32050200"><ele>1368.41</ele></trkpt><trkpt lat="41.92003000" lon="70.32050600"><ele>1367.44</ele></trkpt><trkpt lat="41.92011300" lon="70.32043900"><ele>1369.25</ele></trkpt><trkpt lat="41.92033000" lon="70.32045000"><ele>1370.09</ele></trkpt><trkpt lat="41.92041200" lon="70.32049000"><ele>1369.88</ele></trkpt><trkpt lat="41.92045000" lon="70.32048300"><ele>1370.97</ele></trkpt><trkpt lat="41.92045400" lon="70.32042800"><ele>1373.56</ele></trkpt><trkpt lat="41.92057400" lon="70.32037000"><ele>1379.64</ele></trkpt><trkpt lat="41.92060800" lon="70.32031000"><ele>1383.96</ele></trkpt><trkpt lat="41.92072600" lon="70.32031000"><ele>1386.84</ele></trkpt><trkpt lat="41.92083100" lon="70.32025800"><ele>1391.36</ele></trkpt><trkpt lat="41.92089900" lon="70.32011300"><ele>1398.89</ele></trkpt><trkpt lat="41.92099400" lon="70.32010400"><ele>1398.27</ele></trkpt><trkpt lat="41.92105600" lon="70.32000800"><ele>1400.67</ele></trkpt><trkpt lat="41.92112400" lon="70.32001400"><ele>1398.76</ele></trkpt><trkpt lat="41.92117300" lon="70.31996600"><ele>1398.73</ele></trkpt><trkpt lat="41.92117700" lon="70.31985700"><ele>1401.49</ele></trkpt><trkpt lat="41.92120200" lon="70.31977000"><ele>1402.98</ele></trkpt><trkpt lat="41.92128600" lon="70.31973400"><ele>1400.88</ele></trkpt><trkpt lat="41.92132700" lon="70.31973800"><ele>1399.33</ele></trkpt><trkpt lat="41.92133400" lon="70.31980800"><ele>1397.33</ele></trkpt><trkpt lat="41.92134900" lon="70.31981900"><ele>1396.60</ele></trkpt><trkpt lat="41.92150400" lon="70.31980900"><ele>1392.67</ele></trkpt><trkpt lat="41.92155200" lon="70.31972800"><ele>1393.38</ele></trkpt><trkpt lat="41.92163000" lon="70.31968700"><ele>1393.03</ele></trkpt><trkpt lat="41.92164200" lon="70.31961700"><ele>1394.59</ele></trkpt><trkpt lat="41.92163000" lon="70.31958000"><ele>1395.85</ele></trkpt><trkpt lat="41.92160000" lon="70.31957700"><ele>1396.52</ele></trkpt><trkpt lat="41.92170400" lon="70.31948400"><ele>1397.45</ele></trkpt><trkpt lat="41.92178500" lon="70.31936700"><ele>1399.61</ele></trkpt><trkpt lat="41.92177800" lon="70.31933900"><ele>1400.70</ele></trkpt><trkpt lat="41.92174100" lon="70.31930700"><ele>1402.78</ele></trkpt><trkpt lat="41.92175200" lon="70.31926000"><ele>1404.25</ele></trkpt><trkpt lat="41.92182700" lon="70.31924000"><ele>1402.82</ele></trkpt><trkpt lat="41.92187800" lon="70.31926400"><ele>1400.69</ele></trkpt><trkpt lat="41.92191300" lon="70.31925700"><ele>1400.04</ele></trkpt><trkpt lat="41.92192600" lon="70.31922000"><ele>1400.75</ele></trkpt><trkpt lat="41.92191200" lon="70.31916500"><ele>1402.76</ele></trkpt><trkpt lat="41.92193300" lon="70.31913500"><ele>1403.06</ele></trkpt><trkpt lat="41.92199700" lon="70.31910400"><ele>1402.02</ele></trkpt><trkpt lat="41.92212000" lon="70.31895500"><ele>1402.73</ele></trkpt><trkpt lat="41.92215600" lon="70.31887400"><ele>1404.21</ele></trkpt><trkpt lat="41.92223800" lon="70.31883100"><ele>1402.46</ele></trkpt><trkpt lat="41.92223800" lon="70.31877600"><ele>1404.34</ele></trkpt><trkpt lat="41.92236400" lon="70.31879400"><ele>1399.48</ele></trkpt><trkpt lat="41.92240800" lon="70.31873900"><ele>1399.92</ele></trkpt><trkpt lat="41.92243000" lon="70.31870300"><ele>1400.46</ele></trkpt><trkpt lat="41.92243000" lon="70.31863600"><ele>1402.46</ele></trkpt><trkpt lat="41.92237000" lon="70.31854400"><ele>1407.24</ele></trkpt><trkpt lat="41.92242900" lon="70.31850400"><ele>1406.76</ele></trkpt><trkpt lat="41.92249500" lon="70.31852100"><ele>1404.88</ele></trkpt><trkpt lat="41.92249900" lon="70.31845600"><ele>1406.95</ele></trkpt><trkpt lat="41.92244300" lon="70.31840300"><ele>1409.80</ele></trkpt><trkpt lat="41.92249700" lon="70.31835700"><ele>1410.26</ele></trkpt><trkpt lat="41.92258800" lon="70.31836300"><ele>1409.84</ele></trkpt><trkpt lat="41.92254200" lon="70.31834100"><ele>1410.41</ele></trkpt><trkpt lat="41.92255400" lon="70.31824500"><ele>1413.81</ele></trkpt><trkpt lat="41.92260600" lon="70.31824500"><ele>1414.20</ele></trkpt><trkpt lat="41.92267900" lon="70.31820400"><ele>1417.40</ele></trkpt><trkpt lat="41.92268700" lon="70.31818000"><ele>1418.64</ele></trkpt><trkpt lat="41.92271700" lon="70.31817400"><ele>1419.88</ele></trkpt><trkpt lat="41.92273200" lon="70.31813300"><ele>1422.23</ele></trkpt><trkpt lat="41.92279300" lon="70.31809900"><ele>1426.37</ele></trkpt><trkpt lat="41.92279000" lon="70.31819700"><ele>1421.89</ele></trkpt><trkpt lat="41.92277000" lon="70.31822700"><ele>1419.76</ele></trkpt><trkpt lat="41.92279600" lon="70.31821100"><ele>1421.58</ele></trkpt><trkpt lat="41.92283900" lon="70.31804300"><ele>1431.25</ele></trkpt><trkpt lat="41.92279600" lon="70.31803500"><ele>1429.52</ele></trkpt><trkpt lat="41.92266700" lon="70.31791200"><ele>1430.64</ele></trkpt><trkpt lat="41.92268500" lon="70.31784700"><ele>1434.41</ele></trkpt><trkpt lat="41.92274300" lon="70.31781600"><ele>1438.01</ele></trkpt><trkpt lat="41.92271800" lon="70.31777200"><ele>1439.24</ele></trkpt><trkpt lat="41.92273000" lon="70.31775000"><ele>1440.75</ele></trkpt><trkpt lat="41.92277700" lon="70.31780300"><ele>1440.06</ele></trkpt><trkpt lat="41.92281300" lon="70.31777000"><ele>1443.30</ele></trkpt><trkpt lat="41.92286100" lon="70.31778400"><ele>1444.99</ele></trkpt><trkpt lat="41.92287700" lon="70.31785000"><ele>1442.64</ele></trkpt><trkpt lat="41.92286700" lon="70.31793100"><ele>1438.14</ele></trkpt><trkpt lat="41.92289900" lon="70.31797400"><ele>1437.78</ele></trkpt><trkpt lat="41.92297300" lon="70.31799500"><ele>1440.99</ele></trkpt><trkpt lat="41.92304400" lon="70.31804500"><ele>1442.75</ele></trkpt><trkpt lat="41.92308500" lon="70.31799900"><ele>1447.30</ele></trkpt><trkpt lat="41.92302500" lon="70.31793500"><ele>1446.91</ele></trkpt><trkpt lat="41.92298900" lon="70.31779400"><ele>1451.53</ele></trkpt><trkpt lat="41.92300900" lon="70.31775200"><ele>1454.59</ele></trkpt><trkpt lat="41.92306700" lon="70.31772300"><ele>1459.15</ele></trkpt><trkpt lat="41.92307600" lon="70.31763200"><ele>1463.41</ele></trkpt><trkpt lat="41.92307100" lon="70.31758100"><ele>1465.07</ele></trkpt><trkpt lat="41.92303700" lon="70.31753500"><ele>1464.88</ele></trkpt><trkpt lat="41.92308500" lon="70.31742500"><ele>1470.68</ele></trkpt><trkpt lat="41.92306900" lon="70.31739600"><ele>1470.63</ele></trkpt><trkpt lat="41.92301400" lon="70.31741000"><ele>1467.53</ele></trkpt><trkpt lat="41.92302600" lon="70.31734600"><ele>1469.80</ele></trkpt><trkpt lat="41.92301600" lon="70.31728100"><ele>1470.88</ele></trkpt><trkpt lat="41.92305300" lon="70.31724300"><ele>1473.34</ele></trkpt><trkpt lat="41.92305000" lon="70.31719500"><ele>1474.14</ele></trkpt><trkpt lat="41.92310100" lon="70.31713900"><ele>1477.18</ele></trkpt><trkpt lat="41.92307800" lon="70.31706300"><ele>1477.46</ele></trkpt><trkpt lat="41.92314100" lon="70.31696300"><ele>1480.97</ele></trkpt><trkpt lat="41.92313300" lon="70.31687400"><ele>1481.79</ele></trkpt><trkpt lat="41.92319800" lon="70.31681800"><ele>1484.34</ele></trkpt><trkpt lat="41.92316300" lon="70.31672800"><ele>1484.51</ele></trkpt><trkpt lat="41.92312300" lon="70.31672100"><ele>1483.63</ele></trkpt><trkpt lat="41.92308700" lon="70.31675600"><ele>1482.23</ele></trkpt><trkpt lat="41.92308100" lon="70.31671100"><ele>1482.85</ele></trkpt><trkpt lat="41.92309400" lon="70.31667100"><ele>1483.83</ele></trkpt><trkpt lat="41.92313400" lon="70.31664100"><ele>1485.20</ele></trkpt><trkpt lat="41.92315200" lon="70.31659100"><ele>1486.40</ele></trkpt><trkpt lat="41.92319500" lon="70.31657600"><ele>1487.56</ele></trkpt><trkpt lat="41.92323200" lon="70.31658700"><ele>1488.27</ele></trkpt><trkpt lat="41.92326600" lon="70.31656600"><ele>1489.40</ele></trkpt><trkpt lat="41.92331300" lon="70.31646800"><ele>1491.82</ele></trkpt><trkpt lat="41.92333800" lon="70.31645400"><ele>1492.65</ele></trkpt><trkpt lat="41.92337100" lon="70.31647200"><ele>1493.42</ele></trkpt><trkpt lat="41.92342300" lon="70.31637800"><ele>1496.11</ele></trkpt><trkpt lat="41.92348000" lon="70.31637700"><ele>1498.24</ele></trkpt><trkpt lat="41.92354600" lon="70.31627900"><ele>1501.77</ele></trkpt><trkpt lat="41.92359500" lon="70.31612100"><ele>1505.10</ele></trkpt><trkpt lat="41.92366000" lon="70.31602300"><ele>1508.76</ele></trkpt><trkpt lat="41.92364800" lon="70.31594800"><ele>1508.99</ele></trkpt><trkpt lat="41.92367300" lon="70.31587200"><ele>1510.98</ele></trkpt><trkpt lat="41.92366900" lon="70.31573500"><ele>1513.00</ele></trkpt><trkpt lat="41.92371700" lon="70.31571300"><ele>1515.46</ele></trkpt><trkpt lat="41.92377900" lon="70.31564400"><ele>1519.63</ele></trkpt><trkpt lat="41.92375800" lon="70.31555400"><ele>1520.63</ele></trkpt><trkpt lat="41.92370800" lon="70.31548400"><ele>1520.07</ele></trkpt><trkpt lat="41.92368400" lon="70.31534200"><ele>1522.49</ele></trkpt><trkpt lat="41.92369700" lon="70.31523500"><ele>1525.57</ele></trkpt><trkpt lat="41.92374800" lon="70.31513900"><ele>1529.86</ele></trkpt><trkpt lat="41.92369000" lon="70.31508800"><ele>1528.47</ele></trkpt><trkpt lat="41.92374300" lon="70.31479500"><ele>1535.39</ele></trkpt><trkpt lat="41.92374100" lon="70.31469300"><ele>1536.69</ele></trkpt><trkpt lat="41.92369000" lon="70.31455800"><ele>1536.59</ele></trkpt><trkpt lat="41.92364200" lon="70.31429900"><ele>1538.06</ele></trkpt><trkpt lat="41.92374100" lon="70.31423500"><ele>1541.42</ele></trkpt><trkpt lat="41.92385800" lon="70.31403400"><ele>1546.56</ele></trkpt><trkpt lat="41.92387800" lon="70.31389400"><ele>1547.94</ele></trkpt><trkpt lat="41.92386600" lon="70.31343200"><ele>1548.00</ele></trkpt><trkpt lat="41.92389600" lon="70.31331100"><ele>1548.58</ele></trkpt><trkpt lat="41.92388400" lon="70.31320700"><ele>1547.40</ele></trkpt><trkpt lat="41.92392600" lon="70.31311600"><ele>1548.03</ele></trkpt><trkpt lat="41.92396300" lon="70.31307700"><ele>1548.99</ele></trkpt><trkpt lat="41.92394100" lon="70.31301100"><ele>1547.34</ele></trkpt><trkpt lat="41.92395900" lon="70.31292200"><ele>1546.84</ele></trkpt><trkpt lat="41.92399100" lon="70.31285800"><ele>1547.17</ele></trkpt><trkpt lat="41.92401100" lon="70.31268900"><ele>1545.55</ele></trkpt><trkpt lat="41.92407400" lon="70.31265600"><ele>1547.72</ele></trkpt><trkpt lat="41.92410300" lon="70.31250700"><ele>1547.06</ele></trkpt><trkpt lat="41.92420700" lon="70.31254000"><ele>1552.62</ele></trkpt><trkpt lat="41.92428300" lon="70.31244600"><ele>1556.07</ele></trkpt><trkpt lat="41.92431200" lon="70.31234900"><ele>1556.62</ele></trkpt><trkpt lat="41.92437600" lon="70.31230300"><ele>1560.46</ele></trkpt><trkpt lat="41.92440000" lon="70.31220600"><ele>1560.61</ele></trkpt><trkpt lat="41.92446300" lon="70.31217700"><ele>1564.94</ele></trkpt><trkpt lat="41.92447100" lon="70.31208200"><ele>1563.86</ele></trkpt><trkpt lat="41.92443100" lon="70.31198400"><ele>1559.15</ele></trkpt><trkpt lat="41.92447500" lon="70.31180900"><ele>1559.91</ele></trkpt><trkpt lat="41.92454400" lon="70.31167000"><ele>1563.69</ele></trkpt><trkpt lat="41.92463200" lon="70.31160000"><ele>1569.86</ele></trkpt><trkpt lat="41.92472500" lon="70.31144900"><ele>1575.93</ele></trkpt><trkpt lat="41.92473700" lon="70.31132100"><ele>1576.31</ele></trkpt><trkpt lat="41.92470900" lon="70.31118900"><ele>1574.31</ele></trkpt><trkpt lat="41.92471600" lon="70.31112800"><ele>1574.87</ele></trkpt><trkpt lat="41.92474300" lon="70.31108800"><ele>1576.72</ele></trkpt><trkpt lat="41.92469400" lon="70.31101300"><ele>1573.86</ele></trkpt><trkpt lat="41.92465700" lon="70.31091500"><ele>1572.08</ele></trkpt><trkpt lat="41.92464500" lon="70.31081700"><ele>1572.04</ele></trkpt><trkpt lat="41.92461100" lon="70.31075100"><ele>1570.51</ele></trkpt><trkpt lat="41.92454700" lon="70.31069400"><ele>1566.94</ele></trkpt><trkpt lat="41.92449500" lon="70.31069900"><ele>1563.49</ele></trkpt><trkpt lat="41.92445000" lon="70.31067200"><ele>1560.80</ele></trkpt><trkpt lat="41.92441100" lon="70.31061700"><ele>1558.62</ele></trkpt><trkpt lat="41.92441700" lon="70.31055300"><ele>1559.38</ele></trkpt><trkpt lat="41.92439100" lon="70.31050800"><ele>1557.80</ele></trkpt><trkpt lat="41.92439600" lon="70.31045500"><ele>1558.37</ele></trkpt><trkpt lat="41.92436800" lon="70.31042100"><ele>1556.41</ele></trkpt><trkpt lat="41.92436500" lon="70.31037900"><ele>1556.26</ele></trkpt><trkpt lat="41.92433000" lon="70.31040900"><ele>1553.67</ele></trkpt><trkpt lat="41.92431600" lon="70.31034100"><ele>1552.59</ele></trkpt><trkpt lat="41.92434100" lon="70.31026900"><ele>1554.39</ele></trkpt><trkpt lat="41.92429100" lon="70.31024400"><ele>1550.44</ele></trkpt><trkpt lat="41.92427900" lon="70.31034300"><ele>1549.94</ele></trkpt><trkpt lat="41.92426200" lon="70.31035700"><ele>1548.83</ele></trkpt><trkpt lat="41.92424300" lon="70.31026100"><ele>1547.06</ele></trkpt><trkpt lat="41.92419700" lon="70.31028700"><ele>1544.22</ele></trkpt><trkpt lat="41.92421000" lon="70.31023000"><ele>1544.64</ele></trkpt><trkpt lat="41.92418000" lon="70.31018800"><ele>1542.41</ele></trkpt><trkpt lat="41.92412300" lon="70.31024800"><ele>1539.63</ele></trkpt><trkpt lat="41.92412100" lon="70.31018100"><ele>1538.91</ele></trkpt><trkpt lat="41.92426000" lon="70.30990700"><ele>1545.75</ele></trkpt><trkpt lat="41.92426000" lon="70.30975000"><ele>1543.89</ele></trkpt><trkpt lat="41.92429600" lon="70.30970500"><ele>1546.19</ele></trkpt><trkpt lat="41.92429000" lon="70.30960500"><ele>1544.27</ele></trkpt><trkpt lat="41.92425300" lon="70.30948700"><ele>1539.74</ele></trkpt><trkpt lat="41.92428000" lon="70.30931900"><ele>1539.61</ele></trkpt><trkpt lat="41.92426500" lon="70.30921300"><ele>1537.46</ele></trkpt><trkpt lat="41.92432100" lon="70.30902500"><ele>1540.17</ele></trkpt><trkpt lat="41.92431200" lon="70.30893400"><ele>1539.05</ele></trkpt><trkpt lat="41.92426300" lon="70.30887900"><ele>1535.67</ele></trkpt><trkpt lat="41.92425200" lon="70.30878100"><ele>1534.85</ele></trkpt><trkpt lat="41.92431400" lon="70.30855300"><ele>1538.06</ele></trkpt><trkpt lat="41.92434600" lon="70.30835100"><ele>1539.42</ele></trkpt><trkpt lat="41.92432400" lon="70.30818900"><ele>1538.08</ele></trkpt><trkpt lat="41.92434600" lon="70.30813500"><ele>1539.20</ele></trkpt><trkpt lat="41.92430700" lon="70.30808100"><ele>1537.22</ele></trkpt><trkpt lat="41.92428700" lon="70.30793500"><ele>1536.32</ele></trkpt><trkpt lat="41.92432600" lon="70.30779200"><ele>1538.43</ele></trkpt><trkpt lat="41.92431200" lon="70.30757700"><ele>1537.89</ele></trkpt><trkpt lat="41.92416300" lon="70.30740700"><ele>1530.79</ele></trkpt><trkpt lat="41.92414300" lon="70.30726700"><ele>1529.87</ele></trkpt><trkpt lat="41.92414600" lon="70.30714800"><ele>1529.86</ele></trkpt></trkseg></trk></gpx>