<?xml version='1.0' encoding='utf-8'?>
<gpx xmlns="http://www.topografix.com/GPX/1/1" version="1.1" creator="Sayr">
<trk><name>Замбатсай до верхнего водопада</name><trkseg>
<trkpt lat="41.614683" lon="70.112954"><ele>878.1</ele></trkpt>
<trkpt lat="41.614788" lon="70.113219"><ele>889.0</ele></trkpt>
<trkpt lat="41.614857" lon="70.113314"><ele>884.0</ele></trkpt>
<trkpt lat="41.614992" lon="70.113388"><ele>887.6</ele></trkpt>
<trkpt lat="41.615088" lon="70.113507"><ele>890.2</ele></trkpt>
<trkpt lat="41.615168" lon="70.113576"><ele>891.9</ele></trkpt>
<trkpt lat="41.615215" lon="70.113683"><ele>886.6</ele></trkpt>
<trkpt lat="41.615287" lon="70.113760"><ele>889.3</ele></trkpt>
<trkpt lat="41.615416" lon="70.113744"><ele>890.9</ele></trkpt>
<trkpt lat="41.615541" lon="70.114009"><ele>894.8</ele></trkpt>
<trkpt lat="41.615608" lon="70.114108"><ele>893.4</ele></trkpt>
<trkpt lat="41.615847" lon="70.114226"><ele>900.6</ele></trkpt>
<trkpt lat="41.615920" lon="70.114309"><ele>899.5</ele></trkpt>
<trkpt lat="41.616081" lon="70.114520"><ele>898.5</ele></trkpt>
<trkpt lat="41.616130" lon="70.114624"><ele>898.8</ele></trkpt>
<trkpt lat="41.616146" lon="70.114816"><ele>899.3</ele></trkpt>
<trkpt lat="41.616236" lon="70.114861"><ele>904.8</ele></trkpt>
<trkpt lat="41.616271" lon="70.114750"><ele>908.0</ele></trkpt>
<trkpt lat="41.616405" lon="70.114919"><ele>918.1</ele></trkpt>
<trkpt lat="41.616453" lon="70.115027"><ele>918.5</ele></trkpt>
<trkpt lat="41.616450" lon="70.115147"><ele>917.7</ele></trkpt>
<trkpt lat="41.616479" lon="70.115269"><ele>920.2</ele></trkpt>
<trkpt lat="41.616493" lon="70.115418"><ele>921.3</ele></trkpt>
<trkpt lat="41.616481" lon="70.115601"><ele>921.4</ele></trkpt>
<trkpt lat="41.616503" lon="70.115752"><ele>922.1</ele></trkpt>
<trkpt lat="41.616554" lon="70.115920"><ele>922.2</ele></trkpt>
<trkpt lat="41.616613" lon="70.116281"><ele>925.6</ele></trkpt>
<trkpt lat="41.616688" lon="70.116400"><ele>922.9</ele></trkpt>
<trkpt lat="41.616743" lon="70.116546"><ele>925.7</ele></trkpt>
<trkpt lat="41.616836" lon="70.116525"><ele>925.1</ele></trkpt>
<trkpt lat="41.616925" lon="70.116658"><ele>921.9</ele></trkpt>
<trkpt lat="41.616942" lon="70.116836"><ele>918.4</ele></trkpt>
<trkpt lat="41.617024" lon="70.116959"><ele>917.5</ele></trkpt>
<trkpt lat="41.617128" lon="70.116951"><ele>915.3</ele></trkpt>
<trkpt lat="41.617241" lon="70.116910"><ele>913.4</ele></trkpt>
<trkpt lat="41.617241" lon="70.117187"><ele>915.6</ele></trkpt>
<trkpt lat="41.617210" lon="70.117345"><ele>916.8</ele></trkpt>
<trkpt lat="41.617267" lon="70.117499"><ele>917.3</ele></trkpt>
<trkpt lat="41.617290" lon="70.117659"><ele>914.9</ele></trkpt>
<trkpt lat="41.617350" lon="70.117836"><ele>908.3</ele></trkpt>
<trkpt lat="41.617326" lon="70.118011"><ele>908.5</ele></trkpt>
<trkpt lat="41.617324" lon="70.118170"><ele>904.5</ele></trkpt>
<trkpt lat="41.617429" lon="70.118580"><ele>893.9</ele></trkpt>
<trkpt lat="41.617420" lon="70.118785"><ele>892.0</ele></trkpt>
<trkpt lat="41.617468" lon="70.118940"><ele>890.3</ele></trkpt>
<trkpt lat="41.617456" lon="70.119243"><ele>891.9</ele></trkpt>
<trkpt lat="41.617407" lon="70.119345"><ele>895.9</ele></trkpt>
<trkpt lat="41.617443" lon="70.119476"><ele>898.4</ele></trkpt>
<trkpt lat="41.617391" lon="70.119762"><ele>899.1</ele></trkpt>
<trkpt lat="41.617390" lon="70.120051"><ele>898.4</ele></trkpt>
<trkpt lat="41.617528" lon="70.120439"><ele>902.4</ele></trkpt>
<trkpt lat="41.617453" lon="70.120766"><ele>899.6</ele></trkpt>
<trkpt lat="41.617460" lon="70.120896"><ele>900.4</ele></trkpt>
<trkpt lat="41.617432" lon="70.121010"><ele>904.5</ele></trkpt>
<trkpt lat="41.617348" lon="70.121077"><ele>908.4</ele></trkpt>
<trkpt lat="41.617351" lon="70.121197"><ele>912.2</ele></trkpt>
<trkpt lat="41.617435" lon="70.121324"><ele>915.6</ele></trkpt>
<trkpt lat="41.617528" lon="70.121397"><ele>916.4</ele></trkpt>
<trkpt lat="41.617492" lon="70.121516"><ele>917.0</ele></trkpt>
<trkpt lat="41.617584" lon="70.121688"><ele>914.3</ele></trkpt>
<trkpt lat="41.617706" lon="70.121750"><ele>915.8</ele></trkpt>
<trkpt lat="41.617786" lon="70.121824"><ele>916.6</ele></trkpt>
<trkpt lat="41.617832" lon="70.122114"><ele>920.1</ele></trkpt>
<trkpt lat="41.617896" lon="70.122299"><ele>921.6</ele></trkpt>
<trkpt lat="41.617959" lon="70.122400"><ele>924.3</ele></trkpt>
<trkpt lat="41.618051" lon="70.122637"><ele>930.3</ele></trkpt>
<trkpt lat="41.618117" lon="70.122779"><ele>932.1</ele></trkpt>
<trkpt lat="41.618219" lon="70.122795"><ele>934.5</ele></trkpt>
<trkpt lat="41.618281" lon="70.122906"><ele>937.4</ele></trkpt>
<trkpt lat="41.618270" lon="70.123034"><ele>936.8</ele></trkpt>
<trkpt lat="41.618353" lon="70.123194"><ele>936.6</ele></trkpt>
<trkpt lat="41.618463" lon="70.123297"><ele>939.1</ele></trkpt>
<trkpt lat="41.618455" lon="70.123495"><ele>943.1</ele></trkpt>
<trkpt lat="41.618596" lon="70.123556"><ele>945.4</ele></trkpt>
<trkpt lat="41.618952" lon="70.124010"><ele>938.3</ele></trkpt>
<trkpt lat="41.618947" lon="70.124139"><ele>935.4</ele></trkpt>
<trkpt lat="41.619003" lon="70.124309"><ele>935.7</ele></trkpt>
<trkpt lat="41.619059" lon="70.124412"><ele>940.8</ele></trkpt>
<trkpt lat="41.619159" lon="70.124509"><ele>945.3</ele></trkpt>
<trkpt lat="41.619211" lon="70.124609"><ele>948.1</ele></trkpt>
<trkpt lat="41.619318" lon="70.124703"><ele>953.2</ele></trkpt>
<trkpt lat="41.619381" lon="70.124803"><ele>955.0</ele></trkpt>
<trkpt lat="41.619369" lon="70.124928"><ele>955.6</ele></trkpt>
<trkpt lat="41.619464" lon="70.125057"><ele>958.4</ele></trkpt>
<trkpt lat="41.619439" lon="70.125174"><ele>955.4</ele></trkpt>
<trkpt lat="41.619489" lon="70.125322"><ele>951.8</ele></trkpt>
<trkpt lat="41.619587" lon="70.125507"><ele>947.1</ele></trkpt>
<trkpt lat="41.619605" lon="70.125647"><ele>943.9</ele></trkpt>
<trkpt lat="41.619680" lon="70.125759"><ele>943.1</ele></trkpt>
<trkpt lat="41.619741" lon="70.125925"><ele>944.5</ele></trkpt>
<trkpt lat="41.619878" lon="70.126157"><ele>952.8</ele></trkpt>
<trkpt lat="41.619852" lon="70.126282"><ele>951.8</ele></trkpt>
<trkpt lat="41.619852" lon="70.126423"><ele>948.4</ele></trkpt>
<trkpt lat="41.619831" lon="70.126540"><ele>946.8</ele></trkpt>
<trkpt lat="41.619862" lon="70.126701"><ele>944.0</ele></trkpt>
<trkpt lat="41.619937" lon="70.126853"><ele>944.0</ele></trkpt>
<trkpt lat="41.619937" lon="70.126992"><ele>945.2</ele></trkpt>
<trkpt lat="41.619868" lon="70.127171"><ele>947.4</ele></trkpt>
<trkpt lat="41.619829" lon="70.127324"><ele>947.6</ele></trkpt>
<trkpt lat="41.619894" lon="70.127410"><ele>948.7</ele></trkpt>
<trkpt lat="41.620069" lon="70.127493"><ele>948.1</ele></trkpt>
<trkpt lat="41.620132" lon="70.127626"><ele>949.3</ele></trkpt>
<trkpt lat="41.620241" lon="70.127707"><ele>952.2</ele></trkpt>
<trkpt lat="41.620234" lon="70.127865"><ele>955.2</ele></trkpt>
<trkpt lat="41.620279" lon="70.128010"><ele>953.3</ele></trkpt>
<trkpt lat="41.620362" lon="70.128099"><ele>955.8</ele></trkpt>
<trkpt lat="41.620447" lon="70.128144"><ele>957.5</ele></trkpt>
<trkpt lat="41.620405" lon="70.128481"><ele>950.9</ele></trkpt>
<trkpt lat="41.620584" lon="70.129087"><ele>942.5</ele></trkpt>
<trkpt lat="41.620737" lon="70.129117"><ele>946.4</ele></trkpt>
<trkpt lat="41.620806" lon="70.129245"><ele>949.0</ele></trkpt>
<trkpt lat="41.620968" lon="70.129376"><ele>961.7</ele></trkpt>
<trkpt lat="41.621161" lon="70.129589"><ele>960.2</ele></trkpt>
<trkpt lat="41.621282" lon="70.129642"><ele>961.8</ele></trkpt>
<trkpt lat="41.621332" lon="70.129811"><ele>962.4</ele></trkpt>
<trkpt lat="41.621404" lon="70.129957"><ele>964.4</ele></trkpt>
<trkpt lat="41.621471" lon="70.130067"><ele>963.1</ele></trkpt>
<trkpt lat="41.621587" lon="70.130156"><ele>960.6</ele></trkpt>
<trkpt lat="41.621618" lon="70.130284"><ele>955.6</ele></trkpt>
<trkpt lat="41.621702" lon="70.130368"><ele>947.5</ele></trkpt>
<trkpt lat="41.621789" lon="70.130521"><ele>941.9</ele></trkpt>
<trkpt lat="41.621888" lon="70.130613"><ele>942.2</ele></trkpt>
<trkpt lat="41.622025" lon="70.130682"><ele>943.9</ele></trkpt>
<trkpt lat="41.622158" lon="70.130714"><ele>946.7</ele></trkpt>
<trkpt lat="41.622238" lon="70.130799"><ele>948.8</ele></trkpt>
<trkpt lat="41.622376" lon="70.130855"><ele>949.2</ele></trkpt>
<trkpt lat="41.622442" lon="70.130955"><ele>952.2</ele></trkpt>
<trkpt lat="41.622527" lon="70.131016"><ele>955.9</ele></trkpt>
<trkpt lat="41.622616" lon="70.131038"><ele>958.2</ele></trkpt>
<trkpt lat="41.622843" lon="70.131216"><ele>953.1</ele></trkpt>
<trkpt lat="41.622927" lon="70.131299"><ele>951.8</ele></trkpt>
<trkpt lat="41.622987" lon="70.131452"><ele>952.3</ele></trkpt>
<trkpt lat="41.623172" lon="70.131663"><ele>951.4</ele></trkpt>
<trkpt lat="41.623389" lon="70.131798"><ele>950.7</ele></trkpt>
<trkpt lat="41.623371" lon="70.131929"><ele>950.5</ele></trkpt>
<trkpt lat="41.623377" lon="70.132112"><ele>949.6</ele></trkpt>
<trkpt lat="41.623514" lon="70.132308"><ele>951.9</ele></trkpt>
<trkpt lat="41.623544" lon="70.132429"><ele>957.3</ele></trkpt>
<trkpt lat="41.623534" lon="70.132596"><ele>957.7</ele></trkpt>
<trkpt lat="41.623610" lon="70.132689"><ele>956.7</ele></trkpt>
<trkpt lat="41.623670" lon="70.132852"><ele>956.4</ele></trkpt>
<trkpt lat="41.623647" lon="70.133003"><ele>956.9</ele></trkpt>
<trkpt lat="41.623691" lon="70.133111"><ele>958.0</ele></trkpt>
<trkpt lat="41.623719" lon="70.133481"><ele>962.2</ele></trkpt>
<trkpt lat="41.623769" lon="70.133616"><ele>963.4</ele></trkpt>
<trkpt lat="41.623778" lon="70.133809"><ele>961.5</ele></trkpt>
<trkpt lat="41.623855" lon="70.133981"><ele>960.4</ele></trkpt>
<trkpt lat="41.624051" lon="70.134250"><ele>963.2</ele></trkpt>
<trkpt lat="41.624190" lon="70.134517"><ele>967.7</ele></trkpt>
<trkpt lat="41.624284" lon="70.134590"><ele>967.6</ele></trkpt>
<trkpt lat="41.624395" lon="70.134621"><ele>960.4</ele></trkpt>
<trkpt lat="41.624463" lon="70.134739"><ele>958.6</ele></trkpt>
<trkpt lat="41.624580" lon="70.134868"><ele>955.8</ele></trkpt>
<trkpt lat="41.624660" lon="70.134988"><ele>955.3</ele></trkpt>
<trkpt lat="41.624694" lon="70.135124"><ele>954.0</ele></trkpt>
<trkpt lat="41.624763" lon="70.135275"><ele>953.0</ele></trkpt>
<trkpt lat="41.624810" lon="70.135431"><ele>955.8</ele></trkpt>
<trkpt lat="41.624895" lon="70.135543"><ele>958.5</ele></trkpt>
<trkpt lat="41.624926" lon="70.135714"><ele>960.2</ele></trkpt>
<trkpt lat="41.624934" lon="70.135861"><ele>962.7</ele></trkpt>
<trkpt lat="41.624869" lon="70.135961"><ele>965.0</ele></trkpt>
<trkpt lat="41.624839" lon="70.136129"><ele>963.8</ele></trkpt>
<trkpt lat="41.624835" lon="70.136275"><ele>964.1</ele></trkpt>
<trkpt lat="41.624766" lon="70.136397"><ele>962.2</ele></trkpt>
<trkpt lat="41.624736" lon="70.136526"><ele>959.5</ele></trkpt>
<trkpt lat="41.624646" lon="70.136640"><ele>958.5</ele></trkpt>
<trkpt lat="41.624523" lon="70.136746"><ele>955.9</ele></trkpt>
<trkpt lat="41.624473" lon="70.136889"><ele>953.3</ele></trkpt>
<trkpt lat="41.624439" lon="70.137153"><ele>949.0</ele></trkpt>
<trkpt lat="41.624356" lon="70.137210"><ele>952.2</ele></trkpt>
<trkpt lat="41.624282" lon="70.137302"><ele>954.2</ele></trkpt>
<trkpt lat="41.624220" lon="70.137420"><ele>957.2</ele></trkpt>
<trkpt lat="41.624309" lon="70.137649"><ele>958.8</ele></trkpt>
<trkpt lat="41.624269" lon="70.137765"><ele>959.2</ele></trkpt>
<trkpt lat="41.624271" lon="70.137909"><ele>959.1</ele></trkpt>
<trkpt lat="41.624175" lon="70.138015"><ele>957.0</ele></trkpt>
<trkpt lat="41.624151" lon="70.138361"><ele>955.3</ele></trkpt>
<trkpt lat="41.624299" lon="70.138665"><ele>949.2</ele></trkpt>
<trkpt lat="41.624616" lon="70.138940"><ele>947.1</ele></trkpt>
<trkpt lat="41.624735" lon="70.139014"><ele>947.9</ele></trkpt>
<trkpt lat="41.624941" lon="70.139190"><ele>949.9</ele></trkpt>
<trkpt lat="41.625050" lon="70.139194"><ele>950.0</ele></trkpt>
<trkpt lat="41.625161" lon="70.139277"><ele>951.3</ele></trkpt>
<trkpt lat="41.625342" lon="70.139485"><ele>953.8</ele></trkpt>
<trkpt lat="41.625390" lon="70.139594"><ele>955.7</ele></trkpt>
<trkpt lat="41.625476" lon="70.139690"><ele>955.6</ele></trkpt>
<trkpt lat="41.625654" lon="70.139802"><ele>956.6</ele></trkpt>
<trkpt lat="41.625784" lon="70.140066"><ele>954.8</ele></trkpt>
<trkpt lat="41.625793" lon="70.140298"><ele>954.7</ele></trkpt>
<trkpt lat="41.625830" lon="70.140437"><ele>954.5</ele></trkpt>
<trkpt lat="41.625894" lon="70.140555"><ele>952.0</ele></trkpt>
<trkpt lat="41.625921" lon="70.140764"><ele>952.2</ele></trkpt>
<trkpt lat="41.625966" lon="70.140892"><ele>949.3</ele></trkpt>
<trkpt lat="41.626036" lon="70.140992"><ele>947.8</ele></trkpt>
<trkpt lat="41.626090" lon="70.141145"><ele>950.8</ele></trkpt>
<trkpt lat="41.626058" lon="70.141354"><ele>953.6</ele></trkpt>
<trkpt lat="41.626072" lon="70.141538"><ele>956.6</ele></trkpt>
<trkpt lat="41.626100" lon="70.141727"><ele>956.4</ele></trkpt>
<trkpt lat="41.626207" lon="70.142028"><ele>955.0</ele></trkpt>
<trkpt lat="41.626120" lon="70.142413"><ele>955.7</ele></trkpt>
<trkpt lat="41.626258" lon="70.142778"><ele>957.8</ele></trkpt>
<trkpt lat="41.626357" lon="70.142869"><ele>960.3</ele></trkpt>
<trkpt lat="41.626545" lon="70.143132"><ele>959.9</ele></trkpt>
<trkpt lat="41.626640" lon="70.143178"><ele>960.0</ele></trkpt>
<trkpt lat="41.626743" lon="70.143324"><ele>960.3</ele></trkpt>
<trkpt lat="41.626941" lon="70.143529"><ele>962.9</ele></trkpt>
<trkpt lat="41.627316" lon="70.143665"><ele>966.7</ele></trkpt>
<trkpt lat="41.627380" lon="70.143770"><ele>964.8</ele></trkpt>
<trkpt lat="41.627498" lon="70.143748"><ele>963.1</ele></trkpt>
<trkpt lat="41.627525" lon="70.143866"><ele>971.1</ele></trkpt>
<trkpt lat="41.627575" lon="70.143758"><ele>970.4</ele></trkpt>
<trkpt lat="41.627483" lon="70.143783"><ele>972.7</ele></trkpt>
<trkpt lat="41.627504" lon="70.143903"><ele>974.9</ele></trkpt>
<trkpt lat="41.627540" lon="70.143776"><ele>974.8</ele></trkpt>
<trkpt lat="41.627671" lon="70.143594"><ele>972.6</ele></trkpt>
<trkpt lat="41.627795" lon="70.143510"><ele>971.6</ele></trkpt>
<trkpt lat="41.627610" lon="70.143626"><ele>976.8</ele></trkpt>
<trkpt lat="41.627459" lon="70.143816"><ele>984.9</ele></trkpt>
<trkpt lat="41.627361" lon="70.143808"><ele>982.4</ele></trkpt>
<trkpt lat="41.627273" lon="70.143772"><ele>981.5</ele></trkpt>
<trkpt lat="41.627377" lon="70.143832"><ele>971.1</ele></trkpt>
<trkpt lat="41.627473" lon="70.143817"><ele>973.2</ele></trkpt>
<trkpt lat="41.627669" lon="70.143607"><ele>974.1</ele></trkpt>
<trkpt lat="41.627927" lon="70.143439"><ele>975.9</ele></trkpt>
<trkpt lat="41.627987" lon="70.143345"><ele>977.3</ele></trkpt>
<trkpt lat="41.628103" lon="70.143268"><ele>976.8</ele></trkpt>
<trkpt lat="41.628167" lon="70.143358"><ele>978.8</ele></trkpt>
<trkpt lat="41.628328" lon="70.143236"><ele>984.9</ele></trkpt>
<trkpt lat="41.628519" lon="70.143195"><ele>996.4</ele></trkpt>
<trkpt lat="41.628613" lon="70.143206"><ele>999.6</ele></trkpt>
<trkpt lat="41.628702" lon="70.143276"><ele>995.6</ele></trkpt>
<trkpt lat="41.628869" lon="70.143666"><ele>987.0</ele></trkpt>
<trkpt lat="41.628938" lon="70.143748"><ele>983.5</ele></trkpt>
<trkpt lat="41.628973" lon="70.143889"><ele>981.6</ele></trkpt>
<trkpt lat="41.629016" lon="70.144233"><ele>977.6</ele></trkpt>
<trkpt lat="41.629000" lon="70.144367"><ele>975.9</ele></trkpt>
<trkpt lat="41.628961" lon="70.144485"><ele>975.4</ele></trkpt>
<trkpt lat="41.628931" lon="70.144670"><ele>974.0</ele></trkpt>
<trkpt lat="41.628962" lon="70.144899"><ele>968.7</ele></trkpt>
<trkpt lat="41.629005" lon="70.145016"><ele>962.6</ele></trkpt>
<trkpt lat="41.629037" lon="70.145168"><ele>959.0</ele></trkpt>
<trkpt lat="41.629098" lon="70.145307"><ele>956.7</ele></trkpt>
<trkpt lat="41.629128" lon="70.145463"><ele>952.9</ele></trkpt>
<trkpt lat="41.629172" lon="70.145592"><ele>953.2</ele></trkpt>
<trkpt lat="41.629211" lon="70.145814"><ele>953.1</ele></trkpt>
<trkpt lat="41.629315" lon="70.145897"><ele>953.2</ele></trkpt>
<trkpt lat="41.629441" lon="70.145916"><ele>956.5</ele></trkpt>
<trkpt lat="41.629586" lon="70.145884"><ele>959.1</ele></trkpt>
<trkpt lat="41.629819" lon="70.146033"><ele>966.4</ele></trkpt>
<trkpt lat="41.629941" lon="70.146041"><ele>968.7</ele></trkpt>
<trkpt lat="41.630048" lon="70.146080"><ele>970.1</ele></trkpt>
<trkpt lat="41.630278" lon="70.146046"><ele>969.3</ele></trkpt>
<trkpt lat="41.630391" lon="70.145999"><ele>970.1</ele></trkpt>
<trkpt lat="41.630505" lon="70.146008"><ele>969.7</ele></trkpt>
<trkpt lat="41.630627" lon="70.145972"><ele>970.6</ele></trkpt>
<trkpt lat="41.630708" lon="70.145917"><ele>972.3</ele></trkpt>
<trkpt lat="41.630832" lon="70.145908"><ele>972.6</ele></trkpt>
<trkpt lat="41.630937" lon="70.145963"><ele>977.5</ele></trkpt>
<trkpt lat="41.631045" lon="70.145952"><ele>978.7</ele></trkpt>
<trkpt lat="41.631236" lon="70.145970"><ele>986.5</ele></trkpt>
<trkpt lat="41.631403" lon="70.146110"><ele>985.1</ele></trkpt>
<trkpt lat="41.631470" lon="70.146196"><ele>985.2</ele></trkpt>
<trkpt lat="41.631545" lon="70.146333"><ele>985.7</ele></trkpt>
<trkpt lat="41.631639" lon="70.146367"><ele>988.6</ele></trkpt>
<trkpt lat="41.631746" lon="70.146359"><ele>989.3</ele></trkpt>
<trkpt lat="41.631837" lon="70.146407"><ele>988.7</ele></trkpt>
<trkpt lat="41.631924" lon="70.146462"><ele>987.4</ele></trkpt>
<trkpt lat="41.631989" lon="70.146611"><ele>987.7</ele></trkpt>
<trkpt lat="41.632007" lon="70.146733"><ele>987.3</ele></trkpt>
<trkpt lat="41.632049" lon="70.146841"><ele>986.0</ele></trkpt>
<trkpt lat="41.632071" lon="70.146971"><ele>980.6</ele></trkpt>
<trkpt lat="41.632082" lon="70.147263"><ele>976.8</ele></trkpt>
<trkpt lat="41.632109" lon="70.147405"><ele>973.8</ele></trkpt>
<trkpt lat="41.632056" lon="70.147681"><ele>975.4</ele></trkpt>
<trkpt lat="41.632265" lon="70.147925"><ele>977.4</ele></trkpt>
<trkpt lat="41.632285" lon="70.148256"><ele>977.5</ele></trkpt>
<trkpt lat="41.632323" lon="70.148389"><ele>976.8</ele></trkpt>
<trkpt lat="41.632333" lon="70.148550"><ele>977.0</ele></trkpt>
<trkpt lat="41.632387" lon="70.148686"><ele>977.2</ele></trkpt>
<trkpt lat="41.632429" lon="70.149030"><ele>974.7</ele></trkpt>
<trkpt lat="41.632389" lon="70.149197"><ele>973.8</ele></trkpt>
<trkpt lat="41.632304" lon="70.149324"><ele>974.8</ele></trkpt>
<trkpt lat="41.632297" lon="70.149491"><ele>975.0</ele></trkpt>
<trkpt lat="41.632163" lon="70.149776"><ele>972.2</ele></trkpt>
<trkpt lat="41.632133" lon="70.149960"><ele>971.0</ele></trkpt>
<trkpt lat="41.632064" lon="70.150110"><ele>971.9</ele></trkpt>
<trkpt lat="41.631986" lon="70.150199"><ele>973.7</ele></trkpt>
<trkpt lat="41.631909" lon="70.150342"><ele>974.7</ele></trkpt>
<trkpt lat="41.631863" lon="70.150524"><ele>974.7</ele></trkpt>
<trkpt lat="41.631882" lon="70.150681"><ele>975.6</ele></trkpt>
<trkpt lat="41.631867" lon="70.150835"><ele>976.6</ele></trkpt>
<trkpt lat="41.631799" lon="70.150985"><ele>978.7</ele></trkpt>
<trkpt lat="41.631791" lon="70.151177"><ele>980.9</ele></trkpt>
<trkpt lat="41.631759" lon="70.151319"><ele>982.1</ele></trkpt>
<trkpt lat="41.631676" lon="70.151456"><ele>980.8</ele></trkpt>
<trkpt lat="41.631665" lon="70.151637"><ele>981.0</ele></trkpt>
<trkpt lat="41.631602" lon="70.151802"><ele>981.1</ele></trkpt>
<trkpt lat="41.631553" lon="70.151988"><ele>982.6</ele></trkpt>
<trkpt lat="41.631459" lon="70.152159"><ele>985.4</ele></trkpt>
<trkpt lat="41.631479" lon="70.152337"><ele>984.6</ele></trkpt>
<trkpt lat="41.631468" lon="70.152670"><ele>985.9</ele></trkpt>
<trkpt lat="41.631513" lon="70.153249"><ele>984.1</ele></trkpt>
<trkpt lat="41.631562" lon="70.153351"><ele>985.2</ele></trkpt>
<trkpt lat="41.631661" lon="70.153443"><ele>986.7</ele></trkpt>
<trkpt lat="41.631785" lon="70.153688"><ele>988.7</ele></trkpt>
<trkpt lat="41.631923" lon="70.153871"><ele>990.7</ele></trkpt>
<trkpt lat="41.632120" lon="70.153999"><ele>996.8</ele></trkpt>
<trkpt lat="41.632267" lon="70.154228"><ele>997.7</ele></trkpt>
<trkpt lat="41.632440" lon="70.154430"><ele>1001.2</ele></trkpt>
<trkpt lat="41.632453" lon="70.154722"><ele>1001.4</ele></trkpt>
<trkpt lat="41.632475" lon="70.154871"><ele>1001.5</ele></trkpt>
<trkpt lat="41.632595" lon="70.155269"><ele>994.3</ele></trkpt>
<trkpt lat="41.632674" lon="70.155638"><ele>994.6</ele></trkpt>
<trkpt lat="41.632747" lon="70.155753"><ele>996.5</ele></trkpt>
<trkpt lat="41.632842" lon="70.156042"><ele>997.1</ele></trkpt>
<trkpt lat="41.632894" lon="70.156327"><ele>994.2</ele></trkpt>
<trkpt lat="41.632997" lon="70.156472"><ele>994.6</ele></trkpt>
<trkpt lat="41.633043" lon="70.156750"><ele>990.7</ele></trkpt>
<trkpt lat="41.633122" lon="70.156812"><ele>991.4</ele></trkpt>
<trkpt lat="41.633215" lon="70.156850"><ele>987.4</ele></trkpt>
<trkpt lat="41.633250" lon="70.157139"><ele>993.2</ele></trkpt>
<trkpt lat="41.633277" lon="70.157255"><ele>993.6</ele></trkpt>
<trkpt lat="41.633280" lon="70.157408"><ele>993.7</ele></trkpt>
<trkpt lat="41.633358" lon="70.157828"><ele>1000.9</ele></trkpt>
<trkpt lat="41.633398" lon="70.157954"><ele>1000.1</ele></trkpt>
<trkpt lat="41.633455" lon="70.158364"><ele>995.4</ele></trkpt>
<trkpt lat="41.633642" lon="70.158863"><ele>999.8</ele></trkpt>
<trkpt lat="41.633731" lon="70.158840"><ele>995.6</ele></trkpt>
<trkpt lat="41.633822" lon="70.158900"><ele>993.1</ele></trkpt>
<trkpt lat="41.633860" lon="70.159046"><ele>990.7</ele></trkpt>
<trkpt lat="41.633912" lon="70.159173"><ele>989.4</ele></trkpt>
<trkpt lat="41.634064" lon="70.159440"><ele>990.9</ele></trkpt>
<trkpt lat="41.634102" lon="70.159561"><ele>992.2</ele></trkpt>
<trkpt lat="41.634260" lon="70.159812"><ele>992.2</ele></trkpt>
<trkpt lat="41.634310" lon="70.159952"><ele>992.1</ele></trkpt>
<trkpt lat="41.634403" lon="70.160076"><ele>994.2</ele></trkpt>
<trkpt lat="41.634395" lon="70.160231"><ele>994.7</ele></trkpt>
<trkpt lat="41.634499" lon="70.160502"><ele>991.7</ele></trkpt>
<trkpt lat="41.634499" lon="70.160992"><ele>994.4</ele></trkpt>
<trkpt lat="41.634582" lon="70.161311"><ele>992.1</ele></trkpt>
<trkpt lat="41.634557" lon="70.161457"><ele>991.1</ele></trkpt>
<trkpt lat="41.634601" lon="70.161607"><ele>990.8</ele></trkpt>
<trkpt lat="41.634621" lon="70.161942"><ele>988.2</ele></trkpt>
<trkpt lat="41.634610" lon="70.162147"><ele>989.4</ele></trkpt>
<trkpt lat="41.634582" lon="70.162317"><ele>991.7</ele></trkpt>
<trkpt lat="41.634624" lon="70.162635"><ele>996.2</ele></trkpt>
<trkpt lat="41.634701" lon="70.162958"><ele>996.8</ele></trkpt>
<trkpt lat="41.634757" lon="70.163098"><ele>996.8</ele></trkpt>
<trkpt lat="41.634799" lon="70.163272"><ele>996.5</ele></trkpt>
<trkpt lat="41.634862" lon="70.163368"><ele>997.2</ele></trkpt>
<trkpt lat="41.634950" lon="70.163399"><ele>998.9</ele></trkpt>
<trkpt lat="41.635026" lon="70.163473"><ele>1000.9</ele></trkpt>
<trkpt lat="41.635073" lon="70.163708"><ele>1002.0</ele></trkpt>
<trkpt lat="41.635111" lon="70.163827"><ele>1004.0</ele></trkpt>
<trkpt lat="41.635179" lon="70.163954"><ele>1006.1</ele></trkpt>
<trkpt lat="41.635168" lon="70.164083"><ele>1005.4</ele></trkpt>
<trkpt lat="41.635189" lon="70.164201"><ele>1002.2</ele></trkpt>
<trkpt lat="41.635227" lon="70.164682"><ele>1000.2</ele></trkpt>
<trkpt lat="41.635419" lon="70.164911"><ele>1000.3</ele></trkpt>
<trkpt lat="41.635530" lon="70.164983"><ele>1000.5</ele></trkpt>
<trkpt lat="41.635760" lon="70.165276"><ele>1003.0</ele></trkpt>
<trkpt lat="41.635855" lon="70.165268"><ele>1006.6</ele></trkpt>
<trkpt lat="41.635943" lon="70.165230"><ele>1011.4</ele></trkpt>
<trkpt lat="41.636021" lon="70.165141"><ele>1014.1</ele></trkpt>
<trkpt lat="41.636289" lon="70.165327"><ele>1022.0</ele></trkpt>
<trkpt lat="41.636546" lon="70.165587"><ele>1016.9</ele></trkpt>
<trkpt lat="41.636770" lon="70.165905"><ele>1012.0</ele></trkpt>
<trkpt lat="41.636807" lon="70.166080"><ele>1010.2</ele></trkpt>
<trkpt lat="41.636823" lon="70.166428"><ele>1005.0</ele></trkpt>
<trkpt lat="41.636884" lon="70.166563"><ele>1001.9</ele></trkpt>
<trkpt lat="41.636884" lon="70.166756"><ele>1002.6</ele></trkpt>
<trkpt lat="41.636866" lon="70.166900"><ele>1005.1</ele></trkpt>
<trkpt lat="41.636766" lon="70.167407"><ele>1009.5</ele></trkpt>
<trkpt lat="41.636790" lon="70.167536"><ele>1011.6</ele></trkpt>
<trkpt lat="41.636777" lon="70.167683"><ele>1010.4</ele></trkpt>
<trkpt lat="41.636782" lon="70.168023"><ele>1012.9</ele></trkpt>
<trkpt lat="41.636690" lon="70.168158"><ele>1015.0</ele></trkpt>
<trkpt lat="41.636576" lon="70.168460"><ele>1016.6</ele></trkpt>
<trkpt lat="41.636369" lon="70.168869"><ele>1013.2</ele></trkpt>
<trkpt lat="41.636321" lon="70.169068"><ele>1016.0</ele></trkpt>
<trkpt lat="41.636223" lon="70.169302"><ele>1016.2</ele></trkpt>
<trkpt lat="41.636187" lon="70.169477"><ele>1018.3</ele></trkpt>
<trkpt lat="41.636230" lon="70.169651"><ele>1016.7</ele></trkpt>
<trkpt lat="41.636281" lon="70.169766"><ele>1016.7</ele></trkpt>
<trkpt lat="41.636541" lon="70.170130"><ele>1026.9</ele></trkpt>
<trkpt lat="41.636619" lon="70.170204"><ele>1027.9</ele></trkpt>
<trkpt lat="41.636676" lon="70.170575"><ele>1028.8</ele></trkpt>
<trkpt lat="41.636790" lon="70.170779"><ele>1024.5</ele></trkpt>
<trkpt lat="41.636798" lon="70.171026"><ele>1023.6</ele></trkpt>
<trkpt lat="41.636826" lon="70.171143"><ele>1025.5</ele></trkpt>
<trkpt lat="41.636875" lon="70.171249"><ele>1025.8</ele></trkpt>
<trkpt lat="41.636860" lon="70.171402"><ele>1025.0</ele></trkpt>
<trkpt lat="41.636910" lon="70.171508"><ele>1026.2</ele></trkpt>
<trkpt lat="41.636871" lon="70.171628"><ele>1026.7</ele></trkpt>
<trkpt lat="41.636876" lon="70.171750"><ele>1025.8</ele></trkpt>
<trkpt lat="41.636901" lon="70.171878"><ele>1024.2</ele></trkpt>
<trkpt lat="41.637029" lon="70.172152"><ele>1021.7</ele></trkpt>
<trkpt lat="41.637065" lon="70.172310"><ele>1020.3</ele></trkpt>
<trkpt lat="41.637033" lon="70.172466"><ele>1022.3</ele></trkpt>
<trkpt lat="41.637068" lon="70.173086"><ele>1027.0</ele></trkpt>
<trkpt lat="41.637032" lon="70.173227"><ele>1028.5</ele></trkpt>
<trkpt lat="41.637022" lon="70.173399"><ele>1029.3</ele></trkpt>
<trkpt lat="41.636956" lon="70.173578"><ele>1029.7</ele></trkpt>
<trkpt lat="41.636914" lon="70.173744"><ele>1031.2</ele></trkpt>
<trkpt lat="41.636902" lon="70.173906"><ele>1031.4</ele></trkpt>
<trkpt lat="41.636956" lon="70.174054"><ele>1031.1</ele></trkpt>
<trkpt lat="41.636985" lon="70.174215"><ele>1031.3</ele></trkpt>
<trkpt lat="41.636978" lon="70.174538"><ele>1032.1</ele></trkpt>
<trkpt lat="41.637015" lon="70.174693"><ele>1035.0</ele></trkpt>
<trkpt lat="41.636942" lon="70.174953"><ele>1033.9</ele></trkpt>
<trkpt lat="41.636862" lon="70.175078"><ele>1034.8</ele></trkpt>
<trkpt lat="41.636841" lon="70.175236"><ele>1035.0</ele></trkpt>
<trkpt lat="41.636880" lon="70.175376"><ele>1034.3</ele></trkpt>
<trkpt lat="41.636896" lon="70.175507"><ele>1035.2</ele></trkpt>
<trkpt lat="41.636890" lon="70.175633"><ele>1036.7</ele></trkpt>
<trkpt lat="41.636913" lon="70.175757"><ele>1038.0</ele></trkpt>
<trkpt lat="41.636977" lon="70.175875"><ele>1038.6</ele></trkpt>
<trkpt lat="41.637014" lon="70.176002"><ele>1040.2</ele></trkpt>
<trkpt lat="41.637009" lon="70.176248"><ele>1045.0</ele></trkpt>
<trkpt lat="41.637059" lon="70.176354"><ele>1042.9</ele></trkpt>
<trkpt lat="41.637068" lon="70.176497"><ele>1042.5</ele></trkpt>
<trkpt lat="41.636989" lon="70.176561"><ele>1073.5</ele></trkpt>
<trkpt lat="41.636949" lon="70.176678"><ele>1066.1</ele></trkpt>
<trkpt lat="41.636931" lon="70.176796"><ele>1060.6</ele></trkpt>
<trkpt lat="41.637037" lon="70.176850"><ele>1055.8</ele></trkpt>
<trkpt lat="41.637097" lon="70.176957"><ele>1052.7</ele></trkpt>
<trkpt lat="41.637280" lon="70.177091"><ele>1053.4</ele></trkpt>
<trkpt lat="41.637354" lon="70.177218"><ele>1052.0</ele></trkpt>
<trkpt lat="41.637364" lon="70.177403"><ele>1052.5</ele></trkpt>
<trkpt lat="41.637481" lon="70.177674"><ele>1053.7</ele></trkpt>
<trkpt lat="41.637550" lon="70.177916"><ele>1058.3</ele></trkpt>
<trkpt lat="41.637579" lon="70.178077"><ele>1061.1</ele></trkpt>
<trkpt lat="41.637556" lon="70.178217"><ele>1061.9</ele></trkpt>
<trkpt lat="41.637554" lon="70.178419"><ele>1060.5</ele></trkpt>
<trkpt lat="41.637658" lon="70.178748"><ele>1056.9</ele></trkpt>
<trkpt lat="41.637685" lon="70.178877"><ele>1058.8</ele></trkpt>
<trkpt lat="41.637635" lon="70.179203"><ele>1060.2</ele></trkpt>
<trkpt lat="41.637530" lon="70.179389"><ele>1059.5</ele></trkpt>
<trkpt lat="41.637509" lon="70.179544"><ele>1054.8</ele></trkpt>
<trkpt lat="41.637481" lon="70.180192"><ele>1048.8</ele></trkpt>
<trkpt lat="41.637501" lon="70.180312"><ele>1051.2</ele></trkpt>
<trkpt lat="41.637464" lon="70.180562"><ele>1053.8</ele></trkpt>
<trkpt lat="41.637402" lon="70.180671"><ele>1056.1</ele></trkpt>
<trkpt lat="41.637333" lon="70.180750"><ele>1057.3</ele></trkpt>
<trkpt lat="41.637284" lon="70.180855"><ele>1056.8</ele></trkpt>
<trkpt lat="41.637179" lon="70.180930"><ele>1055.2</ele></trkpt>
<trkpt lat="41.637117" lon="70.181095"><ele>1053.2</ele></trkpt>
<trkpt lat="41.637095" lon="70.181275"><ele>1053.0</ele></trkpt>
<trkpt lat="41.637030" lon="70.181444"><ele>1053.9</ele></trkpt>
<trkpt lat="41.636866" lon="70.181733"><ele>1058.8</ele></trkpt>
<trkpt lat="41.636833" lon="70.181920"><ele>1059.0</ele></trkpt>
<trkpt lat="41.636653" lon="70.182179"><ele>1057.6</ele></trkpt>
<trkpt lat="41.636630" lon="70.182462"><ele>1052.2</ele></trkpt>
<trkpt lat="41.636679" lon="70.182619"><ele>1049.4</ele></trkpt>
<trkpt lat="41.636779" lon="70.182736"><ele>1048.7</ele></trkpt>
<trkpt lat="41.636879" lon="70.182701"><ele>1048.9</ele></trkpt>
<trkpt lat="41.636983" lon="70.182761"><ele>1049.9</ele></trkpt>
<trkpt lat="41.637079" lon="70.182979"><ele>1048.2</ele></trkpt>
<trkpt lat="41.637112" lon="70.183127"><ele>1045.6</ele></trkpt>
<trkpt lat="41.637189" lon="70.183223"><ele>1045.1</ele></trkpt>
<trkpt lat="41.637257" lon="70.183347"><ele>1043.7</ele></trkpt>
<trkpt lat="41.637338" lon="70.183895"><ele>1046.1</ele></trkpt>
<trkpt lat="41.637343" lon="70.184029"><ele>1044.8</ele></trkpt>
<trkpt lat="41.637416" lon="70.184122"><ele>1044.1</ele></trkpt>
<trkpt lat="41.637336" lon="70.184473"><ele>1043.0</ele></trkpt>
<trkpt lat="41.637326" lon="70.184606"><ele>1043.3</ele></trkpt>
<trkpt lat="41.637350" lon="70.184873"><ele>1045.7</ele></trkpt>
<trkpt lat="41.637261" lon="70.185270"><ele>1049.0</ele></trkpt>
<trkpt lat="41.637296" lon="70.185458"><ele>1051.0</ele></trkpt>
<trkpt lat="41.637397" lon="70.185579"><ele>1055.2</ele></trkpt>
<trkpt lat="41.637398" lon="70.185929"><ele>1053.6</ele></trkpt>
<trkpt lat="41.637499" lon="70.186066"><ele>1052.3</ele></trkpt>
<trkpt lat="41.637521" lon="70.186221"><ele>1049.0</ele></trkpt>
<trkpt lat="41.637641" lon="70.186532"><ele>1047.5</ele></trkpt>
<trkpt lat="41.637675" lon="70.186695"><ele>1047.8</ele></trkpt>
<trkpt lat="41.637799" lon="70.186828"><ele>1046.2</ele></trkpt>
<trkpt lat="41.637911" lon="70.186880"><ele>1046.1</ele></trkpt>
<trkpt lat="41.638009" lon="70.187024"><ele>1045.1</ele></trkpt>
<trkpt lat="41.638043" lon="70.187164"><ele>1042.3</ele></trkpt>
<trkpt lat="41.638150" lon="70.187369"><ele>1042.7</ele></trkpt>
<trkpt lat="41.638300" lon="70.187599"><ele>1046.9</ele></trkpt>
<trkpt lat="41.638401" lon="70.187710"><ele>1047.8</ele></trkpt>
<trkpt lat="41.638452" lon="70.187876"><ele>1045.6</ele></trkpt>
<trkpt lat="41.638511" lon="70.187983"><ele>1044.2</ele></trkpt>
<trkpt lat="41.638597" lon="70.188082"><ele>1043.5</ele></trkpt>
<trkpt lat="41.638722" lon="70.188289"><ele>1049.9</ele></trkpt>
<trkpt lat="41.638821" lon="70.188577"><ele>1054.7</ele></trkpt>
<trkpt lat="41.638916" lon="70.188642"><ele>1058.1</ele></trkpt>
<trkpt lat="41.638905" lon="70.188810"><ele>1060.2</ele></trkpt>
<trkpt lat="41.638855" lon="70.188925"><ele>1062.8</ele></trkpt>
<trkpt lat="41.638870" lon="70.189086"><ele>1064.2</ele></trkpt>
<trkpt lat="41.638906" lon="70.189217"><ele>1065.3</ele></trkpt>
<trkpt lat="41.638909" lon="70.189359"><ele>1062.8</ele></trkpt>
<trkpt lat="41.638853" lon="70.189481"><ele>1063.1</ele></trkpt>
<trkpt lat="41.638876" lon="70.189748"><ele>1064.0</ele></trkpt>
<trkpt lat="41.638828" lon="70.189889"><ele>1066.1</ele></trkpt>
<trkpt lat="41.638845" lon="70.190061"><ele>1067.1</ele></trkpt>
<trkpt lat="41.638764" lon="70.190171"><ele>1068.5</ele></trkpt>
<trkpt lat="41.638745" lon="70.190292"><ele>1073.0</ele></trkpt>
<trkpt lat="41.638686" lon="70.190446"><ele>1077.1</ele></trkpt>
<trkpt lat="41.638672" lon="70.190613"><ele>1075.4</ele></trkpt>
<trkpt lat="41.638707" lon="70.190819"><ele>1074.4</ele></trkpt>
<trkpt lat="41.638693" lon="70.191133"><ele>1071.8</ele></trkpt>
<trkpt lat="41.638724" lon="70.191407"><ele>1069.5</ele></trkpt>
<trkpt lat="41.638716" lon="70.191807"><ele>1070.8</ele></trkpt>
<trkpt lat="41.638822" lon="70.192051"><ele>1076.7</ele></trkpt>
<trkpt lat="41.638977" lon="70.192189"><ele>1077.5</ele></trkpt>
<trkpt lat="41.638936" lon="70.192296"><ele>1079.5</ele></trkpt>
<trkpt lat="41.638899" lon="70.192554"><ele>1084.8</ele></trkpt>
<trkpt lat="41.638823" lon="70.192679"><ele>1083.6</ele></trkpt>
<trkpt lat="41.638808" lon="70.192851"><ele>1079.4</ele></trkpt>
<trkpt lat="41.638821" lon="70.192974"><ele>1078.6</ele></trkpt>
<trkpt lat="41.638864" lon="70.193109"><ele>1078.8</ele></trkpt>
<trkpt lat="41.638878" lon="70.193241"><ele>1075.3</ele></trkpt>
<trkpt lat="41.638932" lon="70.193396"><ele>1073.2</ele></trkpt>
<trkpt lat="41.638959" lon="70.193589"><ele>1072.3</ele></trkpt>
<trkpt lat="41.638999" lon="70.193730"><ele>1069.0</ele></trkpt>
<trkpt lat="41.638971" lon="70.193865"><ele>1067.4</ele></trkpt>
<trkpt lat="41.638984" lon="70.194013"><ele>1067.8</ele></trkpt>
<trkpt lat="41.639046" lon="70.194284"><ele>1065.0</ele></trkpt>
<trkpt lat="41.639139" lon="70.194508"><ele>1067.3</ele></trkpt>
<trkpt lat="41.639164" lon="70.194636"><ele>1070.3</ele></trkpt>
<trkpt lat="41.639166" lon="70.194763"><ele>1071.4</ele></trkpt>
<trkpt lat="41.639075" lon="70.194767"><ele>1066.3</ele></trkpt>
<trkpt lat="41.639175" lon="70.194757"><ele>1067.3</ele></trkpt>
<trkpt lat="41.639088" lon="70.194804"><ele>1071.8</ele></trkpt>
<trkpt lat="41.638997" lon="70.194793"><ele>1071.7</ele></trkpt>
<trkpt lat="41.639128" lon="70.194785"><ele>1068.1</ele></trkpt>
<trkpt lat="41.639198" lon="70.194877"><ele>1066.4</ele></trkpt>
<trkpt lat="41.639201" lon="70.194999"><ele>1068.4</ele></trkpt>
<trkpt lat="41.639270" lon="70.195081"><ele>1070.2</ele></trkpt>
<trkpt lat="41.639224" lon="70.195320"><ele>1076.0</ele></trkpt>
<trkpt lat="41.639254" lon="70.195566"><ele>1080.1</ele></trkpt>
<trkpt lat="41.639224" lon="70.195712"><ele>1083.0</ele></trkpt>
<trkpt lat="41.639209" lon="70.195980"><ele>1084.8</ele></trkpt>
<trkpt lat="41.639288" lon="70.196072"><ele>1085.0</ele></trkpt>
<trkpt lat="41.639322" lon="70.196194"><ele>1086.2</ele></trkpt>
<trkpt lat="41.639397" lon="70.196284"><ele>1087.3</ele></trkpt>
<trkpt lat="41.639491" lon="70.196309"><ele>1088.1</ele></trkpt>
<trkpt lat="41.639449" lon="70.196425"><ele>1088.7</ele></trkpt>
<trkpt lat="41.639426" lon="70.196568"><ele>1087.3</ele></trkpt>
<trkpt lat="41.639445" lon="70.196708"><ele>1084.2</ele></trkpt>
<trkpt lat="41.639374" lon="70.196868"><ele>1082.5</ele></trkpt>
<trkpt lat="41.639406" lon="70.197004"><ele>1081.5</ele></trkpt>
<trkpt lat="41.639382" lon="70.197148"><ele>1080.5</ele></trkpt>
<trkpt lat="41.639390" lon="70.197312"><ele>1080.0</ele></trkpt>
<trkpt lat="41.639446" lon="70.197481"><ele>1078.0</ele></trkpt>
<trkpt lat="41.639531" lon="70.197609"><ele>1076.9</ele></trkpt>
<trkpt lat="41.639587" lon="70.197748"><ele>1078.3</ele></trkpt>
<trkpt lat="41.639595" lon="70.197884"><ele>1080.1</ele></trkpt>
<trkpt lat="41.639580" lon="70.198199"><ele>1076.5</ele></trkpt>
<trkpt lat="41.639596" lon="70.198381"><ele>1075.0</ele></trkpt>
<trkpt lat="41.639539" lon="70.198656"><ele>1074.4</ele></trkpt>
<trkpt lat="41.639468" lon="70.198792"><ele>1074.7</ele></trkpt>
<trkpt lat="41.639488" lon="70.198960"><ele>1071.3</ele></trkpt>
<trkpt lat="41.639450" lon="70.199170"><ele>1066.9</ele></trkpt>
<trkpt lat="41.639469" lon="70.199319"><ele>1063.9</ele></trkpt>
<trkpt lat="41.639524" lon="70.199444"><ele>1062.0</ele></trkpt>
<trkpt lat="41.639540" lon="70.199699"><ele>1062.7</ele></trkpt>
<trkpt lat="41.639465" lon="70.199806"><ele>1066.2</ele></trkpt>
<trkpt lat="41.639507" lon="70.200130"><ele>1069.3</ele></trkpt>
<trkpt lat="41.639461" lon="70.200428"><ele>1067.0</ele></trkpt>
<trkpt lat="41.639425" lon="70.200554"><ele>1067.9</ele></trkpt>
<trkpt lat="41.639404" lon="70.200850"><ele>1069.9</ele></trkpt>
<trkpt lat="41.639340" lon="70.201087"><ele>1070.1</ele></trkpt>
<trkpt lat="41.639271" lon="70.201197"><ele>1071.6</ele></trkpt>
<trkpt lat="41.639228" lon="70.201305"><ele>1068.7</ele></trkpt>
<trkpt lat="41.639231" lon="70.201590"><ele>1063.2</ele></trkpt>
<trkpt lat="41.639214" lon="70.201770"><ele>1061.3</ele></trkpt>
<trkpt lat="41.639227" lon="70.201990"><ele>1062.2</ele></trkpt>
<trkpt lat="41.639206" lon="70.202490"><ele>1074.5</ele></trkpt>
<trkpt lat="41.639251" lon="70.202660"><ele>1075.6</ele></trkpt>
<trkpt lat="41.639187" lon="70.202774"><ele>1075.3</ele></trkpt>
<trkpt lat="41.639070" lon="70.203107"><ele>1075.9</ele></trkpt>
<trkpt lat="41.639038" lon="70.203293"><ele>1074.4</ele></trkpt>
<trkpt lat="41.639045" lon="70.203452"><ele>1072.3</ele></trkpt>
<trkpt lat="41.639022" lon="70.203866"><ele>1069.3</ele></trkpt>
<trkpt lat="41.639032" lon="70.204144"><ele>1065.0</ele></trkpt>
<trkpt lat="41.639007" lon="70.204262"><ele>1068.3</ele></trkpt>
<trkpt lat="41.638937" lon="70.204363"><ele>1073.9</ele></trkpt>
<trkpt lat="41.638938" lon="70.204484"><ele>1077.1</ele></trkpt>
<trkpt lat="41.638973" lon="70.204601"><ele>1078.1</ele></trkpt>
<trkpt lat="41.639065" lon="70.204680"><ele>1077.1</ele></trkpt>
<trkpt lat="41.638995" lon="70.204762"><ele>1077.9</ele></trkpt>
<trkpt lat="41.638869" lon="70.204825"><ele>1081.0</ele></trkpt>
<trkpt lat="41.638668" lon="70.205074"><ele>1080.8</ele></trkpt>
<trkpt lat="41.638576" lon="70.205509"><ele>1072.8</ele></trkpt>
<trkpt lat="41.638595" lon="70.205669"><ele>1071.5</ele></trkpt>
<trkpt lat="41.638598" lon="70.205889"><ele>1069.7</ele></trkpt>
<trkpt lat="41.638563" lon="70.206050"><ele>1070.8</ele></trkpt>
<trkpt lat="41.638643" lon="70.206235"><ele>1071.7</ele></trkpt>
<trkpt lat="41.638697" lon="70.206415"><ele>1073.5</ele></trkpt>
<trkpt lat="41.638801" lon="70.206571"><ele>1075.1</ele></trkpt>
<trkpt lat="41.638857" lon="70.206691"><ele>1076.3</ele></trkpt>
<trkpt lat="41.638947" lon="70.207040"><ele>1080.4</ele></trkpt>
<trkpt lat="41.638999" lon="70.207156"><ele>1084.0</ele></trkpt>
<trkpt lat="41.639081" lon="70.207223"><ele>1083.9</ele></trkpt>
<trkpt lat="41.639189" lon="70.207453"><ele>1085.4</ele></trkpt>
<trkpt lat="41.639326" lon="70.207869"><ele>1086.3</ele></trkpt>
<trkpt lat="41.639402" lon="70.207946"><ele>1085.3</ele></trkpt>
<trkpt lat="41.639404" lon="70.208098"><ele>1084.5</ele></trkpt>
<trkpt lat="41.639333" lon="70.208208"><ele>1089.0</ele></trkpt>
<trkpt lat="41.639392" lon="70.208429"><ele>1087.3</ele></trkpt>
<trkpt lat="41.639401" lon="70.208681"><ele>1087.9</ele></trkpt>
<trkpt lat="41.639255" lon="70.208842"><ele>1089.5</ele></trkpt>
<trkpt lat="41.639167" lon="70.208910"><ele>1088.7</ele></trkpt>
<trkpt lat="41.639070" lon="70.209057"><ele>1086.4</ele></trkpt>
<trkpt lat="41.639018" lon="70.209224"><ele>1086.0</ele></trkpt>
<trkpt lat="41.638941" lon="70.209334"><ele>1086.4</ele></trkpt>
<trkpt lat="41.638892" lon="70.209482"><ele>1086.7</ele></trkpt>
<trkpt lat="41.638815" lon="70.209579"><ele>1086.9</ele></trkpt>
<trkpt lat="41.638681" lon="70.209904"><ele>1087.6</ele></trkpt>
<trkpt lat="41.638584" lon="70.210249"><ele>1084.4</ele></trkpt>
<trkpt lat="41.638511" lon="70.210627"><ele>1084.0</ele></trkpt>
<trkpt lat="41.638475" lon="70.211140"><ele>1085.4</ele></trkpt>
<trkpt lat="41.638513" lon="70.211314"><ele>1085.0</ele></trkpt>
<trkpt lat="41.638460" lon="70.211482"><ele>1086.3</ele></trkpt>
<trkpt lat="41.638502" lon="70.211657"><ele>1085.2</ele></trkpt>
<trkpt lat="41.638628" lon="70.211847"><ele>1085.6</ele></trkpt>
<trkpt lat="41.638759" lon="70.212183"><ele>1085.8</ele></trkpt>
<trkpt lat="41.638820" lon="70.212294"><ele>1084.3</ele></trkpt>
<trkpt lat="41.638831" lon="70.212473"><ele>1083.9</ele></trkpt>
<trkpt lat="41.638863" lon="70.212624"><ele>1084.0</ele></trkpt>
<trkpt lat="41.638943" lon="70.212786"><ele>1084.0</ele></trkpt>
<trkpt lat="41.639014" lon="70.212875"><ele>1084.2</ele></trkpt>
<trkpt lat="41.639059" lon="70.213052"><ele>1084.0</ele></trkpt>
<trkpt lat="41.639147" lon="70.213093"><ele>1085.8</ele></trkpt>
<trkpt lat="41.639176" lon="70.213219"><ele>1084.8</ele></trkpt>
<trkpt lat="41.639228" lon="70.213324"><ele>1085.1</ele></trkpt>
<trkpt lat="41.639239" lon="70.213452"><ele>1086.0</ele></trkpt>
<trkpt lat="41.639187" lon="70.213865"><ele>1085.0</ele></trkpt>
<trkpt lat="41.639221" lon="70.214011"><ele>1082.1</ele></trkpt>
<trkpt lat="41.639275" lon="70.214146"><ele>1084.3</ele></trkpt>
<trkpt lat="41.639295" lon="70.214313"><ele>1088.2</ele></trkpt>
<trkpt lat="41.639298" lon="70.214433"><ele>1089.9</ele></trkpt>
<trkpt lat="41.639249" lon="70.214685"><ele>1092.0</ele></trkpt>
<trkpt lat="41.639300" lon="70.214829"><ele>1090.5</ele></trkpt>
<trkpt lat="41.639212" lon="70.214950"><ele>1088.9</ele></trkpt>
<trkpt lat="41.639262" lon="70.215226"><ele>1095.1</ele></trkpt>
<trkpt lat="41.639222" lon="70.215378"><ele>1093.7</ele></trkpt>
<trkpt lat="41.639238" lon="70.215534"><ele>1092.5</ele></trkpt>
<trkpt lat="41.639198" lon="70.215707"><ele>1090.8</ele></trkpt>
<trkpt lat="41.639179" lon="70.216022"><ele>1091.7</ele></trkpt>
<trkpt lat="41.639147" lon="70.216138"><ele>1095.6</ele></trkpt>
<trkpt lat="41.639142" lon="70.216261"><ele>1095.5</ele></trkpt>
<trkpt lat="41.639094" lon="70.216376"><ele>1095.8</ele></trkpt>
<trkpt lat="41.639055" lon="70.216735"><ele>1091.6</ele></trkpt>
<trkpt lat="41.639182" lon="70.217092"><ele>1093.0</ele></trkpt>
<trkpt lat="41.639334" lon="70.217293"><ele>1100.5</ele></trkpt>
<trkpt lat="41.639319" lon="70.217434"><ele>1101.2</ele></trkpt>
<trkpt lat="41.639337" lon="70.217594"><ele>1101.0</ele></trkpt>
<trkpt lat="41.639356" lon="70.217714"><ele>1099.3</ele></trkpt>
<trkpt lat="41.639401" lon="70.217843"><ele>1096.3</ele></trkpt>
<trkpt lat="41.639417" lon="70.217967"><ele>1096.7</ele></trkpt>
<trkpt lat="41.639364" lon="70.218084"><ele>1099.8</ele></trkpt>
<trkpt lat="41.639325" lon="70.218362"><ele>1105.9</ele></trkpt>
<trkpt lat="41.639284" lon="70.218513"><ele>1105.2</ele></trkpt>
<trkpt lat="41.639266" lon="70.218684"><ele>1103.8</ele></trkpt>
<trkpt lat="41.639266" lon="70.218984"><ele>1108.4</ele></trkpt>
<trkpt lat="41.639319" lon="70.219138"><ele>1105.4</ele></trkpt>
<trkpt lat="41.639379" lon="70.219256"><ele>1105.0</ele></trkpt>
<trkpt lat="41.639414" lon="70.219392"><ele>1103.6</ele></trkpt>
<trkpt lat="41.639393" lon="70.219521"><ele>1105.0</ele></trkpt>
<trkpt lat="41.639440" lon="70.219700"><ele>1105.7</ele></trkpt>
<trkpt lat="41.639424" lon="70.219839"><ele>1106.8</ele></trkpt>
<trkpt lat="41.639351" lon="70.219977"><ele>1108.7</ele></trkpt>
<trkpt lat="41.639377" lon="70.220317"><ele>1105.6</ele></trkpt>
<trkpt lat="41.639340" lon="70.220459"><ele>1103.5</ele></trkpt>
<trkpt lat="41.639355" lon="70.220659"><ele>1103.2</ele></trkpt>
<trkpt lat="41.639554" lon="70.220871"><ele>1102.7</ele></trkpt>
<trkpt lat="41.639611" lon="70.221007"><ele>1101.7</ele></trkpt>
<trkpt lat="41.639596" lon="70.221183"><ele>1101.0</ele></trkpt>
<trkpt lat="41.639612" lon="70.221367"><ele>1101.2</ele></trkpt>
<trkpt lat="41.639648" lon="70.221503"><ele>1100.7</ele></trkpt>
<trkpt lat="41.639663" lon="70.221652"><ele>1102.2</ele></trkpt>
<trkpt lat="41.639659" lon="70.221953"><ele>1100.2</ele></trkpt>
<trkpt lat="41.639617" lon="70.222128"><ele>1098.5</ele></trkpt>
<trkpt lat="41.639620" lon="70.222306"><ele>1098.5</ele></trkpt>
<trkpt lat="41.639599" lon="70.222452"><ele>1099.9</ele></trkpt>
<trkpt lat="41.639608" lon="70.222610"><ele>1100.5</ele></trkpt>
<trkpt lat="41.639586" lon="70.222750"><ele>1101.2</ele></trkpt>
<trkpt lat="41.639514" lon="70.222852"><ele>1103.0</ele></trkpt>
<trkpt lat="41.639455" lon="70.223101"><ele>1105.1</ele></trkpt>
<trkpt lat="41.639438" lon="70.223407"><ele>1105.4</ele></trkpt>
<trkpt lat="41.639447" lon="70.223547"><ele>1105.2</ele></trkpt>
<trkpt lat="41.639505" lon="70.223813"><ele>1106.2</ele></trkpt>
<trkpt lat="41.639483" lon="70.224080"><ele>1106.3</ele></trkpt>
<trkpt lat="41.639518" lon="70.224231"><ele>1107.1</ele></trkpt>
<trkpt lat="41.639523" lon="70.224392"><ele>1107.7</ele></trkpt>
<trkpt lat="41.639482" lon="70.224668"><ele>1112.8</ele></trkpt>
<trkpt lat="41.639505" lon="70.224792"><ele>1115.6</ele></trkpt>
<trkpt lat="41.639436" lon="70.224913"><ele>1115.3</ele></trkpt>
<trkpt lat="41.639337" lon="70.225017"><ele>1113.8</ele></trkpt>
<trkpt lat="41.639260" lon="70.225134"><ele>1111.5</ele></trkpt>
<trkpt lat="41.639277" lon="70.225286"><ele>1110.7</ele></trkpt>
<trkpt lat="41.639263" lon="70.225406"><ele>1110.0</ele></trkpt>
<trkpt lat="41.639319" lon="70.225564"><ele>1109.5</ele></trkpt>
<trkpt lat="41.639403" lon="70.225701"><ele>1111.6</ele></trkpt>
<trkpt lat="41.639440" lon="70.225963"><ele>1111.5</ele></trkpt>
<trkpt lat="41.639443" lon="70.226094"><ele>1113.3</ele></trkpt>
<trkpt lat="41.639468" lon="70.226224"><ele>1111.5</ele></trkpt>
<trkpt lat="41.639425" lon="70.226367"><ele>1109.5</ele></trkpt>
<trkpt lat="41.639415" lon="70.226502"><ele>1110.3</ele></trkpt>
<trkpt lat="41.639431" lon="70.226629"><ele>1110.7</ele></trkpt>
<trkpt lat="41.639595" lon="70.226953"><ele>1108.6</ele></trkpt>
<trkpt lat="41.639759" lon="70.227067"><ele>1119.4</ele></trkpt>
<trkpt lat="41.639796" lon="70.227188"><ele>1121.7</ele></trkpt>
<trkpt lat="41.639875" lon="70.227258"><ele>1122.8</ele></trkpt>
<trkpt lat="41.639848" lon="70.227380"><ele>1124.6</ele></trkpt>
<trkpt lat="41.640021" lon="70.227461"><ele>1135.0</ele></trkpt>
<trkpt lat="41.640204" lon="70.227472"><ele>1136.7</ele></trkpt>
<trkpt lat="41.640376" lon="70.227374"><ele>1138.0</ele></trkpt>
<trkpt lat="41.640451" lon="70.227297"><ele>1139.0</ele></trkpt>
<trkpt lat="41.640546" lon="70.227292"><ele>1141.1</ele></trkpt>
<trkpt lat="41.640611" lon="70.227208"><ele>1144.3</ele></trkpt>
<trkpt lat="41.640608" lon="70.227086"><ele>1143.5</ele></trkpt>
<trkpt lat="41.640528" lon="70.227165"><ele>1141.5</ele></trkpt>
<trkpt lat="41.640467" lon="70.227070"><ele>1136.7</ele></trkpt>
<trkpt lat="41.640621" lon="70.226909"><ele>1138.2</ele></trkpt>
<trkpt lat="41.640835" lon="70.226949"><ele>1145.7</ele></trkpt>
<trkpt lat="41.640975" lon="70.226768"><ele>1147.7</ele></trkpt>
<trkpt lat="41.641066" lon="70.226764"><ele>1148.5</ele></trkpt>
<trkpt lat="41.641147" lon="70.226823"><ele>1151.6</ele></trkpt>
<trkpt lat="41.641336" lon="70.226854"><ele>1147.4</ele></trkpt>
<trkpt lat="41.641411" lon="70.226932"><ele>1146.6</ele></trkpt>
<trkpt lat="41.641498" lon="70.226990"><ele>1146.4</ele></trkpt>
<trkpt lat="41.641589" lon="70.226997"><ele>1149.6</ele></trkpt>
<trkpt lat="41.641697" lon="70.227041"><ele>1150.2</ele></trkpt>
<trkpt lat="41.641793" lon="70.227047"><ele>1149.6</ele></trkpt>
<trkpt lat="41.641871" lon="70.226974"><ele>1145.4</ele></trkpt>
<trkpt lat="41.641965" lon="70.226982"><ele>1143.9</ele></trkpt>
<trkpt lat="41.642054" lon="70.226948"><ele>1143.4</ele></trkpt>
<trkpt lat="41.642131" lon="70.226881"><ele>1145.8</ele></trkpt>
<trkpt lat="41.642329" lon="70.226974"><ele>1148.8</ele></trkpt>
<trkpt lat="41.642397" lon="70.226888"><ele>1153.0</ele></trkpt>
<trkpt lat="41.642483" lon="70.226941"><ele>1154.9</ele></trkpt>
<trkpt lat="41.642570" lon="70.226904"><ele>1159.4</ele></trkpt>
<trkpt lat="41.642662" lon="70.226903"><ele>1159.5</ele></trkpt>
<trkpt lat="41.642716" lon="70.226999"><ele>1160.4</ele></trkpt>
<trkpt lat="41.642709" lon="70.226836"><ele>1161.4</ele></trkpt>
<trkpt lat="41.642909" lon="70.226976"><ele>1161.7</ele></trkpt>
<trkpt lat="41.642955" lon="70.227086"><ele>1164.4</ele></trkpt>
<trkpt lat="41.643060" lon="70.227118"><ele>1165.7</ele></trkpt>
<trkpt lat="41.643158" lon="70.227183"><ele>1164.5</ele></trkpt>
<trkpt lat="41.643281" lon="70.227185"><ele>1162.7</ele></trkpt>
<trkpt lat="41.643310" lon="70.227023"><ele>1162.6</ele></trkpt>
<trkpt lat="41.643386" lon="70.226928"><ele>1161.8</ele></trkpt>
<trkpt lat="41.643566" lon="70.226821"><ele>1159.3</ele></trkpt>
<trkpt lat="41.643624" lon="70.226725"><ele>1159.4</ele></trkpt>
<trkpt lat="41.643718" lon="70.226488"><ele>1160.0</ele></trkpt>
<trkpt lat="41.643675" lon="70.226348"><ele>1157.2</ele></trkpt>
<trkpt lat="41.643762" lon="70.226303"><ele>1150.1</ele></trkpt>
<trkpt lat="41.643895" lon="70.226122"><ele>1154.1</ele></trkpt>
<trkpt lat="41.643974" lon="70.226060"><ele>1162.9</ele></trkpt>
<trkpt lat="41.644060" lon="70.226123"><ele>1165.4</ele></trkpt>
<trkpt lat="41.644143" lon="70.226075"><ele>1168.1</ele></trkpt>
<trkpt lat="41.644239" lon="70.226104"><ele>1172.2</ele></trkpt>
<trkpt lat="41.644352" lon="70.226204"><ele>1174.8</ele></trkpt>
<trkpt lat="41.644441" lon="70.226236"><ele>1178.4</ele></trkpt>
<trkpt lat="41.644653" lon="70.226269"><ele>1185.7</ele></trkpt>
<trkpt lat="41.644922" lon="70.226430"><ele>1190.2</ele></trkpt>
<trkpt lat="41.645012" lon="70.226462"><ele>1192.5</ele></trkpt>
<trkpt lat="41.645002" lon="70.226591"><ele>1194.7</ele></trkpt>
<trkpt lat="41.645080" lon="70.226523"><ele>1195.2</ele></trkpt>
<trkpt lat="41.645184" lon="70.226582"><ele>1195.3</ele></trkpt>
<trkpt lat="41.645273" lon="70.226544"><ele>1196.4</ele></trkpt>
<trkpt lat="41.645380" lon="70.226444"><ele>1195.3</ele></trkpt>
<trkpt lat="41.645441" lon="70.226156"><ele>1197.9</ele></trkpt>
<trkpt lat="41.645532" lon="70.226172"><ele>1200.4</ele></trkpt>
<trkpt lat="41.645583" lon="70.226274"><ele>1203.0</ele></trkpt>
<trkpt lat="41.645652" lon="70.226360"><ele>1207.8</ele></trkpt>
<trkpt lat="41.645750" lon="70.226328"><ele>1208.1</ele></trkpt>
<trkpt lat="41.645842" lon="70.226360"><ele>1207.5</ele></trkpt>
<trkpt lat="41.645931" lon="70.226404"><ele>1209.5</ele></trkpt>
<trkpt lat="41.646010" lon="70.226492"><ele>1210.3</ele></trkpt>
<trkpt lat="41.646093" lon="70.226540"><ele>1213.3</ele></trkpt>
<trkpt lat="41.646105" lon="70.226666"><ele>1222.6</ele></trkpt>
<trkpt lat="41.646148" lon="70.226781"><ele>1219.8</ele></trkpt>
<trkpt lat="41.646233" lon="70.226830"><ele>1216.4</ele></trkpt>
<trkpt lat="41.646148" lon="70.226875"><ele>1213.3</ele></trkpt>
<trkpt lat="41.646198" lon="70.226767"><ele>1230.9</ele></trkpt>
<trkpt lat="41.646231" lon="70.226927"><ele>1211.4</ele></trkpt>
<trkpt lat="41.646380" lon="70.226773"><ele>1218.7</ele></trkpt>
<trkpt lat="41.646561" lon="70.226709"><ele>1221.2</ele></trkpt>
<trkpt lat="41.646648" lon="70.226650"><ele>1222.2</ele></trkpt>
<trkpt lat="41.646912" lon="70.226545"><ele>1231.8</ele></trkpt>
<trkpt lat="41.647002" lon="70.226462"><ele>1233.9</ele></trkpt>
<trkpt lat="41.647178" lon="70.226391"><ele>1240.9</ele></trkpt>
<trkpt lat="41.647247" lon="70.226303"><ele>1242.9</ele></trkpt>
<trkpt lat="41.647335" lon="70.226248"><ele>1248.6</ele></trkpt>
<trkpt lat="41.647433" lon="70.226239"><ele>1252.4</ele></trkpt>
<trkpt lat="41.647620" lon="70.226358"><ele>1259.2</ele></trkpt>
<trkpt lat="41.647652" lon="70.226472"><ele>1266.1</ele></trkpt>
<trkpt lat="41.647765" lon="70.226610"><ele>1267.4</ele></trkpt>
<trkpt lat="41.647855" lon="70.226573"><ele>1267.6</ele></trkpt>
<trkpt lat="41.647861" lon="70.226432"><ele>1269.7</ele></trkpt>
<trkpt lat="41.647656" lon="70.226062"><ele>1273.3</ele></trkpt>
<trkpt lat="41.647594" lon="70.225882"><ele>1274.2</ele></trkpt>
<trkpt lat="41.647574" lon="70.225755"><ele>1272.7</ele></trkpt>
<trkpt lat="41.647741" lon="70.225656"><ele>1272.8</ele></trkpt>
<trkpt lat="41.647793" lon="70.225553"><ele>1273.9</ele></trkpt>
<trkpt lat="41.647699" lon="70.225463"><ele>1277.9</ele></trkpt>
<trkpt lat="41.647792" lon="70.225438"><ele>1284.3</ele></trkpt>
<trkpt lat="41.647820" lon="70.225314"><ele>1298.5</ele></trkpt>
<trkpt lat="41.647904" lon="70.225369"><ele>1318.7</ele></trkpt>
<trkpt lat="41.648009" lon="70.225525"><ele>1326.9</ele></trkpt>
<trkpt lat="41.648104" lon="70.225557"><ele>1328.9</ele></trkpt>
<trkpt lat="41.648173" lon="70.225480"><ele>1326.4</ele></trkpt>
<trkpt lat="41.648276" lon="70.225575"><ele>1320.5</ele></trkpt>
<trkpt lat="41.648316" lon="70.225684"><ele>1315.4</ele></trkpt>
<trkpt lat="41.648406" lon="70.225689"><ele>1313.2</ele></trkpt>
<trkpt lat="41.648497" lon="70.225665"><ele>1311.3</ele></trkpt>
<trkpt lat="41.648674" lon="70.225736"><ele>1306.7</ele></trkpt>
<trkpt lat="41.648772" lon="70.225726"><ele>1302.9</ele></trkpt>
<trkpt lat="41.648843" lon="70.225821"><ele>1302.0</ele></trkpt>
<trkpt lat="41.648927" lon="70.225744"><ele>1300.3</ele></trkpt>
<trkpt lat="41.649138" lon="70.225981"><ele>1294.1</ele></trkpt>
<trkpt lat="41.649199" lon="70.226075"><ele>1294.7</ele></trkpt>
<trkpt lat="41.649289" lon="70.226016"><ele>1296.2</ele></trkpt>
<trkpt lat="41.649312" lon="70.226145"><ele>1295.9</ele></trkpt>
<trkpt lat="41.649314" lon="70.226289"><ele>1296.1</ele></trkpt>
<trkpt lat="41.649404" lon="70.226278"><ele>1298.7</ele></trkpt>
<trkpt lat="41.649455" lon="70.226152"><ele>1299.7</ele></trkpt>
<trkpt lat="41.649445" lon="70.226275"><ele>1298.5</ele></trkpt>
<trkpt lat="41.649564" lon="70.226478"><ele>1297.4</ele></trkpt>
<trkpt lat="41.649632" lon="70.226393"><ele>1296.5</ele></trkpt>
<trkpt lat="41.649712" lon="70.226247"><ele>1296.0</ele></trkpt>
<trkpt lat="41.649738" lon="70.226129"><ele>1297.4</ele></trkpt>
<trkpt lat="41.649793" lon="70.226034"><ele>1296.5</ele></trkpt>
<trkpt lat="41.649883" lon="70.226044"><ele>1297.7</ele></trkpt>
<trkpt lat="41.649979" lon="70.225973"><ele>1299.4</ele></trkpt>
<trkpt lat="41.650136" lon="70.226116"><ele>1311.0</ele></trkpt>
<trkpt lat="41.650231" lon="70.226335"><ele>1313.4</ele></trkpt>
<trkpt lat="41.650321" lon="70.226259"><ele>1316.8</ele></trkpt>
<trkpt lat="41.650426" lon="70.226137"><ele>1320.6</ele></trkpt>
<trkpt lat="41.650470" lon="70.226028"><ele>1325.0</ele></trkpt>
<trkpt lat="41.650666" lon="70.226015"><ele>1336.5</ele></trkpt>
<trkpt lat="41.650733" lon="70.226098"><ele>1339.6</ele></trkpt>
<trkpt lat="41.650842" lon="70.225904"><ele>1349.4</ele></trkpt>
<trkpt lat="41.650857" lon="70.225783"><ele>1340.3</ele></trkpt>
<trkpt lat="41.650945" lon="70.225689"><ele>1340.0</ele></trkpt>
<trkpt lat="41.650960" lon="70.225818"><ele>1337.4</ele></trkpt>
<trkpt lat="41.651051" lon="70.225808"><ele>1336.3</ele></trkpt>
<trkpt lat="41.651069" lon="70.225687"><ele>1337.9</ele></trkpt>
<trkpt lat="41.650989" lon="70.225566"><ele>1340.6</ele></trkpt>
<trkpt lat="41.651018" lon="70.225396"><ele>1343.2</ele></trkpt>
<trkpt lat="41.651119" lon="70.225356"><ele>1343.5</ele></trkpt>
<trkpt lat="41.651240" lon="70.225439"><ele>1343.5</ele></trkpt>
<trkpt lat="41.651322" lon="70.225550"><ele>1342.1</ele></trkpt>
<trkpt lat="41.651409" lon="70.225601"><ele>1340.0</ele></trkpt>
<trkpt lat="41.651495" lon="70.225558"><ele>1340.0</ele></trkpt>
<trkpt lat="41.651378" lon="70.225447"><ele>1340.0</ele></trkpt>
<trkpt lat="41.651440" lon="70.225353"><ele>1337.5</ele></trkpt>
<trkpt lat="41.651499" lon="70.225453"><ele>1331.0</ele></trkpt>
<trkpt lat="41.651666" lon="70.225582"><ele>1337.3</ele></trkpt>
<trkpt lat="41.651659" lon="70.225456"><ele>1339.6</ele></trkpt>
<trkpt lat="41.651743" lon="70.225401"><ele>1338.4</ele></trkpt>
<trkpt lat="41.651763" lon="70.225276"><ele>1338.6</ele></trkpt>
<trkpt lat="41.651919" lon="70.225135"><ele>1338.1</ele></trkpt>
<trkpt lat="41.652092" lon="70.225242"><ele>1337.4</ele></trkpt>
<trkpt lat="41.652177" lon="70.224990"><ele>1328.1</ele></trkpt>
<trkpt lat="41.652127" lon="70.224880"><ele>1328.8</ele></trkpt>
<trkpt lat="41.652039" lon="70.224853"><ele>1329.0</ele></trkpt>
<trkpt lat="41.652131" lon="70.224820"><ele>1329.5</ele></trkpt>
<trkpt lat="41.652072" lon="70.224721"><ele>1330.5</ele></trkpt>
<trkpt lat="41.652020" lon="70.224570"><ele>1331.2</ele></trkpt>
<trkpt lat="41.652107" lon="70.224620"><ele>1328.7</ele></trkpt>
<trkpt lat="41.652146" lon="70.224741"><ele>1329.8</ele></trkpt>
<trkpt lat="41.652128" lon="70.224602"><ele>1329.5</ele></trkpt>
<trkpt lat="41.652032" lon="70.224556"><ele>1330.4</ele></trkpt>
<trkpt lat="41.652047" lon="70.224375"><ele>1328.9</ele></trkpt>
<trkpt lat="41.652132" lon="70.224424"><ele>1331.0</ele></trkpt>
<trkpt lat="41.652175" lon="70.224271"><ele>1346.2</ele></trkpt>
<trkpt lat="41.652162" lon="70.224133"><ele>1347.2</ele></trkpt>
<trkpt lat="41.652310" lon="70.223980"><ele>1352.9</ele></trkpt>
<trkpt lat="41.652397" lon="70.224017"><ele>1359.3</ele></trkpt>
<trkpt lat="41.652448" lon="70.224124"><ele>1360.4</ele></trkpt>
<trkpt lat="41.652397" lon="70.224025"><ele>1358.2</ele></trkpt>
<trkpt lat="41.652494" lon="70.224067"><ele>1359.8</ele></trkpt>
<trkpt lat="41.652577" lon="70.224013"><ele>1363.1</ele></trkpt>
<trkpt lat="41.652760" lon="70.223964"><ele>1366.1</ele></trkpt>
<trkpt lat="41.652908" lon="70.223964"><ele>1365.8</ele></trkpt>
<trkpt lat="41.653018" lon="70.224004"><ele>1358.9</ele></trkpt>
<trkpt lat="41.653111" lon="70.224151"><ele>1355.9</ele></trkpt>
<trkpt lat="41.653132" lon="70.224277"><ele>1353.2</ele></trkpt>
<trkpt lat="41.653216" lon="70.224371"><ele>1355.7</ele></trkpt>
<trkpt lat="41.653311" lon="70.224337"><ele>1357.5</ele></trkpt>
<trkpt lat="41.653373" lon="70.224424"><ele>1357.7</ele></trkpt>
<trkpt lat="41.653400" lon="70.224580"><ele>1356.8</ele></trkpt>
<trkpt lat="41.653471" lon="70.224666"><ele>1357.7</ele></trkpt>
<trkpt lat="41.653574" lon="70.224893"><ele>1353.7</ele></trkpt>
<trkpt lat="41.653648" lon="70.224820"><ele>1365.5</ele></trkpt>
<trkpt lat="41.653678" lon="70.224986"><ele>1369.5</ele></trkpt>
<trkpt lat="41.653752" lon="70.224911"><ele>1370.5</ele></trkpt>
<trkpt lat="41.653662" lon="70.224947"><ele>1369.6</ele></trkpt>
<trkpt lat="41.653579" lon="70.225014"><ele>1369.3</ele></trkpt>
<trkpt lat="41.653674" lon="70.224991"><ele>1366.1</ele></trkpt>
<trkpt lat="41.653696" lon="70.224869"><ele>1365.0</ele></trkpt>
<trkpt lat="41.653661" lon="70.224992"><ele>1360.9</ele></trkpt>
<trkpt lat="41.653717" lon="70.224897"><ele>1360.3</ele></trkpt>
<trkpt lat="41.653804" lon="70.224833"><ele>1358.5</ele></trkpt>
<trkpt lat="41.653989" lon="70.224787"><ele>1355.6</ele></trkpt>
<trkpt lat="41.654190" lon="70.224665"><ele>1372.9</ele></trkpt>
<trkpt lat="41.654255" lon="70.224752"><ele>1375.1</ele></trkpt>
<trkpt lat="41.654289" lon="70.224874"><ele>1379.6</ele></trkpt>
<trkpt lat="41.654354" lon="70.224969"><ele>1378.1</ele></trkpt>
<trkpt lat="41.654337" lon="70.225088"><ele>1373.0</ele></trkpt>
<trkpt lat="41.654373" lon="70.225211"><ele>1377.1</ele></trkpt>
<trkpt lat="41.654322" lon="70.225315"><ele>1376.7</ele></trkpt>
<trkpt lat="41.654312" lon="70.225436"><ele>1379.0</ele></trkpt>
<trkpt lat="41.654257" lon="70.225542"><ele>1380.0</ele></trkpt>
<trkpt lat="41.654399" lon="70.225509"><ele>1379.8</ele></trkpt>
<trkpt lat="41.654326" lon="70.225582"><ele>1382.8</ele></trkpt>
<trkpt lat="41.654361" lon="70.225711"><ele>1381.6</ele></trkpt>
<trkpt lat="41.654411" lon="70.225610"><ele>1385.4</ele></trkpt>
<trkpt lat="41.654480" lon="70.225527"><ele>1384.7</ele></trkpt>
<trkpt lat="41.654665" lon="70.225573"><ele>1386.8</ele></trkpt>
<trkpt lat="41.654757" lon="70.225573"><ele>1385.6</ele></trkpt>
<trkpt lat="41.654863" lon="70.225665"><ele>1390.8</ele></trkpt>
<trkpt lat="41.654931" lon="70.225564"><ele>1391.8</ele></trkpt>
<trkpt lat="41.655015" lon="70.225520"><ele>1391.4</ele></trkpt>
<trkpt lat="41.655197" lon="70.225494"><ele>1396.6</ele></trkpt>
<trkpt lat="41.655249" lon="70.225394"><ele>1397.6</ele></trkpt>
<trkpt lat="41.655272" lon="70.225266"><ele>1401.7</ele></trkpt>
<trkpt lat="41.655364" lon="70.225253"><ele>1408.6</ele></trkpt>
<trkpt lat="41.655459" lon="70.225310"><ele>1419.2</ele></trkpt>
<trkpt lat="41.655501" lon="70.225191"><ele>1421.2</ele></trkpt>
<trkpt lat="41.655600" lon="70.225163"><ele>1414.8</ele></trkpt>
<trkpt lat="41.655506" lon="70.225227"><ele>1450.6</ele></trkpt>
<trkpt lat="41.655563" lon="70.225131"><ele>1412.4</ele></trkpt>
<trkpt lat="41.655427" lon="70.225362"><ele>1411.2</ele></trkpt>
<trkpt lat="41.655359" lon="70.225275"><ele>1409.5</ele></trkpt>
<trkpt lat="41.655436" lon="70.225362"><ele>1402.4</ele></trkpt>
<trkpt lat="41.655463" lon="70.225218"><ele>1412.9</ele></trkpt>
<trkpt lat="41.655529" lon="70.225136"><ele>1407.2</ele></trkpt>
<trkpt lat="41.655555" lon="70.225018"><ele>1417.3</ele></trkpt>
<trkpt lat="41.655628" lon="70.224947"><ele>1423.2</ele></trkpt>
<trkpt lat="41.655607" lon="70.224829"><ele>1435.6</ele></trkpt>
<trkpt lat="41.655614" lon="70.224969"><ele>1431.5</ele></trkpt>
<trkpt lat="41.655518" lon="70.225180"><ele>1414.7</ele></trkpt>
<trkpt lat="41.655460" lon="70.225272"><ele>1409.2</ele></trkpt>
<trkpt lat="41.655335" lon="70.225258"><ele>1408.0</ele></trkpt>
<trkpt lat="41.655256" lon="70.225317"><ele>1403.2</ele></trkpt>
<trkpt lat="41.655221" lon="70.225432"><ele>1401.4</ele></trkpt>
<trkpt lat="41.655204" lon="70.225579"><ele>1402.9</ele></trkpt>
<trkpt lat="41.655380" lon="70.225659"><ele>1424.2</ele></trkpt>
<trkpt lat="41.655573" lon="70.225808"><ele>1432.3</ele></trkpt>
<trkpt lat="41.655520" lon="70.225697"><ele>1440.9</ele></trkpt>
<trkpt lat="41.655424" lon="70.225632"><ele>1422.5</ele></trkpt>
<trkpt lat="41.655328" lon="70.225629"><ele>1415.3</ele></trkpt>
<trkpt lat="41.655245" lon="70.225577"><ele>1411.2</ele></trkpt>
<trkpt lat="41.655209" lon="70.225464"><ele>1403.6</ele></trkpt>
<trkpt lat="41.655295" lon="70.225407"><ele>1399.2</ele></trkpt>
<trkpt lat="41.655374" lon="70.225326"><ele>1400.0</ele></trkpt>
<trkpt lat="41.655416" lon="70.225209"><ele>1402.5</ele></trkpt>
<trkpt lat="41.655507" lon="70.225213"><ele>1419.2</ele></trkpt>
<trkpt lat="41.655600" lon="70.225182"><ele>1430.5</ele></trkpt>
<trkpt lat="41.655783" lon="70.225163"><ele>1434.0</ele></trkpt>
<trkpt lat="41.655872" lon="70.225124"><ele>1436.6</ele></trkpt>
<trkpt lat="41.655962" lon="70.225150"><ele>1441.3</ele></trkpt>
<trkpt lat="41.656023" lon="70.225249"><ele>1446.1</ele></trkpt>
<trkpt lat="41.656083" lon="70.225156"><ele>1447.2</ele></trkpt>
<trkpt lat="41.656230" lon="70.225003"><ele>1443.7</ele></trkpt>
<trkpt lat="41.656320" lon="70.224983"><ele>1441.4</ele></trkpt>
<trkpt lat="41.656400" lon="70.224924"><ele>1440.6</ele></trkpt>
<trkpt lat="41.656492" lon="70.224902"><ele>1440.2</ele></trkpt>
<trkpt lat="41.656753" lon="70.224785"><ele>1442.1</ele></trkpt>
<trkpt lat="41.656813" lon="70.224692"><ele>1444.1</ele></trkpt>
<trkpt lat="41.656896" lon="70.224645"><ele>1445.9</ele></trkpt>
<trkpt lat="41.657099" lon="70.224233"><ele>1452.3</ele></trkpt>
<trkpt lat="41.657169" lon="70.224150"><ele>1453.7</ele></trkpt>
<trkpt lat="41.657207" lon="70.224034"><ele>1456.7</ele></trkpt>
<trkpt lat="41.657337" lon="70.223861"><ele>1459.8</ele></trkpt>
<trkpt lat="41.657419" lon="70.223795"><ele>1462.3</ele></trkpt>
<trkpt lat="41.657471" lon="70.223695"><ele>1464.8</ele></trkpt>
<trkpt lat="41.657545" lon="70.223765"><ele>1462.8</ele></trkpt>
<trkpt lat="41.657623" lon="70.223704"><ele>1467.8</ele></trkpt>
<trkpt lat="41.657714" lon="70.223692"><ele>1470.1</ele></trkpt>
<trkpt lat="41.657767" lon="70.223792"><ele>1470.3</ele></trkpt>
<trkpt lat="41.657782" lon="70.223931"><ele>1470.8</ele></trkpt>
<trkpt lat="41.657806" lon="70.223814"><ele>1472.2</ele></trkpt>
<trkpt lat="41.657765" lon="70.223931"><ele>1475.8</ele></trkpt>
<trkpt lat="41.657673" lon="70.223929"><ele>1479.8</ele></trkpt>
<trkpt lat="41.657658" lon="70.223808"><ele>1481.4</ele></trkpt>
<trkpt lat="41.657582" lon="70.223736"><ele>1478.8</ele></trkpt>
<trkpt lat="41.657491" lon="70.223717"><ele>1476.0</ele></trkpt>
<trkpt lat="41.657404" lon="70.223665"><ele>1476.1</ele></trkpt>
<trkpt lat="41.657383" lon="70.223303"><ele>1476.9</ele></trkpt>
<trkpt lat="41.657475" lon="70.223266"><ele>1481.2</ele></trkpt>
<trkpt lat="41.657570" lon="70.223059"><ele>1488.1</ele></trkpt>
<trkpt lat="41.657494" lon="70.222981"><ele>1502.7</ele></trkpt>
<trkpt lat="41.657689" lon="70.222960"><ele>1501.0</ele></trkpt>
<trkpt lat="41.657880" lon="70.222868"><ele>1503.9</ele></trkpt>
<trkpt lat="41.657983" lon="70.223107"><ele>1522.5</ele></trkpt>
<trkpt lat="41.658128" lon="70.223290"><ele>1527.4</ele></trkpt>
<trkpt lat="41.658157" lon="70.223417"><ele>1530.7</ele></trkpt>
<trkpt lat="41.658244" lon="70.223456"><ele>1520.2</ele></trkpt>
<trkpt lat="41.658250" lon="70.223582"><ele>1526.5</ele></trkpt>
</trkseg></trk>
</gpx>