<?xml version='1.0' encoding='utf-8'?>
<gpx xmlns="http://www.topografix.com/GPX/1/1" version="1.1" creator="Sayr"><trk><name>Большой Чимган, западный гребень</name><trkseg><trkpt lat="41.519328" lon="70.006812"><ele>1709</ele></trkpt><trkpt lat="41.519390" lon="70.007210"><ele>1706</ele></trkpt><trkpt lat="41.519253" lon="70.007732"><ele>1705</ele></trkpt><trkpt lat="41.519613" lon="70.008073"><ele>1700</ele></trkpt><trkpt lat="41.519707" lon="70.008722"><ele>1701</ele></trkpt><trkpt lat="41.520065" lon="70.009227"><ele>1700</ele></trkpt><trkpt lat="41.520307" lon="70.010011"><ele>1697</ele></trkpt><trkpt lat="41.520242" lon="70.010133"><ele>1697</ele></trkpt><trkpt lat="41.520099" lon="70.010193"><ele>1698</ele></trkpt><trkpt lat="41.519498" lon="70.010273"><ele>1707</ele></trkpt><trkpt lat="41.518880" lon="70.010762"><ele>1722</ele></trkpt><trkpt lat="41.518644" lon="70.011085"><ele>1732</ele></trkpt><trkpt lat="41.518414" lon="70.011023"><ele>1739</ele></trkpt><trkpt lat="41.518559" lon="70.010142"><ele>1742</ele></trkpt><trkpt lat="41.518501" lon="70.009626"><ele>1746</ele></trkpt><trkpt lat="41.518185" lon="70.009227"><ele>1758</ele></trkpt><trkpt lat="41.517727" lon="70.009246"><ele>1774</ele></trkpt><trkpt lat="41.517036" lon="70.009927"><ele>1788</ele></trkpt><trkpt lat="41.516795" lon="70.010005"><ele>1791</ele></trkpt><trkpt lat="41.516138" lon="70.010445"><ele>1801</ele></trkpt><trkpt lat="41.515256" lon="70.010896"><ele>1814</ele></trkpt><trkpt lat="41.514707" lon="70.011445"><ele>1831</ele></trkpt><trkpt lat="41.513693" lon="70.011931"><ele>1865</ele></trkpt><trkpt lat="41.513397" lon="70.011892"><ele>1871</ele></trkpt><trkpt lat="41.512825" lon="70.011372"><ele>1882</ele></trkpt><trkpt lat="41.512632" lon="70.010744"><ele>1890</ele></trkpt><trkpt lat="41.512114" lon="70.010152"><ele>1907</ele></trkpt><trkpt lat="41.511901" lon="70.009771"><ele>1911</ele></trkpt><trkpt lat="41.511791" lon="70.007258"><ele>1939</ele></trkpt><trkpt lat="41.511539" lon="70.007239"><ele>1949</ele></trkpt><trkpt lat="41.511074" lon="70.007684"><ele>1968</ele></trkpt><trkpt lat="41.510413" lon="70.008613"><ele>1996</ele></trkpt><trkpt lat="41.510272" lon="70.009149"><ele>2003</ele></trkpt><trkpt lat="41.510135" lon="70.009220"><ele>2010</ele></trkpt><trkpt lat="41.509984" lon="70.009136"><ele>2018</ele></trkpt><trkpt lat="41.509656" lon="70.008419"><ele>2029</ele></trkpt><trkpt lat="41.509701" lon="70.007837"><ele>2021</ele></trkpt><trkpt lat="41.509417" lon="70.006706"><ele>2018</ele></trkpt><trkpt lat="41.509167" lon="70.006368"><ele>2017</ele></trkpt><trkpt lat="41.509189" lon="70.005997"><ele>2006</ele></trkpt><trkpt lat="41.509139" lon="70.005694"><ele>2001</ele></trkpt><trkpt lat="41.509017" lon="70.005333"><ele>1995</ele></trkpt><trkpt lat="41.508873" lon="70.005225"><ele>1993</ele></trkpt><trkpt lat="41.508735" lon="70.005268"><ele>1991</ele></trkpt><trkpt lat="41.507983" lon="70.006080"><ele>1990</ele></trkpt><trkpt lat="41.507719" lon="70.007643"><ele>2019</ele></trkpt><trkpt lat="41.507083" lon="70.008485"><ele>2028</ele></trkpt><trkpt lat="41.506755" lon="70.009320"><ele>2058</ele></trkpt><trkpt lat="41.506631" lon="70.009334"><ele>2057</ele></trkpt><trkpt lat="41.506273" lon="70.009097"><ele>2049</ele></trkpt><trkpt lat="41.505822" lon="70.008945"><ele>2048</ele></trkpt><trkpt lat="41.505531" lon="70.009412"><ele>2054</ele></trkpt><trkpt lat="41.505491" lon="70.009703"><ele>2060</ele></trkpt><trkpt lat="41.505553" lon="70.010589"><ele>2078</ele></trkpt><trkpt lat="41.505497" lon="70.011652"><ele>2095</ele></trkpt><trkpt lat="41.505294" lon="70.012072"><ele>2091</ele></trkpt><trkpt lat="41.505431" lon="70.012775"><ele>2108</ele></trkpt><trkpt lat="41.505384" lon="70.013107"><ele>2106</ele></trkpt><trkpt lat="41.505504" lon="70.013090"><ele>2111</ele></trkpt><trkpt lat="41.505585" lon="70.013262"><ele>2113</ele></trkpt><trkpt lat="41.505709" lon="70.013328"><ele>2116</ele></trkpt><trkpt lat="41.506317" lon="70.013368"><ele>2138</ele></trkpt><trkpt lat="41.506937" lon="70.013748"><ele>2152</ele></trkpt><trkpt lat="41.507441" lon="70.013922"><ele>2167</ele></trkpt><trkpt lat="41.507646" lon="70.014377"><ele>2170</ele></trkpt><trkpt lat="41.507557" lon="70.015325"><ele>2189</ele></trkpt><trkpt lat="41.507288" lon="70.016060"><ele>2198</ele></trkpt><trkpt lat="41.507805" lon="70.017215"><ele>2233</ele></trkpt><trkpt lat="41.507772" lon="70.017826"><ele>2241</ele></trkpt><trkpt lat="41.507824" lon="70.018398"><ele>2255</ele></trkpt><trkpt lat="41.507732" lon="70.019544"><ele>2262</ele></trkpt><trkpt lat="41.508000" lon="70.020201"><ele>2277</ele></trkpt><trkpt lat="41.508080" lon="70.021005"><ele>2285</ele></trkpt><trkpt lat="41.508104" lon="70.022212"><ele>2296</ele></trkpt><trkpt lat="41.508552" lon="70.023484"><ele>2303</ele></trkpt><trkpt lat="41.508584" lon="70.023815"><ele>2308</ele></trkpt><trkpt lat="41.508468" lon="70.024317"><ele>2317</ele></trkpt><trkpt lat="41.508043" lon="70.025036"><ele>2329</ele></trkpt><trkpt lat="41.508052" lon="70.025181"><ele>2330</ele></trkpt><trkpt lat="41.507878" lon="70.025808"><ele>2339</ele></trkpt><trkpt lat="41.507644" lon="70.026278"><ele>2346</ele></trkpt><trkpt lat="41.507220" lon="70.026535"><ele>2355</ele></trkpt><trkpt lat="41.507078" lon="70.026703"><ele>2358</ele></trkpt><trkpt lat="41.506951" lon="70.027230"><ele>2368</ele></trkpt><trkpt lat="41.506338" lon="70.028561"><ele>2402</ele></trkpt><trkpt lat="41.506238" lon="70.028661"><ele>2402</ele></trkpt><trkpt lat="41.506237" lon="70.028836"><ele>2402</ele></trkpt><trkpt lat="41.505755" lon="70.029019"><ele>2410</ele></trkpt><trkpt lat="41.505316" lon="70.029525"><ele>2423</ele></trkpt><trkpt lat="41.504900" lon="70.029866"><ele>2433</ele></trkpt><trkpt lat="41.504532" lon="70.029992"><ele>2445</ele></trkpt><trkpt lat="41.503722" lon="70.030958"><ele>2474</ele></trkpt><trkpt lat="41.503491" lon="70.031440"><ele>2487</ele></trkpt><trkpt lat="41.503421" lon="70.031390"><ele>2489</ele></trkpt><trkpt lat="41.503192" lon="70.031750"><ele>2499</ele></trkpt><trkpt lat="41.503102" lon="70.031792"><ele>2502</ele></trkpt><trkpt lat="41.503067" lon="70.031715"><ele>2503</ele></trkpt><trkpt lat="41.502971" lon="70.031812"><ele>2507</ele></trkpt><trkpt lat="41.502834" lon="70.031732"><ele>2510</ele></trkpt><trkpt lat="41.502693" lon="70.031981"><ele>2516</ele></trkpt><trkpt lat="41.502565" lon="70.032546"><ele>2525</ele></trkpt><trkpt lat="41.502586" lon="70.033001"><ele>2531</ele></trkpt><trkpt lat="41.502285" lon="70.033361"><ele>2536</ele></trkpt><trkpt lat="41.502083" lon="70.033340"><ele>2532</ele></trkpt><trkpt lat="41.501953" lon="70.033429"><ele>2529</ele></trkpt><trkpt lat="41.502064" lon="70.033572"><ele>2532</ele></trkpt><trkpt lat="41.502088" lon="70.033849"><ele>2533</ele></trkpt><trkpt lat="41.501978" lon="70.034095"><ele>2533</ele></trkpt><trkpt lat="41.501860" lon="70.034731"><ele>2543</ele></trkpt><trkpt lat="41.501930" lon="70.035067"><ele>2552</ele></trkpt><trkpt lat="41.502349" lon="70.036064"><ele>2576</ele></trkpt><trkpt lat="41.502097" lon="70.036655"><ele>2585</ele></trkpt><trkpt lat="41.502089" lon="70.037455"><ele>2599</ele></trkpt><trkpt lat="41.501970" lon="70.037716"><ele>2604</ele></trkpt><trkpt lat="41.501825" lon="70.038778"><ele>2629</ele></trkpt><trkpt lat="41.501693" lon="70.039273"><ele>2643</ele></trkpt><trkpt lat="41.501798" lon="70.039937"><ele>2652</ele></trkpt><trkpt lat="41.502169" lon="70.040625"><ele>2632</ele></trkpt><trkpt lat="41.502034" lon="70.040745"><ele>2644</ele></trkpt><trkpt lat="41.501660" lon="70.040734"><ele>2668</ele></trkpt><trkpt lat="41.501760" lon="70.041168"><ele>2675</ele></trkpt><trkpt lat="41.501696" lon="70.041459"><ele>2686</ele></trkpt><trkpt lat="41.501812" lon="70.042183"><ele>2693</ele></trkpt><trkpt lat="41.502008" lon="70.042535"><ele>2697</ele></trkpt><trkpt lat="41.502055" lon="70.042886"><ele>2702</ele></trkpt><trkpt lat="41.502238" lon="70.043210"><ele>2709</ele></trkpt><trkpt lat="41.502306" lon="70.044244"><ele>2743</ele></trkpt><trkpt lat="41.502454" lon="70.044661"><ele>2763</ele></trkpt><trkpt lat="41.502392" lon="70.044793"><ele>2767</ele></trkpt><trkpt lat="41.502492" lon="70.045302"><ele>2792</ele></trkpt><trkpt lat="41.502670" lon="70.045718"><ele>2811</ele></trkpt><trkpt lat="41.502761" lon="70.045777"><ele>2812</ele></trkpt><trkpt lat="41.502648" lon="70.045967"><ele>2819</ele></trkpt><trkpt lat="41.502491" lon="70.046061"><ele>2824</ele></trkpt><trkpt lat="41.502555" lon="70.046348"><ele>2830</ele></trkpt><trkpt lat="41.502184" lon="70.046847"><ele>2843</ele></trkpt><trkpt lat="41.501809" lon="70.047155"><ele>2854</ele></trkpt><trkpt lat="41.501536" lon="70.047709"><ele>2871</ele></trkpt><trkpt lat="41.501384" lon="70.047883"><ele>2875</ele></trkpt><trkpt lat="41.501351" lon="70.048071"><ele>2879</ele></trkpt><trkpt lat="41.501171" lon="70.048241"><ele>2885</ele></trkpt><trkpt lat="41.500956" lon="70.048321"><ele>2889</ele></trkpt><trkpt lat="41.501017" lon="70.048465"><ele>2893</ele></trkpt><trkpt lat="41.500913" lon="70.048694"><ele>2899</ele></trkpt><trkpt lat="41.500927" lon="70.049264"><ele>2910</ele></trkpt><trkpt lat="41.500846" lon="70.049562"><ele>2918</ele></trkpt><trkpt lat="41.500907" lon="70.049746"><ele>2936</ele></trkpt><trkpt lat="41.500695" lon="70.050155"><ele>2940</ele></trkpt><trkpt lat="41.500616" lon="70.050467"><ele>2947</ele></trkpt><trkpt lat="41.500455" lon="70.050549"><ele>2954</ele></trkpt><trkpt lat="41.500120" lon="70.050434"><ele>2955</ele></trkpt><trkpt lat="41.499954" lon="70.050560"><ele>2955</ele></trkpt><trkpt lat="41.499868" lon="70.050739"><ele>2954</ele></trkpt><trkpt lat="41.499782" lon="70.051177"><ele>2953</ele></trkpt><trkpt lat="41.499937" lon="70.051278"><ele>2965</ele></trkpt><trkpt lat="41.499945" lon="70.051529"><ele>2975</ele></trkpt><trkpt lat="41.499620" lon="70.053609"><ele>3025</ele></trkpt><trkpt lat="41.499491" lon="70.053643"><ele>3036</ele></trkpt><trkpt lat="41.499397" lon="70.053556"><ele>3043</ele></trkpt><trkpt lat="41.499161" lon="70.053689"><ele>3069</ele></trkpt><trkpt lat="41.499084" lon="70.053936"><ele>3077</ele></trkpt><trkpt lat="41.498900" lon="70.054049"><ele>3082</ele></trkpt><trkpt lat="41.498765" lon="70.054644"><ele>3099</ele></trkpt><trkpt lat="41.498689" lon="70.054684"><ele>3104</ele></trkpt><trkpt lat="41.498668" lon="70.054582"><ele>3103</ele></trkpt><trkpt lat="41.498577" lon="70.054831"><ele>3109</ele></trkpt><trkpt lat="41.498463" lon="70.054815"><ele>3117</ele></trkpt><trkpt lat="41.498438" lon="70.054924"><ele>3124</ele></trkpt><trkpt lat="41.498535" lon="70.055244"><ele>3140</ele></trkpt><trkpt lat="41.498451" lon="70.055259"><ele>3144</ele></trkpt><trkpt lat="41.498480" lon="70.055410"><ele>3149</ele></trkpt><trkpt lat="41.498310" lon="70.055405"><ele>3156</ele></trkpt><trkpt lat="41.498254" lon="70.055500"><ele>3161</ele></trkpt><trkpt lat="41.498285" lon="70.055597"><ele>3164</ele></trkpt><trkpt lat="41.498222" lon="70.055631"><ele>3167</ele></trkpt><trkpt lat="41.498068" lon="70.056137"><ele>3168</ele></trkpt><trkpt lat="41.498117" lon="70.056402"><ele>3176</ele></trkpt><trkpt lat="41.498190" lon="70.056489"><ele>3183</ele></trkpt><trkpt lat="41.498138" lon="70.056551"><ele>3188</ele></trkpt><trkpt lat="41.498201" lon="70.056807"><ele>3195</ele></trkpt><trkpt lat="41.498107" lon="70.057180"><ele>3207</ele></trkpt><trkpt lat="41.498167" lon="70.057511"><ele>3219</ele></trkpt><trkpt lat="41.498111" lon="70.057712"><ele>3231</ele></trkpt><trkpt lat="41.498146" lon="70.057804"><ele>3234</ele></trkpt><trkpt lat="41.498019" lon="70.057904"><ele>3244</ele></trkpt><trkpt lat="41.497848" lon="70.057921"><ele>3253</ele></trkpt><trkpt lat="41.497820" lon="70.058099"><ele>3260</ele></trkpt><trkpt lat="41.497746" lon="70.058145"><ele>3268</ele></trkpt><trkpt lat="41.497784" lon="70.058159"><ele>3267</ele></trkpt></trkseg></trk></gpx>