<?xml version='1.0' encoding='utf-8'?>
<gpx xmlns="http://www.topografix.com/GPX/1/1" version="1.1" creator="Sayr"><trk><name>Большой Чимган, классика от Аксая</name><trkseg><trkpt lat="41.524241" lon="70.017432"><ele>1673</ele></trkpt><trkpt lat="41.524198" lon="70.017388"><ele>1674</ele></trkpt><trkpt lat="41.524015" lon="70.017643"><ele>1676</ele></trkpt><trkpt lat="41.523502" lon="70.017963"><ele>1681</ele></trkpt><trkpt lat="41.523116" lon="70.018096"><ele>1687</ele></trkpt><trkpt lat="41.523021" lon="70.018170"><ele>1689</ele></trkpt><trkpt lat="41.523049" lon="70.018240"><ele>1690</ele></trkpt><trkpt lat="41.522778" lon="70.018307"><ele>1694</ele></trkpt><trkpt lat="41.522493" lon="70.018528"><ele>1699</ele></trkpt><trkpt lat="41.522188" lon="70.018644"><ele>1702</ele></trkpt><trkpt lat="41.521557" lon="70.019109"><ele>1710</ele></trkpt><trkpt lat="41.521449" lon="70.019256"><ele>1711</ele></trkpt><trkpt lat="41.521033" lon="70.019473"><ele>1716</ele></trkpt><trkpt lat="41.521069" lon="70.019441"><ele>1717</ele></trkpt><trkpt lat="41.521060" lon="70.019535"><ele>1718</ele></trkpt><trkpt lat="41.521037" lon="70.019460"><ele>1719</ele></trkpt><trkpt lat="41.521116" lon="70.019477"><ele>1721</ele></trkpt><trkpt lat="41.520899" lon="70.019622"><ele>1725</ele></trkpt><trkpt lat="41.520702" lon="70.019648"><ele>1729</ele></trkpt><trkpt lat="41.519697" lon="70.019512"><ele>1749</ele></trkpt><trkpt lat="41.519499" lon="70.019398"><ele>1751</ele></trkpt><trkpt lat="41.519412" lon="70.019080"><ele>1756</ele></trkpt><trkpt lat="41.518881" lon="70.018855"><ele>1773</ele></trkpt><trkpt lat="41.518843" lon="70.018724"><ele>1778</ele></trkpt><trkpt lat="41.518730" lon="70.018645"><ele>1783</ele></trkpt><trkpt lat="41.518390" lon="70.018935"><ele>1794</ele></trkpt><trkpt lat="41.518024" lon="70.018711"><ele>1812</ele></trkpt><trkpt lat="41.518058" lon="70.018690"><ele>1814</ele></trkpt><trkpt lat="41.518005" lon="70.018613"><ele>1822</ele></trkpt><trkpt lat="41.517867" lon="70.018703"><ele>1832</ele></trkpt><trkpt lat="41.517923" lon="70.018734"><ele>1834</ele></trkpt><trkpt lat="41.517798" lon="70.018725"><ele>1838</ele></trkpt><trkpt lat="41.517817" lon="70.018776"><ele>1839</ele></trkpt><trkpt lat="41.517683" lon="70.018762"><ele>1842</ele></trkpt><trkpt lat="41.517610" lon="70.018656"><ele>1845</ele></trkpt><trkpt lat="41.517666" lon="70.018724"><ele>1847</ele></trkpt><trkpt lat="41.517613" lon="70.018763"><ele>1849</ele></trkpt><trkpt lat="41.517644" lon="70.018714"><ele>1851</ele></trkpt><trkpt lat="41.517544" lon="70.018653"><ele>1855</ele></trkpt><trkpt lat="41.517102" lon="70.018783"><ele>1869</ele></trkpt><trkpt lat="41.517011" lon="70.018895"><ele>1875</ele></trkpt><trkpt lat="41.516665" lon="70.018699"><ele>1896</ele></trkpt><trkpt lat="41.516474" lon="70.018750"><ele>1906</ele></trkpt><trkpt lat="41.516424" lon="70.018654"><ele>1912</ele></trkpt><trkpt lat="41.516310" lon="70.018647"><ele>1916</ele></trkpt><trkpt lat="41.516303" lon="70.018720"><ele>1920</ele></trkpt><trkpt lat="41.516186" lon="70.018685"><ele>1924</ele></trkpt><trkpt lat="41.516009" lon="70.018528"><ele>1939</ele></trkpt><trkpt lat="41.515838" lon="70.018559"><ele>1947</ele></trkpt><trkpt lat="41.515752" lon="70.018409"><ele>1954</ele></trkpt><trkpt lat="41.515523" lon="70.018293"><ele>1963</ele></trkpt><trkpt lat="41.515530" lon="70.018201"><ele>1966</ele></trkpt><trkpt lat="41.515222" lon="70.018058"><ele>1979</ele></trkpt><trkpt lat="41.515053" lon="70.017889"><ele>1988</ele></trkpt><trkpt lat="41.514643" lon="70.017782"><ele>2003</ele></trkpt><trkpt lat="41.514427" lon="70.017825"><ele>2012</ele></trkpt><trkpt lat="41.514382" lon="70.017772"><ele>2014</ele></trkpt><trkpt lat="41.514123" lon="70.017865"><ele>2023</ele></trkpt><trkpt lat="41.513412" lon="70.017553"><ele>2046</ele></trkpt><trkpt lat="41.513071" lon="70.017639"><ele>2060</ele></trkpt><trkpt lat="41.513005" lon="70.017566"><ele>2064</ele></trkpt><trkpt lat="41.512892" lon="70.017634"><ele>2068</ele></trkpt><trkpt lat="41.512870" lon="70.017506"><ele>2072</ele></trkpt><trkpt lat="41.512832" lon="70.017545"><ele>2074</ele></trkpt><trkpt lat="41.512803" lon="70.017483"><ele>2076</ele></trkpt><trkpt lat="41.512466" lon="70.017602"><ele>2096</ele></trkpt><trkpt lat="41.512047" lon="70.017636"><ele>2112</ele></trkpt><trkpt lat="41.511510" lon="70.017554"><ele>2135</ele></trkpt><trkpt lat="41.511348" lon="70.017614"><ele>2139</ele></trkpt><trkpt lat="41.511336" lon="70.017549"><ele>2140</ele></trkpt><trkpt lat="41.511090" lon="70.017468"><ele>2149</ele></trkpt><trkpt lat="41.510988" lon="70.017730"><ele>2160</ele></trkpt><trkpt lat="41.510944" lon="70.017558"><ele>2164</ele></trkpt><trkpt lat="41.510875" lon="70.017552"><ele>2165</ele></trkpt><trkpt lat="41.510842" lon="70.017765"><ele>2168</ele></trkpt><trkpt lat="41.510716" lon="70.017828"><ele>2170</ele></trkpt><trkpt lat="41.510703" lon="70.017466"><ele>2177</ele></trkpt><trkpt lat="41.510638" lon="70.017390"><ele>2180</ele></trkpt><trkpt lat="41.510580" lon="70.017434"><ele>2181</ele></trkpt><trkpt lat="41.510563" lon="70.017290"><ele>2184</ele></trkpt><trkpt lat="41.510499" lon="70.017268"><ele>2186</ele></trkpt><trkpt lat="41.510200" lon="70.017529"><ele>2195</ele></trkpt><trkpt lat="41.510197" lon="70.017816"><ele>2201</ele></trkpt><trkpt lat="41.510150" lon="70.017856"><ele>2202</ele></trkpt><trkpt lat="41.510193" lon="70.017848"><ele>2204</ele></trkpt><trkpt lat="41.510199" lon="70.017951"><ele>2206</ele></trkpt><trkpt lat="41.509976" lon="70.018464"><ele>2214</ele></trkpt><trkpt lat="41.510022" lon="70.018543"><ele>2215</ele></trkpt><trkpt lat="41.509952" lon="70.018678"><ele>2219</ele></trkpt><trkpt lat="41.509942" lon="70.019315"><ele>2229</ele></trkpt><trkpt lat="41.509790" lon="70.019515"><ele>2233</ele></trkpt><trkpt lat="41.509497" lon="70.020224"><ele>2245</ele></trkpt><trkpt lat="41.509459" lon="70.020480"><ele>2248</ele></trkpt><trkpt lat="41.509505" lon="70.020521"><ele>2249</ele></trkpt><trkpt lat="41.509422" lon="70.020677"><ele>2251</ele></trkpt><trkpt lat="41.509442" lon="70.020913"><ele>2255</ele></trkpt><trkpt lat="41.509398" lon="70.021002"><ele>2256</ele></trkpt><trkpt lat="41.509473" lon="70.021495"><ele>2265</ele></trkpt><trkpt lat="41.509422" lon="70.021615"><ele>2267</ele></trkpt><trkpt lat="41.509486" lon="70.021593"><ele>2268</ele></trkpt><trkpt lat="41.509428" lon="70.022062"><ele>2274</ele></trkpt><trkpt lat="41.509196" lon="70.022308"><ele>2279</ele></trkpt><trkpt lat="41.509163" lon="70.022501"><ele>2281</ele></trkpt><trkpt lat="41.508846" lon="70.022886"><ele>2291</ele></trkpt><trkpt lat="41.508735" lon="70.023354"><ele>2300</ele></trkpt><trkpt lat="41.508775" lon="70.023382"><ele>2302</ele></trkpt><trkpt lat="41.508600" lon="70.023618"><ele>2307</ele></trkpt><trkpt lat="41.508632" lon="70.023730"><ele>2309</ele></trkpt><trkpt lat="41.508520" lon="70.024253"><ele>2314</ele></trkpt><trkpt lat="41.508418" lon="70.024357"><ele>2316</ele></trkpt><trkpt lat="41.508306" lon="70.024762"><ele>2330</ele></trkpt><trkpt lat="41.508334" lon="70.024813"><ele>2331</ele></trkpt><trkpt lat="41.507995" lon="70.025203"><ele>2342</ele></trkpt><trkpt lat="41.507877" lon="70.025669"><ele>2353</ele></trkpt><trkpt lat="41.507693" lon="70.025930"><ele>2358</ele></trkpt><trkpt lat="41.507716" lon="70.026026"><ele>2359</ele></trkpt><trkpt lat="41.507658" lon="70.025993"><ele>2360</ele></trkpt><trkpt lat="41.507540" lon="70.026114"><ele>2362</ele></trkpt><trkpt lat="41.507508" lon="70.026315"><ele>2367</ele></trkpt><trkpt lat="41.507366" lon="70.026524"><ele>2371</ele></trkpt><trkpt lat="41.507314" lon="70.026477"><ele>2372</ele></trkpt><trkpt lat="41.507298" lon="70.026629"><ele>2375</ele></trkpt><trkpt lat="41.507056" lon="70.026707"><ele>2380</ele></trkpt><trkpt lat="41.507030" lon="70.026871"><ele>2383</ele></trkpt><trkpt lat="41.507064" lon="70.026847"><ele>2384</ele></trkpt><trkpt lat="41.506965" lon="70.027031"><ele>2386</ele></trkpt><trkpt lat="41.506982" lon="70.027143"><ele>2388</ele></trkpt><trkpt lat="41.506900" lon="70.027357"><ele>2392</ele></trkpt><trkpt lat="41.506920" lon="70.027471"><ele>2396</ele></trkpt><trkpt lat="41.506523" lon="70.028093"><ele>2409</ele></trkpt><trkpt lat="41.506564" lon="70.028034"><ele>2412</ele></trkpt><trkpt lat="41.506159" lon="70.028929"><ele>2428</ele></trkpt><trkpt lat="41.505908" lon="70.028983"><ele>2435</ele></trkpt><trkpt lat="41.505812" lon="70.029121"><ele>2438</ele></trkpt><trkpt lat="41.505676" lon="70.029121"><ele>2440</ele></trkpt><trkpt lat="41.505303" lon="70.029559"><ele>2449</ele></trkpt><trkpt lat="41.505122" lon="70.029648"><ele>2450</ele></trkpt><trkpt lat="41.504836" lon="70.029934"><ele>2454</ele></trkpt><trkpt lat="41.504575" lon="70.029943"><ele>2458</ele></trkpt><trkpt lat="41.504471" lon="70.030137"><ele>2461</ele></trkpt><trkpt lat="41.504181" lon="70.030377"><ele>2468</ele></trkpt><trkpt lat="41.503704" lon="70.030997"><ele>2479</ele></trkpt><trkpt lat="41.503435" lon="70.031711"><ele>2492</ele></trkpt><trkpt lat="41.503380" lon="70.031817"><ele>2494</ele></trkpt><trkpt lat="41.503351" lon="70.031783"><ele>2496</ele></trkpt><trkpt lat="41.503351" lon="70.031887"><ele>2500</ele></trkpt><trkpt lat="41.503166" lon="70.031733"><ele>2505</ele></trkpt><trkpt lat="41.503195" lon="70.031594"><ele>2508</ele></trkpt><trkpt lat="41.503114" lon="70.031579"><ele>2510</ele></trkpt><trkpt lat="41.502958" lon="70.031647"><ele>2513</ele></trkpt><trkpt lat="41.502932" lon="70.031777"><ele>2516</ele></trkpt><trkpt lat="41.502740" lon="70.031882"><ele>2521</ele></trkpt><trkpt lat="41.502577" lon="70.032187"><ele>2526</ele></trkpt><trkpt lat="41.502508" lon="70.032594"><ele>2530</ele></trkpt><trkpt lat="41.502419" lon="70.032659"><ele>2530</ele></trkpt><trkpt lat="41.502397" lon="70.032817"><ele>2531</ele></trkpt><trkpt lat="41.502373" lon="70.032733"><ele>2532</ele></trkpt><trkpt lat="41.502346" lon="70.032935"><ele>2533</ele></trkpt><trkpt lat="41.502086" lon="70.033343"><ele>2533</ele></trkpt><trkpt lat="41.502059" lon="70.033991"><ele>2534</ele></trkpt><trkpt lat="41.501993" lon="70.034204"><ele>2534</ele></trkpt><trkpt lat="41.502041" lon="70.034311"><ele>2534</ele></trkpt><trkpt lat="41.501943" lon="70.034834"><ele>2543</ele></trkpt><trkpt lat="41.501979" lon="70.034870"><ele>2544</ele></trkpt><trkpt lat="41.501901" lon="70.034886"><ele>2546</ele></trkpt><trkpt lat="41.501881" lon="70.035034"><ele>2549</ele></trkpt><trkpt lat="41.501817" lon="70.035078"><ele>2551</ele></trkpt><trkpt lat="41.501828" lon="70.035348"><ele>2556</ele></trkpt><trkpt lat="41.501866" lon="70.035403"><ele>2557</ele></trkpt><trkpt lat="41.501901" lon="70.035346"><ele>2560</ele></trkpt><trkpt lat="41.501862" lon="70.035451"><ele>2561</ele></trkpt><trkpt lat="41.501951" lon="70.035399"><ele>2565</ele></trkpt><trkpt lat="41.501900" lon="70.035429"><ele>2566</ele></trkpt><trkpt lat="41.502044" lon="70.035495"><ele>2573</ele></trkpt><trkpt lat="41.502035" lon="70.035809"><ele>2580</ele></trkpt><trkpt lat="41.502088" lon="70.035978"><ele>2584</ele></trkpt><trkpt lat="41.502015" lon="70.036055"><ele>2586</ele></trkpt><trkpt lat="41.502095" lon="70.036804"><ele>2598</ele></trkpt><trkpt lat="41.502032" lon="70.036856"><ele>2600</ele></trkpt><trkpt lat="41.502017" lon="70.037497"><ele>2608</ele></trkpt><trkpt lat="41.501868" lon="70.038077"><ele>2611</ele></trkpt><trkpt lat="41.501764" lon="70.038199"><ele>2614</ele></trkpt><trkpt lat="41.501779" lon="70.038350"><ele>2619</ele></trkpt><trkpt lat="41.501675" lon="70.038683"><ele>2625</ele></trkpt><trkpt lat="41.501732" lon="70.038830"><ele>2628</ele></trkpt><trkpt lat="41.501641" lon="70.038892"><ele>2632</ele></trkpt><trkpt lat="41.501643" lon="70.039063"><ele>2635</ele></trkpt><trkpt lat="41.501596" lon="70.039081"><ele>2637</ele></trkpt><trkpt lat="41.501576" lon="70.039713"><ele>2649</ele></trkpt><trkpt lat="41.501504" lon="70.039933"><ele>2652</ele></trkpt><trkpt lat="41.501555" lon="70.039935"><ele>2653</ele></trkpt><trkpt lat="41.501493" lon="70.040020"><ele>2655</ele></trkpt><trkpt lat="41.501591" lon="70.040474"><ele>2667</ele></trkpt><trkpt lat="41.501538" lon="70.040553"><ele>2671</ele></trkpt><trkpt lat="41.501595" lon="70.040569"><ele>2672</ele></trkpt><trkpt lat="41.501676" lon="70.040935"><ele>2679</ele></trkpt><trkpt lat="41.501768" lon="70.041085"><ele>2684</ele></trkpt><trkpt lat="41.501684" lon="70.041394"><ele>2691</ele></trkpt><trkpt lat="41.501755" lon="70.041730"><ele>2698</ele></trkpt><trkpt lat="41.501726" lon="70.041971"><ele>2701</ele></trkpt><trkpt lat="41.501765" lon="70.041888"><ele>2702</ele></trkpt><trkpt lat="41.501850" lon="70.041950"><ele>2705</ele></trkpt><trkpt lat="41.501812" lon="70.042029"><ele>2706</ele></trkpt><trkpt lat="41.501919" lon="70.042266"><ele>2711</ele></trkpt><trkpt lat="41.501964" lon="70.042610"><ele>2717</ele></trkpt><trkpt lat="41.502013" lon="70.042597"><ele>2719</ele></trkpt><trkpt lat="41.502045" lon="70.043060"><ele>2727</ele></trkpt><trkpt lat="41.502079" lon="70.043160"><ele>2728</ele></trkpt><trkpt lat="41.502177" lon="70.043133"><ele>2731</ele></trkpt><trkpt lat="41.502238" lon="70.043368"><ele>2735</ele></trkpt><trkpt lat="41.502211" lon="70.043741"><ele>2742</ele></trkpt><trkpt lat="41.502306" lon="70.043912"><ele>2748</ele></trkpt><trkpt lat="41.502248" lon="70.044045"><ele>2752</ele></trkpt><trkpt lat="41.502331" lon="70.044181"><ele>2757</ele></trkpt><trkpt lat="41.502309" lon="70.044380"><ele>2762</ele></trkpt><trkpt lat="41.502404" lon="70.044397"><ele>2765</ele></trkpt><trkpt lat="41.502364" lon="70.044462"><ele>2766</ele></trkpt><trkpt lat="41.502433" lon="70.044583"><ele>2770</ele></trkpt><trkpt lat="41.502372" lon="70.044629"><ele>2773</ele></trkpt><trkpt lat="41.502453" lon="70.044628"><ele>2782</ele></trkpt><trkpt lat="41.502372" lon="70.044860"><ele>2787</ele></trkpt><trkpt lat="41.502452" lon="70.044836"><ele>2788</ele></trkpt><trkpt lat="41.502425" lon="70.044941"><ele>2790</ele></trkpt><trkpt lat="41.502495" lon="70.045035"><ele>2794</ele></trkpt><trkpt lat="41.502454" lon="70.045153"><ele>2796</ele></trkpt><trkpt lat="41.502511" lon="70.045158"><ele>2797</ele></trkpt><trkpt lat="41.502468" lon="70.045333"><ele>2799</ele></trkpt><trkpt lat="41.502540" lon="70.045357"><ele>2800</ele></trkpt><trkpt lat="41.502459" lon="70.045480"><ele>2802</ele></trkpt><trkpt lat="41.502596" lon="70.045500"><ele>2807</ele></trkpt><trkpt lat="41.502608" lon="70.045699"><ele>2812</ele></trkpt><trkpt lat="41.502764" lon="70.045800"><ele>2816</ele></trkpt><trkpt lat="41.502606" lon="70.046079"><ele>2823</ele></trkpt><trkpt lat="41.502496" lon="70.046049"><ele>2825</ele></trkpt><trkpt lat="41.502502" lon="70.046109"><ele>2827</ele></trkpt><trkpt lat="41.502430" lon="70.046113"><ele>2830</ele></trkpt><trkpt lat="41.502295" lon="70.046290"><ele>2836</ele></trkpt><trkpt lat="41.502308" lon="70.046563"><ele>2839</ele></trkpt><trkpt lat="41.502242" lon="70.046731"><ele>2842</ele></trkpt><trkpt lat="41.501958" lon="70.046948"><ele>2848</ele></trkpt><trkpt lat="41.501938" lon="70.047031"><ele>2850</ele></trkpt><trkpt lat="41.501835" lon="70.047022"><ele>2852</ele></trkpt><trkpt lat="41.501875" lon="70.047100"><ele>2854</ele></trkpt><trkpt lat="41.501744" lon="70.047237"><ele>2857</ele></trkpt><trkpt lat="41.501550" lon="70.047799"><ele>2870</ele></trkpt><trkpt lat="41.501435" lon="70.047855"><ele>2874</ele></trkpt><trkpt lat="41.501440" lon="70.047936"><ele>2875</ele></trkpt><trkpt lat="41.501369" lon="70.047957"><ele>2877</ele></trkpt><trkpt lat="41.501222" lon="70.048270"><ele>2885</ele></trkpt><trkpt lat="41.501101" lon="70.048302"><ele>2889</ele></trkpt><trkpt lat="41.500963" lon="70.048698"><ele>2894</ele></trkpt><trkpt lat="41.500870" lon="70.048745"><ele>2897</ele></trkpt><trkpt lat="41.500922" lon="70.048845"><ele>2903</ele></trkpt><trkpt lat="41.500903" lon="70.048789"><ele>2904</ele></trkpt><trkpt lat="41.500950" lon="70.048773"><ele>2906</ele></trkpt><trkpt lat="41.500903" lon="70.048907"><ele>2910</ele></trkpt><trkpt lat="41.500936" lon="70.049297"><ele>2913</ele></trkpt><trkpt lat="41.500869" lon="70.049387"><ele>2915</ele></trkpt><trkpt lat="41.500833" lon="70.049695"><ele>2919</ele></trkpt><trkpt lat="41.500826" lon="70.049608"><ele>2919</ele></trkpt><trkpt lat="41.500786" lon="70.049627"><ele>2920</ele></trkpt><trkpt lat="41.500857" lon="70.049667"><ele>2923</ele></trkpt><trkpt lat="41.500714" lon="70.049677"><ele>2925</ele></trkpt><trkpt lat="41.500812" lon="70.049696"><ele>2927</ele></trkpt><trkpt lat="41.500667" lon="70.049765"><ele>2929</ele></trkpt><trkpt lat="41.500777" lon="70.049722"><ele>2931</ele></trkpt><trkpt lat="41.500792" lon="70.049647"><ele>2932</ele></trkpt><trkpt lat="41.500748" lon="70.049688"><ele>2933</ele></trkpt><trkpt lat="41.500834" lon="70.049744"><ele>2934</ele></trkpt><trkpt lat="41.500825" lon="70.049681"><ele>2935</ele></trkpt><trkpt lat="41.500726" lon="70.049888"><ele>2938</ele></trkpt><trkpt lat="41.500626" lon="70.050471"><ele>2944</ele></trkpt><trkpt lat="41.500524" lon="70.050638"><ele>2947</ele></trkpt><trkpt lat="41.500533" lon="70.050803"><ele>2948</ele></trkpt><trkpt lat="41.500418" lon="70.050694"><ele>2950</ele></trkpt><trkpt lat="41.500280" lon="70.050696"><ele>2951</ele></trkpt><trkpt lat="41.500130" lon="70.050509"><ele>2953</ele></trkpt><trkpt lat="41.500097" lon="70.050582"><ele>2954</ele></trkpt><trkpt lat="41.499945" lon="70.050594"><ele>2956</ele></trkpt><trkpt lat="41.499940" lon="70.050720"><ele>2958</ele></trkpt><trkpt lat="41.499865" lon="70.050798"><ele>2959</ele></trkpt><trkpt lat="41.499932" lon="70.050685"><ele>2966</ele></trkpt><trkpt lat="41.499911" lon="70.050869"><ele>2968</ele></trkpt><trkpt lat="41.499950" lon="70.050839"><ele>2968</ele></trkpt><trkpt lat="41.499911" lon="70.050813"><ele>2969</ele></trkpt><trkpt lat="41.499936" lon="70.050865"><ele>2970</ele></trkpt><trkpt lat="41.499828" lon="70.050987"><ele>2973</ele></trkpt><trkpt lat="41.499844" lon="70.050927"><ele>2974</ele></trkpt><trkpt lat="41.499763" lon="70.051162"><ele>2978</ele></trkpt><trkpt lat="41.499819" lon="70.051144"><ele>2979</ele></trkpt><trkpt lat="41.499797" lon="70.051250"><ele>2982</ele></trkpt><trkpt lat="41.499876" lon="70.051254"><ele>2983</ele></trkpt><trkpt lat="41.499839" lon="70.051212"><ele>2984</ele></trkpt><trkpt lat="41.499889" lon="70.051375"><ele>2986</ele></trkpt><trkpt lat="41.499943" lon="70.051344"><ele>2989</ele></trkpt><trkpt lat="41.499869" lon="70.051697"><ele>2995</ele></trkpt><trkpt lat="41.499875" lon="70.051827"><ele>2997</ele></trkpt><trkpt lat="41.499921" lon="70.051821"><ele>2997</ele></trkpt><trkpt lat="41.499749" lon="70.052332"><ele>3007</ele></trkpt><trkpt lat="41.499680" lon="70.052328"><ele>3008</ele></trkpt><trkpt lat="41.499729" lon="70.052275"><ele>3009</ele></trkpt><trkpt lat="41.499778" lon="70.052345"><ele>3010</ele></trkpt><trkpt lat="41.499710" lon="70.052713"><ele>3014</ele></trkpt><trkpt lat="41.499751" lon="70.053057"><ele>3020</ele></trkpt><trkpt lat="41.499606" lon="70.053229"><ele>3022</ele></trkpt><trkpt lat="41.499635" lon="70.053414"><ele>3024</ele></trkpt><trkpt lat="41.499595" lon="70.053533"><ele>3026</ele></trkpt><trkpt lat="41.499548" lon="70.053519"><ele>3027</ele></trkpt><trkpt lat="41.499615" lon="70.053497"><ele>3028</ele></trkpt><trkpt lat="41.499564" lon="70.053557"><ele>3028</ele></trkpt><trkpt lat="41.499600" lon="70.053622"><ele>3041</ele></trkpt><trkpt lat="41.499648" lon="70.053569"><ele>3041</ele></trkpt><trkpt lat="41.499556" lon="70.053693"><ele>3042</ele></trkpt><trkpt lat="41.499673" lon="70.053633"><ele>3044</ele></trkpt><trkpt lat="41.499581" lon="70.053669"><ele>3046</ele></trkpt><trkpt lat="41.499637" lon="70.053687"><ele>3047</ele></trkpt><trkpt lat="41.499576" lon="70.053679"><ele>3047</ele></trkpt><trkpt lat="41.499616" lon="70.053733"><ele>3048</ele></trkpt><trkpt lat="41.499517" lon="70.053630"><ele>3049</ele></trkpt><trkpt lat="41.499486" lon="70.053713"><ele>3050</ele></trkpt><trkpt lat="41.499507" lon="70.053661"><ele>3050</ele></trkpt><trkpt lat="41.499435" lon="70.053679"><ele>3051</ele></trkpt><trkpt lat="41.499502" lon="70.053608"><ele>3052</ele></trkpt><trkpt lat="41.499455" lon="70.053697"><ele>3052</ele></trkpt><trkpt lat="41.499452" lon="70.053642"><ele>3052</ele></trkpt><trkpt lat="41.499369" lon="70.053671"><ele>3052</ele></trkpt><trkpt lat="41.499400" lon="70.053746"><ele>3052</ele></trkpt><trkpt lat="41.499430" lon="70.053644"><ele>3053</ele></trkpt><trkpt lat="41.499312" lon="70.053703"><ele>3055</ele></trkpt><trkpt lat="41.499277" lon="70.053644"><ele>3056</ele></trkpt><trkpt lat="41.499294" lon="70.053780"><ele>3060</ele></trkpt><trkpt lat="41.499171" lon="70.053699"><ele>3065</ele></trkpt><trkpt lat="41.499099" lon="70.053873"><ele>3070</ele></trkpt><trkpt lat="41.499069" lon="70.053824"><ele>3070</ele></trkpt><trkpt lat="41.499125" lon="70.053787"><ele>3072</ele></trkpt><trkpt lat="41.499023" lon="70.053954"><ele>3076</ele></trkpt><trkpt lat="41.499062" lon="70.053965"><ele>3077</ele></trkpt><trkpt lat="41.499030" lon="70.054055"><ele>3078</ele></trkpt><trkpt lat="41.498911" lon="70.054019"><ele>3081</ele></trkpt><trkpt lat="41.498864" lon="70.054089"><ele>3083</ele></trkpt><trkpt lat="41.498934" lon="70.054051"><ele>3084</ele></trkpt><trkpt lat="41.498887" lon="70.054199"><ele>3086</ele></trkpt><trkpt lat="41.498770" lon="70.054294"><ele>3088</ele></trkpt><trkpt lat="41.498803" lon="70.054406"><ele>3090</ele></trkpt><trkpt lat="41.498760" lon="70.054525"><ele>3092</ele></trkpt><trkpt lat="41.498804" lon="70.054487"><ele>3092</ele></trkpt><trkpt lat="41.498748" lon="70.054659"><ele>3094</ele></trkpt><trkpt lat="41.498775" lon="70.054611"><ele>3095</ele></trkpt><trkpt lat="41.498750" lon="70.054654"><ele>3096</ele></trkpt><trkpt lat="41.498795" lon="70.054665"><ele>3097</ele></trkpt><trkpt lat="41.498642" lon="70.054664"><ele>3099</ele></trkpt><trkpt lat="41.498639" lon="70.054781"><ele>3105</ele></trkpt><trkpt lat="41.498598" lon="70.054730"><ele>3106</ele></trkpt><trkpt lat="41.498610" lon="70.054808"><ele>3108</ele></trkpt><trkpt lat="41.498490" lon="70.054814"><ele>3111</ele></trkpt><trkpt lat="41.498462" lon="70.054886"><ele>3113</ele></trkpt><trkpt lat="41.498502" lon="70.054904"><ele>3114</ele></trkpt><trkpt lat="41.498448" lon="70.054923"><ele>3117</ele></trkpt><trkpt lat="41.498489" lon="70.054883"><ele>3119</ele></trkpt><trkpt lat="41.498600" lon="70.055118"><ele>3124</ele></trkpt><trkpt lat="41.498574" lon="70.055075"><ele>3125</ele></trkpt><trkpt lat="41.498520" lon="70.055196"><ele>3129</ele></trkpt><trkpt lat="41.498529" lon="70.055351"><ele>3133</ele></trkpt><trkpt lat="41.498454" lon="70.055268"><ele>3139</ele></trkpt><trkpt lat="41.498518" lon="70.055397"><ele>3142</ele></trkpt><trkpt lat="41.498269" lon="70.055539"><ele>3153</ele></trkpt><trkpt lat="41.498335" lon="70.055637"><ele>3158</ele></trkpt><trkpt lat="41.498224" lon="70.055662"><ele>3162</ele></trkpt><trkpt lat="41.498240" lon="70.055926"><ele>3168</ele></trkpt><trkpt lat="41.498053" lon="70.056175"><ele>3178</ele></trkpt><trkpt lat="41.498077" lon="70.056246"><ele>3179</ele></trkpt><trkpt lat="41.498101" lon="70.056190"><ele>3180</ele></trkpt><trkpt lat="41.498073" lon="70.056340"><ele>3182</ele></trkpt><trkpt lat="41.498139" lon="70.056446"><ele>3184</ele></trkpt><trkpt lat="41.498133" lon="70.056393"><ele>3186</ele></trkpt><trkpt lat="41.498201" lon="70.056396"><ele>3188</ele></trkpt><trkpt lat="41.498189" lon="70.056588"><ele>3191</ele></trkpt><trkpt lat="41.498234" lon="70.056639"><ele>3193</ele></trkpt><trkpt lat="41.498110" lon="70.056904"><ele>3196</ele></trkpt><trkpt lat="41.498166" lon="70.056901"><ele>3196</ele></trkpt><trkpt lat="41.498081" lon="70.057339"><ele>3207</ele></trkpt><trkpt lat="41.498195" lon="70.057626"><ele>3220</ele></trkpt><trkpt lat="41.498110" lon="70.057791"><ele>3229</ele></trkpt><trkpt lat="41.498133" lon="70.057883"><ele>3231</ele></trkpt><trkpt lat="41.498004" lon="70.057986"><ele>3240</ele></trkpt><trkpt lat="41.498041" lon="70.057964"><ele>3240</ele></trkpt><trkpt lat="41.498108" lon="70.058163"><ele>3244</ele></trkpt><trkpt lat="41.497926" lon="70.058068"><ele>3249</ele></trkpt><trkpt lat="41.497815" lon="70.058082"><ele>3252</ele></trkpt><trkpt lat="41.497805" lon="70.058182"><ele>3254</ele></trkpt><trkpt lat="41.497743" lon="70.058203"><ele>3256</ele></trkpt><trkpt lat="41.497741" lon="70.058136"><ele>3259</ele></trkpt><trkpt lat="41.497677" lon="70.058143"><ele>3263</ele></trkpt><trkpt lat="41.497752" lon="70.058111"><ele>3263</ele></trkpt><trkpt lat="41.497747" lon="70.058159"><ele>3263</ele></trkpt><trkpt lat="41.497766" lon="70.058098"><ele>3263</ele></trkpt><trkpt lat="41.497716" lon="70.058129"><ele>3263</ele></trkpt><trkpt lat="41.497748" lon="70.058160"><ele>3263</ele></trkpt><trkpt lat="41.497597" lon="70.058148"><ele>3263</ele></trkpt><trkpt lat="41.497715" lon="70.058164"><ele>3263</ele></trkpt><trkpt lat="41.497754" lon="70.058104"><ele>3263</ele></trkpt><trkpt lat="41.497742" lon="70.058167"><ele>3263</ele></trkpt><trkpt lat="41.497745" lon="70.058083"><ele>3263</ele></trkpt><trkpt lat="41.497709" lon="70.058124"><ele>3263</ele></trkpt><trkpt lat="41.497760" lon="70.058081"><ele>3263</ele></trkpt><trkpt lat="41.497763" lon="70.058140"><ele>3263</ele></trkpt><trkpt lat="41.497690" lon="70.058147"><ele>3263</ele></trkpt><trkpt lat="41.497803" lon="70.058092"><ele>3263</ele></trkpt><trkpt lat="41.497778" lon="70.058164"><ele>3263</ele></trkpt><trkpt lat="41.497651" lon="70.058146"><ele>3263</ele></trkpt><trkpt lat="41.497752" lon="70.058169"><ele>3263</ele></trkpt><trkpt lat="41.497768" lon="70.058125"><ele>3263</ele></trkpt><trkpt lat="41.497703" lon="70.058144"><ele>3263</ele></trkpt><trkpt lat="41.497820" lon="70.058079"><ele>3263</ele></trkpt><trkpt lat="41.497756" lon="70.058170"><ele>3263</ele></trkpt><trkpt lat="41.497790" lon="70.058031"><ele>3263</ele></trkpt><trkpt lat="41.497768" lon="70.058183"><ele>3263</ele></trkpt><trkpt lat="41.497756" lon="70.058116"><ele>3263</ele></trkpt><trkpt lat="41.497840" lon="70.058035"><ele>3263</ele></trkpt><trkpt lat="41.497752" lon="70.058036"><ele>3263</ele></trkpt><trkpt lat="41.497799" lon="70.057999"><ele>3263</ele></trkpt><trkpt lat="41.497788" lon="70.058160"><ele>3263</ele></trkpt><trkpt lat="41.497685" lon="70.058038"><ele>3263</ele></trkpt><trkpt lat="41.497788" lon="70.058169"><ele>3263</ele></trkpt><trkpt lat="41.497662" lon="70.058073"><ele>3262</ele></trkpt><trkpt lat="41.497750" lon="70.058141"><ele>3261</ele></trkpt><trkpt lat="41.497696" lon="70.058166"><ele>3261</ele></trkpt><trkpt lat="41.497801" lon="70.058141"><ele>3259</ele></trkpt><trkpt lat="41.497760" lon="70.058126"><ele>3259</ele></trkpt><trkpt lat="41.497735" lon="70.058190"><ele>3255</ele></trkpt><trkpt lat="41.497783" lon="70.058185"><ele>3254</ele></trkpt><trkpt lat="41.497730" lon="70.058148"><ele>3253</ele></trkpt><trkpt lat="41.497780" lon="70.058111"><ele>3252</ele></trkpt><trkpt lat="41.497711" lon="70.058130"><ele>3252</ele></trkpt><trkpt lat="41.497817" lon="70.058117"><ele>3251</ele></trkpt><trkpt lat="41.497785" lon="70.058183"><ele>3250</ele></trkpt><trkpt lat="41.497766" lon="70.058102"><ele>3249</ele></trkpt><trkpt lat="41.497795" lon="70.058153"><ele>3248</ele></trkpt><trkpt lat="41.497975" lon="70.058004"><ele>3246</ele></trkpt><trkpt lat="41.497910" lon="70.057899"><ele>3246</ele></trkpt><trkpt lat="41.497985" lon="70.058035"><ele>3246</ele></trkpt><trkpt lat="41.498019" lon="70.057959"><ele>3240</ele></trkpt><trkpt lat="41.498074" lon="70.057982"><ele>3238</ele></trkpt><trkpt lat="41.498018" lon="70.057957"><ele>3231</ele></trkpt><trkpt lat="41.498071" lon="70.057966"><ele>3228</ele></trkpt><trkpt lat="41.498141" lon="70.057752"><ele>3220</ele></trkpt><trkpt lat="41.498094" lon="70.057703"><ele>3218</ele></trkpt><trkpt lat="41.498181" lon="70.057510"><ele>3215</ele></trkpt><trkpt lat="41.498125" lon="70.057422"><ele>3212</ele></trkpt><trkpt lat="41.498134" lon="70.057034"><ele>3203</ele></trkpt><trkpt lat="41.498058" lon="70.056808"><ele>3200</ele></trkpt><trkpt lat="41.498138" lon="70.056703"><ele>3197</ele></trkpt><trkpt lat="41.498185" lon="70.056755"><ele>3194</ele></trkpt><trkpt lat="41.498156" lon="70.056559"><ele>3191</ele></trkpt><trkpt lat="41.498200" lon="70.056486"><ele>3189</ele></trkpt><trkpt lat="41.498108" lon="70.056387"><ele>3184</ele></trkpt><trkpt lat="41.498125" lon="70.056166"><ele>3174</ele></trkpt><trkpt lat="41.498076" lon="70.056150"><ele>3172</ele></trkpt><trkpt lat="41.498158" lon="70.055864"><ele>3165</ele></trkpt><trkpt lat="41.498283" lon="70.055805"><ele>3160</ele></trkpt><trkpt lat="41.498231" lon="70.055681"><ele>3156</ele></trkpt><trkpt lat="41.498292" lon="70.055426"><ele>3148</ele></trkpt><trkpt lat="41.498459" lon="70.055414"><ele>3144</ele></trkpt><trkpt lat="41.498429" lon="70.055308"><ele>3141</ele></trkpt><trkpt lat="41.498549" lon="70.055238"><ele>3136</ele></trkpt><trkpt lat="41.498614" lon="70.055033"><ele>3134</ele></trkpt><trkpt lat="41.498620" lon="70.054959"><ele>3133</ele></trkpt><trkpt lat="41.498490" lon="70.055005"><ele>3130</ele></trkpt><trkpt lat="41.498476" lon="70.054805"><ele>3122</ele></trkpt><trkpt lat="41.498600" lon="70.054835"><ele>3115</ele></trkpt><trkpt lat="41.498615" lon="70.054709"><ele>3113</ele></trkpt><trkpt lat="41.498726" lon="70.054760"><ele>3107</ele></trkpt><trkpt lat="41.498697" lon="70.054685"><ele>3105</ele></trkpt><trkpt lat="41.498754" lon="70.054652"><ele>3101</ele></trkpt><trkpt lat="41.498737" lon="70.054548"><ele>3097</ele></trkpt><trkpt lat="41.498780" lon="70.054645"><ele>3095</ele></trkpt><trkpt lat="41.498788" lon="70.054326"><ele>3089</ele></trkpt><trkpt lat="41.498874" lon="70.054180"><ele>3087</ele></trkpt><trkpt lat="41.498884" lon="70.054022"><ele>3084</ele></trkpt><trkpt lat="41.499125" lon="70.053878"><ele>3077</ele></trkpt><trkpt lat="41.499177" lon="70.053694"><ele>3070</ele></trkpt><trkpt lat="41.499303" lon="70.053634"><ele>3059</ele></trkpt><trkpt lat="41.499234" lon="70.053717"><ele>3058</ele></trkpt><trkpt lat="41.499301" lon="70.053739"><ele>3058</ele></trkpt><trkpt lat="41.499345" lon="70.053638"><ele>3056</ele></trkpt><trkpt lat="41.499291" lon="70.053669"><ele>3054</ele></trkpt><trkpt lat="41.499359" lon="70.053739"><ele>3054</ele></trkpt><trkpt lat="41.499346" lon="70.053650"><ele>3050</ele></trkpt><trkpt lat="41.499410" lon="70.053694"><ele>3050</ele></trkpt><trkpt lat="41.499333" lon="70.053657"><ele>3049</ele></trkpt><trkpt lat="41.499474" lon="70.053606"><ele>3027</ele></trkpt><trkpt lat="41.499525" lon="70.053688"><ele>3020</ele></trkpt><trkpt lat="41.499658" lon="70.053590"><ele>3015</ele></trkpt><trkpt lat="41.499602" lon="70.053494"><ele>3014</ele></trkpt><trkpt lat="41.499729" lon="70.053128"><ele>3011</ele></trkpt><trkpt lat="41.499732" lon="70.052987"><ele>3008</ele></trkpt><trkpt lat="41.499680" lon="70.052992"><ele>3004</ele></trkpt><trkpt lat="41.499751" lon="70.052985"><ele>3003</ele></trkpt><trkpt lat="41.499694" lon="70.052979"><ele>3002</ele></trkpt><trkpt lat="41.499739" lon="70.052946"><ele>3000</ele></trkpt><trkpt lat="41.499665" lon="70.052747"><ele>2999</ele></trkpt><trkpt lat="41.499734" lon="70.052564"><ele>2998</ele></trkpt><trkpt lat="41.499661" lon="70.052432"><ele>2998</ele></trkpt><trkpt lat="41.499711" lon="70.052372"><ele>2998</ele></trkpt><trkpt lat="41.499677" lon="70.052301"><ele>2998</ele></trkpt><trkpt lat="41.499766" lon="70.052316"><ele>2998</ele></trkpt><trkpt lat="41.499702" lon="70.052312"><ele>2998</ele></trkpt><trkpt lat="41.499892" lon="70.051948"><ele>2993</ele></trkpt><trkpt lat="41.499913" lon="70.051599"><ele>2988</ele></trkpt><trkpt lat="41.499980" lon="70.051578"><ele>2986</ele></trkpt><trkpt lat="41.499926" lon="70.051478"><ele>2983</ele></trkpt><trkpt lat="41.499932" lon="70.051341"><ele>2979</ele></trkpt><trkpt lat="41.499960" lon="70.051377"><ele>2979</ele></trkpt><trkpt lat="41.499884" lon="70.051367"><ele>2976</ele></trkpt><trkpt lat="41.499869" lon="70.051156"><ele>2973</ele></trkpt><trkpt lat="41.499849" lon="70.051213"><ele>2972</ele></trkpt><trkpt lat="41.499820" lon="70.051126"><ele>2971</ele></trkpt><trkpt lat="41.499875" lon="70.051065"><ele>2969</ele></trkpt><trkpt lat="41.499848" lon="70.050921"><ele>2966</ele></trkpt><trkpt lat="41.499953" lon="70.050835"><ele>2964</ele></trkpt><trkpt lat="41.499909" lon="70.050750"><ele>2962</ele></trkpt><trkpt lat="41.499980" lon="70.050660"><ele>2960</ele></trkpt><trkpt lat="41.499943" lon="70.050589"><ele>2959</ele></trkpt><trkpt lat="41.500037" lon="70.050576"><ele>2957</ele></trkpt><trkpt lat="41.500039" lon="70.050503"><ele>2955</ele></trkpt><trkpt lat="41.500391" lon="70.050589"><ele>2949</ele></trkpt><trkpt lat="41.500526" lon="70.050544"><ele>2946</ele></trkpt><trkpt lat="41.500876" lon="70.049615"><ele>2937</ele></trkpt><trkpt lat="41.500925" lon="70.049626"><ele>2936</ele></trkpt><trkpt lat="41.500881" lon="70.049702"><ele>2935</ele></trkpt><trkpt lat="41.500888" lon="70.049639"><ele>2934</ele></trkpt><trkpt lat="41.500837" lon="70.049664"><ele>2933</ele></trkpt><trkpt lat="41.500923" lon="70.049661"><ele>2930</ele></trkpt><trkpt lat="41.500823" lon="70.049663"><ele>2925</ele></trkpt><trkpt lat="41.500857" lon="70.049701"><ele>2924</ele></trkpt><trkpt lat="41.500885" lon="70.049597"><ele>2923</ele></trkpt><trkpt lat="41.500832" lon="70.049488"><ele>2921</ele></trkpt><trkpt lat="41.500868" lon="70.049552"><ele>2921</ele></trkpt><trkpt lat="41.500857" lon="70.049483"><ele>2920</ele></trkpt><trkpt lat="41.500931" lon="70.049432"><ele>2919</ele></trkpt><trkpt lat="41.500879" lon="70.049436"><ele>2918</ele></trkpt><trkpt lat="41.500941" lon="70.049351"><ele>2914</ele></trkpt><trkpt lat="41.500863" lon="70.049113"><ele>2912</ele></trkpt><trkpt lat="41.500923" lon="70.049106"><ele>2911</ele></trkpt><trkpt lat="41.500885" lon="70.049012"><ele>2910</ele></trkpt><trkpt lat="41.500924" lon="70.048902"><ele>2909</ele></trkpt><trkpt lat="41.500807" lon="70.048823"><ele>2908</ele></trkpt><trkpt lat="41.500870" lon="70.048740"><ele>2905</ele></trkpt><trkpt lat="41.500841" lon="70.048771"><ele>2905</ele></trkpt><trkpt lat="41.500947" lon="70.048847"><ele>2904</ele></trkpt><trkpt lat="41.500898" lon="70.048745"><ele>2900</ele></trkpt><trkpt lat="41.500940" lon="70.048689"><ele>2899</ele></trkpt><trkpt lat="41.500877" lon="70.048719"><ele>2898</ele></trkpt><trkpt lat="41.500944" lon="70.048713"><ele>2898</ele></trkpt><trkpt lat="41.500966" lon="70.048801"><ele>2897</ele></trkpt><trkpt lat="41.500921" lon="70.048662"><ele>2894</ele></trkpt><trkpt lat="41.500984" lon="70.048613"><ele>2893</ele></trkpt><trkpt lat="41.500994" lon="70.048471"><ele>2892</ele></trkpt><trkpt lat="41.501074" lon="70.048437"><ele>2891</ele></trkpt><trkpt lat="41.501027" lon="70.048419"><ele>2890</ele></trkpt><trkpt lat="41.501226" lon="70.048242"><ele>2887</ele></trkpt><trkpt lat="41.501168" lon="70.048165"><ele>2886</ele></trkpt><trkpt lat="41.501269" lon="70.048114"><ele>2885</ele></trkpt><trkpt lat="41.501216" lon="70.048064"><ele>2884</ele></trkpt><trkpt lat="41.501374" lon="70.048086"><ele>2879</ele></trkpt><trkpt lat="41.501300" lon="70.048012"><ele>2877</ele></trkpt><trkpt lat="41.501434" lon="70.047966"><ele>2874</ele></trkpt><trkpt lat="41.501416" lon="70.047781"><ele>2870</ele></trkpt><trkpt lat="41.501654" lon="70.047607"><ele>2860</ele></trkpt><trkpt lat="41.501607" lon="70.047530"><ele>2859</ele></trkpt><trkpt lat="41.501717" lon="70.047349"><ele>2855</ele></trkpt><trkpt lat="41.501700" lon="70.047214"><ele>2853</ele></trkpt><trkpt lat="41.502252" lon="70.046753"><ele>2838</ele></trkpt><trkpt lat="41.502320" lon="70.046572"><ele>2836</ele></trkpt><trkpt lat="41.502312" lon="70.046249"><ele>2831</ele></trkpt><trkpt lat="41.502365" lon="70.046265"><ele>2830</ele></trkpt><trkpt lat="41.502407" lon="70.046142"><ele>2827</ele></trkpt><trkpt lat="41.502547" lon="70.046042"><ele>2823</ele></trkpt><trkpt lat="41.502664" lon="70.046068"><ele>2820</ele></trkpt><trkpt lat="41.502624" lon="70.045977"><ele>2817</ele></trkpt><trkpt lat="41.502688" lon="70.045985"><ele>2816</ele></trkpt><trkpt lat="41.502792" lon="70.045837"><ele>2812</ele></trkpt><trkpt lat="41.502597" lon="70.045631"><ele>2805</ele></trkpt><trkpt lat="41.502516" lon="70.045394"><ele>2800</ele></trkpt><trkpt lat="41.502566" lon="70.045359"><ele>2799</ele></trkpt><trkpt lat="41.502445" lon="70.045115"><ele>2792</ele></trkpt><trkpt lat="41.502471" lon="70.045045"><ele>2790</ele></trkpt><trkpt lat="41.502402" lon="70.044864"><ele>2787</ele></trkpt><trkpt lat="41.502486" lon="70.044699"><ele>2782</ele></trkpt><trkpt lat="41.502435" lon="70.044704"><ele>2781</ele></trkpt><trkpt lat="41.502324" lon="70.044315"><ele>2774</ele></trkpt><trkpt lat="41.502394" lon="70.044211"><ele>2770</ele></trkpt><trkpt lat="41.502287" lon="70.044041"><ele>2767</ele></trkpt><trkpt lat="41.502289" lon="70.043777"><ele>2762</ele></trkpt><trkpt lat="41.502207" lon="70.043529"><ele>2757</ele></trkpt><trkpt lat="41.502269" lon="70.043420"><ele>2754</ele></trkpt><trkpt lat="41.502267" lon="70.043245"><ele>2751</ele></trkpt><trkpt lat="41.502081" lon="70.042967"><ele>2745</ele></trkpt><trkpt lat="41.501957" lon="70.042310"><ele>2729</ele></trkpt><trkpt lat="41.501737" lon="70.041783"><ele>2715</ele></trkpt><trkpt lat="41.501734" lon="70.041404"><ele>2708</ele></trkpt><trkpt lat="41.501782" lon="70.041337"><ele>2707</ele></trkpt><trkpt lat="41.501749" lon="70.041097"><ele>2702</ele></trkpt><trkpt lat="41.501655" lon="70.040777"><ele>2697</ele></trkpt><trkpt lat="41.501434" lon="70.040474"><ele>2689</ele></trkpt><trkpt lat="41.501406" lon="70.040135"><ele>2684</ele></trkpt><trkpt lat="41.501455" lon="70.039985"><ele>2680</ele></trkpt><trkpt lat="41.501388" lon="70.039913"><ele>2678</ele></trkpt><trkpt lat="41.501399" lon="70.039532"><ele>2671</ele></trkpt><trkpt lat="41.501502" lon="70.039494"><ele>2667</ele></trkpt><trkpt lat="41.501506" lon="70.039386"><ele>2665</ele></trkpt><trkpt lat="41.501562" lon="70.039378"><ele>2664</ele></trkpt><trkpt lat="41.501526" lon="70.039325"><ele>2662</ele></trkpt><trkpt lat="41.501726" lon="70.038794"><ele>2645</ele></trkpt><trkpt lat="41.501685" lon="70.038626"><ele>2642</ele></trkpt><trkpt lat="41.501763" lon="70.038599"><ele>2640</ele></trkpt><trkpt lat="41.501722" lon="70.038389"><ele>2635</ele></trkpt><trkpt lat="41.501776" lon="70.038265"><ele>2632</ele></trkpt><trkpt lat="41.501730" lon="70.038188"><ele>2630</ele></trkpt><trkpt lat="41.501797" lon="70.038101"><ele>2628</ele></trkpt><trkpt lat="41.501919" lon="70.037542"><ele>2618</ele></trkpt><trkpt lat="41.502036" lon="70.037387"><ele>2615</ele></trkpt><trkpt lat="41.501996" lon="70.036893"><ele>2606</ele></trkpt><trkpt lat="41.502126" lon="70.036751"><ele>2602</ele></trkpt><trkpt lat="41.502060" lon="70.036737"><ele>2601</ele></trkpt><trkpt lat="41.502075" lon="70.036321"><ele>2592</ele></trkpt><trkpt lat="41.502112" lon="70.036302"><ele>2591</ele></trkpt><trkpt lat="41.502116" lon="70.036492"><ele>2583</ele></trkpt><trkpt lat="41.502346" lon="70.036036"><ele>2569</ele></trkpt><trkpt lat="41.501915" lon="70.035038"><ele>2546</ele></trkpt><trkpt lat="41.501894" lon="70.034621"><ele>2539</ele></trkpt><trkpt lat="41.501951" lon="70.034148"><ele>2534</ele></trkpt><trkpt lat="41.502075" lon="70.033915"><ele>2534</ele></trkpt><trkpt lat="41.502122" lon="70.033470"><ele>2533</ele></trkpt><trkpt lat="41.502407" lon="70.033063"><ele>2534</ele></trkpt><trkpt lat="41.502462" lon="70.032881"><ele>2533</ele></trkpt><trkpt lat="41.502419" lon="70.032858"><ele>2533</ele></trkpt><trkpt lat="41.502482" lon="70.032727"><ele>2532</ele></trkpt><trkpt lat="41.502437" lon="70.032595"><ele>2531</ele></trkpt><trkpt lat="41.502499" lon="70.032207"><ele>2527</ele></trkpt><trkpt lat="41.502717" lon="70.032026"><ele>2523</ele></trkpt><trkpt lat="41.502770" lon="70.031847"><ele>2520</ele></trkpt><trkpt lat="41.503178" lon="70.031424"><ele>2510</ele></trkpt><trkpt lat="41.503239" lon="70.031117"><ele>2504</ele></trkpt><trkpt lat="41.503498" lon="70.030941"><ele>2498</ele></trkpt><trkpt lat="41.503532" lon="70.030887"><ele>2497</ele></trkpt><trkpt lat="41.503475" lon="70.030867"><ele>2496</ele></trkpt><trkpt lat="41.503659" lon="70.030650"><ele>2487</ele></trkpt><trkpt lat="41.503674" lon="70.030515"><ele>2481</ele></trkpt><trkpt lat="41.503853" lon="70.030335"><ele>2477</ele></trkpt><trkpt lat="41.503811" lon="70.030306"><ele>2475</ele></trkpt><trkpt lat="41.504003" lon="70.030179"><ele>2470</ele></trkpt><trkpt lat="41.504020" lon="70.030076"><ele>2468</ele></trkpt><trkpt lat="41.504413" lon="70.029925"><ele>2460</ele></trkpt><trkpt lat="41.504763" lon="70.029575"><ele>2452</ele></trkpt><trkpt lat="41.504708" lon="70.029552"><ele>2451</ele></trkpt><trkpt lat="41.504926" lon="70.029495"><ele>2445</ele></trkpt><trkpt lat="41.504952" lon="70.029336"><ele>2442</ele></trkpt><trkpt lat="41.505103" lon="70.029222"><ele>2436</ele></trkpt><trkpt lat="41.505469" lon="70.029168"><ele>2429</ele></trkpt><trkpt lat="41.505572" lon="70.029012"><ele>2424</ele></trkpt><trkpt lat="41.505839" lon="70.029043"><ele>2420</ele></trkpt><trkpt lat="41.506044" lon="70.028871"><ele>2415</ele></trkpt><trkpt lat="41.506107" lon="70.028709"><ele>2412</ele></trkpt><trkpt lat="41.506353" lon="70.028582"><ele>2406</ele></trkpt><trkpt lat="41.506548" lon="70.028022"><ele>2398</ele></trkpt><trkpt lat="41.506845" lon="70.027479"><ele>2388</ele></trkpt><trkpt lat="41.506894" lon="70.027153"><ele>2382</ele></trkpt><trkpt lat="41.507007" lon="70.026985"><ele>2379</ele></trkpt><trkpt lat="41.507029" lon="70.026721"><ele>2374</ele></trkpt><trkpt lat="41.507142" lon="70.026679"><ele>2372</ele></trkpt><trkpt lat="41.507278" lon="70.026499"><ele>2368</ele></trkpt><trkpt lat="41.507425" lon="70.026480"><ele>2365</ele></trkpt><trkpt lat="41.507572" lon="70.026020"><ele>2356</ele></trkpt><trkpt lat="41.507844" lon="70.025654"><ele>2349</ele></trkpt><trkpt lat="41.507933" lon="70.025232"><ele>2342</ele></trkpt><trkpt lat="41.508139" lon="70.025100"><ele>2337</ele></trkpt><trkpt lat="41.508321" lon="70.024782"><ele>2332</ele></trkpt><trkpt lat="41.508436" lon="70.024332"><ele>2316</ele></trkpt><trkpt lat="41.508575" lon="70.024187"><ele>2313</ele></trkpt><trkpt lat="41.508553" lon="70.024070"><ele>2312</ele></trkpt><trkpt lat="41.508660" lon="70.023768"><ele>2309</ele></trkpt><trkpt lat="41.508626" lon="70.023604"><ele>2307</ele></trkpt><trkpt lat="41.508793" lon="70.023284"><ele>2299</ele></trkpt><trkpt lat="41.508853" lon="70.022862"><ele>2288</ele></trkpt><trkpt lat="41.509108" lon="70.022584"><ele>2281</ele></trkpt><trkpt lat="41.509068" lon="70.022554"><ele>2280</ele></trkpt><trkpt lat="41.509150" lon="70.022380"><ele>2276</ele></trkpt><trkpt lat="41.509358" lon="70.022165"><ele>2271</ele></trkpt><trkpt lat="41.509475" lon="70.021882"><ele>2266</ele></trkpt><trkpt lat="41.509509" lon="70.021744"><ele>2264</ele></trkpt><trkpt lat="41.509415" lon="70.021627"><ele>2261</ele></trkpt><trkpt lat="41.509464" lon="70.021511"><ele>2260</ele></trkpt><trkpt lat="41.509398" lon="70.021124"><ele>2254</ele></trkpt><trkpt lat="41.509489" lon="70.020345"><ele>2241</ele></trkpt><trkpt lat="41.509641" lon="70.019916"><ele>2234</ele></trkpt><trkpt lat="41.509633" lon="70.019758"><ele>2231</ele></trkpt><trkpt lat="41.509990" lon="70.019251"><ele>2221</ele></trkpt><trkpt lat="41.509941" lon="70.018771"><ele>2212</ele></trkpt><trkpt lat="41.510040" lon="70.018543"><ele>2208</ele></trkpt><trkpt lat="41.510000" lon="70.018418"><ele>2205</ele></trkpt><trkpt lat="41.510152" lon="70.018132"><ele>2200</ele></trkpt><trkpt lat="41.510124" lon="70.018082"><ele>2199</ele></trkpt><trkpt lat="41.510198" lon="70.017921"><ele>2197</ele></trkpt><trkpt lat="41.510129" lon="70.017723"><ele>2193</ele></trkpt><trkpt lat="41.510222" lon="70.017602"><ele>2190</ele></trkpt><trkpt lat="41.510184" lon="70.017592"><ele>2190</ele></trkpt><trkpt lat="41.510234" lon="70.017459"><ele>2187</ele></trkpt><trkpt lat="41.510483" lon="70.017272"><ele>2182</ele></trkpt><trkpt lat="41.510558" lon="70.017332"><ele>2181</ele></trkpt><trkpt lat="41.510567" lon="70.017450"><ele>2179</ele></trkpt><trkpt lat="41.510625" lon="70.017379"><ele>2178</ele></trkpt><trkpt lat="41.510734" lon="70.017612"><ele>2173</ele></trkpt><trkpt lat="41.510684" lon="70.017844"><ele>2170</ele></trkpt><trkpt lat="41.510833" lon="70.017689"><ele>2166</ele></trkpt><trkpt lat="41.510858" lon="70.017552"><ele>2164</ele></trkpt><trkpt lat="41.510966" lon="70.017720"><ele>2153</ele></trkpt><trkpt lat="41.511062" lon="70.017487"><ele>2147</ele></trkpt><trkpt lat="41.511347" lon="70.017586"><ele>2139</ele></trkpt><trkpt lat="41.511577" lon="70.017542"><ele>2134</ele></trkpt><trkpt lat="41.511787" lon="70.017618"><ele>2127</ele></trkpt><trkpt lat="41.512262" lon="70.017630"><ele>2111</ele></trkpt><trkpt lat="41.512464" lon="70.017726"><ele>2102</ele></trkpt><trkpt lat="41.512563" lon="70.017610"><ele>2096</ele></trkpt><trkpt lat="41.512638" lon="70.017644"><ele>2091</ele></trkpt><trkpt lat="41.512719" lon="70.017457"><ele>2084</ele></trkpt><trkpt lat="41.512992" lon="70.017430"><ele>2064</ele></trkpt><trkpt lat="41.513104" lon="70.017537"><ele>2059</ele></trkpt><trkpt lat="41.513061" lon="70.017522"><ele>2058</ele></trkpt><trkpt lat="41.513434" lon="70.017519"><ele>2046</ele></trkpt><trkpt lat="41.513820" lon="70.017803"><ele>2031</ele></trkpt><trkpt lat="41.514263" lon="70.017851"><ele>2018</ele></trkpt><trkpt lat="41.514272" lon="70.017757"><ele>2016</ele></trkpt><trkpt lat="41.514498" lon="70.017732"><ele>2011</ele></trkpt><trkpt lat="41.514564" lon="70.017791"><ele>2009</ele></trkpt><trkpt lat="41.514767" lon="70.017771"><ele>2002</ele></trkpt><trkpt lat="41.514804" lon="70.017849"><ele>1999</ele></trkpt><trkpt lat="41.515171" lon="70.017867"><ele>1988</ele></trkpt><trkpt lat="41.515264" lon="70.018103"><ele>1976</ele></trkpt><trkpt lat="41.515555" lon="70.018156"><ele>1964</ele></trkpt><trkpt lat="41.515741" lon="70.018385"><ele>1957</ele></trkpt><trkpt lat="41.515843" lon="70.018357"><ele>1954</ele></trkpt><trkpt lat="41.515894" lon="70.018485"><ele>1949</ele></trkpt><trkpt lat="41.516059" lon="70.018494"><ele>1941</ele></trkpt><trkpt lat="41.516100" lon="70.018543"><ele>1936</ele></trkpt><trkpt lat="41.516055" lon="70.018601"><ele>1934</ele></trkpt><trkpt lat="41.516169" lon="70.018522"><ele>1927</ele></trkpt><trkpt lat="41.516124" lon="70.018527"><ele>1926</ele></trkpt><trkpt lat="41.516247" lon="70.018575"><ele>1921</ele></trkpt><trkpt lat="41.516352" lon="70.018510"><ele>1918</ele></trkpt><trkpt lat="41.516486" lon="70.018636"><ele>1913</ele></trkpt><trkpt lat="41.516537" lon="70.018590"><ele>1910</ele></trkpt><trkpt lat="41.516493" lon="70.018608"><ele>1909</ele></trkpt><trkpt lat="41.516561" lon="70.018712"><ele>1903</ele></trkpt><trkpt lat="41.516903" lon="70.018821"><ele>1886</ele></trkpt><trkpt lat="41.516940" lon="70.018729"><ele>1876</ele></trkpt><trkpt lat="41.517039" lon="70.018764"><ele>1870</ele></trkpt><trkpt lat="41.517017" lon="70.018822"><ele>1868</ele></trkpt><trkpt lat="41.517072" lon="70.018771"><ele>1867</ele></trkpt><trkpt lat="41.517130" lon="70.018797"><ele>1865</ele></trkpt><trkpt lat="41.517087" lon="70.018839"><ele>1863</ele></trkpt><trkpt lat="41.517151" lon="70.018832"><ele>1860</ele></trkpt><trkpt lat="41.517372" lon="70.018680"><ele>1848</ele></trkpt><trkpt lat="41.517638" lon="70.018710"><ele>1842</ele></trkpt><trkpt lat="41.517709" lon="70.018831"><ele>1840</ele></trkpt><trkpt lat="41.517726" lon="70.018760"><ele>1839</ele></trkpt><trkpt lat="41.517864" lon="70.018765"><ele>1836</ele></trkpt><trkpt lat="41.517925" lon="70.018614"><ele>1830</ele></trkpt><trkpt lat="41.518056" lon="70.018652"><ele>1823</ele></trkpt><trkpt lat="41.518058" lon="70.018736"><ele>1819</ele></trkpt><trkpt lat="41.518279" lon="70.018900"><ele>1805</ele></trkpt><trkpt lat="41.518440" lon="70.018911"><ele>1798</ele></trkpt><trkpt lat="41.518753" lon="70.018644"><ele>1788</ele></trkpt><trkpt lat="41.518825" lon="70.018788"><ele>1783</ele></trkpt></trkseg></trk></gpx>